openbareruimtenaam,huisnummer,huisletter,huisnummertoevoeging,postcode,woonplaatsnaam,gemeentenaam,provincienaam,typeadresseerbaarobject,longitude,latitude
Linieweg,10,,,1165AA,Halfweg,Haarlemmerliede en Spaarnwoude,Noord-Holland,VBO,4.696081,52.383114
Schalkwijkpolderweg,2,,,1165AC,Halfweg,Haarlemmerliede en Spaarnwoude,Noord-Holland,VBO,4.696154,52.381269
Liebrugweg,1,,,1165AD,Halfweg,Haarlemmerliede en Spaarnwoude,Noord-Holland,VBO,4.690663,52.383072
Liebrugweg,10,,,1165AD,Halfweg,Haarlemmerliede en Spaarnwoude,Noord-Holland,VBO,4.692087,52.380345
Remisepad,3,,,1165GD,Halfweg,Haarlemmerliede en Spaarnwoude,Noord-Holland,VBO,4.756403,52.379012
Margrietplantsoen,1,,,1165GE,Halfweg,Haarlemmerliede en Spaarnwoude,Noord-Holland,VBO,4.755322,52.383043
Margrietplantsoen,2,,,1165GE,Halfweg,Haarlemmerliede en Spaarnwoude,Noord-Holland,VBO,4.755323,52.382980
Margrietplantsoen,3,,,1165GE,Halfweg,Haarlemmerliede en Spaarnwoude,Noord-Holland,VBO,4.755309,52.382890
Margrietplantsoen,4,,,1165GE,Halfweg,Haarlemmerliede en Spaarnwoude,Noord-Holland,VBO,4.755296,52.382809
Binnenhof,1,,,1165GG,Halfweg,Haarlemmerliede en Spaarnwoude,Noord-Holland,VBO,4.753173,52.383337
Binnenhof,2,,,1165GG,Halfweg,Haarlemmerliede en Spaarnwoude,Noord-Holland,VBO,4.753145,52.383292
Binnenhof,3,,,1165GG,Halfweg,Haarlemmerliede en Spaarnwoude,Noord-Holland,VBO,4.753145,52.383247
Binnenhof,4,,,1165GG,Halfweg,Haarlemmerliede en Spaarnwoude,Noord-Holland,VBO,4.753176,52.383184
Binnenhof,5,,,1165GG,Halfweg,Haarlemmerliede en Spaarnwoude,Noord-Holland,VBO,4.753235,52.383148
Binnenhof,6,,,1165GG,Halfweg,Haarlemmerliede en Spaarnwoude,Noord-Holland,VBO,4.753294,52.383113
Binnenhof,7,,,1165GG,Halfweg,Haarlemmerliede en Spaarnwoude,Noord-Holland,VBO,4.753353,52.383095
Binnenhof,8,,,1165GG,Halfweg,Haarlemmerliede en Spaarnwoude,Noord-Holland,VBO,4.753427,52.383087
Binnenhof,9,,,1165GG,Halfweg,Haarlemmerliede en Spaarnwoude,Noord-Holland,VBO,4.753515,52.383087
Binnenhof,10,,,1165GG,Halfweg,Haarlemmerliede en Spaarnwoude,Noord-Holland,VBO,4.753603,52.383105
Binnenhof,11,,,1165GG,Halfweg,Haarlemmerliede en Spaarnwoude,Noord-Holland,VBO,4.753676,52.383133
Binnenhof,12,,,1165GG,Halfweg,Haarlemmerliede en Spaarnwoude,Noord-Holland,VBO,4.753719,52.383160
Binnenhof,13,,,1165GG,Halfweg,Haarlemmerliede en Spaarnwoude,Noord-Holland,VBO,4.753262,52.383319
Binnenhof,14,,,1165GG,Halfweg,Haarlemmerliede en Spaarnwoude,Noord-Holland,VBO,4.753248,52.383283
Binnenhof,15,,,1165GG,Halfweg,Haarlemmerliede en Spaarnwoude,Noord-Holland,VBO,4.753233,52.383247
Binnenhof,16,,,1165GG,Halfweg,Haarlemmerliede en Spaarnwoude,Noord-Holland,VBO,4.753249,52.383211
Binnenhof,17,,,1165GG,Halfweg,Haarlemmerliede en Spaarnwoude,Noord-Holland,VBO,4.753278,52.383185
Binnenhof,18,,,1165GG,Halfweg,Haarlemmerliede en Spaarnwoude,Noord-Holland,VBO,4.753323,52.383158
Binnenhof,19,,,1165GG,Halfweg,Haarlemmerliede en Spaarnwoude,Noord-Holland,VBO,4.753367,52.383140
Binnenhof,20,,,1165GG,Halfweg,Haarlemmerliede en Spaarnwoude,Noord-Holland,VBO,4.753411,52.383131
Binnenhof,21,,,1165GG,Halfweg,Haarlemmerliede en Spaarnwoude,Noord-Holland,VBO,4.753485,52.383132
Binnenhof,22,,,1165GG,Halfweg,Haarlemmerliede en Spaarnwoude,Noord-Holland,VBO,4.753529,52.383141
Binnenhof,23,,,1165GG,Halfweg,Haarlemmerliede en Spaarnwoude,Noord-Holland,VBO,4.753587,52.383150
Binnenhof,24,,,1165GG,Halfweg,Haarlemmerliede en Spaarnwoude,Noord-Holland,VBO,4.753631,52.383178
Remisepad,1,,,1165GH,Halfweg,Haarlemmerliede en Spaarnwoude,Noord-Holland,VBO,4.755085,52.380102
Remisepad,2,,,1165GH,Halfweg,Haarlemmerliede en Spaarnwoude,Noord-Holland,VBO,4.754956,52.379877
Remisepad,3,a,,1165GH,Halfweg,Haarlemmerliede en Spaarnwoude,Noord-Holland,LIG,4.756221,52.379226
Beatrixstraat,1,,,1165GJ,Halfweg,Haarlemmerliede en Spaarnwoude,Noord-Holland,VBO,4.754394,52.381159
Beatrixstraat,3,,,1165GJ,Halfweg,Haarlemmerliede en Spaarnwoude,Noord-Holland,VBO,4.754366,52.381087
Beatrixstraat,5,,,1165GJ,Halfweg,Haarlemmerliede en Spaarnwoude,Noord-Holland,VBO,4.754381,52.381033
Beatrixstraat,7,,,1165GJ,Halfweg,Haarlemmerliede en Spaarnwoude,Noord-Holland,VBO,4.754354,52.380916
Beatrixstraat,9,,,1165GJ,Halfweg,Haarlemmerliede en Spaarnwoude,Noord-Holland,VBO,4.754241,52.380556
Beatrixstraat,11,,,1165GJ,Halfweg,Haarlemmerliede en Spaarnwoude,Noord-Holland,VBO,4.754257,52.380511
Beatrixstraat,13,,,1165GJ,Halfweg,Haarlemmerliede en Spaarnwoude,Noord-Holland,VBO,4.754301,52.380485
Beatrixstraat,15,,,1165GJ,Halfweg,Haarlemmerliede en Spaarnwoude,Noord-Holland,VBO,4.754360,52.380458
Beatrixstraat,17,,,1165GJ,Halfweg,Haarlemmerliede en Spaarnwoude,Noord-Holland,VBO,4.754434,52.380441
Beatrixstraat,19,,,1165GJ,Halfweg,Haarlemmerliede en Spaarnwoude,Noord-Holland,VBO,4.754168,52.380547
Beatrixstraat,21,,,1165GJ,Halfweg,Haarlemmerliede en Spaarnwoude,Noord-Holland,VBO,4.754213,52.380502
Beatrixstraat,23,,,1165GJ,Halfweg,Haarlemmerliede en Spaarnwoude,Noord-Holland,VBO,4.754287,52.380467
Beatrixstraat,25,,,1165GJ,Halfweg,Haarlemmerliede en Spaarnwoude,Noord-Holland,VBO,4.754346,52.380431
Beatrixstraat,27,,,1165GJ,Halfweg,Haarlemmerliede en Spaarnwoude,Noord-Holland,VBO,4.754434,52.380414
Beatrixstraat,29,,,1165GJ,Halfweg,Haarlemmerliede en Spaarnwoude,Noord-Holland,VBO,4.754050,52.380546
Beatrixstraat,31,,,1165GJ,Halfweg,Haarlemmerliede en Spaarnwoude,Noord-Holland,VBO,4.754111,52.380448
Beatrixstraat,33,,,1165GJ,Halfweg,Haarlemmerliede en Spaarnwoude,Noord-Holland,VBO,4.754185,52.380403
Beatrixstraat,35,,,1165GJ,Halfweg,Haarlemmerliede en Spaarnwoude,Noord-Holland,VBO,4.754317,52.380377
Beatrixstraat,37,,,1165GJ,Halfweg,Haarlemmerliede en Spaarnwoude,Noord-Holland,VBO,4.754420,52.380351
Beatrixstraat,39,,,1165GJ,Halfweg,Haarlemmerliede en Spaarnwoude,Noord-Holland,VBO,4.753963,52.380510
Beatrixstraat,41,,,1165GJ,Halfweg,Haarlemmerliede en Spaarnwoude,Noord-Holland,VBO,4.754022,52.380447
Beatrixstraat,43,,,1165GJ,Halfweg,Haarlemmerliede en Spaarnwoude,Noord-Holland,VBO,4.754111,52.380394
Beatrixstraat,45,,,1165GJ,Halfweg,Haarlemmerliede en Spaarnwoude,Noord-Holland,VBO,4.754185,52.380358
Beatrixstraat,47,,,1165GJ,Halfweg,Haarlemmerliede en Spaarnwoude,Noord-Holland,VBO,4.754318,52.380332
Beatrixstraat,49,,,1165GJ,Halfweg,Haarlemmerliede en Spaarnwoude,Noord-Holland,VBO,4.753904,52.380519
Beatrixstraat,51,,,1165GJ,Halfweg,Haarlemmerliede en Spaarnwoude,Noord-Holland,VBO,4.753948,52.380492
Beatrixstraat,53,,,1165GJ,Halfweg,Haarlemmerliede en Spaarnwoude,Noord-Holland,VBO,4.753993,52.380456
Beatrixstraat,55,,,1165GJ,Halfweg,Haarlemmerliede en Spaarnwoude,Noord-Holland,VBO,4.754023,52.380429
Beatrixstraat,57,,,1165GJ,Halfweg,Haarlemmerliede en Spaarnwoude,Noord-Holland,VBO,4.754038,52.380402
Beatrixstraat,59,,,1165GJ,Halfweg,Haarlemmerliede en Spaarnwoude,Noord-Holland,VBO,4.754082,52.380376
Beatrixstraat,61,,,1165GJ,Halfweg,Haarlemmerliede en Spaarnwoude,Noord-Holland,VBO,4.754127,52.380358
Beatrixstraat,63,,,1165GJ,Halfweg,Haarlemmerliede en Spaarnwoude,Noord-Holland,VBO,4.754171,52.380340
Beatrixstraat,65,,,1165GJ,Halfweg,Haarlemmerliede en Spaarnwoude,Noord-Holland,VBO,4.754230,52.380323
Beatrixstraat,67,,,1165GJ,Halfweg,Haarlemmerliede en Spaarnwoude,Noord-Holland,VBO,4.754303,52.380314
Beatrixstraat,69,,,1165GJ,Halfweg,Haarlemmerliede en Spaarnwoude,Noord-Holland,VBO,4.753935,52.380420
Beatrixstraat,71,,,1165GJ,Halfweg,Haarlemmerliede en Spaarnwoude,Noord-Holland,VBO,4.754039,52.380349
Beatrixstraat,73,,,1165GJ,Halfweg,Haarlemmerliede en Spaarnwoude,Noord-Holland,VBO,4.754289,52.380260
Beatrixstraat,4,,,1165GK,Halfweg,Haarlemmerliede en Spaarnwoude,Noord-Holland,VBO,4.753825,52.380896
Beatrixstraat,6,,,1165GK,Halfweg,Haarlemmerliede en Spaarnwoude,Noord-Holland,VBO,4.753781,52.380868
Beatrixstraat,8,,,1165GK,Halfweg,Haarlemmerliede en Spaarnwoude,Noord-Holland,VBO,4.753738,52.380841
Beatrixstraat,10,,,1165GK,Halfweg,Haarlemmerliede en Spaarnwoude,Noord-Holland,VBO,4.753679,52.380814
Beatrixstraat,12,,,1165GK,Halfweg,Haarlemmerliede en Spaarnwoude,Noord-Holland,VBO,4.753665,52.380778
Beatrixstraat,14,,,1165GK,Halfweg,Haarlemmerliede en Spaarnwoude,Noord-Holland,VBO,4.753607,52.380751
Beatrixstraat,16,,,1165GK,Halfweg,Haarlemmerliede en Spaarnwoude,Noord-Holland,VBO,4.753548,52.380723
Beatrixstraat,18,,,1165GK,Halfweg,Haarlemmerliede en Spaarnwoude,Noord-Holland,VBO,4.753520,52.380696
Beatrixstraat,20,,,1165GK,Halfweg,Haarlemmerliede en Spaarnwoude,Noord-Holland,VBO,4.753870,52.380869
Beatrixstraat,22,,,1165GK,Halfweg,Haarlemmerliede en Spaarnwoude,Noord-Holland,VBO,4.753826,52.380860
Beatrixstraat,24,,,1165GK,Halfweg,Haarlemmerliede en Spaarnwoude,Noord-Holland,VBO,4.753782,52.380824
Beatrixstraat,26,,,1165GK,Halfweg,Haarlemmerliede en Spaarnwoude,Noord-Holland,VBO,4.753738,52.380796
Beatrixstraat,28,,,1165GK,Halfweg,Haarlemmerliede en Spaarnwoude,Noord-Holland,VBO,4.753680,52.380760
Beatrixstraat,30,,,1165GK,Halfweg,Haarlemmerliede en Spaarnwoude,Noord-Holland,VBO,4.753636,52.380733
Beatrixstraat,32,,,1165GK,Halfweg,Haarlemmerliede en Spaarnwoude,Noord-Holland,VBO,4.753593,52.380706
Beatrixstraat,34,,,1165GK,Halfweg,Haarlemmerliede en Spaarnwoude,Noord-Holland,VBO,4.753564,52.380652
Oranje Nassaustraat,7,,,1165GL,Halfweg,Haarlemmerliede en Spaarnwoude,Noord-Holland,VBO,4.754790,52.383238
Oranje Nassaustraat,11,,,1165GL,Halfweg,Haarlemmerliede en Spaarnwoude,Noord-Holland,VBO,4.754749,52.383076
Oranje Nassaustraat,13,,,1165GL,Halfweg,Haarlemmerliede en Spaarnwoude,Noord-Holland,VBO,4.754749,52.383022
Oranje Nassaustraat,15,,,1165GL,Halfweg,Haarlemmerliede en Spaarnwoude,Noord-Holland,VBO,4.754721,52.382959
Oranje Nassaustraat,17,,,1165GL,Halfweg,Haarlemmerliede en Spaarnwoude,Noord-Holland,VBO,4.754736,52.382914
Oranje Nassaustraat,19,,,1165GL,Halfweg,Haarlemmerliede en Spaarnwoude,Noord-Holland,VBO,4.755348,52.383259
Oranje Nassaustraat,21,,,1165GL,Halfweg,Haarlemmerliede en Spaarnwoude,Noord-Holland,VBO,4.755185,52.383390
Oranje Nassaustraat,25,,,1165GL,Halfweg,Haarlemmerliede en Spaarnwoude,Noord-Holland,VBO,4.754517,52.381789
Oranje Nassaustraat,27,,,1165GL,Halfweg,Haarlemmerliede en Spaarnwoude,Noord-Holland,VBO,4.754504,52.381717
Oranje Nassaustraat,29,,,1165GL,Halfweg,Haarlemmerliede en Spaarnwoude,Noord-Holland,VBO,4.754476,52.381600
Oranje Nassaustraat,31,,,1165GL,Halfweg,Haarlemmerliede en Spaarnwoude,Noord-Holland,VBO,4.754462,52.381555
Oranje Nassaustraat,33,,,1165GL,Halfweg,Haarlemmerliede en Spaarnwoude,Noord-Holland,VBO,4.754433,52.381492
Oranje Nassaustraat,35,,,1165GL,Halfweg,Haarlemmerliede en Spaarnwoude,Noord-Holland,VBO,4.754420,52.381429
Oranje Nassaustraat,37,,,1165GL,Halfweg,Haarlemmerliede en Spaarnwoude,Noord-Holland,VBO,4.754450,52.381393
Oranje Nassaustraat,39,,,1165GL,Halfweg,Haarlemmerliede en Spaarnwoude,Noord-Holland,VBO,4.754436,52.381339
Oranje Nassaustraat,41,,,1165GL,Halfweg,Haarlemmerliede en Spaarnwoude,Noord-Holland,VBO,4.754378,52.381267
Oranje Nassaustraat,2,a,,1165GM,Halfweg,Haarlemmerliede en Spaarnwoude,Noord-Holland,VBO,4.754170,52.383459
Oranje Nassaustraat,2,,,1165GM,Halfweg,Haarlemmerliede en Spaarnwoude,Noord-Holland,VBO,4.754215,52.383405
Oranje Nassaustraat,4,,,1165GM,Halfweg,Haarlemmerliede en Spaarnwoude,Noord-Holland,VBO,4.754304,52.383370
Oranje Nassaustraat,6,,,1165GM,Halfweg,Haarlemmerliede en Spaarnwoude,Noord-Holland,VBO,4.754275,52.383325
Oranje Nassaustraat,8,,,1165GM,Halfweg,Haarlemmerliede en Spaarnwoude,Noord-Holland,VBO,4.754201,52.383342
Oranje Nassaustraat,10,,,1165GM,Halfweg,Haarlemmerliede en Spaarnwoude,Noord-Holland,VBO,4.754188,52.383279
Oranje Nassaustraat,12,,,1165GM,Halfweg,Haarlemmerliede en Spaarnwoude,Noord-Holland,VBO,4.754261,52.383253
Oranje Nassaustraat,14,,,1165GM,Halfweg,Haarlemmerliede en Spaarnwoude,Noord-Holland,VBO,4.754174,52.383207
Oranje Nassaustraat,16,,,1165GM,Halfweg,Haarlemmerliede en Spaarnwoude,Noord-Holland,VBO,4.754248,52.383190
Oranje Nassaustraat,18,,,1165GM,Halfweg,Haarlemmerliede en Spaarnwoude,Noord-Holland,VBO,4.754189,52.383100
Oranje Nassaustraat,20,,,1165GM,Halfweg,Haarlemmerliede en Spaarnwoude,Noord-Holland,VBO,4.754235,52.383082
Oranje Nassaustraat,22,,,1165GM,Halfweg,Haarlemmerliede en Spaarnwoude,Noord-Holland,VBO,4.754147,52.383045
Oranje Nassaustraat,24,,,1165GM,Halfweg,Haarlemmerliede en Spaarnwoude,Noord-Holland,VBO,4.754221,52.383019
Oranje Nassaustraat,26,,,1165GM,Halfweg,Haarlemmerliede en Spaarnwoude,Noord-Holland,VBO,4.754133,52.382982
Oranje Nassaustraat,28,,,1165GM,Halfweg,Haarlemmerliede en Spaarnwoude,Noord-Holland,VBO,4.754222,52.382956
Oranje Nassaustraat,30,,,1165GM,Halfweg,Haarlemmerliede en Spaarnwoude,Noord-Holland,VBO,4.754223,52.382893
Oranje Nassaustraat,32,,,1165GM,Halfweg,Haarlemmerliede en Spaarnwoude,Noord-Holland,VBO,4.754193,52.382893
Oranje Nassaustraat,34,,,1165GN,Halfweg,Haarlemmerliede en Spaarnwoude,Noord-Holland,VBO,4.754194,52.382812
Oranje Nassaustraat,36,,,1165GN,Halfweg,Haarlemmerliede en Spaarnwoude,Noord-Holland,VBO,4.754195,52.382776
Oranje Nassaustraat,38,,,1165GN,Halfweg,Haarlemmerliede en Spaarnwoude,Noord-Holland,VBO,4.754196,52.382722
Oranje Nassaustraat,40,,,1165GN,Halfweg,Haarlemmerliede en Spaarnwoude,Noord-Holland,VBO,4.754115,52.382743
Oranje Nassaustraat,42,,,1165GN,Halfweg,Haarlemmerliede en Spaarnwoude,Noord-Holland,VBO,4.754181,52.382686
Oranje Nassaustraat,44,,,1165GN,Halfweg,Haarlemmerliede en Spaarnwoude,Noord-Holland,VBO,4.754079,52.382659
Oranje Nassaustraat,46,,,1165GN,Halfweg,Haarlemmerliede en Spaarnwoude,Noord-Holland,VBO,4.754168,52.382623
Oranje Nassaustraat,48,,,1165GN,Halfweg,Haarlemmerliede en Spaarnwoude,Noord-Holland,VBO,4.754153,52.382596
Oranje Nassaustraat,50,,,1165GN,Halfweg,Haarlemmerliede en Spaarnwoude,Noord-Holland,VBO,4.754124,52.382560
Oranje Nassaustraat,52,,,1165GN,Halfweg,Haarlemmerliede en Spaarnwoude,Noord-Holland,VBO,4.754125,52.382524
Oranje Nassaustraat,54,,,1165GN,Halfweg,Haarlemmerliede en Spaarnwoude,Noord-Holland,VBO,4.754111,52.382497
Oranje Nassaustraat,56,,,1165GN,Halfweg,Haarlemmerliede en Spaarnwoude,Noord-Holland,VBO,4.754111,52.382470
Oranje Nassaustraat,58,,,1165GN,Halfweg,Haarlemmerliede en Spaarnwoude,Noord-Holland,VBO,4.754112,52.382407
Oranje Nassaustraat,60,,,1165GN,Halfweg,Haarlemmerliede en Spaarnwoude,Noord-Holland,VBO,4.754097,52.382398
Oranje Nassaustraat,62,,,1165GN,Halfweg,Haarlemmerliede en Spaarnwoude,Noord-Holland,VBO,4.754099,52.382290
Oranje Nassaustraat,64,,,1165GN,Halfweg,Haarlemmerliede en Spaarnwoude,Noord-Holland,VBO,4.753886,52.381795
Oranje Nassaustraat,66,,,1165GN,Halfweg,Haarlemmerliede en Spaarnwoude,Noord-Holland,VBO,4.753872,52.381732
Dr Schaepmanstraat,3,,,1165GP,Halfweg,Haarlemmerliede en Spaarnwoude,Noord-Holland,VBO,4.755473,52.381686
Dr Schaepmanstraat,4,,,1165GP,Halfweg,Haarlemmerliede en Spaarnwoude,Noord-Holland,VBO,4.754899,52.381782
Dr Schaepmanstraat,5,,,1165GP,Halfweg,Haarlemmerliede en Spaarnwoude,Noord-Holland,VBO,4.756108,52.381465
Dr Schaepmanstraat,6,,,1165GP,Halfweg,Haarlemmerliede en Spaarnwoude,Noord-Holland,VBO,4.754930,52.381719
Dr Schaepmanstraat,8,,,1165GP,Halfweg,Haarlemmerliede en Spaarnwoude,Noord-Holland,VBO,4.754960,52.381666
Dr Schaepmanstraat,10,,,1165GP,Halfweg,Haarlemmerliede en Spaarnwoude,Noord-Holland,VBO,4.754961,52.381603
Dr Schaepmanstraat,12,,,1165GP,Halfweg,Haarlemmerliede en Spaarnwoude,Noord-Holland,VBO,4.754991,52.381549
Dr Schaepmanstraat,14,,,1165GP,Halfweg,Haarlemmerliede en Spaarnwoude,Noord-Holland,VBO,4.755006,52.381504
Dr Schaepmanstraat,16,,,1165GP,Halfweg,Haarlemmerliede en Spaarnwoude,Noord-Holland,VBO,4.754846,52.381386
Dr Schaepmanstraat,18,,,1165GP,Halfweg,Haarlemmerliede en Spaarnwoude,Noord-Holland,VBO,4.754848,52.381234
Minister Cort van der Lindenstraat,1,,,1165GR,Halfweg,Haarlemmerliede en Spaarnwoude,Noord-Holland,VBO,4.756581,52.383364
Minister Cort van der Lindenstraat,2,,,1165GR,Halfweg,Haarlemmerliede en Spaarnwoude,Noord-Holland,VBO,4.756079,52.383550
Minister Cort van der Lindenstraat,3,,,1165GR,Halfweg,Haarlemmerliede en Spaarnwoude,Noord-Holland,VBO,4.756581,52.383319
Minister Cort van der Lindenstraat,4,,,1165GR,Halfweg,Haarlemmerliede en Spaarnwoude,Noord-Holland,VBO,4.756081,52.383379
Minister Cort van der Lindenstraat,5,,,1165GR,Halfweg,Haarlemmerliede en Spaarnwoude,Noord-Holland,VBO,4.756583,52.383211
Minister Cort van der Lindenstraat,6,,,1165GR,Halfweg,Haarlemmerliede en Spaarnwoude,Noord-Holland,VBO,4.756082,52.383316
Minister Cort van der Lindenstraat,7,,,1165GR,Halfweg,Haarlemmerliede en Spaarnwoude,Noord-Holland,VBO,4.756584,52.383139
Minister Cort van der Lindenstraat,8,,,1165GR,Halfweg,Haarlemmerliede en Spaarnwoude,Noord-Holland,VBO,4.756039,52.383208
Minister Cort van der Lindenstraat,9,,,1165GR,Halfweg,Haarlemmerliede en Spaarnwoude,Noord-Holland,VBO,4.756587,52.382942
Minister Cort van der Lindenstraat,10,,,1165GR,Halfweg,Haarlemmerliede en Spaarnwoude,Noord-Holland,VBO,4.756055,52.383128
Minister Cort van der Lindenstraat,11,,,1165GR,Halfweg,Haarlemmerliede en Spaarnwoude,Noord-Holland,VBO,4.756558,52.382861
Minister Cort van der Lindenstraat,12,,,1165GR,Halfweg,Haarlemmerliede en Spaarnwoude,Noord-Holland,VBO,4.756071,52.383020
Minister Cort van der Lindenstraat,13,,,1165GR,Halfweg,Haarlemmerliede en Spaarnwoude,Noord-Holland,VBO,4.756574,52.382807
Minister Cort van der Lindenstraat,14,,,1165GR,Halfweg,Haarlemmerliede en Spaarnwoude,Noord-Holland,VBO,4.756072,52.382957
Minister Cort van der Lindenstraat,15,,,1165GR,Halfweg,Haarlemmerliede en Spaarnwoude,Noord-Holland,VBO,4.756560,52.382753
Minister Cort van der Lindenstraat,16,,,1165GR,Halfweg,Haarlemmerliede en Spaarnwoude,Noord-Holland,VBO,4.756044,52.382849
Minister Cort van der Lindenstraat,17,,,1165GR,Halfweg,Haarlemmerliede en Spaarnwoude,Noord-Holland,VBO,4.756590,52.382726
Minister Cort van der Lindenstraat,18,a,,1165GR,Halfweg,Haarlemmerliede en Spaarnwoude,Noord-Holland,VBO,4.756148,52.382787
Minister Cort van der Lindenstraat,18,,,1165GR,Halfweg,Haarlemmerliede en Spaarnwoude,Noord-Holland,VBO,4.756119,52.382804
Minister Cort van der Lindenstraat,20,,,1165GR,Halfweg,Haarlemmerliede en Spaarnwoude,Noord-Holland,VBO,4.756121,52.382661
Minister Cort van der Lindenstraat,22,,,1165GR,Halfweg,Haarlemmerliede en Spaarnwoude,Noord-Holland,VBO,4.756121,52.382607
Julianastraat,3,,,1165GS,Halfweg,Haarlemmerliede en Spaarnwoude,Noord-Holland,VBO,4.750644,52.382505
Julianastraat,5,,,1165GS,Halfweg,Haarlemmerliede en Spaarnwoude,Noord-Holland,VBO,4.750732,52.382515
Julianastraat,7,,,1165GS,Halfweg,Haarlemmerliede en Spaarnwoude,Noord-Holland,VBO,4.752469,52.382255
Julianastraat,9,,,1165GS,Halfweg,Haarlemmerliede en Spaarnwoude,Noord-Holland,VBO,4.752557,52.382246
Julianastraat,11,,,1165GS,Halfweg,Haarlemmerliede en Spaarnwoude,Noord-Holland,VBO,4.752645,52.382247
Julianastraat,13,,,1165GS,Halfweg,Haarlemmerliede en Spaarnwoude,Noord-Holland,VBO,4.752734,52.382238
Julianastraat,15,a,,1165GS,Halfweg,Haarlemmerliede en Spaarnwoude,Noord-Holland,VBO,4.753449,52.382565
Julianastraat,15,b,,1165GS,Halfweg,Haarlemmerliede en Spaarnwoude,Noord-Holland,VBO,4.753508,52.382557
Julianastraat,15,c,,1165GS,Halfweg,Haarlemmerliede en Spaarnwoude,Noord-Holland,VBO,4.753552,52.382548
Julianastraat,15,d,,1165GS,Halfweg,Haarlemmerliede en Spaarnwoude,Noord-Holland,VBO,4.753596,52.382548
Julianastraat,15,e,,1165GS,Halfweg,Haarlemmerliede en Spaarnwoude,Noord-Holland,VBO,4.753655,52.382540
Julianastraat,15,f,,1165GS,Halfweg,Haarlemmerliede en Spaarnwoude,Noord-Holland,VBO,4.753699,52.382540
Julianastraat,15,g,,1165GS,Halfweg,Haarlemmerliede en Spaarnwoude,Noord-Holland,VBO,4.753743,52.382531
Julianastraat,15,h,,1165GS,Halfweg,Haarlemmerliede en Spaarnwoude,Noord-Holland,VBO,4.753787,52.382531
Julianastraat,15,i,,1165GS,Halfweg,Haarlemmerliede en Spaarnwoude,Noord-Holland,VBO,4.753481,52.382377
Julianastraat,15,j,,1165GS,Halfweg,Haarlemmerliede en Spaarnwoude,Noord-Holland,VBO,4.753525,52.382377
Julianastraat,15,k,,1165GS,Halfweg,Haarlemmerliede en Spaarnwoude,Noord-Holland,VBO,4.753569,52.382377
Julianastraat,15,l,,1165GS,Halfweg,Haarlemmerliede en Spaarnwoude,Noord-Holland,VBO,4.753613,52.382387
Julianastraat,15,m,,1165GS,Halfweg,Haarlemmerliede en Spaarnwoude,Noord-Holland,VBO,4.753657,52.382378
Julianastraat,15,n,,1165GS,Halfweg,Haarlemmerliede en Spaarnwoude,Noord-Holland,VBO,4.753716,52.382387
Julianastraat,15,,,1165GS,Halfweg,Haarlemmerliede en Spaarnwoude,Noord-Holland,VBO,4.753498,52.382233
Julianastraat,17,,,1165GS,Halfweg,Haarlemmerliede en Spaarnwoude,Noord-Holland,VBO,4.753586,52.382234
Julianastraat,19,,,1165GS,Halfweg,Haarlemmerliede en Spaarnwoude,Noord-Holland,VBO,4.753674,52.382234
Julianastraat,25,a,,1165GS,Halfweg,Haarlemmerliede en Spaarnwoude,Noord-Holland,VBO,4.755489,52.382684
Julianastraat,25,b,,1165GS,Halfweg,Haarlemmerliede en Spaarnwoude,Noord-Holland,VBO,4.755547,52.382684
Julianastraat,25,c,,1165GS,Halfweg,Haarlemmerliede en Spaarnwoude,Noord-Holland,VBO,4.755591,52.382685
Julianastraat,25,d,,1165GS,Halfweg,Haarlemmerliede en Spaarnwoude,Noord-Holland,VBO,4.755636,52.382685
Julianastraat,25,e,,1165GS,Halfweg,Haarlemmerliede en Spaarnwoude,Noord-Holland,VBO,4.755680,52.382685
Julianastraat,25,f,,1165GS,Halfweg,Haarlemmerliede en Spaarnwoude,Noord-Holland,VBO,4.755724,52.382685
Julianastraat,25,g,,1165GS,Halfweg,Haarlemmerliede en Spaarnwoude,Noord-Holland,VBO,4.755768,52.382686
Julianastraat,25,h,,1165GS,Halfweg,Haarlemmerliede en Spaarnwoude,Noord-Holland,VBO,4.755812,52.382686
Julianastraat,25,i,,1165GS,Halfweg,Haarlemmerliede en Spaarnwoude,Noord-Holland,VBO,4.755856,52.382686
Julianastraat,25,j,,1165GS,Halfweg,Haarlemmerliede en Spaarnwoude,Noord-Holland,VBO,4.755900,52.382686
Julianastraat,25,,,1165GS,Halfweg,Haarlemmerliede en Spaarnwoude,Noord-Holland,VBO,4.755757,52.382407
Julianastraat,27,,,1165GS,Halfweg,Haarlemmerliede en Spaarnwoude,Noord-Holland,VBO,4.755815,52.382443
Julianastraat,29,,,1165GS,Halfweg,Haarlemmerliede en Spaarnwoude,Noord-Holland,VBO,4.755903,52.382462
Julianastraat,31,,,1165GS,Halfweg,Haarlemmerliede en Spaarnwoude,Noord-Holland,VBO,4.756021,52.382462
Julianastraat,33,,,1165GS,Halfweg,Haarlemmerliede en Spaarnwoude,Noord-Holland,VBO,4.756108,52.382481
Julianastraat,35,,,1165GT,Halfweg,Haarlemmerliede en Spaarnwoude,Noord-Holland,VBO,4.756783,52.382583
Julianastraat,37,,,1165GT,Halfweg,Haarlemmerliede en Spaarnwoude,Noord-Holland,VBO,4.756871,52.382593
Julianastraat,39,,,1165GT,Halfweg,Haarlemmerliede en Spaarnwoude,Noord-Holland,VBO,4.756973,52.382593
Julianastraat,41,,,1165GT,Halfweg,Haarlemmerliede en Spaarnwoude,Noord-Holland,VBO,4.757149,52.382621
Julianastraat,43,,,1165GT,Halfweg,Haarlemmerliede en Spaarnwoude,Noord-Holland,VBO,4.757237,52.382622
Julianastraat,45,,,1165GT,Halfweg,Haarlemmerliede en Spaarnwoude,Noord-Holland,VBO,4.757325,52.382640
Julianastraat,47,,,1165GT,Halfweg,Haarlemmerliede en Spaarnwoude,Noord-Holland,VBO,4.757413,52.382640
Julianastraat,49,,,1165GT,Halfweg,Haarlemmerliede en Spaarnwoude,Noord-Holland,VBO,4.757501,52.382650
Julianastraat,51,,,1165GT,Halfweg,Haarlemmerliede en Spaarnwoude,Noord-Holland,VBO,4.757677,52.382669
Julianastraat,53,,,1165GT,Halfweg,Haarlemmerliede en Spaarnwoude,Noord-Holland,VBO,4.757780,52.382678
Julianastraat,55,,,1165GT,Halfweg,Haarlemmerliede en Spaarnwoude,Noord-Holland,VBO,4.757883,52.382688
Julianastraat,57,,,1165GT,Halfweg,Haarlemmerliede en Spaarnwoude,Noord-Holland,VBO,4.757956,52.382697
Julianastraat,59,,,1165GT,Halfweg,Haarlemmerliede en Spaarnwoude,Noord-Holland,VBO,4.758044,52.382698
Julianastraat,2,a,,1165GV,Halfweg,Haarlemmerliede en Spaarnwoude,Noord-Holland,VBO,4.752560,52.382057
Julianastraat,2,,,1165GV,Halfweg,Haarlemmerliede en Spaarnwoude,Noord-Holland,VBO,4.752472,52.382066
Julianastraat,4,,,1165GV,Halfweg,Haarlemmerliede en Spaarnwoude,Noord-Holland,VBO,4.752648,52.382049
Julianastraat,6,,,1165GV,Halfweg,Haarlemmerliede en Spaarnwoude,Noord-Holland,VBO,4.753119,52.382024
Julianastraat,8,,,1165GV,Halfweg,Haarlemmerliede en Spaarnwoude,Noord-Holland,VBO,4.753192,52.382034
Julianastraat,10,,,1165GV,Halfweg,Haarlemmerliede en Spaarnwoude,Noord-Holland,VBO,4.753280,52.382034
Julianastraat,12,,,1165GV,Halfweg,Haarlemmerliede en Spaarnwoude,Noord-Holland,VBO,4.753427,52.382008
Julianastraat,14,,,1165GV,Halfweg,Haarlemmerliede en Spaarnwoude,Noord-Holland,VBO,4.753545,52.382018
Julianastraat,16,,,1165GV,Halfweg,Haarlemmerliede en Spaarnwoude,Noord-Holland,VBO,4.753706,52.382019
Julianastraat,18,,,1165GV,Halfweg,Haarlemmerliede en Spaarnwoude,Noord-Holland,VBO,4.753897,52.382029
Julianastraat,20,a,,1165GV,Halfweg,Haarlemmerliede en Spaarnwoude,Noord-Holland,VBO,4.754720,52.381970
Julianastraat,20,,,1165GV,Halfweg,Haarlemmerliede en Spaarnwoude,Noord-Holland,VBO,4.754543,52.382032
Julianastraat,22,,,1165GW,Halfweg,Haarlemmerliede en Spaarnwoude,Noord-Holland,VBO,4.754837,52.382043
Julianastraat,24,,,1165GW,Halfweg,Haarlemmerliede en Spaarnwoude,Noord-Holland,VBO,4.755350,52.382090
Julianastraat,26,,,1165GW,Halfweg,Haarlemmerliede en Spaarnwoude,Noord-Holland,VBO,4.755409,52.382073
Julianastraat,28,,,1165GW,Halfweg,Haarlemmerliede en Spaarnwoude,Noord-Holland,VBO,4.755468,52.382073
Julianastraat,30,,,1165GW,Halfweg,Haarlemmerliede en Spaarnwoude,Noord-Holland,VBO,4.755526,52.382091
Julianastraat,32,,,1165GW,Halfweg,Haarlemmerliede en Spaarnwoude,Noord-Holland,VBO,4.755585,52.382100
Julianastraat,34,,,1165GW,Halfweg,Haarlemmerliede en Spaarnwoude,Noord-Holland,VBO,4.755614,52.382146
Julianastraat,36,,,1165GW,Halfweg,Haarlemmerliede en Spaarnwoude,Noord-Holland,VBO,4.755672,52.382155
Julianastraat,38,,,1165GW,Halfweg,Haarlemmerliede en Spaarnwoude,Noord-Holland,VBO,4.755716,52.382173
Julianastraat,40,,,1165GW,Halfweg,Haarlemmerliede en Spaarnwoude,Noord-Holland,VBO,4.755790,52.382182
Julianastraat,42,,,1165GW,Halfweg,Haarlemmerliede en Spaarnwoude,Noord-Holland,VBO,4.755848,52.382192
Julianastraat,44,a,,1165GW,Halfweg,Haarlemmerliede en Spaarnwoude,Noord-Holland,VBO,4.756171,52.382211
Julianastraat,44,b,,1165GW,Halfweg,Haarlemmerliede en Spaarnwoude,Noord-Holland,VBO,4.756303,52.382212
Julianastraat,44,c,,1165GW,Halfweg,Haarlemmerliede en Spaarnwoude,Noord-Holland,VBO,4.756421,52.382204
Julianastraat,44,,,1165GW,Halfweg,Haarlemmerliede en Spaarnwoude,Noord-Holland,VBO,4.756068,52.382220
Julianastraat,46,,,1165GW,Halfweg,Haarlemmerliede en Spaarnwoude,Noord-Holland,VBO,4.757138,52.382369
Julianastraat,48,,,1165GW,Halfweg,Haarlemmerliede en Spaarnwoude,Noord-Holland,VBO,4.757211,52.382379
Julianastraat,50,,,1165GW,Halfweg,Haarlemmerliede en Spaarnwoude,Noord-Holland,VBO,4.757314,52.382397
Julianastraat,52,,,1165GW,Halfweg,Haarlemmerliede en Spaarnwoude,Noord-Holland,VBO,4.757387,52.382398
Julianastraat,54,,,1165GW,Halfweg,Haarlemmerliede en Spaarnwoude,Noord-Holland,VBO,4.757475,52.382407
Julianastraat,56,,,1165GW,Halfweg,Haarlemmerliede en Spaarnwoude,Noord-Holland,VBO,4.757666,52.382426
Julianastraat,58,,,1165GW,Halfweg,Haarlemmerliede en Spaarnwoude,Noord-Holland,VBO,4.757769,52.382436
Julianastraat,60,,,1165GW,Halfweg,Haarlemmerliede en Spaarnwoude,Noord-Holland,VBO,4.757857,52.382436
Julianastraat,62,,,1165GW,Halfweg,Haarlemmerliede en Spaarnwoude,Noord-Holland,VBO,4.758091,52.382482
Polanenstraat,1,,,1165GX,Halfweg,Haarlemmerliede en Spaarnwoude,Noord-Holland,VBO,4.756804,52.383167
Polanenstraat,3,,,1165GX,Halfweg,Haarlemmerliede en Spaarnwoude,Noord-Holland,VBO,4.756892,52.383168
Polanenstraat,5,,,1165GX,Halfweg,Haarlemmerliede en Spaarnwoude,Noord-Holland,VBO,4.757066,52.383295
Polanenstraat,7,,,1165GX,Halfweg,Haarlemmerliede en Spaarnwoude,Noord-Holland,VBO,4.757154,52.383295
Polanenstraat,9,,,1165GX,Halfweg,Haarlemmerliede en Spaarnwoude,Noord-Holland,VBO,4.757257,52.383296
Polanenstraat,11,,,1165GX,Halfweg,Haarlemmerliede en Spaarnwoude,Noord-Holland,VBO,4.757331,52.383296
Polanenstraat,13,,,1165GX,Halfweg,Haarlemmerliede en Spaarnwoude,Noord-Holland,VBO,4.757404,52.383297
Polanenstraat,15,,,1165GX,Halfweg,Haarlemmerliede en Spaarnwoude,Noord-Holland,VBO,4.757566,52.383297
Polanenstraat,17,,,1165GX,Halfweg,Haarlemmerliede en Spaarnwoude,Noord-Holland,VBO,4.757654,52.383298
Polanenstraat,19,,,1165GX,Halfweg,Haarlemmerliede en Spaarnwoude,Noord-Holland,VBO,4.757742,52.383298
Polanenstraat,21,,,1165GX,Halfweg,Haarlemmerliede en Spaarnwoude,Noord-Holland,VBO,4.757830,52.383299
Polanenstraat,23,,,1165GX,Halfweg,Haarlemmerliede en Spaarnwoude,Noord-Holland,VBO,4.757947,52.383299
Polanenstraat,25,,,1165GX,Halfweg,Haarlemmerliede en Spaarnwoude,Noord-Holland,VBO,4.758094,52.383300
Polanenstraat,27,,,1165GX,Halfweg,Haarlemmerliede en Spaarnwoude,Noord-Holland,VBO,4.758182,52.383301
Polanenstraat,29,,,1165GX,Halfweg,Haarlemmerliede en Spaarnwoude,Noord-Holland,VBO,4.758271,52.383301
Polanenstraat,2,,,1165GZ,Halfweg,Haarlemmerliede en Spaarnwoude,Noord-Holland,VBO,4.756852,52.382898
Polanenstraat,4,,,1165GZ,Halfweg,Haarlemmerliede en Spaarnwoude,Noord-Holland,VBO,4.756954,52.382917
Polanenstraat,6,,,1165GZ,Halfweg,Haarlemmerliede en Spaarnwoude,Noord-Holland,VBO,4.757057,52.382926
Polanenstraat,8,,,1165GZ,Halfweg,Haarlemmerliede en Spaarnwoude,Noord-Holland,VBO,4.757233,52.382936
Polanenstraat,10,,,1165GZ,Halfweg,Haarlemmerliede en Spaarnwoude,Noord-Holland,VBO,4.757336,52.382946
Polanenstraat,12,,,1165GZ,Halfweg,Haarlemmerliede en Spaarnwoude,Noord-Holland,VBO,4.757424,52.382955
Polanenstraat,14,,,1165GZ,Halfweg,Haarlemmerliede en Spaarnwoude,Noord-Holland,VBO,4.757512,52.382965
Polanenstraat,16,,,1165GZ,Halfweg,Haarlemmerliede en Spaarnwoude,Noord-Holland,VBO,4.757600,52.382974
Polanenstraat,18,,,1165GZ,Halfweg,Haarlemmerliede en Spaarnwoude,Noord-Holland,VBO,4.757790,52.382984
Polanenstraat,20,,,1165GZ,Halfweg,Haarlemmerliede en Spaarnwoude,Noord-Holland,VBO,4.757893,52.382994
Polanenstraat,22,,,1165GZ,Halfweg,Haarlemmerliede en Spaarnwoude,Noord-Holland,VBO,4.757981,52.382994
Polanenstraat,24,,,1165GZ,Halfweg,Haarlemmerliede en Spaarnwoude,Noord-Holland,VBO,4.758069,52.383003
Polanenstraat,26,,,1165GZ,Halfweg,Haarlemmerliede en Spaarnwoude,Noord-Holland,VBO,4.758157,52.383013
Wilhelminastraat,1,a,,1165HA,Halfweg,Haarlemmerliede en Spaarnwoude,Noord-Holland,VBO,4.751340,52.383138
Wilhelminastraat,1,,,1165HA,Halfweg,Haarlemmerliede en Spaarnwoude,Noord-Holland,VBO,4.751716,52.383554
Wilhelminastraat,2,,,1165HA,Halfweg,Haarlemmerliede en Spaarnwoude,Noord-Holland,VBO,4.751187,52.383587
Wilhelminastraat,3,,,1165HA,Halfweg,Haarlemmerliede en Spaarnwoude,Noord-Holland,VBO,4.751327,52.383030
Wilhelminastraat,4,,,1165HA,Halfweg,Haarlemmerliede en Spaarnwoude,Noord-Holland,VBO,4.751173,52.383542
Wilhelminastraat,5,,,1165HA,Halfweg,Haarlemmerliede en Spaarnwoude,Noord-Holland,VBO,4.751285,52.382904
Wilhelminastraat,6,,,1165HA,Halfweg,Haarlemmerliede en Spaarnwoude,Noord-Holland,VBO,4.751173,52.383497
Wilhelminastraat,7,,,1165HA,Halfweg,Haarlemmerliede en Spaarnwoude,Noord-Holland,VBO,4.751286,52.382850
Wilhelminastraat,8,,,1165HA,Halfweg,Haarlemmerliede en Spaarnwoude,Noord-Holland,VBO,4.751159,52.383452
Wilhelminastraat,9,,,1165HA,Halfweg,Haarlemmerliede en Spaarnwoude,Noord-Holland,VBO,4.751271,52.382805
Wilhelminastraat,10,,,1165HA,Halfweg,Haarlemmerliede en Spaarnwoude,Noord-Holland,VBO,4.751102,52.383380
Wilhelminastraat,11,,,1165HA,Halfweg,Haarlemmerliede en Spaarnwoude,Noord-Holland,VBO,4.751244,52.382688
Wilhelminastraat,12,,,1165HA,Halfweg,Haarlemmerliede en Spaarnwoude,Noord-Holland,VBO,4.751088,52.383344
Wilhelminastraat,13,,,1165HA,Halfweg,Haarlemmerliede en Spaarnwoude,Noord-Holland,VBO,4.751230,52.382634
Wilhelminastraat,14,,,1165HA,Halfweg,Haarlemmerliede en Spaarnwoude,Noord-Holland,VBO,4.751088,52.383290
Wilhelminastraat,15,,,1165HA,Halfweg,Haarlemmerliede en Spaarnwoude,Noord-Holland,VBO,4.751203,52.382463
Wilhelminastraat,16,,,1165HA,Halfweg,Haarlemmerliede en Spaarnwoude,Noord-Holland,VBO,4.751074,52.383254
Wilhelminastraat,18,,,1165HA,Halfweg,Haarlemmerliede en Spaarnwoude,Noord-Holland,VBO,4.751046,52.383173
Wilhelminastraat,20,,,1165HA,Halfweg,Haarlemmerliede en Spaarnwoude,Noord-Holland,VBO,4.751032,52.383128
Wilhelminastraat,22,,,1165HA,Halfweg,Haarlemmerliede en Spaarnwoude,Noord-Holland,VBO,4.751018,52.383083
Wilhelminastraat,24,,,1165HA,Halfweg,Haarlemmerliede en Spaarnwoude,Noord-Holland,VBO,4.751018,52.383038
Wilhelminastraat,26,,,1165HA,Halfweg,Haarlemmerliede en Spaarnwoude,Noord-Holland,VBO,4.750990,52.382975
Wilhelminastraat,28,,,1165HA,Halfweg,Haarlemmerliede en Spaarnwoude,Noord-Holland,VBO,4.750976,52.382921
Wilhelminastraat,30,,,1165HA,Halfweg,Haarlemmerliede en Spaarnwoude,Noord-Holland,VBO,4.750977,52.382876
Wilhelminastraat,32,,,1165HA,Halfweg,Haarlemmerliede en Spaarnwoude,Noord-Holland,VBO,4.750963,52.382831
Wilhelminastraat,34,,,1165HA,Halfweg,Haarlemmerliede en Spaarnwoude,Noord-Holland,VBO,4.750935,52.382723
Wilhelminastraat,36,,,1165HA,Halfweg,Haarlemmerliede en Spaarnwoude,Noord-Holland,VBO,4.750936,52.382660
Wilhelminastraat,38,,,1165HA,Halfweg,Haarlemmerliede en Spaarnwoude,Noord-Holland,VBO,4.750907,52.382615
Wilhelminastraat,40,,,1165HA,Halfweg,Haarlemmerliede en Spaarnwoude,Noord-Holland,VBO,4.750908,52.382561
Schoolstraat,5,,,1165HB,Halfweg,Haarlemmerliede en Spaarnwoude,Noord-Holland,VBO,4.753415,52.382844
Schoolstraat,7,,,1165HB,Halfweg,Haarlemmerliede en Spaarnwoude,Noord-Holland,VBO,4.753185,52.382546
Schoolstraat,9,,,1165HB,Halfweg,Haarlemmerliede en Spaarnwoude,Noord-Holland,VBO,4.753185,52.382510
Schoolstraat,11,,,1165HB,Halfweg,Haarlemmerliede en Spaarnwoude,Noord-Holland,VBO,4.753186,52.382474
Schoolstraat,13,,,1165HB,Halfweg,Haarlemmerliede en Spaarnwoude,Noord-Holland,VBO,4.753171,52.382438
Schoolstraat,15,,,1165HB,Halfweg,Haarlemmerliede en Spaarnwoude,Noord-Holland,VBO,4.753172,52.382411
Schoolstraat,17,,,1165HB,Halfweg,Haarlemmerliede en Spaarnwoude,Noord-Holland,VBO,4.753172,52.382375
Schoolstraat,19,,,1165HB,Halfweg,Haarlemmerliede en Spaarnwoude,Noord-Holland,VBO,4.753173,52.382339
Schoolstraat,21,,,1165HB,Halfweg,Haarlemmerliede en Spaarnwoude,Noord-Holland,VBO,4.753159,52.382312
Schoolstraat,23,,,1165HB,Halfweg,Haarlemmerliede en Spaarnwoude,Noord-Holland,VBO,4.753159,52.382276
Schoolstraat,25,,,1165HB,Halfweg,Haarlemmerliede en Spaarnwoude,Noord-Holland,VBO,4.753160,52.382240
Schoolstraat,6,,,1165HC,Halfweg,Haarlemmerliede en Spaarnwoude,Noord-Holland,VBO,4.752833,52.383445
Schoolstraat,8,,,1165HC,Halfweg,Haarlemmerliede en Spaarnwoude,Noord-Holland,VBO,4.752732,52.383453
Schoolstraat,10,,,1165HC,Halfweg,Haarlemmerliede en Spaarnwoude,Noord-Holland,VBO,4.752835,52.383398
Schoolstraat,12,,,1165HC,Halfweg,Haarlemmerliede en Spaarnwoude,Noord-Holland,VBO,4.752718,52.383377
Schoolstraat,14,,,1165HC,Halfweg,Haarlemmerliede en Spaarnwoude,Noord-Holland,VBO,4.752822,52.383281
Schoolstraat,18,,,1165HC,Halfweg,Haarlemmerliede en Spaarnwoude,Noord-Holland,VBO,4.752736,52.383128
Schoolstraat,20,,,1165HC,Halfweg,Haarlemmerliede en Spaarnwoude,Noord-Holland,VBO,4.752664,52.382993
Schoolstraat,22,,,1165HC,Halfweg,Haarlemmerliede en Spaarnwoude,Noord-Holland,VBO,4.752931,52.382841
Schoolstraat,24,,,1165HC,Halfweg,Haarlemmerliede en Spaarnwoude,Noord-Holland,VBO,4.752892,52.382785
Schoolstraat,26,,,1165HC,Halfweg,Haarlemmerliede en Spaarnwoude,Noord-Holland,VBO,4.752884,52.382729
Schoolstraat,28,,,1165HC,Halfweg,Haarlemmerliede en Spaarnwoude,Noord-Holland,VBO,4.752879,52.382674
Schoolstraat,30,,,1165HC,Halfweg,Haarlemmerliede en Spaarnwoude,Noord-Holland,VBO,4.752873,52.382616
Schoolstraat,34,,,1165HC,Halfweg,Haarlemmerliede en Spaarnwoude,Noord-Holland,VBO,4.752876,52.382553
Schoolstraat,36,,,1165HC,Halfweg,Haarlemmerliede en Spaarnwoude,Noord-Holland,VBO,4.752848,52.382445
Schoolstraat,38,,,1165HC,Halfweg,Haarlemmerliede en Spaarnwoude,Noord-Holland,VBO,4.752834,52.382391
Polanenkade,1,,,1165HD,Halfweg,Haarlemmerliede en Spaarnwoude,Noord-Holland,VBO,4.752331,52.383692
Polanenkade,2,,,1165HD,Halfweg,Haarlemmerliede en Spaarnwoude,Noord-Holland,VBO,4.752332,52.383638
Polanenkade,3,a,,1165HD,Halfweg,Haarlemmerliede en Spaarnwoude,Noord-Holland,VBO,4.752333,52.383539
Polanenkade,3,,,1165HD,Halfweg,Haarlemmerliede en Spaarnwoude,Noord-Holland,VBO,4.752347,52.383566
Polanenkade,4,,,1165HD,Halfweg,Haarlemmerliede en Spaarnwoude,Noord-Holland,VBO,4.752334,52.383458
Polanenkade,5,,,1165HD,Halfweg,Haarlemmerliede en Spaarnwoude,Noord-Holland,VBO,4.752306,52.383368
Polanenkade,6,,,1165HD,Halfweg,Haarlemmerliede en Spaarnwoude,Noord-Holland,VBO,4.752292,52.383323
Polanenkade,7,a,,1165HD,Halfweg,Haarlemmerliede en Spaarnwoude,Noord-Holland,VBO,4.752279,52.383206
Polanenkade,7,,,1165HD,Halfweg,Haarlemmerliede en Spaarnwoude,Noord-Holland,VBO,4.752279,52.383242
Polanenkade,8,a,,1165HD,Halfweg,Haarlemmerliede en Spaarnwoude,Noord-Holland,VBO,4.752266,52.383134
Polanenkade,8,,,1165HD,Halfweg,Haarlemmerliede en Spaarnwoude,Noord-Holland,VBO,4.752265,52.383170
Polanenkade,9,a,,1165HD,Halfweg,Haarlemmerliede en Spaarnwoude,Noord-Holland,VBO,4.752252,52.383062
Polanenkade,9,,,1165HD,Halfweg,Haarlemmerliede en Spaarnwoude,Noord-Holland,VBO,4.752266,52.383098
Polanenkade,10,a,,1165HD,Halfweg,Haarlemmerliede en Spaarnwoude,Noord-Holland,VBO,4.752253,52.382990
Polanenkade,10,,,1165HD,Halfweg,Haarlemmerliede en Spaarnwoude,Noord-Holland,VBO,4.752252,52.383026
Polanenkade,11,a,,1165HE,Halfweg,Haarlemmerliede en Spaarnwoude,Noord-Holland,VBO,4.752239,52.382918
Polanenkade,11,,,1165HE,Halfweg,Haarlemmerliede en Spaarnwoude,Noord-Holland,VBO,4.752239,52.382954
Polanenkade,12,a,,1165HE,Halfweg,Haarlemmerliede en Spaarnwoude,Noord-Holland,VBO,4.752226,52.382846
Polanenkade,12,,,1165HE,Halfweg,Haarlemmerliede en Spaarnwoude,Noord-Holland,VBO,4.752225,52.382882
Polanenkade,16,,,1165HE,Halfweg,Haarlemmerliede en Spaarnwoude,Noord-Holland,VBO,4.752197,52.382792
Polanenkade,17,,,1165HE,Halfweg,Haarlemmerliede en Spaarnwoude,Noord-Holland,VBO,4.752183,52.382711
Polanenkade,18,,,1165HE,Halfweg,Haarlemmerliede en Spaarnwoude,Noord-Holland,VBO,4.752170,52.382648
Polanenkade,19,,,1165HE,Halfweg,Haarlemmerliede en Spaarnwoude,Noord-Holland,VBO,4.752156,52.382603
Polanenkade,20,,,1165HE,Halfweg,Haarlemmerliede en Spaarnwoude,Noord-Holland,VBO,4.752156,52.382558
Polanenkade,21,,,1165HE,Halfweg,Haarlemmerliede en Spaarnwoude,Noord-Holland,VBO,4.752143,52.382486
Polanenkade,22,,,1165HE,Halfweg,Haarlemmerliede en Spaarnwoude,Noord-Holland,VBO,4.752129,52.382397
Polanenkade,23,,,1165HE,Halfweg,Haarlemmerliede en Spaarnwoude,Noord-Holland,VBO,4.752087,52.382279
Haarlemmermeerstraat,1,a,,1165HG,Halfweg,Haarlemmerliede en Spaarnwoude,Noord-Holland,VBO,4.750551,52.383853
Haarlemmermeerstraat,1,,,1165HG,Halfweg,Haarlemmerliede en Spaarnwoude,Noord-Holland,VBO,4.750536,52.383916
Haarlemmermeerstraat,3,,,1165HG,Halfweg,Haarlemmerliede en Spaarnwoude,Noord-Holland,VBO,4.750538,52.383745
Haarlemmermeerstraat,5,,,1165HG,Halfweg,Haarlemmerliede en Spaarnwoude,Noord-Holland,VBO,4.750554,52.383700
Haarlemmermeerstraat,7,,,1165HG,Halfweg,Haarlemmerliede en Spaarnwoude,Noord-Holland,VBO,4.750467,52.383601
Haarlemmermeerstraat,9,,,1165HG,Halfweg,Haarlemmerliede en Spaarnwoude,Noord-Holland,VBO,4.750468,52.383547
Haarlemmermeerstraat,11,,,1165HG,Halfweg,Haarlemmerliede en Spaarnwoude,Noord-Holland,VBO,4.750469,52.383484
Haarlemmermeerstraat,13,,,1165HG,Halfweg,Haarlemmerliede en Spaarnwoude,Noord-Holland,VBO,4.750469,52.383430
Haarlemmermeerstraat,15,,,1165HH,Halfweg,Haarlemmerliede en Spaarnwoude,Noord-Holland,VBO,4.750441,52.383349
Haarlemmermeerstraat,17,,,1165HH,Halfweg,Haarlemmerliede en Spaarnwoude,Noord-Holland,VBO,4.750427,52.383304
Haarlemmermeerstraat,19,,,1165HH,Halfweg,Haarlemmerliede en Spaarnwoude,Noord-Holland,VBO,4.750413,52.383268
Haarlemmermeerstraat,21,a,,1165HH,Halfweg,Haarlemmerliede en Spaarnwoude,Noord-Holland,VBO,4.750445,52.383107
Haarlemmermeerstraat,21,,,1165HH,Halfweg,Haarlemmerliede en Spaarnwoude,Noord-Holland,VBO,4.750385,52.383133
Haarlemmermeerstraat,23,,,1165HH,Halfweg,Haarlemmerliede en Spaarnwoude,Noord-Holland,VBO,4.750447,52.382909
Haarlemmermeerstraat,25,,,1165HH,Halfweg,Haarlemmerliede en Spaarnwoude,Noord-Holland,VBO,4.750339,52.382863
Haarlemmermeerstraat,29,,,1165HH,Halfweg,Haarlemmerliede en Spaarnwoude,Noord-Holland,VBO,4.750322,52.382803
Haarlemmermeerstraat,31,,,1165HH,Halfweg,Haarlemmerliede en Spaarnwoude,Noord-Holland,VBO,4.750310,52.382761
Haarlemmermeerstraat,33,a,,1165HH,Halfweg,Haarlemmerliede en Spaarnwoude,Noord-Holland,VBO,4.750491,52.382845
Haarlemmermeerstraat,33,,,1165HH,Halfweg,Haarlemmerliede en Spaarnwoude,Noord-Holland,VBO,4.750467,52.382764
Haarlemmermeerstraat,35,a,,1165HH,Halfweg,Haarlemmerliede en Spaarnwoude,Noord-Holland,VBO,4.750388,52.382692
Haarlemmermeerstraat,35,b,,1165HH,Halfweg,Haarlemmerliede en Spaarnwoude,Noord-Holland,VBO,4.750304,52.382683
Haarlemmermeerstraat,35,c,,1165HH,Halfweg,Haarlemmerliede en Spaarnwoude,Noord-Holland,VBO,4.750466,52.382675
Haarlemmermeerstraat,35,,,1165HH,Halfweg,Haarlemmerliede en Spaarnwoude,Noord-Holland,VBO,4.750319,52.382674
Haarlemmermeerstraat,37,b,,1165HH,Halfweg,Haarlemmerliede en Spaarnwoude,Noord-Holland,VBO,4.750335,52.382585
Haarlemmermeerstraat,37,c,,1165HH,Halfweg,Haarlemmerliede en Spaarnwoude,Noord-Holland,VBO,4.750305,52.382602
Haarlemmermeerstraat,37,,,1165HH,Halfweg,Haarlemmerliede en Spaarnwoude,Noord-Holland,VBO,4.750378,52.382630
Haarlemmermeerstraat,39,,,1165HH,Halfweg,Haarlemmerliede en Spaarnwoude,Noord-Holland,VBO,4.750292,52.382512
Haarlemmermeerstraat,41,,,1165HH,Halfweg,Haarlemmerliede en Spaarnwoude,Noord-Holland,VBO,4.750291,52.382548
Haarlemmermeerstraat,2,,,1165HJ,Halfweg,Haarlemmerliede en Spaarnwoude,Noord-Holland,VBO,4.750209,52.384139
Haarlemmermeerstraat,4,,,1165HJ,Halfweg,Haarlemmerliede en Spaarnwoude,Noord-Holland,VBO,4.750019,52.383113
Haarlemmermeerstraat,6,,,1165HJ,Halfweg,Haarlemmerliede en Spaarnwoude,Noord-Holland,VBO,4.750009,52.382727
Prins Bernhardkade,1,,,1165HL,Halfweg,Haarlemmerliede en Spaarnwoude,Noord-Holland,VBO,4.752105,52.382046
Prins Bernhardkade,2,,,1165HL,Halfweg,Haarlemmerliede en Spaarnwoude,Noord-Holland,VBO,4.752091,52.381965
Prins Bernhardkade,3,,,1165HL,Halfweg,Haarlemmerliede en Spaarnwoude,Noord-Holland,VBO,4.752078,52.381884
Prins Bernhardkade,4,,,1165HL,Halfweg,Haarlemmerliede en Spaarnwoude,Noord-Holland,VBO,4.752079,52.381803
Prins Bernhardkade,5,,,1165HL,Halfweg,Haarlemmerliede en Spaarnwoude,Noord-Holland,VBO,4.752036,52.381722
Prins Bernhardkade,6,,,1165HL,Halfweg,Haarlemmerliede en Spaarnwoude,Noord-Holland,VBO,4.752023,52.381641
Prins Bernhardkade,7,,,1165HL,Halfweg,Haarlemmerliede en Spaarnwoude,Noord-Holland,VBO,4.752009,52.381569
Prins Bernhardkade,8,,,1165HL,Halfweg,Haarlemmerliede en Spaarnwoude,Noord-Holland,VBO,4.752025,52.381470
Prins Bernhardkade,9,,,1165HL,Halfweg,Haarlemmerliede en Spaarnwoude,Noord-Holland,VBO,4.752085,52.381399
Dillenburg,1,,,1165HM,Halfweg,Haarlemmerliede en Spaarnwoude,Noord-Holland,VBO,4.750560,52.382226
Dillenburg,2,,,1165HM,Halfweg,Haarlemmerliede en Spaarnwoude,Noord-Holland,VBO,4.751000,52.382274
Dillenburg,3,,,1165HM,Halfweg,Haarlemmerliede en Spaarnwoude,Noord-Holland,VBO,4.751001,52.382220
Dillenburg,4,,,1165HM,Halfweg,Haarlemmerliede en Spaarnwoude,Noord-Holland,VBO,4.750987,52.382193
Dillenburg,5,,,1165HM,Halfweg,Haarlemmerliede en Spaarnwoude,Noord-Holland,VBO,4.750987,52.382139
Dillenburg,6,,,1165HM,Halfweg,Haarlemmerliede en Spaarnwoude,Noord-Holland,VBO,4.750988,52.382112
Dillenburg,7,,,1165HM,Halfweg,Haarlemmerliede en Spaarnwoude,Noord-Holland,VBO,4.750988,52.382058
Dillenburg,8,,,1165HM,Halfweg,Haarlemmerliede en Spaarnwoude,Noord-Holland,VBO,4.751167,52.381897
Dillenburg,9,,,1165HM,Halfweg,Haarlemmerliede en Spaarnwoude,Noord-Holland,VBO,4.751226,52.381861
Dillenburg,10,,,1165HM,Halfweg,Haarlemmerliede en Spaarnwoude,Noord-Holland,VBO,4.751271,52.381835
Dillenburg,11,,,1165HM,Halfweg,Haarlemmerliede en Spaarnwoude,Noord-Holland,VBO,4.751330,52.381799
Dillenburg,12,,,1165HN,Halfweg,Haarlemmerliede en Spaarnwoude,Noord-Holland,VBO,4.751192,52.382185
Dillenburg,13,,,1165HN,Halfweg,Haarlemmerliede en Spaarnwoude,Noord-Holland,VBO,4.751266,52.382176
Dillenburg,14,,,1165HN,Halfweg,Haarlemmerliede en Spaarnwoude,Noord-Holland,VBO,4.751339,52.382177
Dillenburg,15,,,1165HN,Halfweg,Haarlemmerliede en Spaarnwoude,Noord-Holland,VBO,4.751413,52.382168
Dillenburg,16,,,1165HN,Halfweg,Haarlemmerliede en Spaarnwoude,Noord-Holland,VBO,4.751604,52.382124
Dillenburg,17,,,1165HN,Halfweg,Haarlemmerliede en Spaarnwoude,Noord-Holland,VBO,4.751576,52.382088
Dillenburg,18,,,1165HN,Halfweg,Haarlemmerliede en Spaarnwoude,Noord-Holland,VBO,4.751591,52.382034
Dillenburg,19,,,1165HN,Halfweg,Haarlemmerliede en Spaarnwoude,Noord-Holland,VBO,4.751577,52.381989
Dillenburg,20,,,1165HN,Halfweg,Haarlemmerliede en Spaarnwoude,Noord-Holland,VBO,4.751563,52.381944
Dillenburg,21,,,1165HN,Halfweg,Haarlemmerliede en Spaarnwoude,Noord-Holland,VBO,4.751550,52.381836
Dillenburg,22,,,1165HN,Halfweg,Haarlemmerliede en Spaarnwoude,Noord-Holland,VBO,4.751536,52.381791
Dillenburg,23,,,1165HN,Halfweg,Haarlemmerliede en Spaarnwoude,Noord-Holland,VBO,4.751522,52.381746
Dillenburg,24,,,1165HN,Halfweg,Haarlemmerliede en Spaarnwoude,Noord-Holland,VBO,4.751522,52.381710
Dillenburg,25,,,1165HN,Halfweg,Haarlemmerliede en Spaarnwoude,Noord-Holland,VBO,4.751523,52.381656
Dillenburg,26,,,1165HN,Halfweg,Haarlemmerliede en Spaarnwoude,Noord-Holland,VBO,4.751509,52.381584
Prins Hendrikkade,1,,,1165HP,Halfweg,Haarlemmerliede en Spaarnwoude,Noord-Holland,VBO,4.751798,52.382997
Prins Hendrikkade,2,,,1165HP,Halfweg,Haarlemmerliede en Spaarnwoude,Noord-Holland,VBO,4.751783,52.382952
Prins Hendrikkade,3,,,1165HP,Halfweg,Haarlemmerliede en Spaarnwoude,Noord-Holland,VBO,4.751756,52.382835
Prins Hendrikkade,4,,,1165HP,Halfweg,Haarlemmerliede en Spaarnwoude,Noord-Holland,VBO,4.751728,52.382718
Prins Hendrikkade,5,,,1165HP,Halfweg,Haarlemmerliede en Spaarnwoude,Noord-Holland,VBO,4.751729,52.382664
Prins Hendrikkade,6,,,1165HP,Halfweg,Haarlemmerliede en Spaarnwoude,Noord-Holland,VBO,4.751715,52.382619
Irenestraat,1,,,1165HR,Halfweg,Haarlemmerliede en Spaarnwoude,Noord-Holland,VBO,4.753019,52.381781
Irenestraat,3,,,1165HR,Halfweg,Haarlemmerliede en Spaarnwoude,Noord-Holland,VBO,4.753020,52.381727
Irenestraat,5,,,1165HR,Halfweg,Haarlemmerliede en Spaarnwoude,Noord-Holland,VBO,4.753006,52.381673
Irenestraat,7,,,1165HR,Halfweg,Haarlemmerliede en Spaarnwoude,Noord-Holland,VBO,4.752919,52.381574
Irenestraat,9,,,1165HR,Halfweg,Haarlemmerliede en Spaarnwoude,Noord-Holland,VBO,4.752861,52.381520
Irenestraat,11,,,1165HR,Halfweg,Haarlemmerliede en Spaarnwoude,Noord-Holland,VBO,4.752803,52.381483
Irenestraat,13,,,1165HR,Halfweg,Haarlemmerliede en Spaarnwoude,Noord-Holland,VBO,4.753262,52.381270
Irenestraat,15,,,1165HR,Halfweg,Haarlemmerliede en Spaarnwoude,Noord-Holland,VBO,4.753320,52.381315
Irenestraat,17,,,1165HR,Halfweg,Haarlemmerliede en Spaarnwoude,Noord-Holland,VBO,4.753378,52.381361
Irenestraat,19,,,1165HR,Halfweg,Haarlemmerliede en Spaarnwoude,Noord-Holland,VBO,4.753421,52.381397
Irenestraat,21,,,1165HR,Halfweg,Haarlemmerliede en Spaarnwoude,Noord-Holland,VBO,4.753479,52.381442
Irenestraat,23,,,1165HR,Halfweg,Haarlemmerliede en Spaarnwoude,Noord-Holland,VBO,4.753538,52.381487
Irenestraat,25,,,1165HR,Halfweg,Haarlemmerliede en Spaarnwoude,Noord-Holland,VBO,4.753581,52.381532
Irenestraat,27,,,1165HR,Halfweg,Haarlemmerliede en Spaarnwoude,Noord-Holland,VBO,4.753654,52.381569
Irenestraat,29,,,1165HR,Halfweg,Haarlemmerliede en Spaarnwoude,Noord-Holland,VBO,4.753683,52.381614
Irenestraat,2,,,1165HS,Halfweg,Haarlemmerliede en Spaarnwoude,Noord-Holland,VBO,4.752622,52.381833
Irenestraat,4,,,1165HS,Halfweg,Haarlemmerliede en Spaarnwoude,Noord-Holland,VBO,4.752608,52.381788
Irenestraat,6,,,1165HS,Halfweg,Haarlemmerliede en Spaarnwoude,Noord-Holland,VBO,4.752609,52.381734
Irenestraat,8,,,1165HS,Halfweg,Haarlemmerliede en Spaarnwoude,Noord-Holland,VBO,4.752595,52.381689
Irenestraat,10,,,1165HS,Halfweg,Haarlemmerliede en Spaarnwoude,Noord-Holland,VBO,4.752508,52.381590
Irenestraat,12,,,1165HS,Halfweg,Haarlemmerliede en Spaarnwoude,Noord-Holland,VBO,4.752494,52.381527
Irenestraat,14,,,1165HS,Halfweg,Haarlemmerliede en Spaarnwoude,Noord-Holland,VBO,4.752408,52.381364
Irenestraat,16,,,1165HS,Halfweg,Haarlemmerliede en Spaarnwoude,Noord-Holland,VBO,4.752498,52.381293
Irenestraat,18,,,1165HS,Halfweg,Haarlemmerliede en Spaarnwoude,Noord-Holland,VBO,4.752586,52.381249
Irenestraat,20,,,1165HS,Halfweg,Haarlemmerliede en Spaarnwoude,Noord-Holland,VBO,4.752690,52.381204
Irenestraat,22,,,1165HT,Halfweg,Haarlemmerliede en Spaarnwoude,Noord-Holland,VBO,4.752379,52.381337
Irenestraat,24,,,1165HT,Halfweg,Haarlemmerliede en Spaarnwoude,Noord-Holland,VBO,4.752468,52.381275
Irenestraat,26,,,1165HT,Halfweg,Haarlemmerliede en Spaarnwoude,Noord-Holland,VBO,4.752572,52.381230
Irenestraat,28,,,1165HT,Halfweg,Haarlemmerliede en Spaarnwoude,Noord-Holland,VBO,4.752661,52.381186
Irenestraat,30,,,1165HT,Halfweg,Haarlemmerliede en Spaarnwoude,Noord-Holland,VBO,4.752764,52.381151
Irenestraat,32,,,1165HT,Halfweg,Haarlemmerliede en Spaarnwoude,Noord-Holland,VBO,4.752853,52.381106
Irenestraat,34,,,1165HT,Halfweg,Haarlemmerliede en Spaarnwoude,Noord-Holland,VBO,4.752941,52.381062
Irenestraat,36,,,1165HT,Halfweg,Haarlemmerliede en Spaarnwoude,Noord-Holland,VBO,4.753059,52.381026
Irenestraat,38,,,1165HV,Halfweg,Haarlemmerliede en Spaarnwoude,Noord-Holland,VBO,4.752350,52.381310
Irenestraat,40,,,1165HV,Halfweg,Haarlemmerliede en Spaarnwoude,Noord-Holland,VBO,4.752439,52.381257
Irenestraat,42,,,1165HV,Halfweg,Haarlemmerliede en Spaarnwoude,Noord-Holland,VBO,4.752543,52.381221
Irenestraat,44,,,1165HV,Halfweg,Haarlemmerliede en Spaarnwoude,Noord-Holland,VBO,4.752632,52.381159
Irenestraat,46,,,1165HV,Halfweg,Haarlemmerliede en Spaarnwoude,Noord-Holland,VBO,4.752735,52.381124
Irenestraat,48,,,1165HV,Halfweg,Haarlemmerliede en Spaarnwoude,Noord-Holland,VBO,4.752824,52.381079
Irenestraat,50,,,1165HV,Halfweg,Haarlemmerliede en Spaarnwoude,Noord-Holland,VBO,4.752927,52.381035
Irenestraat,52,,,1165HV,Halfweg,Haarlemmerliede en Spaarnwoude,Noord-Holland,VBO,4.753016,52.380990
Irenestraat,54,,,1165HV,Halfweg,Haarlemmerliede en Spaarnwoude,Noord-Holland,VBO,4.752306,52.381310
Irenestraat,56,,,1165HV,Halfweg,Haarlemmerliede en Spaarnwoude,Noord-Holland,VBO,4.752425,52.381239
Irenestraat,58,,,1165HV,Halfweg,Haarlemmerliede en Spaarnwoude,Noord-Holland,VBO,4.752528,52.381203
Irenestraat,60,,,1165HV,Halfweg,Haarlemmerliede en Spaarnwoude,Noord-Holland,VBO,4.752617,52.381159
Irenestraat,62,,,1165HV,Halfweg,Haarlemmerliede en Spaarnwoude,Noord-Holland,VBO,4.752720,52.381114
Irenestraat,64,,,1165HV,Halfweg,Haarlemmerliede en Spaarnwoude,Noord-Holland,VBO,4.752809,52.381070
Irenestraat,66,,,1165HV,Halfweg,Haarlemmerliede en Spaarnwoude,Noord-Holland,VBO,4.752883,52.381016
Irenestraat,68,,,1165HV,Halfweg,Haarlemmerliede en Spaarnwoude,Noord-Holland,VBO,4.752987,52.380972
Emmaplein,1,,,1165HW,Halfweg,Haarlemmerliede en Spaarnwoude,Noord-Holland,VBO,4.751703,52.383446
Emmaplein,2,,,1165HW,Halfweg,Haarlemmerliede en Spaarnwoude,Noord-Holland,VBO,4.751515,52.383220
Emmaplein,3,,,1165HW,Halfweg,Haarlemmerliede en Spaarnwoude,Noord-Holland,VBO,4.751383,52.383237
Emmaplein,4,,,1165HW,Halfweg,Haarlemmerliede en Spaarnwoude,Noord-Holland,VBO,4.751706,52.383203
Emmaplein,5,,,1165HW,Halfweg,Haarlemmerliede en Spaarnwoude,Noord-Holland,VBO,4.751824,52.383204
Bovenpolderweg,1,,,1165LH,Halfweg,Haarlemmerliede en Spaarnwoude,Noord-Holland,VBO,4.759034,52.380213
Bovenpolderweg,2,,,1165LH,Halfweg,Haarlemmerliede en Spaarnwoude,Noord-Holland,VBO,4.758861,52.380015
Bovenpolderweg,3,,,1165LH,Halfweg,Haarlemmerliede en Spaarnwoude,Noord-Holland,VBO,4.758827,52.380347
Bovenpolderweg,4,,,1165LH,Halfweg,Haarlemmerliede en Spaarnwoude,Noord-Holland,VBO,4.758486,52.380570
Bovenpolderweg,5,,,1165LH,Halfweg,Haarlemmerliede en Spaarnwoude,Noord-Holland,VBO,4.758204,52.380739
Houtrijkstraat,25,,,1165LJ,Halfweg,Haarlemmerliede en Spaarnwoude,Noord-Holland,VBO,4.756308,52.381907
Houtrijkstraat,26,,,1165LJ,Halfweg,Haarlemmerliede en Spaarnwoude,Noord-Holland,VBO,4.756294,52.381853
Houtrijkstraat,27,,,1165LJ,Halfweg,Haarlemmerliede en Spaarnwoude,Noord-Holland,VBO,4.756295,52.381763
Houtrijkstraat,28,,,1165LJ,Halfweg,Haarlemmerliede en Spaarnwoude,Noord-Holland,VBO,4.756296,52.381691
Houtrijkstraat,29,,,1165LJ,Halfweg,Haarlemmerliede en Spaarnwoude,Noord-Holland,VBO,4.756282,52.381628
Houtrijkstraat,30,,,1165LJ,Halfweg,Haarlemmerliede en Spaarnwoude,Noord-Holland,VBO,4.756283,52.381565
Mientekade,55,,,1165LK,Halfweg,Haarlemmerliede en Spaarnwoude,Noord-Holland,VBO,4.756016,52.380719
Mientekade,56,,,1165LK,Halfweg,Haarlemmerliede en Spaarnwoude,Noord-Holland,VBO,4.755914,52.380664
Mientekade,57,,,1165LK,Halfweg,Haarlemmerliede en Spaarnwoude,Noord-Holland,VBO,4.755608,52.380465
Mientekade,58,,,1165LK,Halfweg,Haarlemmerliede en Spaarnwoude,Noord-Holland,VBO,4.755550,52.380420
Mientekade,59,,,1165LK,Halfweg,Haarlemmerliede en Spaarnwoude,Noord-Holland,VBO,4.756016,52.380701
Mientekade,60,,,1165LK,Halfweg,Haarlemmerliede en Spaarnwoude,Noord-Holland,VBO,4.755944,52.380646
Mientekade,61,,,1165LK,Halfweg,Haarlemmerliede en Spaarnwoude,Noord-Holland,VBO,4.755871,52.380601
Mientekade,62,,,1165LK,Halfweg,Haarlemmerliede en Spaarnwoude,Noord-Holland,VBO,4.755754,52.380528
Mientekade,63,,,1165LK,Halfweg,Haarlemmerliede en Spaarnwoude,Noord-Holland,VBO,4.755696,52.380492
Mientekade,64,,,1165LK,Halfweg,Haarlemmerliede en Spaarnwoude,Noord-Holland,VBO,4.755638,52.380447
Mientekade,65,,,1165LK,Halfweg,Haarlemmerliede en Spaarnwoude,Noord-Holland,VBO,4.755565,52.380402
Mientekade,66,,,1165LK,Halfweg,Haarlemmerliede en Spaarnwoude,Noord-Holland,VBO,4.756031,52.380674
Mientekade,67,,,1165LK,Halfweg,Haarlemmerliede en Spaarnwoude,Noord-Holland,VBO,4.755958,52.380637
Mientekade,68,,,1165LK,Halfweg,Haarlemmerliede en Spaarnwoude,Noord-Holland,VBO,4.755886,52.380592
Mientekade,69,,,1165LK,Halfweg,Haarlemmerliede en Spaarnwoude,Noord-Holland,VBO,4.755784,52.380520
Mientekade,70,,,1165LK,Halfweg,Haarlemmerliede en Spaarnwoude,Noord-Holland,VBO,4.755711,52.380483
Mientekade,71,,,1165LK,Halfweg,Haarlemmerliede en Spaarnwoude,Noord-Holland,VBO,4.755653,52.380438
Mientekade,72,,,1165LK,Halfweg,Haarlemmerliede en Spaarnwoude,Noord-Holland,VBO,4.755580,52.380393
Mientekade,73,,,1165LK,Halfweg,Haarlemmerliede en Spaarnwoude,Noord-Holland,VBO,4.756061,52.380656
Mientekade,74,,,1165LK,Halfweg,Haarlemmerliede en Spaarnwoude,Noord-Holland,VBO,4.755988,52.380620
Mientekade,75,,,1165LK,Halfweg,Haarlemmerliede en Spaarnwoude,Noord-Holland,VBO,4.755930,52.380574
Mientekade,76,,,1165LK,Halfweg,Haarlemmerliede en Spaarnwoude,Noord-Holland,VBO,4.755814,52.380493
Mientekade,77,,,1165LK,Halfweg,Haarlemmerliede en Spaarnwoude,Noord-Holland,VBO,4.755741,52.380457
Mientekade,78,,,1165LK,Halfweg,Haarlemmerliede en Spaarnwoude,Noord-Holland,VBO,4.755682,52.380420
Mientekade,79,,,1165LK,Halfweg,Haarlemmerliede en Spaarnwoude,Noord-Holland,VBO,4.755610,52.380384
Houtrijkstraat,1,,,1165LL,Halfweg,Haarlemmerliede en Spaarnwoude,Noord-Holland,VBO,4.756830,52.382368
Houtrijkstraat,2,,,1165LL,Halfweg,Haarlemmerliede en Spaarnwoude,Noord-Holland,VBO,4.756831,52.382314
Houtrijkstraat,3,,,1165LL,Halfweg,Haarlemmerliede en Spaarnwoude,Noord-Holland,VBO,4.756817,52.382260
Houtrijkstraat,4,,,1165LL,Halfweg,Haarlemmerliede en Spaarnwoude,Noord-Holland,VBO,4.756817,52.382206
Houtrijkstraat,5,,,1165LL,Halfweg,Haarlemmerliede en Spaarnwoude,Noord-Holland,VBO,4.756833,52.382152
Houtrijkstraat,6,,,1165LL,Halfweg,Haarlemmerliede en Spaarnwoude,Noord-Holland,VBO,4.756734,52.381891
Houtrijkstraat,7,,,1165LL,Halfweg,Haarlemmerliede en Spaarnwoude,Noord-Holland,VBO,4.756763,52.381891
Houtrijkstraat,8,,,1165LL,Halfweg,Haarlemmerliede en Spaarnwoude,Noord-Holland,VBO,4.756807,52.381891
Houtrijkstraat,9,,,1165LL,Halfweg,Haarlemmerliede en Spaarnwoude,Noord-Holland,VBO,4.756837,52.381891
Houtrijkstraat,10,,,1165LL,Halfweg,Haarlemmerliede en Spaarnwoude,Noord-Holland,VBO,4.756851,52.381891
Houtrijkstraat,11,,,1165LL,Halfweg,Haarlemmerliede en Spaarnwoude,Noord-Holland,VBO,4.756895,52.381892
Houtrijkstraat,12,,,1165LL,Halfweg,Haarlemmerliede en Spaarnwoude,Noord-Holland,VBO,4.756939,52.381892
Houtrijkstraat,13,,,1165LL,Halfweg,Haarlemmerliede en Spaarnwoude,Noord-Holland,VBO,4.756969,52.381892
Houtrijkstraat,14,,,1165LL,Halfweg,Haarlemmerliede en Spaarnwoude,Noord-Holland,VBO,4.757013,52.381892
Houtrijkstraat,15,,,1165LL,Halfweg,Haarlemmerliede en Spaarnwoude,Noord-Holland,VBO,4.757042,52.381892
Houtrijkstraat,16,,,1165LL,Halfweg,Haarlemmerliede en Spaarnwoude,Noord-Holland,VBO,4.757086,52.381893
Houtrijkstraat,17,,,1165LL,Halfweg,Haarlemmerliede en Spaarnwoude,Noord-Holland,VBO,4.757130,52.381893
Houtrijkstraat,18,,,1165LL,Halfweg,Haarlemmerliede en Spaarnwoude,Noord-Holland,VBO,4.757245,52.382055
Houtrijkstraat,19,,,1165LL,Halfweg,Haarlemmerliede en Spaarnwoude,Noord-Holland,VBO,4.757318,52.382083
Houtrijkstraat,20,,,1165LL,Halfweg,Haarlemmerliede en Spaarnwoude,Noord-Holland,VBO,4.757406,52.382110
Houtrijkstraat,21,,,1165LL,Halfweg,Haarlemmerliede en Spaarnwoude,Noord-Holland,VBO,4.757479,52.382129
Houtrijkstraat,22,,,1165LL,Halfweg,Haarlemmerliede en Spaarnwoude,Noord-Holland,VBO,4.757567,52.382147
Houtrijkstraat,23,,,1165LL,Halfweg,Haarlemmerliede en Spaarnwoude,Noord-Holland,VBO,4.757758,52.382184
Houtrijkstraat,24,a,,1165LL,Halfweg,Haarlemmerliede en Spaarnwoude,Noord-Holland,VBO,4.757888,52.382301
Houtrijkstraat,24,,,1165LL,Halfweg,Haarlemmerliede en Spaarnwoude,Noord-Holland,VBO,4.757846,52.382202
Mientekade,27,,,1165LN,Halfweg,Haarlemmerliede en Spaarnwoude,Noord-Holland,VBO,4.757398,52.381625
Mientekade,28,,,1165LN,Halfweg,Haarlemmerliede en Spaarnwoude,Noord-Holland,VBO,4.757427,52.381652
Mientekade,29,,,1165LN,Halfweg,Haarlemmerliede en Spaarnwoude,Noord-Holland,VBO,4.757457,52.381670
Mientekade,30,,,1165LN,Halfweg,Haarlemmerliede en Spaarnwoude,Noord-Holland,VBO,4.757515,52.381697
Mientekade,31,,,1165LN,Halfweg,Haarlemmerliede en Spaarnwoude,Noord-Holland,VBO,4.757514,52.381733
Mientekade,32,,,1165LN,Halfweg,Haarlemmerliede en Spaarnwoude,Noord-Holland,VBO,4.757558,52.381751
Mientekade,33,,,1165LN,Halfweg,Haarlemmerliede en Spaarnwoude,Noord-Holland,VBO,4.757587,52.381770
Mientekade,34,,,1165LN,Halfweg,Haarlemmerliede en Spaarnwoude,Noord-Holland,VBO,4.757631,52.381797
Mientekade,35,,,1165LN,Halfweg,Haarlemmerliede en Spaarnwoude,Noord-Holland,VBO,4.757660,52.381815
Mientekade,36,,,1165LN,Halfweg,Haarlemmerliede en Spaarnwoude,Noord-Holland,VBO,4.757704,52.381842
Mientekade,37,,,1165LN,Halfweg,Haarlemmerliede en Spaarnwoude,Noord-Holland,VBO,4.757733,52.381869
Mientekade,38,,,1165LN,Halfweg,Haarlemmerliede en Spaarnwoude,Noord-Holland,VBO,4.757777,52.381887
Mientekade,39,,,1165LP,Halfweg,Haarlemmerliede en Spaarnwoude,Noord-Holland,VBO,4.757968,52.381835
Mientekade,40,,,1165LP,Halfweg,Haarlemmerliede en Spaarnwoude,Noord-Holland,VBO,4.757998,52.381844
Mientekade,41,,,1165LP,Halfweg,Haarlemmerliede en Spaarnwoude,Noord-Holland,VBO,4.758042,52.381790
Mientekade,42,,,1165LP,Halfweg,Haarlemmerliede en Spaarnwoude,Noord-Holland,VBO,4.758071,52.381808
Mientekade,43,,,1165LP,Halfweg,Haarlemmerliede en Spaarnwoude,Noord-Holland,VBO,4.758146,52.381746
Mientekade,44,,,1165LP,Halfweg,Haarlemmerliede en Spaarnwoude,Noord-Holland,VBO,4.758175,52.381764
Mientekade,45,,,1165LP,Halfweg,Haarlemmerliede en Spaarnwoude,Noord-Holland,VBO,4.758235,52.381701
Mientekade,46,,,1165LP,Halfweg,Haarlemmerliede en Spaarnwoude,Noord-Holland,VBO,4.758205,52.381737
Mientekade,47,,,1165LP,Halfweg,Haarlemmerliede en Spaarnwoude,Noord-Holland,VBO,4.758309,52.381657
Mientekade,48,,,1165LP,Halfweg,Haarlemmerliede en Spaarnwoude,Noord-Holland,VBO,4.758308,52.381693
Mientekade,49,,,1165LP,Halfweg,Haarlemmerliede en Spaarnwoude,Noord-Holland,VBO,4.758383,52.381612
Mientekade,50,,,1165LP,Halfweg,Haarlemmerliede en Spaarnwoude,Noord-Holland,VBO,4.758397,52.381630
Mientekade,51,,,1165LP,Halfweg,Haarlemmerliede en Spaarnwoude,Noord-Holland,VBO,4.758442,52.381549
Mientekade,52,,,1165LP,Halfweg,Haarlemmerliede en Spaarnwoude,Noord-Holland,VBO,4.758471,52.381568
Mientekade,53,,,1165LP,Halfweg,Haarlemmerliede en Spaarnwoude,Noord-Holland,VBO,4.758501,52.381541
Mientekade,54,,,1165LP,Halfweg,Haarlemmerliede en Spaarnwoude,Noord-Holland,VBO,4.758531,52.381514
Osdorperweg,967,,,1165LR,Halfweg,Haarlemmerliede en Spaarnwoude,Noord-Holland,VBO,4.759064,52.381220
Osdorperweg,969,,,1165LR,Halfweg,Haarlemmerliede en Spaarnwoude,Noord-Holland,VBO,4.758975,52.381256
Osdorperweg,974,,,1165LR,Halfweg,Haarlemmerliede en Spaarnwoude,Noord-Holland,VBO,4.759012,52.381741
Osdorperweg,976,,,1165LR,Halfweg,Haarlemmerliede en Spaarnwoude,Noord-Holland,VBO,4.758953,52.381777
Burg Simonsstraat,1,,,1165LS,Halfweg,Haarlemmerliede en Spaarnwoude,Noord-Holland,VBO,4.758635,52.383519
Burg Simonsstraat,2,,,1165LS,Halfweg,Haarlemmerliede en Spaarnwoude,Noord-Holland,VBO,4.758621,52.383429
Burg Simonsstraat,3,,,1165LS,Halfweg,Haarlemmerliede en Spaarnwoude,Noord-Holland,VBO,4.758607,52.383375
Burg Simonsstraat,4,,,1165LS,Halfweg,Haarlemmerliede en Spaarnwoude,Noord-Holland,VBO,4.758550,52.383276
Burg Simonsstraat,5,,,1165LS,Halfweg,Haarlemmerliede en Spaarnwoude,Noord-Holland,VBO,4.758536,52.383204
Burg Simonsstraat,6,,,1165LS,Halfweg,Haarlemmerliede en Spaarnwoude,Noord-Holland,VBO,4.758436,52.383005
Burg Simonsstraat,7,,,1165LS,Halfweg,Haarlemmerliede en Spaarnwoude,Noord-Holland,VBO,4.758423,52.382933
Burg Simonsstraat,8,,,1165LS,Halfweg,Haarlemmerliede en Spaarnwoude,Noord-Holland,VBO,4.758394,52.382888
Burg Simonsstraat,9,,,1165LS,Halfweg,Haarlemmerliede en Spaarnwoude,Noord-Holland,VBO,4.758365,52.382825
Burg Simonsstraat,10,,to,1165LS,Halfweg,Haarlemmerliede en Spaarnwoude,Noord-Holland,VBO,4.758911,52.382666
Burg Simonsstraat,10,,,1165LS,Halfweg,Haarlemmerliede en Spaarnwoude,Noord-Holland,VBO,4.758337,52.382771
Burg Simonsstraat,11,,,1165LS,Halfweg,Haarlemmerliede en Spaarnwoude,Noord-Holland,VBO,4.758224,52.382456
Burg Simonsstraat,12,,,1165LS,Halfweg,Haarlemmerliede en Spaarnwoude,Noord-Holland,VBO,4.758195,52.382393
Burg Simonsstraat,13,,,1165LS,Halfweg,Haarlemmerliede en Spaarnwoude,Noord-Holland,VBO,4.758167,52.382348
Burg Simonsstraat,14,,,1165LS,Halfweg,Haarlemmerliede en Spaarnwoude,Noord-Holland,VBO,4.758153,52.382294
Burg Simonsstraat,15,,,1165LS,Halfweg,Haarlemmerliede en Spaarnwoude,Noord-Holland,VBO,4.758168,52.382222
Burg Simonsstraat,16,,,1165LS,Halfweg,Haarlemmerliede en Spaarnwoude,Noord-Holland,VBO,4.758154,52.382177
IJsteeg,1,,,1165LT,Halfweg,Haarlemmerliede en Spaarnwoude,Noord-Holland,VBO,4.751233,52.384486
IJsteeg,2,,,1165LT,Halfweg,Haarlemmerliede en Spaarnwoude,Noord-Holland,VBO,4.751426,52.384343
IJsteeg,3,,,1165LT,Halfweg,Haarlemmerliede en Spaarnwoude,Noord-Holland,VBO,4.751321,52.384468
IJsteeg,5,,,1165LT,Halfweg,Haarlemmerliede en Spaarnwoude,Noord-Holland,VBO,4.751409,52.384469
Kanaalweg,1,a,,1165LV,Halfweg,Haarlemmerliede en Spaarnwoude,Noord-Holland,VBO,4.752927,52.386158
Kanaalweg,1,,,1165LV,Halfweg,Haarlemmerliede en Spaarnwoude,Noord-Holland,VBO,4.752884,52.386077
Kanaalweg,3,,,1165LV,Halfweg,Haarlemmerliede en Spaarnwoude,Noord-Holland,VBO,4.753000,52.386230
Kanaalweg,5,,,1165LV,Halfweg,Haarlemmerliede en Spaarnwoude,Noord-Holland,VBO,4.753043,52.386275
Kanaalweg,7,,,1165LV,Halfweg,Haarlemmerliede en Spaarnwoude,Noord-Holland,VBO,4.753101,52.386347
Kanaalweg,9,,,1165LV,Halfweg,Haarlemmerliede en Spaarnwoude,Noord-Holland,VBO,4.753158,52.386429
Kanaalweg,11,,,1165LV,Halfweg,Haarlemmerliede en Spaarnwoude,Noord-Holland,VBO,4.753187,52.386483
Kanaalweg,13,,,1165LV,Halfweg,Haarlemmerliede en Spaarnwoude,Noord-Holland,VBO,4.753274,52.386564
Kanaalweg,15,,,1165LV,Halfweg,Haarlemmerliede en Spaarnwoude,Noord-Holland,VBO,4.753303,52.386618
Kanaalweg,17,,,1165LV,Halfweg,Haarlemmerliede en Spaarnwoude,Noord-Holland,VBO,4.753360,52.386708
Kanaalweg,19,a,,1165LV,Halfweg,Haarlemmerliede en Spaarnwoude,Noord-Holland,VBO,4.753417,52.386861
Kanaalweg,19,,,1165LV,Halfweg,Haarlemmerliede en Spaarnwoude,Noord-Holland,VBO,4.753389,52.386753
Kanaalweg,21,a,,1165LV,Halfweg,Haarlemmerliede en Spaarnwoude,Noord-Holland,VBO,4.753488,52.387024
Kanaalweg,21,,,1165LV,Halfweg,Haarlemmerliede en Spaarnwoude,Noord-Holland,VBO,4.753445,52.386915
Kanaalweg,23,a,,1165LV,Halfweg,Haarlemmerliede en Spaarnwoude,Noord-Holland,VBO,4.753675,52.387267
Kanaalweg,23,,,1165LV,Halfweg,Haarlemmerliede en Spaarnwoude,Noord-Holland,VBO,4.753618,52.387141
Kanaalweg,25,,,1165LV,Halfweg,Haarlemmerliede en Spaarnwoude,Noord-Holland,VBO,4.753732,52.387384
Kanaalweg,27,,,1165LV,Halfweg,Haarlemmerliede en Spaarnwoude,Noord-Holland,VBO,4.753790,52.387493
Kanaalweg,29,,,1165LV,Halfweg,Haarlemmerliede en Spaarnwoude,Noord-Holland,VBO,4.753847,52.387619
Kanaalweg,31,,traf,1165LV,Halfweg,Haarlemmerliede en Spaarnwoude,Noord-Holland,VBO,4.754091,52.387970
Kanaalweg,31,,,1165LV,Halfweg,Haarlemmerliede en Spaarnwoude,Noord-Holland,VBO,4.753917,52.387808
Kanaalweg,2,,,1165LW,Halfweg,Haarlemmerliede en Spaarnwoude,Noord-Holland,VBO,4.754434,52.385591
Kanaalweg,4,,,1165LW,Halfweg,Haarlemmerliede en Spaarnwoude,Noord-Holland,VBO,4.754345,52.385626
Kanaalweg,6,a,,1165LW,Halfweg,Haarlemmerliede en Spaarnwoude,Noord-Holland,VBO,4.754050,52.385714
Kanaalweg,6,,,1165LW,Halfweg,Haarlemmerliede en Spaarnwoude,Noord-Holland,VBO,4.754183,52.385661
Kanaalweg,8,,,1165LW,Halfweg,Haarlemmerliede en Spaarnwoude,Noord-Holland,VBO,4.753889,52.385763
Kanaalweg,10,,,1165LW,Halfweg,Haarlemmerliede en Spaarnwoude,Noord-Holland,VBO,4.753711,52.385829
Kanaalweg,12,,,1165LW,Halfweg,Haarlemmerliede en Spaarnwoude,Noord-Holland,VBO,4.753578,52.385874
Kanaalweg,14,,,1165LW,Halfweg,Haarlemmerliede en Spaarnwoude,Noord-Holland,VBO,4.753504,52.385900
Kanaalweg,18,,,1165LW,Halfweg,Haarlemmerliede en Spaarnwoude,Noord-Holland,VBO,4.753515,52.386152
Kanaalweg,20,,,1165LW,Halfweg,Haarlemmerliede en Spaarnwoude,Noord-Holland,VBO,4.753544,52.386197
Kanaalweg,22,,,1165LW,Halfweg,Haarlemmerliede en Spaarnwoude,Noord-Holland,VBO,4.753601,52.386278
Kanaalweg,24,,,1165LW,Halfweg,Haarlemmerliede en Spaarnwoude,Noord-Holland,VBO,4.753645,52.386332
Kanaalweg,26,,,1165LW,Halfweg,Haarlemmerliede en Spaarnwoude,Noord-Holland,VBO,4.753673,52.386377
Kanaalweg,28,,,1165LW,Halfweg,Haarlemmerliede en Spaarnwoude,Noord-Holland,VBO,4.753717,52.386432
Kanaalweg,30,,,1165LW,Halfweg,Haarlemmerliede en Spaarnwoude,Noord-Holland,VBO,4.753818,52.386522
Kanaalweg,32,,,1165LW,Halfweg,Haarlemmerliede en Spaarnwoude,Noord-Holland,VBO,4.753861,52.386576
Kanaalweg,34,,,1165LW,Halfweg,Haarlemmerliede en Spaarnwoude,Noord-Holland,VBO,4.753890,52.386630
Kanaalweg,36,,,1165LW,Halfweg,Haarlemmerliede en Spaarnwoude,Noord-Holland,VBO,4.753918,52.386729
Kanaalweg,38,,,1165LW,Halfweg,Haarlemmerliede en Spaarnwoude,Noord-Holland,VBO,4.753947,52.386783
Kanaalweg,40,,,1165LW,Halfweg,Haarlemmerliede en Spaarnwoude,Noord-Holland,VBO,4.753961,52.386828
Kanaalweg,42,,,1165LW,Halfweg,Haarlemmerliede en Spaarnwoude,Noord-Holland,VBO,4.754004,52.386882
Kanaalweg,44,,,1165LW,Halfweg,Haarlemmerliede en Spaarnwoude,Noord-Holland,VBO,4.754106,52.386964
Kanaalweg,46,,,1165LW,Halfweg,Haarlemmerliede en Spaarnwoude,Noord-Holland,VBO,4.754119,52.387027
Kanaalweg,48,,,1165LW,Halfweg,Haarlemmerliede en Spaarnwoude,Noord-Holland,VBO,4.754148,52.387072
Kanaalweg,50,,,1165LW,Halfweg,Haarlemmerliede en Spaarnwoude,Noord-Holland,VBO,4.754161,52.387180
Kanaalweg,52,,,1165LW,Halfweg,Haarlemmerliede en Spaarnwoude,Noord-Holland,VBO,4.754190,52.387243
Kanaalweg,54,,,1165LW,Halfweg,Haarlemmerliede en Spaarnwoude,Noord-Holland,VBO,4.754219,52.387288
Kanaalweg,56,,,1165LW,Halfweg,Haarlemmerliede en Spaarnwoude,Noord-Holland,VBO,4.754247,52.387342
Kanaalweg,58,,,1165LW,Halfweg,Haarlemmerliede en Spaarnwoude,Noord-Holland,VBO,4.754566,52.387649
Zijkanaal F Oost,1,,,1165LX,Halfweg,Haarlemmerliede en Spaarnwoude,Noord-Holland,LIG,4.752044,52.386182
Zijkanaal F Oost,2,,,1165LX,Halfweg,Haarlemmerliede en Spaarnwoude,Noord-Holland,LIG,4.752224,52.386314
Zijkanaal F Oost,3,,,1165LX,Halfweg,Haarlemmerliede en Spaarnwoude,Noord-Holland,LIG,4.752413,52.386452
Zijkanaal F Oost,4,,,1165LX,Halfweg,Haarlemmerliede en Spaarnwoude,Noord-Holland,LIG,4.752549,52.386584
Zijkanaal F Oost,5,,,1165LX,Halfweg,Haarlemmerliede en Spaarnwoude,Noord-Holland,LIG,4.752706,52.386734
Zijkanaal F Oost,6,,,1165LX,Halfweg,Haarlemmerliede en Spaarnwoude,Noord-Holland,LIG,4.752805,52.386904
Zijkanaal F Oost,7,,,1165LX,Halfweg,Haarlemmerliede en Spaarnwoude,Noord-Holland,LIG,4.752961,52.387062
Zijkanaal F Oost,8,,,1165LX,Halfweg,Haarlemmerliede en Spaarnwoude,Noord-Holland,LIG,4.752999,52.387277
Zijkanaal F Oost,9,,,1165LX,Halfweg,Haarlemmerliede en Spaarnwoude,Noord-Holland,LIG,4.753015,52.387414
Zijkanaal F Oost,10,,,1165LX,Halfweg,Haarlemmerliede en Spaarnwoude,Noord-Holland,LIG,4.753110,52.387530
Zijkanaal F Oost,11,,,1165LX,Halfweg,Haarlemmerliede en Spaarnwoude,Noord-Holland,LIG,4.753182,52.387679
Zijkanaal F Oost,12,,,1165LX,Halfweg,Haarlemmerliede en Spaarnwoude,Noord-Holland,LIG,4.753281,52.387817
Zijkanaal F Oost,13,,,1165LX,Halfweg,Haarlemmerliede en Spaarnwoude,Noord-Holland,LIG,4.753343,52.387953
Zijkanaal F Oost,14,,,1165LX,Halfweg,Haarlemmerliede en Spaarnwoude,Noord-Holland,LIG,4.753308,52.388094
Zijkanaal F Oost,15,,,1165LX,Halfweg,Haarlemmerliede en Spaarnwoude,Noord-Holland,LIG,4.753392,52.388268
Zijkanaal F Oost,16,,,1165LX,Halfweg,Haarlemmerliede en Spaarnwoude,Noord-Holland,LIG,4.753732,52.389207
Zijkanaal F Oost,17,,,1165LX,Halfweg,Haarlemmerliede en Spaarnwoude,Noord-Holland,LIG,4.753778,52.389371
Zijkanaal F Oost,18,,,1165LX,Halfweg,Haarlemmerliede en Spaarnwoude,Noord-Holland,LIG,4.753829,52.389569
Zijkanaal F Oost,19,,,1165LX,Halfweg,Haarlemmerliede en Spaarnwoude,Noord-Holland,LIG,4.753811,52.389768
Zijkanaal F Oost,20,,,1165LX,Halfweg,Haarlemmerliede en Spaarnwoude,Noord-Holland,LIG,4.753972,52.389998
Zijkanaal F Oost,21,,,1165LX,Halfweg,Haarlemmerliede en Spaarnwoude,Noord-Holland,LIG,4.754037,52.390249
Zijkanaal F Oost,22,a,,1165LX,Halfweg,Haarlemmerliede en Spaarnwoude,Noord-Holland,LIG,4.754230,52.390678
Zijkanaal F Oost,22,,,1165LX,Halfweg,Haarlemmerliede en Spaarnwoude,Noord-Holland,LIG,4.754208,52.390582
Zijkanaal F Oost,23,,,1165LX,Halfweg,Haarlemmerliede en Spaarnwoude,Noord-Holland,LIG,4.754277,52.390937
Zijkanaal F Oost,24,,,1165LX,Halfweg,Haarlemmerliede en Spaarnwoude,Noord-Holland,LIG,4.753891,52.391079
Teding van Berkhoutweg,1,,,1165LZ,Halfweg,Haarlemmerliede en Spaarnwoude,Noord-Holland,VBO,4.754793,52.385098
Teding van Berkhoutweg,2,,,1165LZ,Halfweg,Haarlemmerliede en Spaarnwoude,Noord-Holland,VBO,4.755225,52.384660
Teding van Berkhoutweg,3,,,1165LZ,Halfweg,Haarlemmerliede en Spaarnwoude,Noord-Holland,VBO,4.753631,52.385218
Teding van Berkhoutweg,4,a,,1165LZ,Halfweg,Haarlemmerliede en Spaarnwoude,Noord-Holland,VBO,4.755573,52.385003
Teding van Berkhoutweg,4,,,1165LZ,Halfweg,Haarlemmerliede en Spaarnwoude,Noord-Holland,VBO,4.755603,52.384950
Teding van Berkhoutweg,5,,,1165LZ,Halfweg,Haarlemmerliede en Spaarnwoude,Noord-Holland,VBO,4.755727,52.385570
Teding van Berkhoutweg,6,a,,1165LZ,Halfweg,Haarlemmerliede en Spaarnwoude,Noord-Holland,VBO,4.755513,52.385102
Teding van Berkhoutweg,6,,,1165LZ,Halfweg,Haarlemmerliede en Spaarnwoude,Noord-Holland,VBO,4.755543,52.385057
Teding van Berkhoutweg,8,,,1165LZ,Halfweg,Haarlemmerliede en Spaarnwoude,Noord-Holland,VBO,4.755776,52.385193
Teding van Berkhoutweg,10,,,1165LZ,Halfweg,Haarlemmerliede en Spaarnwoude,Noord-Holland,VBO,4.755849,52.385212
Teding van Berkhoutweg,12,,,1165LZ,Halfweg,Haarlemmerliede en Spaarnwoude,Noord-Holland,VBO,4.755937,52.385230
Teding van Berkhoutweg,14,,,1165LZ,Halfweg,Haarlemmerliede en Spaarnwoude,Noord-Holland,VBO,4.756010,52.385248
Teding van Berkhoutweg,16,,,1165LZ,Halfweg,Haarlemmerliede en Spaarnwoude,Noord-Holland,VBO,4.756186,52.385285
Teding van Berkhoutweg,18,,,1165LZ,Halfweg,Haarlemmerliede en Spaarnwoude,Noord-Holland,VBO,4.756274,52.385313
Teding van Berkhoutweg,20,,,1165LZ,Halfweg,Haarlemmerliede en Spaarnwoude,Noord-Holland,VBO,4.756376,52.385331
Teding van Berkhoutweg,22,,,1165LZ,Halfweg,Haarlemmerliede en Spaarnwoude,Noord-Holland,VBO,4.756479,52.385359
Teding van Berkhoutweg,24,,,1165LZ,Halfweg,Haarlemmerliede en Spaarnwoude,Noord-Holland,VBO,4.756829,52.385513
Teding van Berkhoutweg,26,,,1165LZ,Halfweg,Haarlemmerliede en Spaarnwoude,Noord-Holland,VBO,4.756954,52.385999
Teding van Berkhoutweg,28,,,1165LZ,Halfweg,Haarlemmerliede en Spaarnwoude,Noord-Holland,VBO,4.757085,52.386108
Teding van Berkhoutweg,30,,,1165LZ,Halfweg,Haarlemmerliede en Spaarnwoude,Noord-Holland,VBO,4.757128,52.386207
Teding van Berkhoutweg,32,,,1165LZ,Halfweg,Haarlemmerliede en Spaarnwoude,Noord-Holland,VBO,4.757185,52.386324
Teding van Berkhoutweg,34,,,1165LZ,Halfweg,Haarlemmerliede en Spaarnwoude,Noord-Holland,VBO,4.757257,52.386414
Teding van Berkhoutweg,36,,,1165LZ,Halfweg,Haarlemmerliede en Spaarnwoude,Noord-Holland,VBO,4.757358,52.386532
Teding van Berkhoutweg,38,,,1165LZ,Halfweg,Haarlemmerliede en Spaarnwoude,Noord-Holland,VBO,4.757460,52.386604
Teding van Berkhoutweg,40,,,1165LZ,Halfweg,Haarlemmerliede en Spaarnwoude,Noord-Holland,VBO,4.757576,52.386704
Teding van Berkhoutweg,42,,,1165LZ,Halfweg,Haarlemmerliede en Spaarnwoude,Noord-Holland,VBO,4.757678,52.386785
Teding van Berkhoutweg,44,,,1165LZ,Halfweg,Haarlemmerliede en Spaarnwoude,Noord-Holland,VBO,4.757779,52.386876
Teding van Berkhoutweg,46,,,1165LZ,Halfweg,Haarlemmerliede en Spaarnwoude,Noord-Holland,VBO,4.757895,52.386966
Teding van Berkhoutweg,48,,,1165LZ,Halfweg,Haarlemmerliede en Spaarnwoude,Noord-Holland,VBO,4.757997,52.387066
Teding van Berkhoutweg,50,,,1165LZ,Halfweg,Haarlemmerliede en Spaarnwoude,Noord-Holland,VBO,4.758143,52.387147
Teding van Berkhoutweg,52,,,1165LZ,Halfweg,Haarlemmerliede en Spaarnwoude,Noord-Holland,VBO,4.758170,52.387273
Amsterdamsestraatweg,2,a,,1165MA,Halfweg,Haarlemmerliede en Spaarnwoude,Noord-Holland,VBO,4.752329,52.383800
Amsterdamsestraatweg,2,,,1165MA,Halfweg,Haarlemmerliede en Spaarnwoude,Noord-Holland,VBO,4.752433,52.383746
Amsterdamsestraatweg,6,,,1165MA,Halfweg,Haarlemmerliede en Spaarnwoude,Noord-Holland,VBO,4.752536,52.383765
Amsterdamsestraatweg,8,a,,1165MA,Halfweg,Haarlemmerliede en Spaarnwoude,Noord-Holland,VBO,4.752655,52.383667
Amsterdamsestraatweg,8,,,1165MA,Halfweg,Haarlemmerliede en Spaarnwoude,Noord-Holland,VBO,4.752668,52.383757
Amsterdamsestraatweg,10,,,1165MA,Halfweg,Haarlemmerliede en Spaarnwoude,Noord-Holland,VBO,4.753079,52.383768
Amsterdamsestraatweg,12,,,1165MA,Halfweg,Haarlemmerliede en Spaarnwoude,Noord-Holland,VBO,4.753182,52.383768
Amsterdamsestraatweg,14,,,1165MA,Halfweg,Haarlemmerliede en Spaarnwoude,Noord-Holland,VBO,4.753285,52.383778
Amsterdamsestraatweg,16,a,,1165MA,Halfweg,Haarlemmerliede en Spaarnwoude,Noord-Holland,VBO,4.753435,52.383500
Amsterdamsestraatweg,16,,,1165MA,Halfweg,Haarlemmerliede en Spaarnwoude,Noord-Holland,VBO,4.753406,52.383732
Amsterdamsestraatweg,22,,,1165MA,Halfweg,Haarlemmerliede en Spaarnwoude,Noord-Holland,VBO,4.754035,52.383692
Amsterdamsestraatweg,24,a,,1165MA,Halfweg,Haarlemmerliede en Spaarnwoude,Noord-Holland,VBO,4.754241,52.383648
Amsterdamsestraatweg,24,,,1165MA,Halfweg,Haarlemmerliede en Spaarnwoude,Noord-Holland,VBO,4.754240,52.383693
Amsterdamsestraatweg,26,,,1165MA,Halfweg,Haarlemmerliede en Spaarnwoude,Noord-Holland,VBO,4.754358,52.383685
Amsterdamsestraatweg,38,,,1165MA,Halfweg,Haarlemmerliede en Spaarnwoude,Noord-Holland,VBO,4.755784,52.383602
Amsterdamsestraatweg,40,,,1165MA,Halfweg,Haarlemmerliede en Spaarnwoude,Noord-Holland,VBO,4.755960,52.383612
Amsterdamsestraatweg,42,,,1165MB,Halfweg,Haarlemmerliede en Spaarnwoude,Noord-Holland,VBO,4.756607,52.383562
Amsterdamsestraatweg,44,,,1165MB,Halfweg,Haarlemmerliede en Spaarnwoude,Noord-Holland,VBO,4.756887,52.383536
Amsterdamsestraatweg,46,,,1165MB,Halfweg,Haarlemmerliede en Spaarnwoude,Noord-Holland,VBO,4.757077,52.383546
Amsterdamsestraatweg,48,,,1165MB,Halfweg,Haarlemmerliede en Spaarnwoude,Noord-Holland,VBO,4.757166,52.383547
Amsterdamsestraatweg,50,,,1165MB,Halfweg,Haarlemmerliede en Spaarnwoude,Noord-Holland,VBO,4.757356,52.383548
Amsterdamsestraatweg,52,,,1165MB,Halfweg,Haarlemmerliede en Spaarnwoude,Noord-Holland,VBO,4.757445,52.383548
Amsterdamsestraatweg,54,,,1165MB,Halfweg,Haarlemmerliede en Spaarnwoude,Noord-Holland,VBO,4.757635,52.383549
Amsterdamsestraatweg,56,,,1165MB,Halfweg,Haarlemmerliede en Spaarnwoude,Noord-Holland,VBO,4.757724,52.383550
Amsterdamsestraatweg,58,,,1165MB,Halfweg,Haarlemmerliede en Spaarnwoude,Noord-Holland,VBO,4.757812,52.383550
Amsterdamsestraatweg,60,,,1165MB,Halfweg,Haarlemmerliede en Spaarnwoude,Noord-Holland,VBO,4.757959,52.383551
Amsterdamsestraatweg,62,,,1165MB,Halfweg,Haarlemmerliede en Spaarnwoude,Noord-Holland,VBO,4.758091,52.383561
Amsterdamsestraatweg,64,,,1165MB,Halfweg,Haarlemmerliede en Spaarnwoude,Noord-Holland,VBO,4.758267,52.383553
Amsterdamsestraatweg,66,,,1165MB,Halfweg,Haarlemmerliede en Spaarnwoude,Noord-Holland,VBO,4.758370,52.383553
Amsterdamsestraatweg,68,,,1165MB,Halfweg,Haarlemmerliede en Spaarnwoude,Noord-Holland,VBO,4.758663,52.383582
Dokter Baumannplein,1,a,,1165MC,Halfweg,Haarlemmerliede en Spaarnwoude,Noord-Holland,VBO,4.750424,52.384535
Dokter Baumannplein,1,,,1165MC,Halfweg,Haarlemmerliede en Spaarnwoude,Noord-Holland,VBO,4.750365,52.384553
Dokter Baumannplein,5,,,1165MC,Halfweg,Haarlemmerliede en Spaarnwoude,Noord-Holland,VBO,4.750586,52.384500
Dokter Baumannplein,7,,,1165MC,Halfweg,Haarlemmerliede en Spaarnwoude,Noord-Holland,VBO,4.750674,52.384510
Dokter Baumannplein,9,,,1165MC,Halfweg,Haarlemmerliede en Spaarnwoude,Noord-Holland,VBO,4.750733,52.384528
Dokter Baumannplein,11,,,1165MC,Halfweg,Haarlemmerliede en Spaarnwoude,Noord-Holland,VBO,4.750821,52.384511
Dokter Baumannplein,15,,,1165MC,Halfweg,Haarlemmerliede en Spaarnwoude,Noord-Holland,VBO,4.750924,52.384493
Dokter Baumannplein,17,,,1165MC,Halfweg,Haarlemmerliede en Spaarnwoude,Noord-Holland,VBO,4.750998,52.384449
Dokter Baumannplein,19,,,1165MC,Halfweg,Haarlemmerliede en Spaarnwoude,Noord-Holland,VBO,4.751056,52.384530
Dokter Baumannplein,21,,,1165MC,Halfweg,Haarlemmerliede en Spaarnwoude,Noord-Holland,VBO,4.751116,52.384440
Dokter Baumannplein,23,,,1165MC,Halfweg,Haarlemmerliede en Spaarnwoude,Noord-Holland,VBO,4.751249,52.384369
Dokter Baumannplein,25,,,1165MC,Halfweg,Haarlemmerliede en Spaarnwoude,Noord-Holland,VBO,4.751426,52.384343
Dokter Baumannplein,27,a,,1165MC,Halfweg,Haarlemmerliede en Spaarnwoude,Noord-Holland,VBO,4.751544,52.384281
Dokter Baumannplein,27,,,1165MC,Halfweg,Haarlemmerliede en Spaarnwoude,Noord-Holland,VBO,4.751485,52.384298
Dokter Baumannplein,29,,,1165MC,Halfweg,Haarlemmerliede en Spaarnwoude,Noord-Holland,VBO,4.751602,52.384326
Dokter Baumannplein,31,,,1165MC,Halfweg,Haarlemmerliede en Spaarnwoude,Noord-Holland,VBO,4.751780,52.384246
Dokter Baumannplein,33,,,1165MC,Halfweg,Haarlemmerliede en Spaarnwoude,Noord-Holland,VBO,4.752206,52.384194
Dokter Baumannplein,35,a,,1165MC,Halfweg,Haarlemmerliede en Spaarnwoude,Noord-Holland,VBO,4.752280,52.384186
Dokter Baumannplein,35,,,1165MC,Halfweg,Haarlemmerliede en Spaarnwoude,Noord-Holland,VBO,4.752280,52.384150
Dokter Baumannplein,37,,,1165MC,Halfweg,Haarlemmerliede en Spaarnwoude,Noord-Holland,VBO,4.752354,52.384132
Dokter Baumannplein,2,,,1165MD,Halfweg,Haarlemmerliede en Spaarnwoude,Noord-Holland,VBO,4.750504,52.384069
Dokter Baumannplein,4,,,1165MD,Halfweg,Haarlemmerliede en Spaarnwoude,Noord-Holland,VBO,4.750636,52.384078
Dokter Baumannplein,6,,,1165MD,Halfweg,Haarlemmerliede en Spaarnwoude,Noord-Holland,VBO,4.750902,52.383999
Dokter Baumannplein,8,,,1165MD,Halfweg,Haarlemmerliede en Spaarnwoude,Noord-Holland,VBO,4.750858,52.383972
Dokter Baumannplein,10,,,1165MD,Halfweg,Haarlemmerliede en Spaarnwoude,Noord-Holland,VBO,4.750873,52.383945
Dokter Baumannplein,12,,,1165MD,Halfweg,Haarlemmerliede en Spaarnwoude,Noord-Holland,VBO,4.750844,52.383918
Dokter Baumannplein,14,,,1165MD,Halfweg,Haarlemmerliede en Spaarnwoude,Noord-Holland,VBO,4.751005,52.383981
Dokter Baumannplein,16,,,1165MD,Halfweg,Haarlemmerliede en Spaarnwoude,Noord-Holland,VBO,4.750991,52.383954
Dokter Baumannplein,18,,,1165MD,Halfweg,Haarlemmerliede en Spaarnwoude,Noord-Holland,VBO,4.750976,52.383927
Dokter Baumannplein,20,,,1165MD,Halfweg,Haarlemmerliede en Spaarnwoude,Noord-Holland,VBO,4.750977,52.383900
Dokter Baumannplein,22,,,1165MD,Halfweg,Haarlemmerliede en Spaarnwoude,Noord-Holland,VBO,4.751123,52.383964
Dokter Baumannplein,24,,,1165MD,Halfweg,Haarlemmerliede en Spaarnwoude,Noord-Holland,VBO,4.751108,52.383937
Dokter Baumannplein,26,,,1165MD,Halfweg,Haarlemmerliede en Spaarnwoude,Noord-Holland,VBO,4.751094,52.383919
Dokter Baumannplein,28,,,1165MD,Halfweg,Haarlemmerliede en Spaarnwoude,Noord-Holland,VBO,4.751080,52.383892
Dokter Baumannplein,30,,,1165MD,Halfweg,Haarlemmerliede en Spaarnwoude,Noord-Holland,VBO,4.751226,52.383947
Dokter Baumannplein,32,,,1165MD,Halfweg,Haarlemmerliede en Spaarnwoude,Noord-Holland,VBO,4.751226,52.383920
Dokter Baumannplein,34,,,1165MD,Halfweg,Haarlemmerliede en Spaarnwoude,Noord-Holland,VBO,4.751227,52.383893
Dokter Baumannplein,36,,,1165MD,Halfweg,Haarlemmerliede en Spaarnwoude,Noord-Holland,VBO,4.751198,52.383866
Dokter Baumannplein,38,,,1165MD,Halfweg,Haarlemmerliede en Spaarnwoude,Noord-Holland,VBO,4.751329,52.383920
Dokter Baumannplein,40,,,1165MD,Halfweg,Haarlemmerliede en Spaarnwoude,Noord-Holland,VBO,4.751300,52.383893
Dokter Baumannplein,42,,,1165MD,Halfweg,Haarlemmerliede en Spaarnwoude,Noord-Holland,VBO,4.751300,52.383875
Dokter Baumannplein,44,,,1165MD,Halfweg,Haarlemmerliede en Spaarnwoude,Noord-Holland,VBO,4.751286,52.383848
Dokter Baumannplein,46,,,1165MD,Halfweg,Haarlemmerliede en Spaarnwoude,Noord-Holland,VBO,4.751432,52.383903
Dokter Baumannplein,48,,,1165MD,Halfweg,Haarlemmerliede en Spaarnwoude,Noord-Holland,VBO,4.751418,52.383867
Dokter Baumannplein,50,,,1165MD,Halfweg,Haarlemmerliede en Spaarnwoude,Noord-Holland,VBO,4.751403,52.383849
Dokter Baumannplein,52,,,1165MD,Halfweg,Haarlemmerliede en Spaarnwoude,Noord-Holland,VBO,4.751389,52.383822
Dokter Baumannplein,54,,,1165MD,Halfweg,Haarlemmerliede en Spaarnwoude,Noord-Holland,VBO,4.751771,52.383842
Dokter Baumannplein,56,,,1165MD,Halfweg,Haarlemmerliede en Spaarnwoude,Noord-Holland,VBO,4.751757,52.383779
Dokter Baumannplein,58,,,1165MD,Halfweg,Haarlemmerliede en Spaarnwoude,Noord-Holland,VBO,4.751830,52.383770
Dokter Baumannplein,60,,,1165MD,Halfweg,Haarlemmerliede en Spaarnwoude,Noord-Holland,VBO,4.751874,52.383833
Dokter Baumannplein,62,,,1165MD,Halfweg,Haarlemmerliede en Spaarnwoude,Noord-Holland,VBO,4.751977,52.383780
Dokter Baumannplein,64,,,1165MD,Halfweg,Haarlemmerliede en Spaarnwoude,Noord-Holland,VBO,4.751977,52.383780
Dubbele Buurt,1,,,1165ME,Halfweg,Haarlemmerliede en Spaarnwoude,Noord-Holland,VBO,4.755374,52.384562
Dubbele Buurt,3,,,1165ME,Halfweg,Haarlemmerliede en Spaarnwoude,Noord-Holland,VBO,4.755694,52.384734
Dubbele Buurt,7,,,1165ME,Halfweg,Haarlemmerliede en Spaarnwoude,Noord-Holland,VBO,4.755813,52.384681
Dubbele Buurt,9,a,,1165ME,Halfweg,Haarlemmerliede en Spaarnwoude,Noord-Holland,VBO,4.755930,52.384718
Dubbele Buurt,9,b,,1165ME,Halfweg,Haarlemmerliede en Spaarnwoude,Noord-Holland,VBO,4.756076,52.384727
Dubbele Buurt,9,,,1165ME,Halfweg,Haarlemmerliede en Spaarnwoude,Noord-Holland,VBO,4.755857,52.384690
Dubbele Buurt,11,,,1165ME,Halfweg,Haarlemmerliede en Spaarnwoude,Noord-Holland,VBO,4.756135,52.384764
Dubbele Buurt,13,,,1165ME,Halfweg,Haarlemmerliede en Spaarnwoude,Noord-Holland,VBO,4.756384,52.384819
Dubbele Buurt,15,,,1165ME,Halfweg,Haarlemmerliede en Spaarnwoude,Noord-Holland,VBO,4.756486,52.384847
Dubbele Buurt,16,,,1165ME,Halfweg,Haarlemmerliede en Spaarnwoude,Noord-Holland,VBO,4.752837,52.384234
Dubbele Buurt,17,,,1165ME,Halfweg,Haarlemmerliede en Spaarnwoude,Noord-Holland,VBO,4.756559,52.384874
Dubbele Buurt,2,,,1165MG,Halfweg,Haarlemmerliede en Spaarnwoude,Noord-Holland,VBO,4.750525,52.384680
Dubbele Buurt,4,a,,1165MG,Halfweg,Haarlemmerliede en Spaarnwoude,Noord-Holland,VBO,4.750731,52.384627
Dubbele Buurt,4,b,,1165MG,Halfweg,Haarlemmerliede en Spaarnwoude,Noord-Holland,VBO,4.750805,52.384627
Dubbele Buurt,4,,,1165MG,Halfweg,Haarlemmerliede en Spaarnwoude,Noord-Holland,VBO,4.750657,52.384654
Dubbele Buurt,6,,,1165MG,Halfweg,Haarlemmerliede en Spaarnwoude,Noord-Holland,VBO,4.751850,52.384426
Dubbele Buurt,8,a,,1165MG,Halfweg,Haarlemmerliede en Spaarnwoude,Noord-Holland,VBO,4.751979,52.384374
Dubbele Buurt,8,,,1165MG,Halfweg,Haarlemmerliede en Spaarnwoude,Noord-Holland,VBO,4.752012,52.384400
Dubbele Buurt,10,,,1165MG,Halfweg,Haarlemmerliede en Spaarnwoude,Noord-Holland,VBO,4.752233,52.384347
Dubbele Buurt,12,,,1165MG,Halfweg,Haarlemmerliede en Spaarnwoude,Noord-Holland,VBO,4.752500,52.384178
Dubbele Buurt,14,,,1165MG,Halfweg,Haarlemmerliede en Spaarnwoude,Noord-Holland,VBO,4.752603,52.384161
Dubbele Buurt,18,,,1165MG,Halfweg,Haarlemmerliede en Spaarnwoude,Noord-Holland,VBO,4.752999,52.384244
Dubbele Buurt,20,a,,1165MG,Halfweg,Haarlemmerliede en Spaarnwoude,Noord-Holland,VBO,4.753425,52.384192
Dubbele Buurt,20,,,1165MG,Halfweg,Haarlemmerliede en Spaarnwoude,Noord-Holland,VBO,4.753219,52.384236
Dubbele Buurt,22,,,1165MG,Halfweg,Haarlemmerliede en Spaarnwoude,Noord-Holland,VBO,4.753543,52.384202
Dubbele Buurt,24,,,1165MG,Halfweg,Haarlemmerliede en Spaarnwoude,Noord-Holland,VBO,4.753553,52.384169
Dubbele Buurt,26,,,1165MG,Halfweg,Haarlemmerliede en Spaarnwoude,Noord-Holland,VBO,4.753675,52.384238
Dubbele Buurt,28,,,1165MG,Halfweg,Haarlemmerliede en Spaarnwoude,Noord-Holland,VBO,4.753763,52.384230
Dubbele Buurt,30,,,1165MG,Halfweg,Haarlemmerliede en Spaarnwoude,Noord-Holland,VBO,4.753851,52.384230
Dubbele Buurt,32,,,1165MG,Halfweg,Haarlemmerliede en Spaarnwoude,Noord-Holland,VBO,4.753983,52.384204
Dubbele Buurt,34,,,1165MG,Halfweg,Haarlemmerliede en Spaarnwoude,Noord-Holland,VBO,4.756841,52.384705
Dubbele Buurt,36,,,1165MG,Halfweg,Haarlemmerliede en Spaarnwoude,Noord-Holland,VBO,4.756943,52.384732
Dubbele Buurt,38,,,1165MG,Halfweg,Haarlemmerliede en Spaarnwoude,Noord-Holland,VBO,4.757089,52.384787
Dubbele Buurt,40,,,1165MG,Halfweg,Haarlemmerliede en Spaarnwoude,Noord-Holland,VBO,4.757192,52.384805
Dubbele Buurt,42,,,1165MG,Halfweg,Haarlemmerliede en Spaarnwoude,Noord-Holland,VBO,4.757338,52.384833
Dubbele Buurt,44,,,1165MG,Halfweg,Haarlemmerliede en Spaarnwoude,Noord-Holland,VBO,4.757426,52.384843
Dubbele Buurt,46,,,1165MG,Halfweg,Haarlemmerliede en Spaarnwoude,Noord-Holland,VBO,4.757380,52.384995
Dubbele Buurt,48,,,1165MG,Halfweg,Haarlemmerliede en Spaarnwoude,Noord-Holland,VBO,4.757321,52.385022
Dubbele Buurt,50,,,1165MG,Halfweg,Haarlemmerliede en Spaarnwoude,Noord-Holland,VBO,4.757131,52.384967
Dubbele Buurt,52,,,1165MG,Halfweg,Haarlemmerliede en Spaarnwoude,Noord-Holland,VBO,4.757174,52.385003
Wethouder Doevenstraat,1,,,1165MH,Halfweg,Haarlemmerliede en Spaarnwoude,Noord-Holland,VBO,4.757372,52.385552
Wethouder Doevenstraat,2,,,1165MH,Halfweg,Haarlemmerliede en Spaarnwoude,Noord-Holland,VBO,4.757652,52.385482
Wethouder Doevenstraat,3,,,1165MH,Halfweg,Haarlemmerliede en Spaarnwoude,Noord-Holland,VBO,4.757918,52.385384
Wethouder Doevenstraat,4,,,1165MH,Halfweg,Haarlemmerliede en Spaarnwoude,Noord-Holland,VBO,4.758096,52.385260
Wethouder Doevenstraat,5,,,1165MH,Halfweg,Haarlemmerliede en Spaarnwoude,Noord-Holland,VBO,4.758230,52.385116
Wethouder Doevenstraat,6,,,1165MH,Halfweg,Haarlemmerliede en Spaarnwoude,Noord-Holland,VBO,4.758350,52.384982
Wethouder Doevenstraat,7,,,1165MH,Halfweg,Haarlemmerliede en Spaarnwoude,Noord-Holland,VBO,4.758647,52.384750
Wethouder Doevenstraat,8,,,1165MH,Halfweg,Haarlemmerliede en Spaarnwoude,Noord-Holland,VBO,4.758559,52.384732
Wethouder Doevenstraat,9,,,1165MH,Halfweg,Haarlemmerliede en Spaarnwoude,Noord-Holland,VBO,4.758441,52.384731
Wethouder Doevenstraat,10,,,1165MH,Halfweg,Haarlemmerliede en Spaarnwoude,Noord-Holland,VBO,4.758368,52.384731
Wethouder Doevenstraat,11,,,1165MH,Halfweg,Haarlemmerliede en Spaarnwoude,Noord-Holland,VBO,4.758236,52.384739
Wethouder Doevenstraat,12,,,1165MH,Halfweg,Haarlemmerliede en Spaarnwoude,Noord-Holland,VBO,4.758148,52.384730
Wethouder Doevenstraat,13,,,1165MH,Halfweg,Haarlemmerliede en Spaarnwoude,Noord-Holland,VBO,4.758077,52.384732
Wethouder Doevenstraat,14,,,1165MH,Halfweg,Haarlemmerliede en Spaarnwoude,Noord-Holland,VBO,4.757927,52.384737
Wethouder Doevenstraat,15,,,1165MH,Halfweg,Haarlemmerliede en Spaarnwoude,Noord-Holland,VBO,4.757824,52.384737
Wethouder Doevenstraat,16,,,1165MH,Halfweg,Haarlemmerliede en Spaarnwoude,Noord-Holland,VBO,4.757721,52.384736
Wethouder Doevenstraat,17,,,1165MH,Halfweg,Haarlemmerliede en Spaarnwoude,Noord-Holland,VBO,4.757678,52.384709
Wethouder Doevenstraat,18,,,1165MH,Halfweg,Haarlemmerliede en Spaarnwoude,Noord-Holland,VBO,4.757747,52.384997
Wethouder Doevenstraat,19,,,1165MH,Halfweg,Haarlemmerliede en Spaarnwoude,Noord-Holland,VBO,4.757805,52.385060
Wethouder Doevenstraat,20,,,1165MH,Halfweg,Haarlemmerliede en Spaarnwoude,Noord-Holland,VBO,4.757390,52.385310
Wethouder Doevenstraat,21,,,1165MH,Halfweg,Haarlemmerliede en Spaarnwoude,Noord-Holland,VBO,4.757508,52.385292
Haarlemmerstraatweg,7,a,,1165MJ,Halfweg,Haarlemmerliede en Spaarnwoude,Noord-Holland,VBO,4.747444,52.385367
Haarlemmerstraatweg,7,b,,1165MJ,Halfweg,Haarlemmerliede en Spaarnwoude,Noord-Holland,VBO,4.747422,52.385298
Haarlemmerstraatweg,7,c,,1165MJ,Halfweg,Haarlemmerliede en Spaarnwoude,Noord-Holland,VBO,4.747401,52.385229
Haarlemmerstraatweg,9,a,,1165MJ,Halfweg,Haarlemmerliede en Spaarnwoude,Noord-Holland,VBO,4.747192,52.385395
Haarlemmerstraatweg,9,b,,1165MJ,Halfweg,Haarlemmerliede en Spaarnwoude,Noord-Holland,VBO,4.747171,52.385324
Haarlemmerstraatweg,9,c,,1165MJ,Halfweg,Haarlemmerliede en Spaarnwoude,Noord-Holland,VBO,4.747138,52.385253
Haarlemmerstraatweg,11,a,,1165MJ,Halfweg,Haarlemmerliede en Spaarnwoude,Noord-Holland,VBO,4.746784,52.385356
Haarlemmerstraatweg,11,b,,1165MJ,Halfweg,Haarlemmerliede en Spaarnwoude,Noord-Holland,VBO,4.746758,52.385290
Haarlemmerstraatweg,11,,,1165MJ,Halfweg,Haarlemmerliede en Spaarnwoude,Noord-Holland,VBO,4.746810,52.385430
Haarlemmerstraatweg,13,a,,1165MJ,Halfweg,Haarlemmerliede en Spaarnwoude,Noord-Holland,VBO,4.746082,52.385456
Haarlemmerstraatweg,13,b,,1165MJ,Halfweg,Haarlemmerliede en Spaarnwoude,Noord-Holland,VBO,4.745951,52.385437
Haarlemmerstraatweg,13,c,,1165MJ,Halfweg,Haarlemmerliede en Spaarnwoude,Noord-Holland,VBO,4.745809,52.385418
Haarlemmerstraatweg,13,d,,1165MJ,Halfweg,Haarlemmerliede en Spaarnwoude,Noord-Holland,VBO,4.745656,52.385410
Haarlemmerstraatweg,13,e,,1165MJ,Halfweg,Haarlemmerliede en Spaarnwoude,Noord-Holland,VBO,4.744208,52.384745
Haarlemmerstraatweg,13,f,,1165MJ,Halfweg,Haarlemmerliede en Spaarnwoude,Noord-Holland,VBO,4.744987,52.384611
Haarlemmerstraatweg,13,g,,1165MJ,Halfweg,Haarlemmerliede en Spaarnwoude,Noord-Holland,VBO,4.744930,52.384675
Haarlemmerstraatweg,13,h,,1165MJ,Halfweg,Haarlemmerliede en Spaarnwoude,Noord-Holland,VBO,4.745314,52.384633
Haarlemmerstraatweg,13,i,,1165MJ,Halfweg,Haarlemmerliede en Spaarnwoude,Noord-Holland,VBO,4.745264,52.384470
Haarlemmerstraatweg,13,j,,1165MJ,Halfweg,Haarlemmerliede en Spaarnwoude,Noord-Holland,VBO,4.745228,52.384332
Haarlemmerstraatweg,13,k,,1165MJ,Halfweg,Haarlemmerliede en Spaarnwoude,Noord-Holland,VBO,4.745211,52.384187
Haarlemmerstraatweg,13,l,,1165MJ,Halfweg,Haarlemmerliede en Spaarnwoude,Noord-Holland,VBO,4.744461,52.384434
Haarlemmerstraatweg,13,,,1165MJ,Halfweg,Haarlemmerliede en Spaarnwoude,Noord-Holland,VBO,4.746341,52.385425
Haarlemmerstraatweg,15,,,1165MJ,Halfweg,Haarlemmerliede en Spaarnwoude,Noord-Holland,VBO,4.745592,52.385525
Haarlemmerstraatweg,17,,,1165MJ,Halfweg,Haarlemmerliede en Spaarnwoude,Noord-Holland,VBO,4.745518,52.385534
Haarlemmerstraatweg,19,,,1165MJ,Halfweg,Haarlemmerliede en Spaarnwoude,Noord-Holland,VBO,4.745415,52.385542
Haarlemmerstraatweg,21,,,1165MJ,Halfweg,Haarlemmerliede en Spaarnwoude,Noord-Holland,VBO,4.745357,52.385551
Haarlemmerstraatweg,23,,,1165MJ,Halfweg,Haarlemmerliede en Spaarnwoude,Noord-Holland,VBO,4.745283,52.385559
Haarlemmerstraatweg,25,,,1165MJ,Halfweg,Haarlemmerliede en Spaarnwoude,Noord-Holland,VBO,4.745136,52.385576
Haarlemmerstraatweg,27,,,1165MJ,Halfweg,Haarlemmerliede en Spaarnwoude,Noord-Holland,VBO,4.744989,52.385603
Haarlemmerstraatweg,29,,,1165MJ,Halfweg,Haarlemmerliede en Spaarnwoude,Noord-Holland,VBO,4.744930,52.385602
Haarlemmerstraatweg,31,,,1165MJ,Halfweg,Haarlemmerliede en Spaarnwoude,Noord-Holland,VBO,4.744841,52.385647
Haarlemmerstraatweg,45,,,1165MJ,Halfweg,Haarlemmerliede en Spaarnwoude,Noord-Holland,VBO,4.743738,52.385731
Haarlemmerstraatweg,47,,,1165MJ,Halfweg,Haarlemmerliede en Spaarnwoude,Noord-Holland,VBO,4.743327,52.385710
Haarlemmerstraatweg,49,,,1165MJ,Halfweg,Haarlemmerliede en Spaarnwoude,Noord-Holland,VBO,4.743165,52.385728
Haarlemmerstraatweg,51,,,1165MJ,Halfweg,Haarlemmerliede en Spaarnwoude,Noord-Holland,VBO,4.742741,52.385635
Haarlemmerstraatweg,55,,,1165MJ,Halfweg,Haarlemmerliede en Spaarnwoude,Noord-Holland,VBO,4.742459,52.385814
Haarlemmerstraatweg,57,a,,1165MJ,Halfweg,Haarlemmerliede en Spaarnwoude,Noord-Holland,VBO,4.742019,52.385739
Haarlemmerstraatweg,57,b,,1165MJ,Halfweg,Haarlemmerliede en Spaarnwoude,Noord-Holland,VBO,4.741843,52.385756
Haarlemmerstraatweg,57,c,,1165MJ,Halfweg,Haarlemmerliede en Spaarnwoude,Noord-Holland,VBO,4.741826,52.385891
Haarlemmerstraatweg,57,d,,1165MJ,Halfweg,Haarlemmerliede en Spaarnwoude,Noord-Holland,VBO,4.741520,52.385737
Haarlemmerstraatweg,57,,,1165MJ,Halfweg,Haarlemmerliede en Spaarnwoude,Noord-Holland,VBO,4.742341,52.385867
Haarlemmerstraatweg,59,a,,1165MJ,Halfweg,Haarlemmerliede en Spaarnwoude,Noord-Holland,VBO,4.741270,52.385771
Haarlemmerstraatweg,59,,,1165MK,Halfweg,Haarlemmerliede en Spaarnwoude,Noord-Holland,VBO,4.741415,52.385880
Haarlemmerstraatweg,61,,,1165MK,Halfweg,Haarlemmerliede en Spaarnwoude,Noord-Holland,VBO,4.741017,52.386012
Haarlemmerstraatweg,63,,,1165MK,Halfweg,Haarlemmerliede en Spaarnwoude,Noord-Holland,VBO,4.740913,52.386057
Haarlemmerstraatweg,67,,,1165MK,Halfweg,Haarlemmerliede en Spaarnwoude,Noord-Holland,VBO,4.738564,52.385972
Haarlemmerstraatweg,69,a,,1165MK,Halfweg,Haarlemmerliede en Spaarnwoude,Noord-Holland,VBO,4.737673,52.385662
Haarlemmerstraatweg,69,b,,1165MK,Halfweg,Haarlemmerliede en Spaarnwoude,Noord-Holland,VBO,4.737200,52.385821
Haarlemmerstraatweg,69,,,1165MK,Halfweg,Haarlemmerliede en Spaarnwoude,Noord-Holland,VBO,4.738187,52.385637
Haarlemmerstraatweg,71,,,1165MK,Halfweg,Haarlemmerliede en Spaarnwoude,Noord-Holland,VBO,4.727235,52.386260
Haarlemmerstraatweg,73,a,,1165MK,Halfweg,Haarlemmerliede en Spaarnwoude,Noord-Holland,VBO,4.723899,52.385768
Haarlemmerstraatweg,73,b,,1165MK,Halfweg,Haarlemmerliede en Spaarnwoude,Noord-Holland,VBO,4.723633,52.385750
Haarlemmerstraatweg,73,c,,1165MK,Halfweg,Haarlemmerliede en Spaarnwoude,Noord-Holland,VBO,4.723376,52.385728
Haarlemmerstraatweg,73,d,,1165MK,Halfweg,Haarlemmerliede en Spaarnwoude,Noord-Holland,VBO,4.723116,52.385694
Haarlemmerstraatweg,73,e,,1165MK,Halfweg,Haarlemmerliede en Spaarnwoude,Noord-Holland,VBO,4.722854,52.385660
Haarlemmerstraatweg,73,f,,1165MK,Halfweg,Haarlemmerliede en Spaarnwoude,Noord-Holland,VBO,4.722594,52.385626
Haarlemmerstraatweg,73,g,,1165MK,Halfweg,Haarlemmerliede en Spaarnwoude,Noord-Holland,VBO,4.722327,52.385592
Haarlemmerstraatweg,73,,traf,1165MK,Halfweg,Haarlemmerliede en Spaarnwoude,Noord-Holland,VBO,4.722276,52.385846
Haarlemmerstraatweg,73,,,1165MK,Halfweg,Haarlemmerliede en Spaarnwoude,Noord-Holland,VBO,4.724553,52.385823
Haarlemmerstraatweg,79,,,1165MK,Halfweg,Haarlemmerliede en Spaarnwoude,Noord-Holland,VBO,4.721455,52.385742
Haarlemmerstraatweg,81,,,1165MK,Halfweg,Haarlemmerliede en Spaarnwoude,Noord-Holland,VBO,4.719740,52.385517
Haarlemmerstraatweg,83,,,1165MK,Halfweg,Haarlemmerliede en Spaarnwoude,Noord-Holland,VBO,4.719904,52.385347
Haarlemmerstraatweg,85,,,1165MK,Halfweg,Haarlemmerliede en Spaarnwoude,Noord-Holland,VBO,4.719951,52.385132
Haarlemmerstraatweg,87,,,1165MK,Halfweg,Haarlemmerliede en Spaarnwoude,Noord-Holland,VBO,4.719998,52.384952
Haarlemmerstraatweg,89,,,1165MK,Halfweg,Haarlemmerliede en Spaarnwoude,Noord-Holland,VBO,4.719499,52.384931
Haarlemmerstraatweg,91,,,1165MK,Halfweg,Haarlemmerliede en Spaarnwoude,Noord-Holland,VBO,4.719320,52.385083
Haarlemmerstraatweg,93,,,1165MK,Halfweg,Haarlemmerliede en Spaarnwoude,Noord-Holland,VBO,4.719390,52.385299
Haarlemmerstraatweg,95,,,1165MK,Halfweg,Haarlemmerliede en Spaarnwoude,Noord-Holland,VBO,4.719269,52.385568
Haarlemmerstraatweg,97,,,1165MK,Halfweg,Haarlemmerliede en Spaarnwoude,Noord-Holland,VBO,4.718830,52.385422
Haarlemmerstraatweg,99,,,1165MK,Halfweg,Haarlemmerliede en Spaarnwoude,Noord-Holland,VBO,4.718448,52.385438
Haarlemmerstraatweg,101,,,1165MK,Halfweg,Haarlemmerliede en Spaarnwoude,Noord-Holland,VBO,4.718126,52.385409
Haarlemmerstraatweg,103,,traf,1165MK,Halfweg,Haarlemmerliede en Spaarnwoude,Noord-Holland,VBO,4.717668,52.385541
Haarlemmerstraatweg,103,,,1165MK,Halfweg,Haarlemmerliede en Spaarnwoude,Noord-Holland,VBO,4.717803,52.385389
Haarlemmerstraatweg,105,,,1165MK,Halfweg,Haarlemmerliede en Spaarnwoude,Noord-Holland,VBO,4.717613,52.385289
Haarlemmerstraatweg,107,,,1165MK,Halfweg,Haarlemmerliede en Spaarnwoude,Noord-Holland,VBO,4.717290,52.385260
Haarlemmerstraatweg,109,,,1165MK,Halfweg,Haarlemmerliede en Spaarnwoude,Noord-Holland,VBO,4.716968,52.385241
Haarlemmerstraatweg,111,a,,1165MK,Halfweg,Haarlemmerliede en Spaarnwoude,Noord-Holland,VBO,4.716826,52.384862
Haarlemmerstraatweg,111,,,1165MK,Halfweg,Haarlemmerliede en Spaarnwoude,Noord-Holland,VBO,4.716660,52.385212
Haarlemmerstraatweg,113,,,1165MK,Halfweg,Haarlemmerliede en Spaarnwoude,Noord-Holland,VBO,4.716103,52.385119
Haarlemmerstraatweg,115,,,1165MK,Halfweg,Haarlemmerliede en Spaarnwoude,Noord-Holland,VBO,4.716239,52.384859
Haarlemmerstraatweg,117,,,1165MK,Halfweg,Haarlemmerliede en Spaarnwoude,Noord-Holland,VBO,4.716095,52.384669
Haarlemmerstraatweg,119,,,1165MK,Halfweg,Haarlemmerliede en Spaarnwoude,Noord-Holland,VBO,4.716318,52.384518
Haarlemmerstraatweg,121,,,1165MK,Halfweg,Haarlemmerliede en Spaarnwoude,Noord-Holland,VBO,4.715576,52.384981
Haarlemmerstraatweg,123,,,1165MK,Halfweg,Haarlemmerliede en Spaarnwoude,Noord-Holland,VBO,4.715608,52.384801
Haarlemmerstraatweg,125,,,1165MK,Halfweg,Haarlemmerliede en Spaarnwoude,Noord-Holland,VBO,4.715625,52.384640
Haarlemmerstraatweg,127,,,1165MK,Halfweg,Haarlemmerliede en Spaarnwoude,Noord-Holland,VBO,4.715657,52.384460
Haarlemmerstraatweg,129,,,1165MK,Halfweg,Haarlemmerliede en Spaarnwoude,Noord-Holland,VBO,4.715764,52.384218
Haarlemmerstraatweg,131,,,1165MK,Halfweg,Haarlemmerliede en Spaarnwoude,Noord-Holland,VBO,4.716365,52.384311
Haarlemmerstraatweg,133,,,1165MK,Halfweg,Haarlemmerliede en Spaarnwoude,Noord-Holland,VBO,4.716700,52.384502
Haarlemmerstraatweg,135,,,1165MK,Halfweg,Haarlemmerliede en Spaarnwoude,Noord-Holland,VBO,4.717155,52.384505
Haarlemmerstraatweg,137,,,1165MK,Halfweg,Haarlemmerliede en Spaarnwoude,Noord-Holland,VBO,4.717373,52.384641
Haarlemmerstraatweg,139,,,1165MK,Halfweg,Haarlemmerliede en Spaarnwoude,Noord-Holland,VBO,4.717667,52.384660
Haarlemmerstraatweg,141,,,1165MK,Halfweg,Haarlemmerliede en Spaarnwoude,Noord-Holland,VBO,4.718004,52.384680
Haarlemmerstraatweg,143,,,1165MK,Halfweg,Haarlemmerliede en Spaarnwoude,Noord-Holland,VBO,4.718312,52.384709
Haarlemmerstraatweg,145,,,1165MK,Halfweg,Haarlemmerliede en Spaarnwoude,Noord-Holland,VBO,4.718517,52.384764
Haarlemmerstraatweg,147,,,1165MK,Halfweg,Haarlemmerliede en Spaarnwoude,Noord-Holland,VBO,4.718943,52.384802
Haarlemmerstraatweg,149,a,,1165MK,Halfweg,Haarlemmerliede en Spaarnwoude,Noord-Holland,VBO,4.714672,52.384562
Haarlemmerstraatweg,149,b,,1165MK,Halfweg,Haarlemmerliede en Spaarnwoude,Noord-Holland,VBO,4.714921,52.384600
Haarlemmerstraatweg,149,,,1165MK,Halfweg,Haarlemmerliede en Spaarnwoude,Noord-Holland,VBO,4.714290,52.384551
Haarlemmerstraatweg,153,,,1165MK,Halfweg,Haarlemmerliede en Spaarnwoude,Noord-Holland,VBO,4.712810,52.384291
Haarlemmerstraatweg,155,,,1165MK,Halfweg,Haarlemmerliede en Spaarnwoude,Noord-Holland,VBO,4.712946,52.384058
Haarlemmerstraatweg,157,,,1165MK,Halfweg,Haarlemmerliede en Spaarnwoude,Noord-Holland,VBO,4.713082,52.383834
Haarlemmerstraatweg,159,,,1165MK,Halfweg,Haarlemmerliede en Spaarnwoude,Noord-Holland,VBO,4.712730,52.383805
Haarlemmerstraatweg,161,,,1165MK,Halfweg,Haarlemmerliede en Spaarnwoude,Noord-Holland,VBO,4.712341,52.384262
Haarlemmerstraatweg,165,,,1165MK,Halfweg,Haarlemmerliede en Spaarnwoude,Noord-Holland,VBO,4.712007,52.383999
Haarlemmerstraatweg,169,,traf,1165MK,Halfweg,Haarlemmerliede en Spaarnwoude,Noord-Holland,VBO,4.705021,52.383617
Haarlemmerstraatweg,169,,,1165MK,Halfweg,Haarlemmerliede en Spaarnwoude,Noord-Holland,VBO,4.706580,52.382548
Vinkebrug,3,a,,1165ML,Halfweg,Haarlemmerliede en Spaarnwoude,Noord-Holland,VBO,4.722259,52.386951
Vinkebrug,3,,,1165ML,Halfweg,Haarlemmerliede en Spaarnwoude,Noord-Holland,VBO,4.722779,52.387720
Groeneweg,3,,,1165MN,Halfweg,Haarlemmerliede en Spaarnwoude,Noord-Holland,VBO,4.713764,52.389213
Groeneweg,4,,,1165MN,Halfweg,Haarlemmerliede en Spaarnwoude,Noord-Holland,VBO,4.713734,52.389258
Groeneweg,6,,,1165MN,Halfweg,Haarlemmerliede en Spaarnwoude,Noord-Holland,VBO,4.712154,52.392691
Groeneweg,7,,,1165MN,Halfweg,Haarlemmerliede en Spaarnwoude,Noord-Holland,VBO,4.711755,52.395709
Groeneweg,8,,,1165MN,Halfweg,Haarlemmerliede en Spaarnwoude,Noord-Holland,VBO,4.710227,52.397632
Suikersilo-West,1,,,1165MP,Halfweg,Haarlemmerliede en Spaarnwoude,Noord-Holland,VBO,4.743704,52.385029
Suikersilo-West,2,,,1165MP,Halfweg,Haarlemmerliede en Spaarnwoude,Noord-Holland,VBO,4.743660,52.385038
Suikersilo-West,3,,,1165MP,Halfweg,Haarlemmerliede en Spaarnwoude,Noord-Holland,VBO,4.743657,52.385272
Suikersilo-West,4,,,1165MP,Halfweg,Haarlemmerliede en Spaarnwoude,Noord-Holland,VBO,4.743730,52.385263
Suikersilo-West,5,,,1165MP,Halfweg,Haarlemmerliede en Spaarnwoude,Noord-Holland,VBO,4.743719,52.385047
Suikersilo-West,6,,,1165MP,Halfweg,Haarlemmerliede en Spaarnwoude,Noord-Holland,VBO,4.743675,52.385056
Suikersilo-West,7,,,1165MP,Halfweg,Haarlemmerliede en Spaarnwoude,Noord-Holland,VBO,4.743657,52.385245
Suikersilo-West,8,,,1165MP,Halfweg,Haarlemmerliede en Spaarnwoude,Noord-Holland,VBO,4.743731,52.385245
Suikersilo-West,9,,,1165MP,Halfweg,Haarlemmerliede en Spaarnwoude,Noord-Holland,VBO,4.743763,52.385048
Suikersilo-West,10,,,1165MP,Halfweg,Haarlemmerliede en Spaarnwoude,Noord-Holland,VBO,4.743586,52.385056
Suikersilo-West,11,,,1165MP,Halfweg,Haarlemmerliede en Spaarnwoude,Noord-Holland,VBO,4.743657,52.385227
Suikersilo-West,12,,,1165MP,Halfweg,Haarlemmerliede en Spaarnwoude,Noord-Holland,VBO,4.743789,52.385246
Suikersilo-West,13,,,1165MP,Halfweg,Haarlemmerliede en Spaarnwoude,Noord-Holland,VBO,4.743821,52.385066
Suikersilo-West,14,,,1165MP,Halfweg,Haarlemmerliede en Spaarnwoude,Noord-Holland,VBO,4.743571,52.385074
Suikersilo-West,15,,,1165MP,Halfweg,Haarlemmerliede en Spaarnwoude,Noord-Holland,VBO,4.743628,52.385236
Suikersilo-West,16,,,1165MP,Halfweg,Haarlemmerliede en Spaarnwoude,Noord-Holland,VBO,4.743716,52.385218
Suikersilo-West,17,,,1165MP,Halfweg,Haarlemmerliede en Spaarnwoude,Noord-Holland,VBO,4.743762,52.385084
Suikersilo-West,18,,,1165MP,Halfweg,Haarlemmerliede en Spaarnwoude,Noord-Holland,VBO,4.743527,52.385100
Suikersilo-West,19,,,1165MP,Halfweg,Haarlemmerliede en Spaarnwoude,Noord-Holland,VBO,4.743554,52.385235
Suikersilo-West,20,,,1165MP,Halfweg,Haarlemmerliede en Spaarnwoude,Noord-Holland,VBO,4.743775,52.385228
Suikersilo-West,21,,,1165MP,Halfweg,Haarlemmerliede en Spaarnwoude,Noord-Holland,VBO,4.743703,52.385083
Suikersilo-West,22,,,1165MP,Halfweg,Haarlemmerliede en Spaarnwoude,Noord-Holland,VBO,4.743601,52.385092
Suikersilo-West,23,,,1165MP,Halfweg,Haarlemmerliede en Spaarnwoude,Noord-Holland,VBO,4.743511,52.385190
Suikersilo-West,24,,,1165MP,Halfweg,Haarlemmerliede en Spaarnwoude,Noord-Holland,VBO,4.743834,52.385228
Suikersilo-West,25,,,1165MP,Halfweg,Haarlemmerliede en Spaarnwoude,Noord-Holland,VBO,4.743703,52.385110
Suikersilo-West,26,,,1165MP,Halfweg,Haarlemmerliede en Spaarnwoude,Noord-Holland,VBO,4.743659,52.385092
Suikersilo-West,27,,,1165MP,Halfweg,Haarlemmerliede en Spaarnwoude,Noord-Holland,VBO,4.743555,52.385190
Suikersilo-West,28,,,1165MP,Halfweg,Haarlemmerliede en Spaarnwoude,Noord-Holland,VBO,4.743834,52.385192
Suikersilo-West,29,,,1165MP,Halfweg,Haarlemmerliede en Spaarnwoude,Noord-Holland,VBO,4.743762,52.385111
Suikersilo-West,30,,,1165MP,Halfweg,Haarlemmerliede en Spaarnwoude,Noord-Holland,VBO,4.743659,52.385110
Suikersilo-West,31,,,1165MP,Halfweg,Haarlemmerliede en Spaarnwoude,Noord-Holland,VBO,4.743628,52.385191
Suikersilo-West,32,,,1165MP,Halfweg,Haarlemmerliede en Spaarnwoude,Noord-Holland,VBO,4.743775,52.385192
Suikersilo-West,33,,,1165MP,Halfweg,Haarlemmerliede en Spaarnwoude,Noord-Holland,VBO,4.743806,52.385111
Suikersilo-West,34,,,1165MP,Halfweg,Haarlemmerliede en Spaarnwoude,Noord-Holland,VBO,4.743586,52.385110
Suikersilo-West,35,,,1165MP,Halfweg,Haarlemmerliede en Spaarnwoude,Noord-Holland,VBO,4.743599,52.385173
Suikersilo-West,36,,,1165MP,Halfweg,Haarlemmerliede en Spaarnwoude,Noord-Holland,VBO,4.743702,52.385182
Suikersilo-West,37,,,1165MP,Halfweg,Haarlemmerliede en Spaarnwoude,Noord-Holland,VBO,4.743864,52.385129
Suikersilo-West,38,,,1165MP,Halfweg,Haarlemmerliede en Spaarnwoude,Noord-Holland,VBO,4.743512,52.385127
Suikersilo-West,39,,,1165MP,Halfweg,Haarlemmerliede en Spaarnwoude,Noord-Holland,VBO,4.743526,52.385163
Suikersilo-West,40,,,1165MP,Halfweg,Haarlemmerliede en Spaarnwoude,Noord-Holland,VBO,4.743790,52.385174
Suikersilo-West,41,,,1165MP,Halfweg,Haarlemmerliede en Spaarnwoude,Noord-Holland,VBO,4.743673,52.385155
Spaarndammerweg,2,a,,1165MR,Halfweg,Haarlemmerliede en Spaarnwoude,Noord-Holland,VBO,4.743651,52.386692
Spaarndammerweg,2,,,1165MR,Halfweg,Haarlemmerliede en Spaarnwoude,Noord-Holland,VBO,4.743723,52.386782
Spaarndammerweg,3,,,1165MR,Halfweg,Haarlemmerliede en Spaarnwoude,Noord-Holland,VBO,4.741486,52.387067
Spaarndammerweg,5,,,1165MR,Halfweg,Haarlemmerliede en Spaarnwoude,Noord-Holland,VBO,4.740646,52.387233
Spaarndammerweg,6,a,,1165MR,Halfweg,Haarlemmerliede en Spaarnwoude,Noord-Holland,VBO,4.743356,52.386780
Spaarndammerweg,6,,,1165MR,Halfweg,Haarlemmerliede en Spaarnwoude,Noord-Holland,VBO,4.743459,52.386754
Spaarndammerweg,10,,,1165MR,Halfweg,Haarlemmerliede en Spaarnwoude,Noord-Holland,VBO,4.743223,52.386815
Spaarndammerweg,12,,,1165MR,Halfweg,Haarlemmerliede en Spaarnwoude,Noord-Holland,VBO,4.743179,52.386824
Spaarndammerweg,14,,,1165MR,Halfweg,Haarlemmerliede en Spaarnwoude,Noord-Holland,VBO,4.743090,52.386851
Spaarndammerweg,24,,,1165MR,Halfweg,Haarlemmerliede en Spaarnwoude,Noord-Holland,VBO,4.742456,52.387027
Spaarndammerweg,26,,,1165MR,Halfweg,Haarlemmerliede en Spaarnwoude,Noord-Holland,VBO,4.742294,52.387071
Suikersilo-Oost,1,,,1165MS,Halfweg,Haarlemmerliede en Spaarnwoude,Noord-Holland,VBO,4.744204,52.384978
Suikersilo-Oost,2,,,1165MS,Halfweg,Haarlemmerliede en Spaarnwoude,Noord-Holland,VBO,4.744146,52.384978
Suikersilo-Oost,3,,,1165MS,Halfweg,Haarlemmerliede en Spaarnwoude,Noord-Holland,VBO,4.744159,52.385041
Suikersilo-Oost,4,,,1165MS,Halfweg,Haarlemmerliede en Spaarnwoude,Noord-Holland,VBO,4.744186,52.385212
Suikersilo-Oost,5,,,1165MS,Halfweg,Haarlemmerliede en Spaarnwoude,Noord-Holland,VBO,4.744189,52.384996
Suikersilo-Oost,6,,,1165MS,Halfweg,Haarlemmerliede en Spaarnwoude,Noord-Holland,VBO,4.744145,52.385005
Suikersilo-Oost,7,,,1165MS,Halfweg,Haarlemmerliede en Spaarnwoude,Noord-Holland,VBO,4.744157,52.385185
Suikersilo-Oost,8,,,1165MS,Halfweg,Haarlemmerliede en Spaarnwoude,Noord-Holland,VBO,4.744201,52.385194
Suikersilo-Oost,9,,,1165MS,Halfweg,Haarlemmerliede en Spaarnwoude,Noord-Holland,VBO,4.744263,52.385005
Suikersilo-Oost,10,,,1165MS,Halfweg,Haarlemmerliede en Spaarnwoude,Noord-Holland,VBO,4.744087,52.385005
Suikersilo-Oost,11,,,1165MS,Halfweg,Haarlemmerliede en Spaarnwoude,Noord-Holland,VBO,4.744084,52.385193
Suikersilo-Oost,12,,,1165MS,Halfweg,Haarlemmerliede en Spaarnwoude,Noord-Holland,VBO,4.744260,52.385194
Suikersilo-Oost,13,,,1165MS,Halfweg,Haarlemmerliede en Spaarnwoude,Noord-Holland,VBO,4.744322,52.385006
Suikersilo-Oost,14,,,1165MS,Halfweg,Haarlemmerliede en Spaarnwoude,Noord-Holland,VBO,4.744042,52.385013
Suikersilo-Oost,15,,,1165MS,Halfweg,Haarlemmerliede en Spaarnwoude,Noord-Holland,VBO,4.744040,52.385166
Suikersilo-Oost,16,,,1165MS,Halfweg,Haarlemmerliede en Spaarnwoude,Noord-Holland,VBO,4.744334,52.385159
Suikersilo-Oost,17,,,1165MS,Halfweg,Haarlemmerliede en Spaarnwoude,Noord-Holland,VBO,4.744174,52.385023
Suikersilo-Oost,18,,,1165MS,Halfweg,Haarlemmerliede en Spaarnwoude,Noord-Holland,VBO,4.744174,52.385032
Suikersilo-Oost,19,,,1165MS,Halfweg,Haarlemmerliede en Spaarnwoude,Noord-Holland,VBO,4.744099,52.385157
Suikersilo-Oost,20,,,1165MS,Halfweg,Haarlemmerliede en Spaarnwoude,Noord-Holland,VBO,4.744260,52.385167
Suikersilo-Oost,21,,,1165MS,Halfweg,Haarlemmerliede en Spaarnwoude,Noord-Holland,VBO,4.744248,52.385023
Suikersilo-Oost,22,,,1165MS,Halfweg,Haarlemmerliede en Spaarnwoude,Noord-Holland,VBO,4.744115,52.385041
Suikersilo-Oost,23,,,1165MS,Halfweg,Haarlemmerliede en Spaarnwoude,Noord-Holland,VBO,4.744158,52.385158
Suikersilo-Oost,24,,,1165MS,Halfweg,Haarlemmerliede en Spaarnwoude,Noord-Holland,VBO,4.744216,52.385167
Suikersilo-Oost,25,,,1165MS,Halfweg,Haarlemmerliede en Spaarnwoude,Noord-Holland,VBO,4.744336,52.385024
Suikersilo-Oost,26,,,1165MS,Halfweg,Haarlemmerliede en Spaarnwoude,Noord-Holland,VBO,4.744042,52.385040
Suikersilo-Oost,27,,,1165MS,Halfweg,Haarlemmerliede en Spaarnwoude,Noord-Holland,VBO,4.744158,52.385140
Suikersilo-Oost,28,,,1165MS,Halfweg,Haarlemmerliede en Spaarnwoude,Noord-Holland,VBO,4.744172,52.385167
Suikersilo-Oost,29,,,1165MS,Halfweg,Haarlemmerliede en Spaarnwoude,Noord-Holland,VBO,4.744203,52.385059
Suikersilo-Oost,30,,,1165MS,Halfweg,Haarlemmerliede en Spaarnwoude,Noord-Holland,VBO,4.743983,52.385058
Suikersilo-Oost,31,,,1165MS,Halfweg,Haarlemmerliede en Spaarnwoude,Noord-Holland,VBO,4.744114,52.385139
Suikersilo-Oost,32,,,1165MS,Halfweg,Haarlemmerliede en Spaarnwoude,Noord-Holland,VBO,4.744187,52.385140
Suikersilo-Oost,33,,,1165MS,Halfweg,Haarlemmerliede en Spaarnwoude,Noord-Holland,VBO,4.744262,52.385068
Suikersilo-Oost,34,,,1165MS,Halfweg,Haarlemmerliede en Spaarnwoude,Noord-Holland,VBO,4.744115,52.385077
Suikersilo-Oost,35,,,1165MS,Halfweg,Haarlemmerliede en Spaarnwoude,Noord-Holland,VBO,4.744041,52.385130
Suikersilo-Oost,36,,,1165MS,Halfweg,Haarlemmerliede en Spaarnwoude,Noord-Holland,VBO,4.744261,52.385113
Suikersilo-Oost,37,,,1165MS,Halfweg,Haarlemmerliede en Spaarnwoude,Noord-Holland,VBO,4.744350,52.385069
Suikersilo-Oost,38,,,1165MS,Halfweg,Haarlemmerliede en Spaarnwoude,Noord-Holland,VBO,4.744027,52.385085
Suikersilo-Oost,39,,,1165MS,Halfweg,Haarlemmerliede en Spaarnwoude,Noord-Holland,VBO,4.743997,52.385121
Suikersilo-Oost,40,,,1165MS,Halfweg,Haarlemmerliede en Spaarnwoude,Noord-Holland,VBO,4.744334,52.385141
Suikersilo-Oost,41,,,1165MS,Halfweg,Haarlemmerliede en Spaarnwoude,Noord-Holland,VBO,4.744173,52.385104
Oude Haarlemmerstraatweg,5,,,1165MT,Halfweg,Haarlemmerliede en Spaarnwoude,Noord-Holland,VBO,4.740420,52.386620
Houtrakkerweg,1,,,1165MV,Halfweg,Haarlemmerliede en Spaarnwoude,Noord-Holland,VBO,4.748359,52.386169
Houtrakkerweg,11,,,1165MV,Halfweg,Haarlemmerliede en Spaarnwoude,Noord-Holland,VBO,4.743421,52.387356
Houtrakkerweg,13,,,1165MV,Halfweg,Haarlemmerliede en Spaarnwoude,Noord-Holland,VBO,4.743170,52.387408
Houtrakkerweg,15,,,1165MV,Halfweg,Haarlemmerliede en Spaarnwoude,Noord-Holland,VBO,4.743038,52.387417
Houtrakkerweg,17,,,1165MV,Halfweg,Haarlemmerliede en Spaarnwoude,Noord-Holland,VBO,4.742993,52.387461
Houtrakkerweg,19,,,1165MV,Halfweg,Haarlemmerliede en Spaarnwoude,Noord-Holland,VBO,4.742905,52.387488
Houtrakkerweg,21,,,1165MV,Halfweg,Haarlemmerliede en Spaarnwoude,Noord-Holland,VBO,4.742728,52.387532
Houtrakkerweg,23,,,1165MV,Halfweg,Haarlemmerliede en Spaarnwoude,Noord-Holland,VBO,4.742580,52.387576
Houtrakkerweg,25,,,1165MV,Halfweg,Haarlemmerliede en Spaarnwoude,Noord-Holland,VBO,4.742418,52.387611
Houtrakkerweg,27,,,1165MV,Halfweg,Haarlemmerliede en Spaarnwoude,Noord-Holland,VBO,4.742344,52.387637
Houtrakkerweg,29,,,1165MV,Halfweg,Haarlemmerliede en Spaarnwoude,Noord-Holland,VBO,4.741917,52.387743
Houtrakkerweg,31,,,1165MV,Halfweg,Haarlemmerliede en Spaarnwoude,Noord-Holland,VBO,4.741681,52.387805
Houtrakkerweg,33,,,1165MV,Halfweg,Haarlemmerliede en Spaarnwoude,Noord-Holland,VBO,4.741607,52.387822
Houtrakkerweg,39,,,1165MV,Halfweg,Haarlemmerliede en Spaarnwoude,Noord-Holland,VBO,4.741060,52.388044
Houtrakkerweg,41,,,1165MV,Halfweg,Haarlemmerliede en Spaarnwoude,Noord-Holland,VBO,4.740926,52.388169
Houtrakkerweg,43,,,1165MV,Halfweg,Haarlemmerliede en Spaarnwoude,Noord-Holland,VBO,4.740882,52.388205
Burgemeester Michielsenweg,1,,,1165MW,Halfweg,Haarlemmerliede en Spaarnwoude,Noord-Holland,VBO,4.740411,52.389364
Houtrakkerweg,2,,,1165MX,Halfweg,Haarlemmerliede en Spaarnwoude,Noord-Holland,VBO,4.749735,52.386500
Houtrakkerweg,4,,,1165MX,Halfweg,Haarlemmerliede en Spaarnwoude,Noord-Holland,VBO,4.749690,52.386527
Houtrakkerweg,6,,,1165MX,Halfweg,Haarlemmerliede en Spaarnwoude,Noord-Holland,VBO,4.749163,52.386443
Houtrakkerweg,16,,,1165MX,Halfweg,Haarlemmerliede en Spaarnwoude,Noord-Holland,VBO,4.746896,52.386754
Houtrakkerweg,18,,,1165MX,Halfweg,Haarlemmerliede en Spaarnwoude,Noord-Holland,VBO,4.746438,52.386923
Houtrakkerweg,26,,,1165MX,Halfweg,Haarlemmerliede en Spaarnwoude,Noord-Holland,VBO,4.742341,52.387844
Houtrakkerweg,28,,,1165MX,Halfweg,Haarlemmerliede en Spaarnwoude,Noord-Holland,VBO,4.742253,52.387871
Houtrakkerweg,30,,,1165MX,Halfweg,Haarlemmerliede en Spaarnwoude,Noord-Holland,VBO,4.742179,52.387888
Houtrakkerweg,32,,,1165MX,Halfweg,Haarlemmerliede en Spaarnwoude,Noord-Holland,VBO,4.742106,52.387897
Houtrakkerweg,34,,,1165MX,Halfweg,Haarlemmerliede en Spaarnwoude,Noord-Holland,VBO,4.741973,52.387932
Houtrakkerweg,36,,,1165MX,Halfweg,Haarlemmerliede en Spaarnwoude,Noord-Holland,VBO,4.741899,52.387959
Houtrakkerweg,38,,,1165MX,Halfweg,Haarlemmerliede en Spaarnwoude,Noord-Holland,VBO,4.741840,52.387976
Houtrakkerweg,40,,,1165MX,Halfweg,Haarlemmerliede en Spaarnwoude,Noord-Holland,VBO,4.741752,52.387994
Houtrakkerweg,42,,,1165MX,Halfweg,Haarlemmerliede en Spaarnwoude,Noord-Holland,VBO,4.741456,52.388109
Houtrakkerweg,44,,,1165MX,Halfweg,Haarlemmerliede en Spaarnwoude,Noord-Holland,VBO,4.741397,52.388145
Houtrakkerweg,46,,,1165MX,Halfweg,Haarlemmerliede en Spaarnwoude,Noord-Holland,VBO,4.741352,52.388171
Houtrakkerweg,48,,,1165MX,Halfweg,Haarlemmerliede en Spaarnwoude,Noord-Holland,VBO,4.741293,52.388207
Houtrakkerweg,50,,,1165MX,Halfweg,Haarlemmerliede en Spaarnwoude,Noord-Holland,VBO,4.741234,52.388252
Houtrakkerweg,52,,,1165MX,Halfweg,Haarlemmerliede en Spaarnwoude,Noord-Holland,VBO,4.741115,52.388314
Houtrakkerweg,54,,,1165MX,Halfweg,Haarlemmerliede en Spaarnwoude,Noord-Holland,VBO,4.741071,52.388350
Houtrakkerweg,56,,,1165MX,Halfweg,Haarlemmerliede en Spaarnwoude,Noord-Holland,VBO,4.741011,52.388385
Houtrakkerweg,58,,,1165MX,Halfweg,Haarlemmerliede en Spaarnwoude,Noord-Holland,VBO,4.740967,52.388421
Houtrakkerweg,60,a,,1165MX,Halfweg,Haarlemmerliede en Spaarnwoude,Noord-Holland,VBO,4.740381,52.389281
Houtrakkerweg,60,,,1165MX,Halfweg,Haarlemmerliede en Spaarnwoude,Noord-Holland,VBO,4.740893,52.388456
Houtrakkerweg,62,,,1165MX,Halfweg,Haarlemmerliede en Spaarnwoude,Noord-Holland,VBO,4.734573,52.398659
Houtrakkerweg,64,,,1165MX,Halfweg,Haarlemmerliede en Spaarnwoude,Noord-Holland,VBO,4.735236,52.398510
Zijkanaal F West,1,,,1165MZ,Halfweg,Haarlemmerliede en Spaarnwoude,Noord-Holland,LIG,4.749723,52.385952
Zijkanaal F West,2,,,1165MZ,Halfweg,Haarlemmerliede en Spaarnwoude,Noord-Holland,LIG,4.749960,52.386099
Zijkanaal F West,3,,,1165MZ,Halfweg,Haarlemmerliede en Spaarnwoude,Noord-Holland,LIG,4.750144,52.386173
Zijkanaal F West,4,,,1165MZ,Halfweg,Haarlemmerliede en Spaarnwoude,Noord-Holland,LIG,4.750309,52.386261
Zijkanaal F West,5,,,1165MZ,Halfweg,Haarlemmerliede en Spaarnwoude,Noord-Holland,LIG,4.750448,52.386349
Zijkanaal F West,6,,,1165MZ,Halfweg,Haarlemmerliede en Spaarnwoude,Noord-Holland,LIG,4.750562,52.386455
Zijkanaal F West,7,,,1165MZ,Halfweg,Haarlemmerliede en Spaarnwoude,Noord-Holland,LIG,4.750697,52.386544
Zijkanaal F West,8,,,1165MZ,Halfweg,Haarlemmerliede en Spaarnwoude,Noord-Holland,LIG,4.750868,52.386639
Zijkanaal F West,9,,,1165MZ,Halfweg,Haarlemmerliede en Spaarnwoude,Noord-Holland,LIG,4.751036,52.386747
Zijkanaal F West,10,,,1165MZ,Halfweg,Haarlemmerliede en Spaarnwoude,Noord-Holland,LIG,4.751205,52.386853
Zijkanaal F West,11,,,1165MZ,Halfweg,Haarlemmerliede en Spaarnwoude,Noord-Holland,LIG,4.751305,52.386963
Zijkanaal F West,12,,,1165MZ,Halfweg,Haarlemmerliede en Spaarnwoude,Noord-Holland,LIG,4.751419,52.387065
Zijkanaal F West,13,,,1165MZ,Halfweg,Haarlemmerliede en Spaarnwoude,Noord-Holland,LIG,4.751540,52.387188
Zijkanaal F West,14,,,1165MZ,Halfweg,Haarlemmerliede en Spaarnwoude,Noord-Holland,LIG,4.751631,52.387317
Zijkanaal F West,15,,,1165MZ,Halfweg,Haarlemmerliede en Spaarnwoude,Noord-Holland,LIG,4.751744,52.387423
Zijkanaal F West,16,,,1165MZ,Halfweg,Haarlemmerliede en Spaarnwoude,Noord-Holland,LIG,4.751846,52.387546
Zijkanaal F West,17,,,1165MZ,Halfweg,Haarlemmerliede en Spaarnwoude,Noord-Holland,LIG,4.752031,52.387675
Zijkanaal F West,18,,,1165MZ,Halfweg,Haarlemmerliede en Spaarnwoude,Noord-Holland,LIG,4.752235,52.387830
Zijkanaal F West,19,,,1165MZ,Halfweg,Haarlemmerliede en Spaarnwoude,Noord-Holland,LIG,4.752345,52.387986
Zijkanaal F West,20,,,1165MZ,Halfweg,Haarlemmerliede en Spaarnwoude,Noord-Holland,LIG,4.752461,52.388135
Zijkanaal F West,21,,,1165MZ,Halfweg,Haarlemmerliede en Spaarnwoude,Noord-Holland,LIG,4.752590,52.388348
Zijkanaal F West,22,,,1165MZ,Halfweg,Haarlemmerliede en Spaarnwoude,Noord-Holland,LIG,4.752745,52.388582
Zijkanaal F West,23,,,1165MZ,Halfweg,Haarlemmerliede en Spaarnwoude,Noord-Holland,LIG,4.752855,52.388810
Zijkanaal F West,25,,,1165MZ,Halfweg,Haarlemmerliede en Spaarnwoude,Noord-Holland,LIG,4.753017,52.389204
Zijkanaal F West,26,,,1165MZ,Halfweg,Haarlemmerliede en Spaarnwoude,Noord-Holland,LIG,4.753039,52.389395
Zijkanaal F West,27,,,1165MZ,Halfweg,Haarlemmerliede en Spaarnwoude,Noord-Holland,LIG,4.753099,52.389579
Zijkanaal F West,28,,,1165MZ,Halfweg,Haarlemmerliede en Spaarnwoude,Noord-Holland,LIG,4.753173,52.389779
Zijkanaal F West,29,,,1165MZ,Halfweg,Haarlemmerliede en Spaarnwoude,Noord-Holland,LIG,4.753276,52.389983
Zijkanaal F West,30,,,1165MZ,Halfweg,Haarlemmerliede en Spaarnwoude,Noord-Holland,LIG,4.753332,52.390214
Zijkanaal F West,31,,,1165MZ,Halfweg,Haarlemmerliede en Spaarnwoude,Noord-Holland,LIG,4.753328,52.390422
Zijkanaal F West,32,,,1165MZ,Halfweg,Haarlemmerliede en Spaarnwoude,Noord-Holland,LIG,4.753400,52.390652
Zijkanaal F West,33,,,1165MZ,Halfweg,Haarlemmerliede en Spaarnwoude,Noord-Holland,LIG,4.753525,52.391024
Zuiderweg,2,,,1165NA,Halfweg,Haarlemmerliede en Spaarnwoude,Noord-Holland,VBO,4.753945,52.395493
Zuiderweg,6,a,,1165NA,Halfweg,Haarlemmerliede en Spaarnwoude,Noord-Holland,VBO,4.746365,52.397087
Zuiderweg,6,,,1165NA,Halfweg,Haarlemmerliede en Spaarnwoude,Noord-Holland,VBO,4.747013,52.397001
Zuiderweg,7,,,1165NA,Halfweg,Haarlemmerliede en Spaarnwoude,Noord-Holland,VBO,4.741880,52.397315
Zuiderweg,9,a,,1165NA,Halfweg,Haarlemmerliede en Spaarnwoude,Noord-Holland,VBO,4.740774,52.397243
Zuiderweg,9,,,1165NA,Halfweg,Haarlemmerliede en Spaarnwoude,Noord-Holland,VBO,4.740691,52.397391
Zuiderweg,1285,,,1165NA,Halfweg,Haarlemmerliede en Spaarnwoude,Noord-Holland,VBO,4.745569,52.397227
Machineweg,1,a,,1165NB,Halfweg,Haarlemmerliede en Spaarnwoude,Noord-Holland,VBO,4.727913,52.404221
Machineweg,1,,,1165NB,Halfweg,Haarlemmerliede en Spaarnwoude,Noord-Holland,VBO,4.728027,52.399135
Machineweg,2,,,1165NB,Halfweg,Haarlemmerliede en Spaarnwoude,Noord-Holland,VBO,4.730917,52.407429
Machineweg,3,,,1165NB,Halfweg,Haarlemmerliede en Spaarnwoude,Noord-Holland,VBO,4.730931,52.407483
Machineweg,4,,,1165NB,Halfweg,Haarlemmerliede en Spaarnwoude,Noord-Holland,VBO,4.731126,52.408167
Machineweg,5,,,1165NB,Halfweg,Haarlemmerliede en Spaarnwoude,Noord-Holland,VBO,4.732313,52.411400
Machineweg,6,,,1165NB,Halfweg,Haarlemmerliede en Spaarnwoude,Noord-Holland,VBO,4.732341,52.411454
Machineweg,13,,,1165NB,Halfweg,Haarlemmerliede en Spaarnwoude,Noord-Holland,VBO,4.734639,52.418118
Machineweg,14,,,1165NB,Halfweg,Haarlemmerliede en Spaarnwoude,Noord-Holland,VBO,4.734767,52.418406
Machineweg,19,,,1165NB,Halfweg,Haarlemmerliede en Spaarnwoude,Noord-Holland,VBO,4.738277,52.428671
Machineweg,20,,,1165NB,Halfweg,Haarlemmerliede en Spaarnwoude,Noord-Holland,VBO,4.738306,52.428716
Machineweg,21,,,1165NB,Halfweg,Haarlemmerliede en Spaarnwoude,Noord-Holland,VBO,4.738317,52.428914
Noordzeekanaalweg,3,,,1165NC,Halfweg,Haarlemmerliede en Spaarnwoude,Noord-Holland,VBO,4.737181,52.429187
Bauduinlaan,1,,,1165NE,Halfweg,Haarlemmerliede en Spaarnwoude,Noord-Holland,VBO,4.742442,52.388024
Bauduinlaan,3,,,1165NE,Halfweg,Haarlemmerliede en Spaarnwoude,Noord-Holland,VBO,4.742456,52.388069
Bauduinlaan,5,,,1165NE,Halfweg,Haarlemmerliede en Spaarnwoude,Noord-Holland,VBO,4.742426,52.388114
Bauduinlaan,7,,,1165NE,Halfweg,Haarlemmerliede en Spaarnwoude,Noord-Holland,VBO,4.742439,52.388168
Bauduinlaan,9,,,1165NE,Halfweg,Haarlemmerliede en Spaarnwoude,Noord-Holland,VBO,4.742512,52.388214
Bauduinlaan,11,,,1165NE,Halfweg,Haarlemmerliede en Spaarnwoude,Noord-Holland,VBO,4.742541,52.388286
Bauduinlaan,13,,,1165NE,Halfweg,Haarlemmerliede en Spaarnwoude,Noord-Holland,VBO,4.742555,52.388331
Bauduinlaan,15,,,1165NE,Halfweg,Haarlemmerliede en Spaarnwoude,Noord-Holland,VBO,4.742569,52.388376
Bauduinlaan,17,,,1165NE,Halfweg,Haarlemmerliede en Spaarnwoude,Noord-Holland,VBO,4.742597,52.388430
Bauduinlaan,19,,,1165NE,Halfweg,Haarlemmerliede en Spaarnwoude,Noord-Holland,VBO,4.742611,52.388484
Bauduinlaan,21,,,1165NE,Halfweg,Haarlemmerliede en Spaarnwoude,Noord-Holland,VBO,4.741993,52.388597
Wethouder Rijkeboerweg,1,,,1165NJ,Halfweg,Haarlemmerliede en Spaarnwoude,Noord-Holland,VBO,4.754934,52.385512
Wethouder Rijkeboerweg,3,,,1165NJ,Halfweg,Haarlemmerliede en Spaarnwoude,Noord-Holland,VBO,4.754875,52.385548
Wethouder Rijkeboerweg,5,,,1165NJ,Halfweg,Haarlemmerliede en Spaarnwoude,Noord-Holland,VBO,4.754831,52.385575
Wethouder Rijkeboerweg,7,,,1165NJ,Halfweg,Haarlemmerliede en Spaarnwoude,Noord-Holland,VBO,4.754771,52.385610
Wethouder Rijkeboerweg,9,,,1165NJ,Halfweg,Haarlemmerliede en Spaarnwoude,Noord-Holland,VBO,4.754974,52.385800
Wethouder Rijkeboerweg,11,,,1165NJ,Halfweg,Haarlemmerliede en Spaarnwoude,Noord-Holland,VBO,4.754915,52.385836
Wethouder Rijkeboerweg,13,,,1165NJ,Halfweg,Haarlemmerliede en Spaarnwoude,Noord-Holland,VBO,4.754856,52.385862
Wethouder Rijkeboerweg,15,,,1165NJ,Halfweg,Haarlemmerliede en Spaarnwoude,Noord-Holland,VBO,4.754797,52.385898
Wethouder Rijkeboerweg,17,,,1165NJ,Halfweg,Haarlemmerliede en Spaarnwoude,Noord-Holland,VBO,4.754708,52.385934
Wethouder Rijkeboerweg,19,,,1165NJ,Halfweg,Haarlemmerliede en Spaarnwoude,Noord-Holland,VBO,4.754663,52.385969
Wethouder Rijkeboerweg,21,,,1165NJ,Halfweg,Haarlemmerliede en Spaarnwoude,Noord-Holland,VBO,4.754604,52.386005
Wethouder Rijkeboerweg,23,,,1165NJ,Halfweg,Haarlemmerliede en Spaarnwoude,Noord-Holland,VBO,4.754574,52.386041
Wethouder Rijkeboerweg,25,,,1165NJ,Halfweg,Haarlemmerliede en Spaarnwoude,Noord-Holland,VBO,4.754530,52.386076
Wethouder Rijkeboerweg,27,,,1165NJ,Halfweg,Haarlemmerliede en Spaarnwoude,Noord-Holland,VBO,4.754133,52.386065
Wethouder Rijkeboerweg,29,,,1165NJ,Halfweg,Haarlemmerliede en Spaarnwoude,Noord-Holland,VBO,4.754206,52.386093
Wethouder Rijkeboerweg,31,,,1165NJ,Halfweg,Haarlemmerliede en Spaarnwoude,Noord-Holland,VBO,4.754265,52.386120
Wethouder Rijkeboerweg,33,,,1165NJ,Halfweg,Haarlemmerliede en Spaarnwoude,Noord-Holland,VBO,4.754308,52.386156
Wethouder Rijkeboerweg,35,,,1165NJ,Halfweg,Haarlemmerliede en Spaarnwoude,Noord-Holland,VBO,4.754366,52.386183
Wethouder Rijkeboerweg,37,,,1165NJ,Halfweg,Haarlemmerliede en Spaarnwoude,Noord-Holland,VBO,4.754425,52.386211
Wethouder Rijkeboerweg,39,,,1165NJ,Halfweg,Haarlemmerliede en Spaarnwoude,Noord-Holland,VBO,4.754497,52.386283
Wethouder Rijkeboerweg,41,,,1165NJ,Halfweg,Haarlemmerliede en Spaarnwoude,Noord-Holland,VBO,4.754556,52.386319
Wethouder Rijkeboerweg,43,,,1165NJ,Halfweg,Haarlemmerliede en Spaarnwoude,Noord-Holland,VBO,4.754614,52.386346
Wethouder Rijkeboerweg,45,,,1165NJ,Halfweg,Haarlemmerliede en Spaarnwoude,Noord-Holland,VBO,4.755161,52.386107
Wethouder Rijkeboerweg,47,,,1165NJ,Halfweg,Haarlemmerliede en Spaarnwoude,Noord-Holland,VBO,4.755101,52.386151
Wethouder Rijkeboerweg,49,,,1165NJ,Halfweg,Haarlemmerliede en Spaarnwoude,Noord-Holland,VBO,4.755057,52.386187
Wethouder Rijkeboerweg,51,,,1165NJ,Halfweg,Haarlemmerliede en Spaarnwoude,Noord-Holland,VBO,4.754998,52.386223
Wethouder Rijkeboerweg,53,,,1165NJ,Halfweg,Haarlemmerliede en Spaarnwoude,Noord-Holland,VBO,4.754953,52.386258
Wethouder Rijkeboerweg,55,,,1165NJ,Halfweg,Haarlemmerliede en Spaarnwoude,Noord-Holland,VBO,4.754908,52.386294
Wethouder Rijkeboerweg,57,,,1165NK,Halfweg,Haarlemmerliede en Spaarnwoude,Noord-Holland,VBO,4.754479,52.386552
Wethouder Rijkeboerweg,59,,,1165NK,Halfweg,Haarlemmerliede en Spaarnwoude,Noord-Holland,VBO,4.754537,52.386580
Wethouder Rijkeboerweg,61,,,1165NK,Halfweg,Haarlemmerliede en Spaarnwoude,Noord-Holland,VBO,4.754595,52.386616
Wethouder Rijkeboerweg,63,,,1165NK,Halfweg,Haarlemmerliede en Spaarnwoude,Noord-Holland,VBO,4.754654,52.386643
Wethouder Rijkeboerweg,65,,,1165NK,Halfweg,Haarlemmerliede en Spaarnwoude,Noord-Holland,VBO,4.754712,52.386680
Wethouder Rijkeboerweg,67,,,1165NK,Halfweg,Haarlemmerliede en Spaarnwoude,Noord-Holland,VBO,4.754770,52.386716
Wethouder Rijkeboerweg,69,,,1165NK,Halfweg,Haarlemmerliede en Spaarnwoude,Noord-Holland,VBO,4.755390,52.386512
Wethouder Rijkeboerweg,71,,,1165NK,Halfweg,Haarlemmerliede en Spaarnwoude,Noord-Holland,VBO,4.755331,52.386557
Wethouder Rijkeboerweg,73,,,1165NK,Halfweg,Haarlemmerliede en Spaarnwoude,Noord-Holland,VBO,4.755286,52.386593
Wethouder Rijkeboerweg,75,,,1165NK,Halfweg,Haarlemmerliede en Spaarnwoude,Noord-Holland,VBO,4.755241,52.386628
Wethouder Rijkeboerweg,77,,,1165NK,Halfweg,Haarlemmerliede en Spaarnwoude,Noord-Holland,VBO,4.755197,52.386664
Wethouder Rijkeboerweg,79,,,1165NK,Halfweg,Haarlemmerliede en Spaarnwoude,Noord-Holland,VBO,4.755138,52.386691
Wethouder Rijkeboerweg,81,,,1165NK,Halfweg,Haarlemmerliede en Spaarnwoude,Noord-Holland,VBO,4.754737,52.386967
Wethouder Rijkeboerweg,83,,,1165NK,Halfweg,Haarlemmerliede en Spaarnwoude,Noord-Holland,VBO,4.754795,52.387004
Wethouder Rijkeboerweg,85,,,1165NK,Halfweg,Haarlemmerliede en Spaarnwoude,Noord-Holland,VBO,4.754854,52.387031
Wethouder Rijkeboerweg,87,,,1165NK,Halfweg,Haarlemmerliede en Spaarnwoude,Noord-Holland,VBO,4.754912,52.387058
Wethouder Rijkeboerweg,89,,,1165NK,Halfweg,Haarlemmerliede en Spaarnwoude,Noord-Holland,VBO,4.754956,52.387103
Wethouder Rijkeboerweg,91,,,1165NK,Halfweg,Haarlemmerliede en Spaarnwoude,Noord-Holland,VBO,4.755605,52.386900
Wethouder Rijkeboerweg,93,,,1165NK,Halfweg,Haarlemmerliede en Spaarnwoude,Noord-Holland,VBO,4.755589,52.386963
Wethouder Rijkeboerweg,95,,,1165NK,Halfweg,Haarlemmerliede en Spaarnwoude,Noord-Holland,VBO,4.755530,52.386998
Wethouder Rijkeboerweg,97,,,1165NK,Halfweg,Haarlemmerliede en Spaarnwoude,Noord-Holland,VBO,4.755486,52.387025
Wethouder Rijkeboerweg,99,,,1165NK,Halfweg,Haarlemmerliede en Spaarnwoude,Noord-Holland,VBO,4.755441,52.387070
Wethouder Rijkeboerweg,101,,,1165NK,Halfweg,Haarlemmerliede en Spaarnwoude,Noord-Holland,VBO,4.755382,52.387106
Wethouder Rijkeboerweg,103,,,1165NK,Halfweg,Haarlemmerliede en Spaarnwoude,Noord-Holland,VBO,4.755278,52.387159
Wethouder Rijkeboerweg,105,,,1165NK,Halfweg,Haarlemmerliede en Spaarnwoude,Noord-Holland,VBO,4.755204,52.387230
Wethouder Rijkeboerweg,107,,,1165NL,Halfweg,Haarlemmerliede en Spaarnwoude,Noord-Holland,VBO,4.755173,52.387320
Wethouder Rijkeboerweg,109,,,1165NL,Halfweg,Haarlemmerliede en Spaarnwoude,Noord-Holland,VBO,4.755113,52.387374
Wethouder Rijkeboerweg,111,,,1165NL,Halfweg,Haarlemmerliede en Spaarnwoude,Noord-Holland,VBO,4.755039,52.387454
Wethouder Rijkeboerweg,113,,,1165NL,Halfweg,Haarlemmerliede en Spaarnwoude,Noord-Holland,VBO,4.754964,52.387517
Wethouder Rijkeboerweg,115,,,1165NL,Halfweg,Haarlemmerliede en Spaarnwoude,Noord-Holland,VBO,4.754875,52.387579
Wethouder Rijkeboerweg,117,,,1165NL,Halfweg,Haarlemmerliede en Spaarnwoude,Noord-Holland,VBO,4.754801,52.387624
Wethouder Rijkeboerweg,2,,,1165NN,Halfweg,Haarlemmerliede en Spaarnwoude,Noord-Holland,VBO,4.755383,52.385946
Wethouder Rijkeboerweg,4,,,1165NN,Halfweg,Haarlemmerliede en Spaarnwoude,Noord-Holland,VBO,4.755442,52.385973
Wethouder Rijkeboerweg,6,,,1165NN,Halfweg,Haarlemmerliede en Spaarnwoude,Noord-Holland,VBO,4.755485,52.386001
Wethouder Rijkeboerweg,8,,,1165NN,Halfweg,Haarlemmerliede en Spaarnwoude,Noord-Holland,VBO,4.755559,52.386028
Wethouder Rijkeboerweg,10,,,1165NN,Halfweg,Haarlemmerliede en Spaarnwoude,Noord-Holland,VBO,4.755617,52.386055
Wethouder Rijkeboerweg,12,,,1165NN,Halfweg,Haarlemmerliede en Spaarnwoude,Noord-Holland,VBO,4.755675,52.386083
Wethouder Rijkeboerweg,14,,,1165NN,Halfweg,Haarlemmerliede en Spaarnwoude,Noord-Holland,VBO,4.755734,52.386110
Wethouder Rijkeboerweg,16,,,1165NN,Halfweg,Haarlemmerliede en Spaarnwoude,Noord-Holland,VBO,4.755792,52.386146
Wethouder Rijkeboerweg,18,,,1165NN,Halfweg,Haarlemmerliede en Spaarnwoude,Noord-Holland,VBO,4.755671,52.386370
Wethouder Rijkeboerweg,20,,,1165NN,Halfweg,Haarlemmerliede en Spaarnwoude,Noord-Holland,VBO,4.755730,52.386397
Wethouder Rijkeboerweg,22,,,1165NN,Halfweg,Haarlemmerliede en Spaarnwoude,Noord-Holland,VBO,4.755773,52.386425
Wethouder Rijkeboerweg,24,,,1165NN,Halfweg,Haarlemmerliede en Spaarnwoude,Noord-Holland,VBO,4.755831,52.386461
Wethouder Rijkeboerweg,26,,,1165NN,Halfweg,Haarlemmerliede en Spaarnwoude,Noord-Holland,VBO,4.755890,52.386488
Wethouder Rijkeboerweg,28,,,1165NN,Halfweg,Haarlemmerliede en Spaarnwoude,Noord-Holland,VBO,4.755948,52.386515
Wethouder Rijkeboerweg,30,,,1165NN,Halfweg,Haarlemmerliede en Spaarnwoude,Noord-Holland,VBO,4.755842,52.386748
Wethouder Rijkeboerweg,32,,,1165NN,Halfweg,Haarlemmerliede en Spaarnwoude,Noord-Holland,VBO,4.755900,52.386785
Wethouder Rijkeboerweg,34,,,1165NN,Halfweg,Haarlemmerliede en Spaarnwoude,Noord-Holland,VBO,4.755959,52.386812
Wethouder Rijkeboerweg,36,,,1165NN,Halfweg,Haarlemmerliede en Spaarnwoude,Noord-Holland,VBO,4.756017,52.386839
Wethouder Rijkeboerweg,38,,,1165NN,Halfweg,Haarlemmerliede en Spaarnwoude,Noord-Holland,VBO,4.756075,52.386867
Wethouder Rijkeboerweg,40,,,1165NN,Halfweg,Haarlemmerliede en Spaarnwoude,Noord-Holland,VBO,4.756148,52.386903
Burgemeester van Hvell tot Westerflierpad,1,,,1165NP,Halfweg,Haarlemmerliede en Spaarnwoude,Noord-Holland,VBO,4.756148,52.385896
Burgemeester van Hvell tot Westerflierpad,2,,,1165NP,Halfweg,Haarlemmerliede en Spaarnwoude,Noord-Holland,VBO,4.756104,52.385905
Burgemeester van Hvell tot Westerflierpad,3,,,1165NP,Halfweg,Haarlemmerliede en Spaarnwoude,Noord-Holland,VBO,4.756059,52.385968
Burgemeester van Hvell tot Westerflierpad,4,,,1165NP,Halfweg,Haarlemmerliede en Spaarnwoude,Noord-Holland,VBO,4.756000,52.386003
Burgemeester van Hvell tot Westerflierpad,5,,,1165NP,Halfweg,Haarlemmerliede en Spaarnwoude,Noord-Holland,VBO,4.756205,52.386040
Burgemeester van Hvell tot Westerflierpad,6,,,1165NP,Halfweg,Haarlemmerliede en Spaarnwoude,Noord-Holland,VBO,4.756278,52.386077
Burgemeester van Hvell tot Westerflierpad,7,,,1165NP,Halfweg,Haarlemmerliede en Spaarnwoude,Noord-Holland,VBO,4.756336,52.386104
Burgemeester van Hvell tot Westerflierpad,8,,,1165NP,Halfweg,Haarlemmerliede en Spaarnwoude,Noord-Holland,VBO,4.756380,52.386140
Burgemeester van Hvell tot Westerflierpad,9,,,1165NP,Halfweg,Haarlemmerliede en Spaarnwoude,Noord-Holland,VBO,4.756453,52.386168
Burgemeester van Hvell tot Westerflierpad,10,,,1165NP,Halfweg,Haarlemmerliede en Spaarnwoude,Noord-Holland,VBO,4.756496,52.386195
Burgemeester van Hvell tot Westerflierpad,11,,,1165NP,Halfweg,Haarlemmerliede en Spaarnwoude,Noord-Holland,VBO,4.756334,52.386248
Burgemeester van Hvell tot Westerflierpad,12,,,1165NP,Halfweg,Haarlemmerliede en Spaarnwoude,Noord-Holland,VBO,4.756289,52.386292
Burgemeester van Hvell tot Westerflierpad,13,,,1165NP,Halfweg,Haarlemmerliede en Spaarnwoude,Noord-Holland,VBO,4.756230,52.386328
Burgemeester van Hvell tot Westerflierpad,14,,,1165NP,Halfweg,Haarlemmerliede en Spaarnwoude,Noord-Holland,VBO,4.756185,52.386364
Burgemeester van Hvell tot Westerflierpad,15,,,1165NR,Halfweg,Haarlemmerliede en Spaarnwoude,Noord-Holland,VBO,4.756376,52.386392
Burgemeester van Hvell tot Westerflierpad,16,,,1165NR,Halfweg,Haarlemmerliede en Spaarnwoude,Noord-Holland,VBO,4.756449,52.386419
Burgemeester van Hvell tot Westerflierpad,17,,,1165NR,Halfweg,Haarlemmerliede en Spaarnwoude,Noord-Holland,VBO,4.756507,52.386446
Burgemeester van Hvell tot Westerflierpad,18,,,1165NR,Halfweg,Haarlemmerliede en Spaarnwoude,Noord-Holland,VBO,4.756580,52.386483
Burgemeester van Hvell tot Westerflierpad,19,,,1165NR,Halfweg,Haarlemmerliede en Spaarnwoude,Noord-Holland,VBO,4.756609,52.386510
Burgemeester van Hvell tot Westerflierpad,20,,,1165NR,Halfweg,Haarlemmerliede en Spaarnwoude,Noord-Holland,VBO,4.756682,52.386537
Burgemeester van Hvell tot Westerflierpad,21,,,1165NR,Halfweg,Haarlemmerliede en Spaarnwoude,Noord-Holland,VBO,4.756490,52.386644
Burgemeester van Hvell tot Westerflierpad,22,,,1165NR,Halfweg,Haarlemmerliede en Spaarnwoude,Noord-Holland,VBO,4.756431,52.386671
Burgemeester van Hvell tot Westerflierpad,23,,,1165NR,Halfweg,Haarlemmerliede en Spaarnwoude,Noord-Holland,VBO,4.756386,52.386706
Burgemeester van Hvell tot Westerflierpad,24,,,1165NR,Halfweg,Haarlemmerliede en Spaarnwoude,Noord-Holland,VBO,4.756356,52.386742
Burgemeester van Hvell tot Westerflierpad,25,,,1165NR,Halfweg,Haarlemmerliede en Spaarnwoude,Noord-Holland,VBO,4.756532,52.386788
Burgemeester van Hvell tot Westerflierpad,26,,,1165NR,Halfweg,Haarlemmerliede en Spaarnwoude,Noord-Holland,VBO,4.756605,52.386824
Burgemeester van Hvell tot Westerflierpad,27,,,1165NR,Halfweg,Haarlemmerliede en Spaarnwoude,Noord-Holland,VBO,4.756648,52.386852
Burgemeester van Hvell tot Westerflierpad,28,,,1165NR,Halfweg,Haarlemmerliede en Spaarnwoude,Noord-Holland,VBO,4.756722,52.386879
Burgemeester van Hvell tot Westerflierpad,29,,,1165NR,Halfweg,Haarlemmerliede en Spaarnwoude,Noord-Holland,VBO,4.756765,52.386906
Burgemeester van Hvell tot Westerflierpad,30,,,1165NR,Halfweg,Haarlemmerliede en Spaarnwoude,Noord-Holland,VBO,4.756838,52.386934
Burg van Bruggenstraat,1,,,1165NS,Halfweg,Haarlemmerliede en Spaarnwoude,Noord-Holland,VBO,4.755123,52.387724
Burg van Bruggenstraat,3,,,1165NS,Halfweg,Haarlemmerliede en Spaarnwoude,Noord-Holland,VBO,4.755359,52.387690
Burg van Bruggenstraat,5,,,1165NS,Halfweg,Haarlemmerliede en Spaarnwoude,Noord-Holland,VBO,4.755506,52.387663
Burg van Bruggenstraat,7,,,1165NS,Halfweg,Haarlemmerliede en Spaarnwoude,Noord-Holland,VBO,4.755668,52.387628
Burg van Bruggenstraat,9,,,1165NS,Halfweg,Haarlemmerliede en Spaarnwoude,Noord-Holland,VBO,4.755815,52.387593
Burg van Bruggenstraat,11,,,1165NS,Halfweg,Haarlemmerliede en Spaarnwoude,Noord-Holland,VBO,4.755553,52.387466
Burg van Bruggenstraat,13,,,1165NS,Halfweg,Haarlemmerliede en Spaarnwoude,Noord-Holland,VBO,4.755642,52.387404
Burg van Bruggenstraat,15,,,1165NS,Halfweg,Haarlemmerliede en Spaarnwoude,Noord-Holland,VBO,4.755731,52.387350
Burg van Bruggenstraat,17,,,1165NS,Halfweg,Haarlemmerliede en Spaarnwoude,Noord-Holland,VBO,4.755834,52.387288
Burg van Bruggenstraat,19,,,1165NS,Halfweg,Haarlemmerliede en Spaarnwoude,Noord-Holland,VBO,4.755950,52.387450
Burg van Bruggenstraat,21,,,1165NS,Halfweg,Haarlemmerliede en Spaarnwoude,Noord-Holland,VBO,4.756052,52.387487
Burg van Bruggenstraat,23,,,1165NS,Halfweg,Haarlemmerliede en Spaarnwoude,Noord-Holland,VBO,4.756169,52.387541
Burg van Bruggenstraat,2,,,1165NT,Halfweg,Haarlemmerliede en Spaarnwoude,Noord-Holland,VBO,4.756057,52.387145
Burg van Bruggenstraat,4,,,1165NT,Halfweg,Haarlemmerliede en Spaarnwoude,Noord-Holland,VBO,4.756101,52.387154
Burg van Bruggenstraat,6,,,1165NT,Halfweg,Haarlemmerliede en Spaarnwoude,Noord-Holland,VBO,4.756174,52.387191
Burg van Bruggenstraat,8,,,1165NT,Halfweg,Haarlemmerliede en Spaarnwoude,Noord-Holland,VBO,4.756232,52.387218
Burg van Bruggenstraat,10,,,1165NT,Halfweg,Haarlemmerliede en Spaarnwoude,Noord-Holland,VBO,4.756305,52.387245
Burg van Bruggenstraat,12,,,1165NT,Halfweg,Haarlemmerliede en Spaarnwoude,Noord-Holland,VBO,4.756363,52.387282
Burg van Bruggenstraat,14,,,1165NT,Halfweg,Haarlemmerliede en Spaarnwoude,Noord-Holland,VBO,4.756513,52.387112
Burg van Bruggenstraat,16,,,1165NT,Halfweg,Haarlemmerliede en Spaarnwoude,Noord-Holland,VBO,4.756572,52.387076
Burg van Bruggenstraat,18,,,1165NT,Halfweg,Haarlemmerliede en Spaarnwoude,Noord-Holland,VBO,4.756631,52.387040
Burg van Bruggenstraat,20,,,1165NT,Halfweg,Haarlemmerliede en Spaarnwoude,Noord-Holland,VBO,4.756720,52.387005
Burg van Bruggenstraat,25,,,1165NV,Halfweg,Haarlemmerliede en Spaarnwoude,Noord-Holland,VBO,4.756537,52.387444
Burg van Bruggenstraat,27,,,1165NV,Halfweg,Haarlemmerliede en Spaarnwoude,Noord-Holland,VBO,4.756596,52.387463
Burg van Bruggenstraat,29,,,1165NV,Halfweg,Haarlemmerliede en Spaarnwoude,Noord-Holland,VBO,4.756669,52.387508
Burg van Bruggenstraat,31,,,1165NV,Halfweg,Haarlemmerliede en Spaarnwoude,Noord-Holland,VBO,4.756775,52.387266
Burg van Bruggenstraat,33,,,1165NV,Halfweg,Haarlemmerliede en Spaarnwoude,Noord-Holland,VBO,4.756848,52.387293
Burg van Bruggenstraat,35,,,1165NV,Halfweg,Haarlemmerliede en Spaarnwoude,Noord-Holland,VBO,4.756906,52.387320
Burg van Bruggenstraat,37,,,1165NV,Halfweg,Haarlemmerliede en Spaarnwoude,Noord-Holland,VBO,4.756965,52.387348
Burg van Bruggenstraat,39,,,1165NV,Halfweg,Haarlemmerliede en Spaarnwoude,Noord-Holland,VBO,4.757023,52.387375
Burg van Bruggenstraat,41,,,1165NV,Halfweg,Haarlemmerliede en Spaarnwoude,Noord-Holland,VBO,4.756834,52.387212
Burg van Bruggenstraat,43,,,1165NV,Halfweg,Haarlemmerliede en Spaarnwoude,Noord-Holland,VBO,4.756893,52.387239
Burg van Bruggenstraat,45,,,1165NV,Halfweg,Haarlemmerliede en Spaarnwoude,Noord-Holland,VBO,4.756951,52.387267
Burg van Bruggenstraat,47,,,1165NV,Halfweg,Haarlemmerliede en Spaarnwoude,Noord-Holland,VBO,4.757009,52.387303
Burg van Bruggenstraat,49,,,1165NV,Halfweg,Haarlemmerliede en Spaarnwoude,Noord-Holland,VBO,4.757068,52.387330
Burg van Bruggenstraat,51,,,1165NV,Halfweg,Haarlemmerliede en Spaarnwoude,Noord-Holland,VBO,4.757100,52.387115
Burg van Bruggenstraat,53,,,1165NV,Halfweg,Haarlemmerliede en Spaarnwoude,Noord-Holland,VBO,4.757173,52.387142
Burg van Bruggenstraat,55,,,1165NV,Halfweg,Haarlemmerliede en Spaarnwoude,Noord-Holland,VBO,4.757217,52.387169
Burg van Bruggenstraat,57,,,1165NV,Halfweg,Haarlemmerliede en Spaarnwoude,Noord-Holland,VBO,4.757290,52.387206
Burg van Bruggenstraat,59,,,1165NV,Halfweg,Haarlemmerliede en Spaarnwoude,Noord-Holland,VBO,4.757348,52.387233
Burg van Bruggenstraat,61,,,1165NV,Halfweg,Haarlemmerliede en Spaarnwoude,Noord-Holland,VBO,4.757406,52.387269
Burg van Bruggenstraat,63,,,1165NV,Halfweg,Haarlemmerliede en Spaarnwoude,Noord-Holland,VBO,4.757479,52.387296
Bietenboulevard,1,,,1165PC,Halfweg,Haarlemmerliede en Spaarnwoude,Noord-Holland,VBO,4.746428,52.385028
Bietenboulevard,3,,,1165PC,Halfweg,Haarlemmerliede en Spaarnwoude,Noord-Holland,VBO,4.747304,52.384862
Bietenboulevard,5,,,1165PC,Halfweg,Haarlemmerliede en Spaarnwoude,Noord-Holland,VBO,4.747286,52.384770
Kristalpromenade,9,,,1165PD,Halfweg,Haarlemmerliede en Spaarnwoude,Noord-Holland,VBO,4.745989,52.384734
Kalkovenplein,1,,,1165PE,Halfweg,Haarlemmerliede en Spaarnwoude,Noord-Holland,VBO,4.745144,52.384813
Kalkovenplein,3,,,1165PE,Halfweg,Haarlemmerliede en Spaarnwoude,Noord-Holland,VBO,4.744696,52.385299
Turbineplaats,3,,,1165PG,Halfweg,Haarlemmerliede en Spaarnwoude,Noord-Holland,VBO,4.746428,52.385028
