openbareruimtenaam,huisnummer,huisletter,huisnummertoevoeging,postcode,woonplaatsnaam,gemeentenaam,provincienaam,typeadresseerbaarobject,longitude,latitude
Alkmaarseweg,1,,,1947DA,Beverwijk,Beverwijk,Noord-Holland,VBO,4.661267,52.484099
Alkmaarseweg,3,a,,1947DA,Beverwijk,Beverwijk,Noord-Holland,VBO,4.661410,52.484181
Alkmaarseweg,3,b,,1947DA,Beverwijk,Beverwijk,Noord-Holland,VBO,4.661455,52.484213
Alkmaarseweg,3,c,,1947DA,Beverwijk,Beverwijk,Noord-Holland,VBO,4.661495,52.484247
Alkmaarseweg,3,d,,1947DA,Beverwijk,Beverwijk,Noord-Holland,VBO,4.661535,52.484278
Alkmaarseweg,3,e,,1947DA,Beverwijk,Beverwijk,Noord-Holland,VBO,4.661330,52.484163
Alkmaarseweg,3,f,,1947DA,Beverwijk,Beverwijk,Noord-Holland,VBO,4.661372,52.484198
Alkmaarseweg,3,g,,1947DA,Beverwijk,Beverwijk,Noord-Holland,VBO,4.661409,52.484221
Alkmaarseweg,3,h,,1947DA,Beverwijk,Beverwijk,Noord-Holland,VBO,4.661443,52.484246
Alkmaarseweg,3,j,,1947DA,Beverwijk,Beverwijk,Noord-Holland,VBO,4.661480,52.484276
Alkmaarseweg,3,k,,1947DA,Beverwijk,Beverwijk,Noord-Holland,VBO,4.661511,52.484301
Alkmaarseweg,3,l,,1947DA,Beverwijk,Beverwijk,Noord-Holland,VBO,4.661295,52.484186
Alkmaarseweg,3,m,,1947DA,Beverwijk,Beverwijk,Noord-Holland,VBO,4.661332,52.484216
Alkmaarseweg,3,n,,1947DA,Beverwijk,Beverwijk,Noord-Holland,VBO,4.661369,52.484246
Alkmaarseweg,3,,,1947DA,Beverwijk,Beverwijk,Noord-Holland,VBO,4.661367,52.484140
Alkmaarseweg,5,a,,1947DA,Beverwijk,Beverwijk,Noord-Holland,VBO,4.661167,52.484285
Alkmaarseweg,5,b,,1947DA,Beverwijk,Beverwijk,Noord-Holland,VBO,4.661154,52.484339
Alkmaarseweg,5,c,,1947DA,Beverwijk,Beverwijk,Noord-Holland,VBO,4.661142,52.484406
Alkmaarseweg,5,d,,1947DA,Beverwijk,Beverwijk,Noord-Holland,VBO,4.661225,52.484224
Alkmaarseweg,5,e,,1947DA,Beverwijk,Beverwijk,Noord-Holland,VBO,4.661216,52.484285
Alkmaarseweg,5,f,,1947DA,Beverwijk,Beverwijk,Noord-Holland,VBO,4.661203,52.484341
Alkmaarseweg,5,g,,1947DA,Beverwijk,Beverwijk,Noord-Holland,VBO,4.661188,52.484413
Alkmaarseweg,5,h,,1947DA,Beverwijk,Beverwijk,Noord-Holland,VBO,4.661274,52.484233
Alkmaarseweg,5,j,,1947DA,Beverwijk,Beverwijk,Noord-Holland,VBO,4.661262,52.484287
Alkmaarseweg,5,,,1947DA,Beverwijk,Beverwijk,Noord-Holland,VBO,4.661179,52.484222
Alkmaarseweg,7,a,,1947DA,Beverwijk,Beverwijk,Noord-Holland,VBO,4.661194,52.484569
Alkmaarseweg,7,b,,1947DA,Beverwijk,Beverwijk,Noord-Holland,VBO,4.661233,52.484626
Alkmaarseweg,7,c,,1947DA,Beverwijk,Beverwijk,Noord-Holland,VBO,4.661252,52.484677
Alkmaarseweg,7,d,,1947DA,Beverwijk,Beverwijk,Noord-Holland,VBO,4.661300,52.484725
Alkmaarseweg,7,e,,1947DA,Beverwijk,Beverwijk,Noord-Holland,VBO,4.661198,52.484499
Alkmaarseweg,7,f,,1947DA,Beverwijk,Beverwijk,Noord-Holland,VBO,4.661225,52.484563
Alkmaarseweg,7,g,,1947DA,Beverwijk,Beverwijk,Noord-Holland,VBO,4.661259,52.484624
Alkmaarseweg,7,h,,1947DA,Beverwijk,Beverwijk,Noord-Holland,VBO,4.661290,52.484674
Alkmaarseweg,7,j,,1947DA,Beverwijk,Beverwijk,Noord-Holland,VBO,4.661329,52.484727
Alkmaarseweg,7,,,1947DA,Beverwijk,Beverwijk,Noord-Holland,VBO,4.661154,52.484503
Alkmaarseweg,11,A,,1947DA,Beverwijk,Beverwijk,Noord-Holland,VBO,4.661076,52.484765
Alkmaarseweg,11,B,,1947DA,Beverwijk,Beverwijk,Noord-Holland,VBO,4.661061,52.484810
Alkmaarseweg,11,C,,1947DA,Beverwijk,Beverwijk,Noord-Holland,VBO,4.661046,52.484846
Alkmaarseweg,11,D,,1947DA,Beverwijk,Beverwijk,Noord-Holland,VBO,4.661045,52.484882
Alkmaarseweg,11,E,,1947DA,Beverwijk,Beverwijk,Noord-Holland,VBO,4.661044,52.484918
Alkmaarseweg,13,A,,1947DA,Beverwijk,Beverwijk,Noord-Holland,VBO,4.661029,52.484990
Alkmaarseweg,13,B,,1947DA,Beverwijk,Beverwijk,Noord-Holland,VBO,4.661058,52.484990
Alkmaarseweg,15,A,,1947DA,Beverwijk,Beverwijk,Noord-Holland,VBO,4.661013,52.485052
Alkmaarseweg,15,B,,1947DA,Beverwijk,Beverwijk,Noord-Holland,VBO,4.661042,52.485053
Alkmaarseweg,17,A,,1947DA,Beverwijk,Beverwijk,Noord-Holland,VBO,4.660997,52.485115
Alkmaarseweg,17,B,,1947DA,Beverwijk,Beverwijk,Noord-Holland,VBO,4.661027,52.485115
Alkmaarseweg,19,A,,1947DA,Beverwijk,Beverwijk,Noord-Holland,VBO,4.660996,52.485178
Alkmaarseweg,19,B,,1947DA,Beverwijk,Beverwijk,Noord-Holland,VBO,4.661011,52.485178
Alkmaarseweg,21,,,1947DA,Beverwijk,Beverwijk,Noord-Holland,VBO,4.660980,52.485241
Alkmaarseweg,23,,,1947DA,Beverwijk,Beverwijk,Noord-Holland,VBO,4.660965,52.485286
Alkmaarseweg,25,,,1947DA,Beverwijk,Beverwijk,Noord-Holland,VBO,4.660949,52.485349
Alkmaarseweg,27,,,1947DA,Beverwijk,Beverwijk,Noord-Holland,VBO,4.660948,52.485393
Alkmaarseweg,29,,,1947DA,Beverwijk,Beverwijk,Noord-Holland,VBO,4.660932,52.485465
Alkmaarseweg,31,,,1947DB,Beverwijk,Beverwijk,Noord-Holland,VBO,4.660917,52.485519
Alkmaarseweg,33,,,1947DB,Beverwijk,Beverwijk,Noord-Holland,VBO,4.660916,52.485573
Alkmaarseweg,35,,,1947DB,Beverwijk,Beverwijk,Noord-Holland,VBO,4.660900,52.485618
Alkmaarseweg,37,,,1947DB,Beverwijk,Beverwijk,Noord-Holland,VBO,4.660900,52.485672
Alkmaarseweg,39,,,1947DB,Beverwijk,Beverwijk,Noord-Holland,VBO,4.660884,52.485717
Alkmaarseweg,41,,,1947DB,Beverwijk,Beverwijk,Noord-Holland,VBO,4.660927,52.485780
Alkmaarseweg,43,,,1947DB,Beverwijk,Beverwijk,Noord-Holland,VBO,4.660912,52.485825
Alkmaarseweg,45,,,1947DB,Beverwijk,Beverwijk,Noord-Holland,VBO,4.660911,52.485879
Alkmaarseweg,47,,,1947DB,Beverwijk,Beverwijk,Noord-Holland,VBO,4.660895,52.485923
Alkmaarseweg,49,A,,1947DB,Beverwijk,Beverwijk,Noord-Holland,VBO,4.660878,52.486112
Alkmaarseweg,49,,,1947DB,Beverwijk,Beverwijk,Noord-Holland,VBO,4.660877,52.486148
Alkmaarseweg,51,A,,1947DB,Beverwijk,Beverwijk,Noord-Holland,VBO,4.660893,52.486049
Alkmaarseweg,51,,,1947DB,Beverwijk,Beverwijk,Noord-Holland,VBO,4.660893,52.486085
Alkmaarseweg,53,A,,1947DB,Beverwijk,Beverwijk,Noord-Holland,VBO,4.660909,52.485986
Alkmaarseweg,53,,,1947DB,Beverwijk,Beverwijk,Noord-Holland,VBO,4.660894,52.486022
Alkmaarseweg,55,A,,1947DB,Beverwijk,Beverwijk,Noord-Holland,VBO,4.660922,52.486121
Alkmaarseweg,55,,,1947DB,Beverwijk,Beverwijk,Noord-Holland,VBO,4.660906,52.486148
Alkmaarseweg,57,,,1947DB,Beverwijk,Beverwijk,Noord-Holland,VBO,4.660922,52.486085
Alkmaarseweg,59,A,,1947DB,Beverwijk,Beverwijk,Noord-Holland,VBO,4.660861,52.486238
Alkmaarseweg,59,,,1947DB,Beverwijk,Beverwijk,Noord-Holland,VBO,4.660831,52.486238
Alkmaarseweg,61,A,,1947DB,Beverwijk,Beverwijk,Noord-Holland,VBO,4.660796,52.486615
Alkmaarseweg,61,,,1947DB,Beverwijk,Beverwijk,Noord-Holland,VBO,4.660795,52.486651
Alkmaarseweg,63,A,,1947DB,Beverwijk,Beverwijk,Noord-Holland,VBO,4.660812,52.486552
Alkmaarseweg,63,,,1947DB,Beverwijk,Beverwijk,Noord-Holland,VBO,4.660811,52.486588
Alkmaarseweg,65,A,,1947DB,Beverwijk,Beverwijk,Noord-Holland,VBO,4.660827,52.486489
Alkmaarseweg,65,,,1947DB,Beverwijk,Beverwijk,Noord-Holland,VBO,4.660812,52.486525
Alkmaarseweg,67,A,,1947DB,Beverwijk,Beverwijk,Noord-Holland,VBO,4.660828,52.486426
Alkmaarseweg,67,,,1947DB,Beverwijk,Beverwijk,Noord-Holland,VBO,4.660828,52.486462
Alkmaarseweg,69,A,,1947DB,Beverwijk,Beverwijk,Noord-Holland,VBO,4.660844,52.486363
Alkmaarseweg,69,,,1947DB,Beverwijk,Beverwijk,Noord-Holland,VBO,4.660844,52.486390
Alkmaarseweg,71,A,,1947DB,Beverwijk,Beverwijk,Noord-Holland,VBO,4.660825,52.486615
Alkmaarseweg,71,,,1947DB,Beverwijk,Beverwijk,Noord-Holland,VBO,4.660825,52.486651
Alkmaarseweg,73,A,,1947DB,Beverwijk,Beverwijk,Noord-Holland,VBO,4.660841,52.486552
Alkmaarseweg,73,,,1947DB,Beverwijk,Beverwijk,Noord-Holland,VBO,4.660840,52.486588
Alkmaarseweg,75,A,,1947DB,Beverwijk,Beverwijk,Noord-Holland,VBO,4.660857,52.486489
Alkmaarseweg,75,,,1947DB,Beverwijk,Beverwijk,Noord-Holland,VBO,4.660841,52.486525
Alkmaarseweg,77,A,,1947DB,Beverwijk,Beverwijk,Noord-Holland,VBO,4.660872,52.486427
Alkmaarseweg,77,B,,1947DB,Beverwijk,Beverwijk,Noord-Holland,VBO,4.660902,52.486400
Alkmaarseweg,77,,,1947DB,Beverwijk,Beverwijk,Noord-Holland,VBO,4.660857,52.486462
Alkmaarseweg,79,A,,1947DB,Beverwijk,Beverwijk,Noord-Holland,VBO,4.660874,52.486364
Alkmaarseweg,79,B,,1947DB,Beverwijk,Beverwijk,Noord-Holland,VBO,4.660918,52.486364
Alkmaarseweg,79,,,1947DB,Beverwijk,Beverwijk,Noord-Holland,VBO,4.660873,52.486400
Alkmaarseweg,81,A,,1947DC,Beverwijk,Beverwijk,Noord-Holland,VBO,4.660869,52.486624
Alkmaarseweg,81,B,,1947DC,Beverwijk,Beverwijk,Noord-Holland,VBO,4.660884,52.486633
Alkmaarseweg,81,,,1947DC,Beverwijk,Beverwijk,Noord-Holland,VBO,4.660854,52.486651
Alkmaarseweg,83,A,,1947DC,Beverwijk,Beverwijk,Noord-Holland,VBO,4.660870,52.486561
Alkmaarseweg,83,B,,1947DC,Beverwijk,Beverwijk,Noord-Holland,VBO,4.660900,52.486571
Alkmaarseweg,83,,,1947DC,Beverwijk,Beverwijk,Noord-Holland,VBO,4.660870,52.486588
Alkmaarseweg,85,A,,1947DC,Beverwijk,Beverwijk,Noord-Holland,VBO,4.660886,52.486499
Alkmaarseweg,85,B,,1947DC,Beverwijk,Beverwijk,Noord-Holland,VBO,4.660901,52.486508
Alkmaarseweg,85,,,1947DC,Beverwijk,Beverwijk,Noord-Holland,VBO,4.660886,52.486526
Alkmaarseweg,87,A,,1947DC,Beverwijk,Beverwijk,Noord-Holland,VBO,4.660902,52.486427
Alkmaarseweg,87,B,,1947DC,Beverwijk,Beverwijk,Noord-Holland,VBO,4.660916,52.486445
Alkmaarseweg,87,,,1947DC,Beverwijk,Beverwijk,Noord-Holland,VBO,4.660887,52.486463
Alkmaarseweg,89,,,1947DC,Beverwijk,Beverwijk,Noord-Holland,VBO,4.660668,52.487216
Alkmaarseweg,91,,,1947DC,Beverwijk,Beverwijk,Noord-Holland,VBO,4.660639,52.487216
Alkmaarseweg,93,A,,1947DC,Beverwijk,Beverwijk,Noord-Holland,VBO,4.660697,52.487261
Alkmaarseweg,93,,,1947DC,Beverwijk,Beverwijk,Noord-Holland,VBO,4.660667,52.487261
Alkmaarseweg,95,,,1947DC,Beverwijk,Beverwijk,Noord-Holland,VBO,4.660638,52.487261
Alkmaarseweg,97,,,1947DC,Beverwijk,Beverwijk,Noord-Holland,VBO,4.660652,52.487324
Alkmaarseweg,99,,,1947DC,Beverwijk,Beverwijk,Noord-Holland,VBO,4.660622,52.487324
Alkmaarseweg,101,,,1947DC,Beverwijk,Beverwijk,Noord-Holland,VBO,4.660621,52.487378
Alkmaarseweg,103,,,1947DC,Beverwijk,Beverwijk,Noord-Holland,VBO,4.660636,52.487387
Alkmaarseweg,105,,,1947DC,Beverwijk,Beverwijk,Noord-Holland,VBO,4.660605,52.487450
Alkmaarseweg,107,,,1947DC,Beverwijk,Beverwijk,Noord-Holland,VBO,4.660620,52.487450
Alkmaarseweg,109,,,1947DC,Beverwijk,Beverwijk,Noord-Holland,VBO,4.660650,52.487450
Alkmaarseweg,117,,,1947DC,Beverwijk,Beverwijk,Noord-Holland,VBO,4.660729,52.487999
Alkmaarseweg,119,,,1947DC,Beverwijk,Beverwijk,Noord-Holland,VBO,4.660530,52.488044
Alkmaarseweg,121,,,1947DC,Beverwijk,Beverwijk,Noord-Holland,VBO,4.660505,52.488159
Alkmaarseweg,123,,,1947DC,Beverwijk,Beverwijk,Noord-Holland,VBO,4.660505,52.488204
Alkmaarseweg,125,,,1947DC,Beverwijk,Beverwijk,Noord-Holland,VBO,4.660474,52.488303
Alkmaarseweg,127,,,1947DC,Beverwijk,Beverwijk,Noord-Holland,VBO,4.660456,52.488455
Alkmaarseweg,129,,,1947DC,Beverwijk,Beverwijk,Noord-Holland,VBO,4.660646,52.488546
Munnikenweg,13,,,1947EP,Beverwijk,Beverwijk,Noord-Holland,VBO,4.661557,52.485101
Munnikenweg,15,,,1947EP,Beverwijk,Beverwijk,Noord-Holland,VBO,4.661586,52.485137
Munnikenweg,17,,,1947EP,Beverwijk,Beverwijk,Noord-Holland,VBO,4.661614,52.485182
Munnikenweg,19,,,1947EP,Beverwijk,Beverwijk,Noord-Holland,VBO,4.661628,52.485218
Munnikenweg,21,,,1947EP,Beverwijk,Beverwijk,Noord-Holland,VBO,4.661731,52.485236
Munnikenweg,23,,,1947EP,Beverwijk,Beverwijk,Noord-Holland,VBO,4.661657,52.485254
Munnikenweg,25,,,1947EP,Beverwijk,Beverwijk,Noord-Holland,VBO,4.661686,52.485290
Munnikenweg,27,,,1947EP,Beverwijk,Beverwijk,Noord-Holland,VBO,4.661829,52.485543
Munnikenweg,29,,,1947EP,Beverwijk,Beverwijk,Noord-Holland,VBO,4.661858,52.485579
Munnikenweg,31,,,1947EP,Beverwijk,Beverwijk,Noord-Holland,VBO,4.661872,52.485615
Munnikenweg,33,,,1947EP,Beverwijk,Beverwijk,Noord-Holland,VBO,4.661901,52.485651
Munnikenweg,35,,,1947EP,Beverwijk,Beverwijk,Noord-Holland,VBO,4.661974,52.485678
Munnikenweg,37,,,1947EP,Beverwijk,Beverwijk,Noord-Holland,VBO,4.661930,52.485687
Munnikenweg,39,,,1947EP,Beverwijk,Beverwijk,Noord-Holland,VBO,4.661944,52.485732
Munnikenweg,41,,,1947EP,Beverwijk,Beverwijk,Noord-Holland,VBO,4.662102,52.485985
Munnikenweg,43,,,1947EP,Beverwijk,Beverwijk,Noord-Holland,VBO,4.662130,52.486030
Munnikenweg,45,,,1947EP,Beverwijk,Beverwijk,Noord-Holland,VBO,4.662159,52.486066
Munnikenweg,47,,,1947EP,Beverwijk,Beverwijk,Noord-Holland,VBO,4.662173,52.486102
Munnikenweg,49,,,1947EP,Beverwijk,Beverwijk,Noord-Holland,VBO,4.662202,52.486147
Munnikenweg,51,,,1947EP,Beverwijk,Beverwijk,Noord-Holland,VBO,4.662542,52.486050
Munnikenweg,53,,,1947EP,Beverwijk,Beverwijk,Noord-Holland,VBO,4.662586,52.486096
Munnikenweg,55,,,1947EP,Beverwijk,Beverwijk,Noord-Holland,VBO,4.662629,52.486141
Munnikenweg,57,,,1947EP,Beverwijk,Beverwijk,Noord-Holland,VBO,4.662658,52.486186
Munnikenweg,59,,,1947EP,Beverwijk,Beverwijk,Noord-Holland,VBO,4.662701,52.486222
Munnikenweg,61,,,1947EP,Beverwijk,Beverwijk,Noord-Holland,VBO,4.662774,52.486303
Munnikenweg,63,,,1947EP,Beverwijk,Beverwijk,Noord-Holland,VBO,4.662846,52.486385
Munnikenweg,67,,,1947ER,Beverwijk,Beverwijk,Noord-Holland,VBO,4.662779,52.486852
Munnikenweg,69,,,1947ER,Beverwijk,Beverwijk,Noord-Holland,VBO,4.662823,52.486897
Munnikenweg,71,,,1947ER,Beverwijk,Beverwijk,Noord-Holland,VBO,4.662866,52.486942
Munnikenweg,73,,,1947ER,Beverwijk,Beverwijk,Noord-Holland,VBO,4.662910,52.486996
Munnikenweg,75,,,1947ER,Beverwijk,Beverwijk,Noord-Holland,VBO,4.662938,52.487041
Munnikenweg,77,,,1947ER,Beverwijk,Beverwijk,Noord-Holland,VBO,4.662982,52.487087
Munnikenweg,79,,,1947ER,Beverwijk,Beverwijk,Noord-Holland,VBO,4.663025,52.487132
Munnikenweg,81,,,1947ER,Beverwijk,Beverwijk,Noord-Holland,VBO,4.663069,52.487177
Munnikenweg,83,,,1947ER,Beverwijk,Beverwijk,Noord-Holland,VBO,4.663097,52.487222
Munnikenweg,85,,,1947ER,Beverwijk,Beverwijk,Noord-Holland,VBO,4.663155,52.487303
Munnikenweg,87,,,1947ER,Beverwijk,Beverwijk,Noord-Holland,VBO,4.663184,52.487348
Munnikenweg,89,,,1947ER,Beverwijk,Beverwijk,Noord-Holland,VBO,4.663227,52.487394
Munnikenweg,91,,,1947ER,Beverwijk,Beverwijk,Noord-Holland,VBO,4.663270,52.487439
Munnikenweg,93,,,1947ER,Beverwijk,Beverwijk,Noord-Holland,VBO,4.663357,52.487529
Munnikenweg,95,,,1947ER,Beverwijk,Beverwijk,Noord-Holland,VBO,4.663444,52.487620
Munnikenweg,97,,,1947ER,Beverwijk,Beverwijk,Noord-Holland,VBO,4.663473,52.487656
Munnikenweg,99,,,1947ER,Beverwijk,Beverwijk,Noord-Holland,VBO,4.663531,52.487719
Munnikenweg,101,,,1947ER,Beverwijk,Beverwijk,Noord-Holland,VBO,4.663560,52.487755
Munnikenweg,103,,,1947ER,Beverwijk,Beverwijk,Noord-Holland,VBO,4.663588,52.487800
Munnikenweg,105,,,1947ER,Beverwijk,Beverwijk,Noord-Holland,VBO,4.663646,52.487855
Munnikenweg,107,,,1947ER,Beverwijk,Beverwijk,Noord-Holland,VBO,4.663675,52.487900
Munnikenweg,109,,,1947ES,Beverwijk,Beverwijk,Noord-Holland,VBO,4.663791,52.488017
Munnikenweg,111,,,1947ES,Beverwijk,Beverwijk,Noord-Holland,VBO,4.663834,52.488071
Munnikenweg,113,,,1947ES,Beverwijk,Beverwijk,Noord-Holland,VBO,4.663863,52.488117
Munnikenweg,115,,,1947ES,Beverwijk,Beverwijk,Noord-Holland,VBO,4.663921,52.488162
Munnikenweg,117,,,1947ES,Beverwijk,Beverwijk,Noord-Holland,VBO,4.663950,52.488207
Munnikenweg,119,,,1947ES,Beverwijk,Beverwijk,Noord-Holland,VBO,4.663993,52.488252
Munnikenweg,121,,,1947ES,Beverwijk,Beverwijk,Noord-Holland,VBO,4.664022,52.488297
Munnikenweg,123,,,1947ES,Beverwijk,Beverwijk,Noord-Holland,VBO,4.664051,52.488333
Munnikenweg,125,,,1947ES,Beverwijk,Beverwijk,Noord-Holland,VBO,4.664094,52.488370
Munnikenweg,127,,,1947ES,Beverwijk,Beverwijk,Noord-Holland,VBO,4.664138,52.488424
Munnikenweg,129,,,1947ES,Beverwijk,Beverwijk,Noord-Holland,VBO,4.664166,52.488460
Munnikenweg,131,,,1947ES,Beverwijk,Beverwijk,Noord-Holland,VBO,4.664210,52.488505
Munnikenweg,133,,,1947ES,Beverwijk,Beverwijk,Noord-Holland,VBO,4.664239,52.488550
Munnikenweg,135,,,1947ES,Beverwijk,Beverwijk,Noord-Holland,VBO,4.664297,52.488605
Munnikenweg,137,,,1947ES,Beverwijk,Beverwijk,Noord-Holland,VBO,4.664325,52.488641
Munnikenweg,139,,,1947ES,Beverwijk,Beverwijk,Noord-Holland,VBO,4.664369,52.488695
Munnikenweg,141,,,1947ES,Beverwijk,Beverwijk,Noord-Holland,VBO,4.664426,52.488776
Munnikenweg,143,,,1947ES,Beverwijk,Beverwijk,Noord-Holland,VBO,4.664455,52.488830
Munnikenweg,145,,,1947ES,Beverwijk,Beverwijk,Noord-Holland,VBO,4.664498,52.488884
Munnikenweg,147,,,1947ES,Beverwijk,Beverwijk,Noord-Holland,VBO,4.664541,52.488939
Munnikenweg,149,,,1947ES,Beverwijk,Beverwijk,Noord-Holland,VBO,4.664585,52.488993
Munnikenweg,151,,,1947ES,Beverwijk,Beverwijk,Noord-Holland,VBO,4.664613,52.489047
Munnikenweg,153,,,1947ES,Beverwijk,Beverwijk,Noord-Holland,VBO,4.664642,52.489101
Munnikenweg,155,A,,1947ES,Beverwijk,Beverwijk,Noord-Holland,VBO,4.664863,52.489111
Munnikenweg,155,,,1947ES,Beverwijk,Beverwijk,Noord-Holland,VBO,4.664671,52.489137
Munnikenweg,2,A,,1947ET,Beverwijk,Beverwijk,Noord-Holland,VBO,4.661351,52.485108
Munnikenweg,2,B,,1947ET,Beverwijk,Beverwijk,Noord-Holland,VBO,4.661408,52.485208
Munnikenweg,2,,,1947ET,Beverwijk,Beverwijk,Noord-Holland,VBO,4.661322,52.485045
Munnikenweg,4,,,1947ET,Beverwijk,Beverwijk,Noord-Holland,VBO,4.661437,52.485235
Munnikenweg,6,,,1947ET,Beverwijk,Beverwijk,Noord-Holland,VBO,4.661465,52.485298
Munnikenweg,8,,,1947ET,Beverwijk,Beverwijk,Noord-Holland,VBO,4.661494,52.485343
Munnikenweg,10,,,1947ET,Beverwijk,Beverwijk,Noord-Holland,VBO,4.661523,52.485388
Munnikenweg,12,,,1947ET,Beverwijk,Beverwijk,Noord-Holland,VBO,4.661551,52.485433
Munnikenweg,14,,,1947ET,Beverwijk,Beverwijk,Noord-Holland,VBO,4.661580,52.485487
Munnikenweg,18,,,1947ET,Beverwijk,Beverwijk,Noord-Holland,VBO,4.661695,52.485659
Munnikenweg,20,,,1947ET,Beverwijk,Beverwijk,Noord-Holland,VBO,4.661723,52.485713
Munnikenweg,22,,,1947ET,Beverwijk,Beverwijk,Noord-Holland,VBO,4.661752,52.485758
Munnikenweg,24,A,,1947ET,Beverwijk,Beverwijk,Noord-Holland,VBO,4.661838,52.485884
Munnikenweg,24,C,,1947ET,Beverwijk,Beverwijk,Noord-Holland,VBO,4.661867,52.485938
Munnikenweg,24,,acht,1947ET,Beverwijk,Beverwijk,Noord-Holland,VBO,4.661573,52.485901
Munnikenweg,24,,,1947ET,Beverwijk,Beverwijk,Noord-Holland,VBO,4.661781,52.485803
Munnikenweg,28,,,1947ET,Beverwijk,Beverwijk,Noord-Holland,VBO,4.661937,52.486163
Munnikenweg,32,,,1947ET,Beverwijk,Beverwijk,Noord-Holland,VBO,4.662079,52.486452
Munnikenweg,34,,,1947ET,Beverwijk,Beverwijk,Noord-Holland,VBO,4.662153,52.486470
Munnikenweg,36,,,1947ET,Beverwijk,Beverwijk,Noord-Holland,VBO,4.662196,52.486525
Munnikenweg,38,,,1947ET,Beverwijk,Beverwijk,Noord-Holland,VBO,4.662239,52.486588
Munnikenweg,40,,,1947EV,Beverwijk,Beverwijk,Noord-Holland,VBO,4.662383,52.486759
Munnikenweg,42,,,1947EV,Beverwijk,Beverwijk,Noord-Holland,VBO,4.662441,52.486814
Munnikenweg,44,,,1947EV,Beverwijk,Beverwijk,Noord-Holland,VBO,4.662484,52.486904
Munnikenweg,46,,,1947EV,Beverwijk,Beverwijk,Noord-Holland,VBO,4.662499,52.486922
Munnikenweg,48,,,1947EV,Beverwijk,Beverwijk,Noord-Holland,VBO,4.662556,52.486985
Munnikenweg,50,,,1947EV,Beverwijk,Beverwijk,Noord-Holland,VBO,4.662571,52.487003
Munnikenweg,52,,,1947EV,Beverwijk,Beverwijk,Noord-Holland,VBO,4.662629,52.487066
Munnikenweg,54,,,1947EV,Beverwijk,Beverwijk,Noord-Holland,VBO,4.662643,52.487094
Munnikenweg,56,,,1947EV,Beverwijk,Beverwijk,Noord-Holland,VBO,4.662715,52.487166
Munnikenweg,58,,,1947EV,Beverwijk,Beverwijk,Noord-Holland,VBO,4.662730,52.487184
Munnikenweg,60,,,1947EV,Beverwijk,Beverwijk,Noord-Holland,VBO,4.662788,52.487247
Munnikenweg,62,,,1947EV,Beverwijk,Beverwijk,Noord-Holland,VBO,4.662802,52.487265
Munnikenweg,64,,,1947EV,Beverwijk,Beverwijk,Noord-Holland,VBO,4.662845,52.487328
Munnikenweg,66,,,1947EV,Beverwijk,Beverwijk,Noord-Holland,VBO,4.662874,52.487356
Munnikenweg,68,,,1947EW,Beverwijk,Beverwijk,Noord-Holland,VBO,4.662947,52.487419
Munnikenweg,70,,,1947EW,Beverwijk,Beverwijk,Noord-Holland,VBO,4.662990,52.487455
Munnikenweg,72,,,1947EW,Beverwijk,Beverwijk,Noord-Holland,VBO,4.663019,52.487500
Munnikenweg,74,,,1947EW,Beverwijk,Beverwijk,Noord-Holland,VBO,4.663048,52.487536
Munnikenweg,76,,,1947EW,Beverwijk,Beverwijk,Noord-Holland,VBO,4.663091,52.487582
Munnikenweg,78,,,1947EW,Beverwijk,Beverwijk,Noord-Holland,VBO,4.663135,52.487627
Munnikenweg,80,,,1947EW,Beverwijk,Beverwijk,Noord-Holland,VBO,4.663164,52.487663
Munnikenweg,82,,,1947EW,Beverwijk,Beverwijk,Noord-Holland,VBO,4.663207,52.487708
Munnikenweg,84,,,1947EW,Beverwijk,Beverwijk,Noord-Holland,VBO,4.663236,52.487753
Munnikenweg,86,,,1947EW,Beverwijk,Beverwijk,Noord-Holland,VBO,4.663279,52.487789
Munnikenweg,88,,,1947EW,Beverwijk,Beverwijk,Noord-Holland,VBO,4.663308,52.487835
Munnikenweg,90,,,1947EW,Beverwijk,Beverwijk,Noord-Holland,VBO,4.663352,52.487871
Munnikenweg,92,,,1947EW,Beverwijk,Beverwijk,Noord-Holland,VBO,4.663611,52.488187
Munnikenweg,94,,,1947EW,Beverwijk,Beverwijk,Noord-Holland,VBO,4.663655,52.488223
Munnikenweg,96,,,1947EW,Beverwijk,Beverwijk,Noord-Holland,VBO,4.663684,52.488268
Munnikenweg,98,,,1947EW,Beverwijk,Beverwijk,Noord-Holland,VBO,4.663713,52.488304
Munnikenweg,100,,,1947EW,Beverwijk,Beverwijk,Noord-Holland,VBO,4.663756,52.488341
Munnikenweg,102,,,1947EW,Beverwijk,Beverwijk,Noord-Holland,VBO,4.663785,52.488377
Munnikenweg,104,A,,1947EW,Beverwijk,Beverwijk,Noord-Holland,VBO,4.663857,52.488458
Munnikenweg,104,B,,1947EW,Beverwijk,Beverwijk,Noord-Holland,VBO,4.663871,52.488494
Munnikenweg,104,,,1947EW,Beverwijk,Beverwijk,Noord-Holland,VBO,4.663828,52.488440
Munnikenweg,106,,,1947EW,Beverwijk,Beverwijk,Noord-Holland,VBO,4.664074,52.488720
Albert van Saksenstraat,1,,,1947GA,Beverwijk,Beverwijk,Noord-Holland,VBO,4.662165,52.484790
Albert van Saksenstraat,2,,,1947GA,Beverwijk,Beverwijk,Noord-Holland,VBO,4.662020,52.484672
Albert van Saksenstraat,3,,,1947GA,Beverwijk,Beverwijk,Noord-Holland,VBO,4.662107,52.484753
Albert van Saksenstraat,4,,,1947GA,Beverwijk,Beverwijk,Noord-Holland,VBO,4.661961,52.484699
Albert van Saksenstraat,5,,,1947GA,Beverwijk,Beverwijk,Noord-Holland,VBO,4.662063,52.484780
Albert van Saksenstraat,6,,,1947GA,Beverwijk,Beverwijk,Noord-Holland,VBO,4.661916,52.484725
Albert van Saksenstraat,7,,,1947GA,Beverwijk,Beverwijk,Noord-Holland,VBO,4.662018,52.484825
Albert van Saksenstraat,8,,,1947GA,Beverwijk,Beverwijk,Noord-Holland,VBO,4.661857,52.484752
Albert van Saksenstraat,9,,,1947GA,Beverwijk,Beverwijk,Noord-Holland,VBO,4.661973,52.484843
Albert van Saksenstraat,10,,,1947GA,Beverwijk,Beverwijk,Noord-Holland,VBO,4.661798,52.484761
Albert van Saksenstraat,11,,,1947GA,Beverwijk,Beverwijk,Noord-Holland,VBO,4.661914,52.484878
Albert van Saksenstraat,12,,,1947GA,Beverwijk,Beverwijk,Noord-Holland,VBO,4.661753,52.484787
Albert van Saksenstraat,13,,,1947GA,Beverwijk,Beverwijk,Noord-Holland,VBO,4.661869,52.484896
Albert van Saksenstraat,14,,,1947GA,Beverwijk,Beverwijk,Noord-Holland,VBO,4.661694,52.484814
Albert van Saksenstraat,15,,,1947GA,Beverwijk,Beverwijk,Noord-Holland,VBO,4.661810,52.484922
Albert van Saksenstraat,16,,,1947GA,Beverwijk,Beverwijk,Noord-Holland,VBO,4.661649,52.484841
Albert van Saksenstraat,17,,,1947GA,Beverwijk,Beverwijk,Noord-Holland,VBO,4.661780,52.484949
Albert van Saksenstraat,18,,,1947GA,Beverwijk,Beverwijk,Noord-Holland,VBO,4.661560,52.484903
Albert van Saksenstraat,19,,,1947GA,Beverwijk,Beverwijk,Noord-Holland,VBO,4.661706,52.484976
Albert van Saksenstraat,20,,,1947GA,Beverwijk,Beverwijk,Noord-Holland,VBO,4.661486,52.484920
Albert van Saksenstraat,22,,,1947GA,Beverwijk,Beverwijk,Noord-Holland,VBO,4.661427,52.484938
van Harencarspelstraat,1,,,1947GB,Beverwijk,Beverwijk,Noord-Holland,VBO,4.662395,52.485178
van Harencarspelstraat,2,,,1947GB,Beverwijk,Beverwijk,Noord-Holland,VBO,4.662233,52.485132
van Harencarspelstraat,3,,,1947GB,Beverwijk,Beverwijk,Noord-Holland,VBO,4.662320,52.485213
van Harencarspelstraat,4,,,1947GB,Beverwijk,Beverwijk,Noord-Holland,VBO,4.662189,52.485158
van Harencarspelstraat,5,,,1947GB,Beverwijk,Beverwijk,Noord-Holland,VBO,4.662291,52.485231
van Harencarspelstraat,6,,,1947GB,Beverwijk,Beverwijk,Noord-Holland,VBO,4.662130,52.485185
van Harencarspelstraat,7,,,1947GB,Beverwijk,Beverwijk,Noord-Holland,VBO,4.662217,52.485266
van Harencarspelstraat,8,,,1947GB,Beverwijk,Beverwijk,Noord-Holland,VBO,4.662085,52.485212
van Harencarspelstraat,9,,,1947GB,Beverwijk,Beverwijk,Noord-Holland,VBO,4.662216,52.485311
van Harencarspelstraat,10,,,1947GB,Beverwijk,Beverwijk,Noord-Holland,VBO,4.662040,52.485229
van Harencarspelstraat,11,,,1947GB,Beverwijk,Beverwijk,Noord-Holland,VBO,4.662156,52.485347
van Harencarspelstraat,12,,,1947GB,Beverwijk,Beverwijk,Noord-Holland,VBO,4.661981,52.485283
van Harencarspelstraat,13,,,1947GB,Beverwijk,Beverwijk,Noord-Holland,VBO,4.662127,52.485365
van Harencarspelstraat,14,,,1947GB,Beverwijk,Beverwijk,Noord-Holland,VBO,4.661921,52.485310
van Harencarspelstraat,15,,,1947GB,Beverwijk,Beverwijk,Noord-Holland,VBO,4.662053,52.485391
van Harencarspelstraat,16,,,1947GB,Beverwijk,Beverwijk,Noord-Holland,VBO,4.661789,52.485327
van Harencarspelstraat,17,,,1947GB,Beverwijk,Beverwijk,Noord-Holland,VBO,4.662023,52.485418
van Harencarspelstraat,18,,,1947GB,Beverwijk,Beverwijk,Noord-Holland,VBO,4.661758,52.485371
van Harencarspelstraat,19,,,1947GB,Beverwijk,Beverwijk,Noord-Holland,VBO,4.661949,52.485445
van Harencarspelstraat,20,,,1947GB,Beverwijk,Beverwijk,Noord-Holland,VBO,4.661744,52.485335
Wolff en Dekenstraat,6,,,1947GC,Beverwijk,Beverwijk,Noord-Holland,VBO,4.661494,52.486206
Wolff en Dekenstraat,8,,,1947GC,Beverwijk,Beverwijk,Noord-Holland,VBO,4.661450,52.486205
Wolff en Dekenstraat,10,,,1947GC,Beverwijk,Beverwijk,Noord-Holland,VBO,4.661391,52.486205
Wolff en Dekenstraat,12,,,1947GC,Beverwijk,Beverwijk,Noord-Holland,VBO,4.661318,52.486196
Wolff en Dekenstraat,14,,,1947GC,Beverwijk,Beverwijk,Noord-Holland,VBO,4.661259,52.486195
Wolff en Dekenstraat,16,,,1947GC,Beverwijk,Beverwijk,Noord-Holland,VBO,4.661509,52.486188
Wolff en Dekenstraat,18,,,1947GC,Beverwijk,Beverwijk,Noord-Holland,VBO,4.661451,52.486178
Wolff en Dekenstraat,20,,,1947GC,Beverwijk,Beverwijk,Noord-Holland,VBO,4.661392,52.486178
Wolff en Dekenstraat,22,,,1947GC,Beverwijk,Beverwijk,Noord-Holland,VBO,4.661318,52.486178
Wolff en Dekenstraat,24,,,1947GC,Beverwijk,Beverwijk,Noord-Holland,VBO,4.661259,52.486168
Wolff en Dekenstraat,26,,,1947GC,Beverwijk,Beverwijk,Noord-Holland,VBO,4.661510,52.486161
Wolff en Dekenstraat,28,,,1947GC,Beverwijk,Beverwijk,Noord-Holland,VBO,4.661451,52.486152
Wolff en Dekenstraat,30,,,1947GC,Beverwijk,Beverwijk,Noord-Holland,VBO,4.661392,52.486151
Wolff en Dekenstraat,32,,,1947GC,Beverwijk,Beverwijk,Noord-Holland,VBO,4.661319,52.486151
Wolff en Dekenstraat,34,,,1947GC,Beverwijk,Beverwijk,Noord-Holland,VBO,4.661260,52.486150
Wolff en Dekenstraat,2,,,1947GD,Beverwijk,Beverwijk,Noord-Holland,VBO,4.661806,52.486073
Wolff en Dekenstraat,3,,,1947GD,Beverwijk,Beverwijk,Noord-Holland,VBO,4.661788,52.486288
Wolff en Dekenstraat,4,,,1947GD,Beverwijk,Beverwijk,Noord-Holland,VBO,4.661731,52.486126
Wolff en Dekenstraat,5,,,1947GD,Beverwijk,Beverwijk,Noord-Holland,VBO,4.661728,52.486324
Wolff en Dekenstraat,7,,,1947GD,Beverwijk,Beverwijk,Noord-Holland,VBO,4.661683,52.486369
Wolff en Dekenstraat,9,,,1947GD,Beverwijk,Beverwijk,Noord-Holland,VBO,4.661638,52.486404
Wolff en Dekenstraat,11,,,1947GD,Beverwijk,Beverwijk,Noord-Holland,VBO,4.661564,52.486449
Wolff en Dekenstraat,13,,,1947GD,Beverwijk,Beverwijk,Noord-Holland,VBO,4.661505,52.486484
Wolff en Dekenstraat,15,,,1947GD,Beverwijk,Beverwijk,Noord-Holland,VBO,4.661460,52.486529
Wolff en Dekenstraat,17,,,1947GD,Beverwijk,Beverwijk,Noord-Holland,VBO,4.661400,52.486565
Wolff en Dekenstraat,19,,,1947GD,Beverwijk,Beverwijk,Noord-Holland,VBO,4.661340,52.486627
Wolff en Dekenstraat,21,,,1947GD,Beverwijk,Beverwijk,Noord-Holland,VBO,4.661296,52.486663
Wolff en Dekenstraat,23,,,1947GD,Beverwijk,Beverwijk,Noord-Holland,VBO,4.661221,52.486707
Wolff en Dekenstraat,25,,,1947GD,Beverwijk,Beverwijk,Noord-Holland,VBO,4.661162,52.486752
Wolff en Dekenstraat,27,,,1947GD,Beverwijk,Beverwijk,Noord-Holland,VBO,4.661117,52.486788
Wolff en Dekenstraat,31,,,1947GD,Beverwijk,Beverwijk,Noord-Holland,VBO,4.661027,52.486850
Wolff en Dekenstraat,37,,,1947GD,Beverwijk,Beverwijk,Noord-Holland,VBO,4.660906,52.487056
Reguliersdwarsstraat,1,A,,1947GE,Beverwijk,Beverwijk,Noord-Holland,VBO,4.661840,52.486693
Reguliersdwarsstraat,1,B,,1947GE,Beverwijk,Beverwijk,Noord-Holland,VBO,4.661884,52.486675
Reguliersdwarsstraat,1,,,1947GE,Beverwijk,Beverwijk,Noord-Holland,VBO,4.661883,52.486765
Reguliersdwarsstraat,3,,,1947GE,Beverwijk,Beverwijk,Noord-Holland,VBO,4.661853,52.486801
Reguliersdwarsstraat,5,,,1947GE,Beverwijk,Beverwijk,Noord-Holland,VBO,4.661808,52.486837
Reguliersdwarsstraat,7,,,1947GE,Beverwijk,Beverwijk,Noord-Holland,VBO,4.661763,52.486872
Reguliersdwarsstraat,9,,,1947GE,Beverwijk,Beverwijk,Noord-Holland,VBO,4.661733,52.486908
Reguliersdwarsstraat,11,,,1947GE,Beverwijk,Beverwijk,Noord-Holland,VBO,4.661688,52.486944
Reguliersdwarsstraat,13,,,1947GE,Beverwijk,Beverwijk,Noord-Holland,VBO,4.661644,52.486980
Reguliersdwarsstraat,15,,,1947GE,Beverwijk,Beverwijk,Noord-Holland,VBO,4.661599,52.487015
Reguliersdwarsstraat,17,A,,1947GE,Beverwijk,Beverwijk,Noord-Holland,VBO,4.661290,52.486977
Reguliersdwarsstraat,17,,,1947GE,Beverwijk,Beverwijk,Noord-Holland,VBO,4.661539,52.487078
Reguliersdwarsstraat,19,,,1947GE,Beverwijk,Beverwijk,Noord-Holland,VBO,4.661494,52.487113
Reguliersdwarsstraat,21,,,1947GE,Beverwijk,Beverwijk,Noord-Holland,VBO,4.661464,52.487149
Reguliersdwarsstraat,23,,,1947GE,Beverwijk,Beverwijk,Noord-Holland,VBO,4.661419,52.487185
Reguliersdwarsstraat,25,,,1947GE,Beverwijk,Beverwijk,Noord-Holland,VBO,4.661375,52.487221
Reguliersdwarsstraat,27,,,1947GE,Beverwijk,Beverwijk,Noord-Holland,VBO,4.661345,52.487265
Reguliersdwarsstraat,2,,,1947GG,Beverwijk,Beverwijk,Noord-Holland,VBO,4.661954,52.486919
Reguliersdwarsstraat,4,,,1947GG,Beverwijk,Beverwijk,Noord-Holland,VBO,4.661909,52.486954
Reguliersdwarsstraat,6,,,1947GG,Beverwijk,Beverwijk,Noord-Holland,VBO,4.661879,52.486981
Reguliersdwarsstraat,8,,,1947GG,Beverwijk,Beverwijk,Noord-Holland,VBO,4.661834,52.487026
Reguliersdwarsstraat,10,,,1947GG,Beverwijk,Beverwijk,Noord-Holland,VBO,4.661790,52.487061
Reguliersdwarsstraat,12,A,,1947GG,Beverwijk,Beverwijk,Noord-Holland,VBO,4.661933,52.487287
Reguliersdwarsstraat,12,B,,1947GG,Beverwijk,Beverwijk,Noord-Holland,VBO,4.662402,52.487434
Reguliersdwarsstraat,12,,,1947GG,Beverwijk,Beverwijk,Noord-Holland,VBO,4.661745,52.487097
Reguliersdwarsstraat,14,,,1947GG,Beverwijk,Beverwijk,Noord-Holland,VBO,4.661685,52.487160
Reguliersdwarsstraat,16,,,1947GG,Beverwijk,Beverwijk,Noord-Holland,VBO,4.661640,52.487186
Reguliersdwarsstraat,18,,,1947GG,Beverwijk,Beverwijk,Noord-Holland,VBO,4.661610,52.487231
Reguliersdwarsstraat,20,,,1947GG,Beverwijk,Beverwijk,Noord-Holland,VBO,4.661566,52.487258
Reguliersdwarsstraat,22,,,1947GG,Beverwijk,Beverwijk,Noord-Holland,VBO,4.661521,52.487302
Reguliersdwarsstraat,24,,,1947GG,Beverwijk,Beverwijk,Noord-Holland,VBO,4.661476,52.487347
Munnikenweide,1,,,1947GH,Beverwijk,Beverwijk,Noord-Holland,VBO,4.663579,52.486587
Munnikenweide,2,,,1947GH,Beverwijk,Beverwijk,Noord-Holland,VBO,4.663356,52.486675
Munnikenweide,3,,,1947GH,Beverwijk,Beverwijk,Noord-Holland,VBO,4.663622,52.486632
Munnikenweide,4,,,1947GH,Beverwijk,Beverwijk,Noord-Holland,VBO,4.663400,52.486721
Munnikenweide,5,,,1947GH,Beverwijk,Beverwijk,Noord-Holland,VBO,4.663665,52.486686
Munnikenweide,6,,,1947GH,Beverwijk,Beverwijk,Noord-Holland,VBO,4.663443,52.486766
Munnikenweide,7,,,1947GH,Beverwijk,Beverwijk,Noord-Holland,VBO,4.663709,52.486732
Munnikenweide,8,,,1947GH,Beverwijk,Beverwijk,Noord-Holland,VBO,4.663487,52.486820
Munnikenweide,9,,,1947GH,Beverwijk,Beverwijk,Noord-Holland,VBO,4.663752,52.486786
Munnikenweide,10,A,,1947GH,Beverwijk,Beverwijk,Noord-Holland,VBO,4.663702,52.487181
Munnikenweide,10,,,1947GH,Beverwijk,Beverwijk,Noord-Holland,VBO,4.663731,52.487172
Munnikenweide,11,,,1947GH,Beverwijk,Beverwijk,Noord-Holland,VBO,4.663795,52.486840
Munnikenweide,12,,,1947GH,Beverwijk,Beverwijk,Noord-Holland,VBO,4.663775,52.487208
Munnikenweide,14,,,1947GH,Beverwijk,Beverwijk,Noord-Holland,VBO,4.663803,52.487253
Munnikenweide,16,,,1947GH,Beverwijk,Beverwijk,Noord-Holland,VBO,4.663847,52.487299
Munnikenweide,18,,,1947GH,Beverwijk,Beverwijk,Noord-Holland,VBO,4.663890,52.487344
Munnikenweide,20,,,1947GH,Beverwijk,Beverwijk,Noord-Holland,VBO,4.663919,52.487389
Munnikenweide,22,,,1947GH,Beverwijk,Beverwijk,Noord-Holland,VBO,4.663992,52.487452
Munnikenweide,24,,,1947GH,Beverwijk,Beverwijk,Noord-Holland,VBO,4.664020,52.487497
Munnikenweide,26,,,1947GH,Beverwijk,Beverwijk,Noord-Holland,VBO,4.664064,52.487543
Munnikenweide,28,,,1947GH,Beverwijk,Beverwijk,Noord-Holland,VBO,4.664107,52.487579
Munnikenweide,30,,,1947GH,Beverwijk,Beverwijk,Noord-Holland,VBO,4.664136,52.487624
Munnikenweide,32,A,,1947GH,Beverwijk,Beverwijk,Noord-Holland,VBO,4.664135,52.487678
Munnikenweide,32,,,1947GH,Beverwijk,Beverwijk,Noord-Holland,VBO,4.664179,52.487669
Munnikenweide,33,,,1947GJ,Beverwijk,Beverwijk,Noord-Holland,VBO,4.664634,52.487780
Munnikenweide,35,,,1947GJ,Beverwijk,Beverwijk,Noord-Holland,VBO,4.664677,52.487825
Munnikenweide,37,,,1947GJ,Beverwijk,Beverwijk,Noord-Holland,VBO,4.664706,52.487879
Munnikenweide,39,,,1947GJ,Beverwijk,Beverwijk,Noord-Holland,VBO,4.664735,52.487924
Munnikenweide,41,,,1947GJ,Beverwijk,Beverwijk,Noord-Holland,VBO,4.664778,52.487969
Munnikenweide,43,,,1947GJ,Beverwijk,Beverwijk,Noord-Holland,VBO,4.664822,52.488006
Munnikenweide,45,,,1947GJ,Beverwijk,Beverwijk,Noord-Holland,VBO,4.664850,52.488051
Munnikenweide,47,,,1947GJ,Beverwijk,Beverwijk,Noord-Holland,VBO,4.664894,52.488096
Munnikenweide,49,,,1947GJ,Beverwijk,Beverwijk,Noord-Holland,VBO,4.664937,52.488141
Munnikenweide,51,,,1947GJ,Beverwijk,Beverwijk,Noord-Holland,VBO,4.664981,52.488186
Munnikenweide,53,,,1947GJ,Beverwijk,Beverwijk,Noord-Holland,VBO,4.665010,52.488222
Munnikenweide,55,,,1947GJ,Beverwijk,Beverwijk,Noord-Holland,VBO,4.665053,52.488268
Munnikenweide,57,,,1947GJ,Beverwijk,Beverwijk,Noord-Holland,VBO,4.665125,52.488349
Munnikenweide,59,,,1947GJ,Beverwijk,Beverwijk,Noord-Holland,VBO,4.665169,52.488394
Munnikenweide,61,,,1947GK,Beverwijk,Beverwijk,Noord-Holland,VBO,4.665198,52.488430
Munnikenweide,63,,,1947GK,Beverwijk,Beverwijk,Noord-Holland,VBO,4.665241,52.488475
Munnikenweide,65,,,1947GK,Beverwijk,Beverwijk,Noord-Holland,VBO,4.665284,52.488521
Munnikenweide,67,,,1947GK,Beverwijk,Beverwijk,Noord-Holland,VBO,4.665313,52.488566
Munnikenweide,69,,,1947GK,Beverwijk,Beverwijk,Noord-Holland,VBO,4.665357,52.488602
Munnikenweide,71,,,1947GK,Beverwijk,Beverwijk,Noord-Holland,VBO,4.665400,52.488647
Munnikenweide,73,,,1947GK,Beverwijk,Beverwijk,Noord-Holland,VBO,4.665444,52.488692
Munnikenweide,75,,,1947GK,Beverwijk,Beverwijk,Noord-Holland,VBO,4.665472,52.488738
Munnikenweide,77,,,1947GK,Beverwijk,Beverwijk,Noord-Holland,VBO,4.665515,52.488846
Munnikenweide,79,,,1947GK,Beverwijk,Beverwijk,Noord-Holland,VBO,4.665543,52.488900
Munnikenweide,81,,,1947GK,Beverwijk,Beverwijk,Noord-Holland,VBO,4.665557,52.488954
Munnikenweide,83,,,1947GK,Beverwijk,Beverwijk,Noord-Holland,VBO,4.665586,52.489008
Munnikenweide,34,,,1947GL,Beverwijk,Beverwijk,Noord-Holland,VBO,4.664324,52.487841
Munnikenweide,36,,,1947GL,Beverwijk,Beverwijk,Noord-Holland,VBO,4.664353,52.487886
Munnikenweide,38,,,1947GL,Beverwijk,Beverwijk,Noord-Holland,VBO,4.664396,52.487931
Munnikenweide,40,,,1947GL,Beverwijk,Beverwijk,Noord-Holland,VBO,4.664425,52.487976
Munnikenweide,42,,,1947GL,Beverwijk,Beverwijk,Noord-Holland,VBO,4.664468,52.488021
Munnikenweide,44,,,1947GL,Beverwijk,Beverwijk,Noord-Holland,VBO,4.664497,52.488067
Munnikenweide,46,,,1947GL,Beverwijk,Beverwijk,Noord-Holland,VBO,4.664540,52.488112
Munnikenweide,48,,,1947GL,Beverwijk,Beverwijk,Noord-Holland,VBO,4.664569,52.488157
Munnikenweide,50,,,1947GL,Beverwijk,Beverwijk,Noord-Holland,VBO,4.664612,52.488202
Munnikenweide,52,,,1947GL,Beverwijk,Beverwijk,Noord-Holland,VBO,4.664641,52.488247
Munnikenweide,54,,,1947GL,Beverwijk,Beverwijk,Noord-Holland,VBO,4.664699,52.488328
Munnikenweide,56,,,1947GL,Beverwijk,Beverwijk,Noord-Holland,VBO,4.664742,52.488374
Munnikenweide,58,,,1947GM,Beverwijk,Beverwijk,Noord-Holland,VBO,4.664771,52.488419
Munnikenweide,60,,,1947GM,Beverwijk,Beverwijk,Noord-Holland,VBO,4.664814,52.488464
Munnikenweide,62,,,1947GM,Beverwijk,Beverwijk,Noord-Holland,VBO,4.664843,52.488509
Munnikenweide,64,,,1947GM,Beverwijk,Beverwijk,Noord-Holland,VBO,4.664887,52.488545
Munnikenweide,66,,,1947GM,Beverwijk,Beverwijk,Noord-Holland,VBO,4.664915,52.488590
Munnikenweide,68,,,1947GM,Beverwijk,Beverwijk,Noord-Holland,VBO,4.664959,52.488636
Munnikenweide,70,,,1947GM,Beverwijk,Beverwijk,Noord-Holland,VBO,4.664987,52.488681
Munnikenweide,72,,,1947GM,Beverwijk,Beverwijk,Noord-Holland,VBO,4.665031,52.488726
Munnikenweide,74,,,1947GM,Beverwijk,Beverwijk,Noord-Holland,VBO,4.665162,52.488790
Munnikenweide,76,,,1947GM,Beverwijk,Beverwijk,Noord-Holland,VBO,4.665191,52.488835
Munnikenweide,78,,,1947GM,Beverwijk,Beverwijk,Noord-Holland,VBO,4.665220,52.488880
Munnikenweide,80,,,1947GM,Beverwijk,Beverwijk,Noord-Holland,VBO,4.665248,52.488925
Munnikenweide,82,,,1947GM,Beverwijk,Beverwijk,Noord-Holland,VBO,4.665292,52.488979
Munnikenweide,84,,,1947GM,Beverwijk,Beverwijk,Noord-Holland,VBO,4.665320,52.489024
Reguliersstraat,1,A,,1947GN,Beverwijk,Beverwijk,Noord-Holland,VBO,4.663394,52.487997
Reguliersstraat,3,,,1947GN,Beverwijk,Beverwijk,Noord-Holland,VBO,4.663379,52.488006
Reguliersstraat,5,,,1947GN,Beverwijk,Beverwijk,Noord-Holland,VBO,4.663275,52.488032
Reguliersstraat,7,,,1947GN,Beverwijk,Beverwijk,Noord-Holland,VBO,4.663246,52.488041
Reguliersstraat,9,,,1947GN,Beverwijk,Beverwijk,Noord-Holland,VBO,4.663070,52.488004
Reguliersstraat,11,,,1947GN,Beverwijk,Beverwijk,Noord-Holland,VBO,4.663011,52.487986
Reguliersstraat,13,,,1947GN,Beverwijk,Beverwijk,Noord-Holland,VBO,4.662953,52.487958
Reguliersstraat,15,,,1947GN,Beverwijk,Beverwijk,Noord-Holland,VBO,4.662894,52.487931
Reguliersstraat,17,,,1947GN,Beverwijk,Beverwijk,Noord-Holland,VBO,4.662836,52.487913
Reguliersstraat,19,,,1947GN,Beverwijk,Beverwijk,Noord-Holland,VBO,4.662777,52.487885
Reguliersstraat,21,,,1947GN,Beverwijk,Beverwijk,Noord-Holland,VBO,4.662704,52.487858
Reguliersstraat,23,,,1947GN,Beverwijk,Beverwijk,Noord-Holland,VBO,4.662646,52.487831
Reguliersstraat,25,,,1947GN,Beverwijk,Beverwijk,Noord-Holland,VBO,4.662572,52.487803
Reguliersstraat,27,,,1947GN,Beverwijk,Beverwijk,Noord-Holland,VBO,4.662514,52.487785
Reguliersstraat,29,,,1947GN,Beverwijk,Beverwijk,Noord-Holland,VBO,4.662455,52.487757
Reguliersstraat,31,,,1947GN,Beverwijk,Beverwijk,Noord-Holland,VBO,4.662397,52.487730
Reguliersstraat,33,,,1947GP,Beverwijk,Beverwijk,Noord-Holland,VBO,4.662324,52.487703
Reguliersstraat,35,,,1947GP,Beverwijk,Beverwijk,Noord-Holland,VBO,4.662265,52.487675
Reguliersstraat,37,,,1947GP,Beverwijk,Beverwijk,Noord-Holland,VBO,4.662207,52.487657
Reguliersstraat,39,,,1947GP,Beverwijk,Beverwijk,Noord-Holland,VBO,4.662148,52.487630
Reguliersstraat,41,,,1947GP,Beverwijk,Beverwijk,Noord-Holland,VBO,4.662090,52.487602
Reguliersstraat,43,,,1947GP,Beverwijk,Beverwijk,Noord-Holland,VBO,4.662031,52.487584
Reguliersstraat,45,,,1947GP,Beverwijk,Beverwijk,Noord-Holland,VBO,4.661944,52.487548
Reguliersstraat,47,,,1947GP,Beverwijk,Beverwijk,Noord-Holland,VBO,4.661885,52.487520
Reguliersstraat,49,,,1947GP,Beverwijk,Beverwijk,Noord-Holland,VBO,4.661827,52.487493
Reguliersstraat,51,,,1947GP,Beverwijk,Beverwijk,Noord-Holland,VBO,4.661768,52.487475
Reguliersstraat,53,,,1947GP,Beverwijk,Beverwijk,Noord-Holland,VBO,4.661710,52.487447
Reguliersstraat,55,,,1947GP,Beverwijk,Beverwijk,Noord-Holland,VBO,4.661651,52.487420
Reguliersstraat,57,,,1947GP,Beverwijk,Beverwijk,Noord-Holland,VBO,4.661154,52.487219
Reguliersstraat,59,,,1947GP,Beverwijk,Beverwijk,Noord-Holland,VBO,4.661095,52.487192
Reguliersstraat,61,,,1947GP,Beverwijk,Beverwijk,Noord-Holland,VBO,4.661022,52.487164
Reguliersstraat,63,,,1947GP,Beverwijk,Beverwijk,Noord-Holland,VBO,4.660935,52.487128
Reguliersstraat,65,,,1947GP,Beverwijk,Beverwijk,Noord-Holland,VBO,4.660876,52.487101
Reguliersstraat,67,,,1947GP,Beverwijk,Beverwijk,Noord-Holland,VBO,4.660803,52.487073
Reguliersstraat,2,,,1947GR,Beverwijk,Beverwijk,Noord-Holland,VBO,4.663495,52.488096
Reguliersstraat,4,,,1947GR,Beverwijk,Beverwijk,Noord-Holland,VBO,4.663466,52.488105
Reguliersstraat,6,,,1947GR,Beverwijk,Beverwijk,Noord-Holland,VBO,4.663362,52.488140
Reguliersstraat,8,,,1947GR,Beverwijk,Beverwijk,Noord-Holland,VBO,4.663332,52.488149
Reguliersstraat,10,A,,1947GR,Beverwijk,Beverwijk,Noord-Holland,VBO,4.663213,52.488229
Reguliersstraat,10,B,,1947GR,Beverwijk,Beverwijk,Noord-Holland,VBO,4.663095,52.488256
Reguliersstraat,10,,,1947GR,Beverwijk,Beverwijk,Noord-Holland,VBO,4.663258,52.488176
Reguliersstraat,12,,,1947GR,Beverwijk,Beverwijk,Noord-Holland,VBO,4.663126,52.488157
Reguliersstraat,14,,,1947GR,Beverwijk,Beverwijk,Noord-Holland,VBO,4.663068,52.488139
Reguliersstraat,16,,,1947GR,Beverwijk,Beverwijk,Noord-Holland,VBO,4.663009,52.488111
Reguliersstraat,18,,,1947GR,Beverwijk,Beverwijk,Noord-Holland,VBO,4.662951,52.488084
Reguliersstraat,20,,,1947GR,Beverwijk,Beverwijk,Noord-Holland,VBO,4.662892,52.488066
Reguliersstraat,22,,,1947GR,Beverwijk,Beverwijk,Noord-Holland,VBO,4.662834,52.488038
Reguliersstraat,24,,,1947GR,Beverwijk,Beverwijk,Noord-Holland,VBO,4.662760,52.488011
Reguliersstraat,26,,,1947GR,Beverwijk,Beverwijk,Noord-Holland,VBO,4.662702,52.487984
Reguliersstraat,28,,,1947GR,Beverwijk,Beverwijk,Noord-Holland,VBO,4.662644,52.487956
Reguliersstraat,30,,,1947GR,Beverwijk,Beverwijk,Noord-Holland,VBO,4.662570,52.487938
Reguliersstraat,32,,,1947GR,Beverwijk,Beverwijk,Noord-Holland,VBO,4.662512,52.487911
Reguliersstraat,34,,,1947GR,Beverwijk,Beverwijk,Noord-Holland,VBO,4.662453,52.487883
Reguliersstraat,36,,,1947GR,Beverwijk,Beverwijk,Noord-Holland,VBO,4.662380,52.487847
Reguliersstraat,38,,,1947GR,Beverwijk,Beverwijk,Noord-Holland,VBO,4.662307,52.487828
Reguliersstraat,40,,,1947GR,Beverwijk,Beverwijk,Noord-Holland,VBO,4.662249,52.487801
Reguliersstraat,42,,,1947GS,Beverwijk,Beverwijk,Noord-Holland,VBO,4.662190,52.487774
Reguliersstraat,44,,,1947GS,Beverwijk,Beverwijk,Noord-Holland,VBO,4.662132,52.487755
Reguliersstraat,46,,,1947GS,Beverwijk,Beverwijk,Noord-Holland,VBO,4.662073,52.487728
Reguliersstraat,48,,,1947GS,Beverwijk,Beverwijk,Noord-Holland,VBO,4.662000,52.487701
Reguliersstraat,50,,,1947GS,Beverwijk,Beverwijk,Noord-Holland,VBO,4.661941,52.487673
Reguliersstraat,52,,,1947GS,Beverwijk,Beverwijk,Noord-Holland,VBO,4.661883,52.487646
Reguliersstraat,54,,,1947GS,Beverwijk,Beverwijk,Noord-Holland,VBO,4.661824,52.487628
Reguliersstraat,56,,,1947GS,Beverwijk,Beverwijk,Noord-Holland,VBO,4.661766,52.487600
Reguliersstraat,58,,,1947GS,Beverwijk,Beverwijk,Noord-Holland,VBO,4.661708,52.487573
Reguliersstraat,60,,,1947GS,Beverwijk,Beverwijk,Noord-Holland,VBO,4.661634,52.487546
Reguliersstraat,62,,,1947GS,Beverwijk,Beverwijk,Noord-Holland,VBO,4.661576,52.487518
Reguliersstraat,64,,,1947GS,Beverwijk,Beverwijk,Noord-Holland,VBO,4.661517,52.487500
Reguliersstraat,66,,,1947GS,Beverwijk,Beverwijk,Noord-Holland,VBO,4.661459,52.487473
Reguliersstraat,68,,,1947GS,Beverwijk,Beverwijk,Noord-Holland,VBO,4.661386,52.487445
Reguliersstraat,70,,,1947GS,Beverwijk,Beverwijk,Noord-Holland,VBO,4.661327,52.487427
Reguliersstraat,72,,,1947GS,Beverwijk,Beverwijk,Noord-Holland,VBO,4.661254,52.487391
Reguliersstraat,74,,,1947GS,Beverwijk,Beverwijk,Noord-Holland,VBO,4.661196,52.487372
Reguliersstraat,76,,,1947GS,Beverwijk,Beverwijk,Noord-Holland,VBO,4.661137,52.487345
Reguliersstraat,78,,,1947GS,Beverwijk,Beverwijk,Noord-Holland,VBO,4.661079,52.487318
Reguliersstraat,80,,,1947GS,Beverwijk,Beverwijk,Noord-Holland,VBO,4.661020,52.487299
Reguliersstraat,82,,,1947GS,Beverwijk,Beverwijk,Noord-Holland,VBO,4.660962,52.487272
Kruisweg,2,,,1947GT,Beverwijk,Beverwijk,Noord-Holland,VBO,4.665347,52.489222
Kruisweg,4,,,1947GT,Beverwijk,Beverwijk,Noord-Holland,VBO,4.665258,52.489231
Kruisweg,6,,,1947GT,Beverwijk,Beverwijk,Noord-Holland,VBO,4.665155,52.489248
Kruisweg,8,,,1947GT,Beverwijk,Beverwijk,Noord-Holland,VBO,4.665066,52.489265
Kruisweg,10,,,1947GT,Beverwijk,Beverwijk,Noord-Holland,VBO,4.664978,52.489274
Kruisweg,12,,,1947GT,Beverwijk,Beverwijk,Noord-Holland,VBO,4.664874,52.489291
Kruisweg,14,,,1947GT,Beverwijk,Beverwijk,Noord-Holland,VBO,4.664786,52.489300
de Visscherstraat,1,,,1947GV,Beverwijk,Beverwijk,Noord-Holland,VBO,4.663083,52.485380
de Visscherstraat,3,,,1947GV,Beverwijk,Beverwijk,Noord-Holland,VBO,4.663098,52.485398
de Visscherstraat,5,,,1947GV,Beverwijk,Beverwijk,Noord-Holland,VBO,4.663112,52.485407
de Visscherstraat,7,,,1947GV,Beverwijk,Beverwijk,Noord-Holland,VBO,4.662994,52.485424
de Visscherstraat,9,,,1947GV,Beverwijk,Beverwijk,Noord-Holland,VBO,4.662965,52.485433
de Visscherstraat,11,,,1947GV,Beverwijk,Beverwijk,Noord-Holland,VBO,4.662920,52.485459
de Visscherstraat,13,,,1947GV,Beverwijk,Beverwijk,Noord-Holland,VBO,4.662890,52.485504
de Visscherstraat,15,,,1947GV,Beverwijk,Beverwijk,Noord-Holland,VBO,4.662845,52.485522
de Visscherstraat,17,,,1947GV,Beverwijk,Beverwijk,Noord-Holland,VBO,4.662786,52.485557
de Visscherstraat,19,,,1947GV,Beverwijk,Beverwijk,Noord-Holland,VBO,4.662562,52.485727
de Visscherstraat,21,,,1947GV,Beverwijk,Beverwijk,Noord-Holland,VBO,4.662577,52.485736
de Visscherstraat,23,,,1947GV,Beverwijk,Beverwijk,Noord-Holland,VBO,4.662606,52.485754
de Visscherstraat,25,,,1947GV,Beverwijk,Beverwijk,Noord-Holland,VBO,4.662473,52.485771
de Visscherstraat,27,,,1947GV,Beverwijk,Beverwijk,Noord-Holland,VBO,4.662444,52.485789
de Visscherstraat,29,,,1947GV,Beverwijk,Beverwijk,Noord-Holland,VBO,4.662369,52.485825
de Visscherstraat,31,,,1947GV,Beverwijk,Beverwijk,Noord-Holland,VBO,4.662340,52.485842
de Visscherstraat,33,,,1947GV,Beverwijk,Beverwijk,Noord-Holland,VBO,4.662265,52.485878
de Visscherstraat,35,,,1947GV,Beverwijk,Beverwijk,Noord-Holland,VBO,4.662469,52.486005
de Visscherstraat,2,,,1947GW,Beverwijk,Beverwijk,Noord-Holland,VBO,4.662744,52.485422
de Visscherstraat,4,,,1947GW,Beverwijk,Beverwijk,Noord-Holland,VBO,4.662685,52.485449
de Visscherstraat,6,,,1947GW,Beverwijk,Beverwijk,Noord-Holland,VBO,4.662640,52.485476
de Visscherstraat,8,,,1947GW,Beverwijk,Beverwijk,Noord-Holland,VBO,4.662595,52.485502
de Visscherstraat,10,,,1947GW,Beverwijk,Beverwijk,Noord-Holland,VBO,4.662580,52.485547
de Visscherstraat,12,,,1947GW,Beverwijk,Beverwijk,Noord-Holland,VBO,4.662521,52.485574
de Visscherstraat,14,,,1947GW,Beverwijk,Beverwijk,Noord-Holland,VBO,4.662476,52.485601
de Visscherstraat,16,,,1947GW,Beverwijk,Beverwijk,Noord-Holland,VBO,4.662417,52.485627
de Visscherstraat,18,,,1947GW,Beverwijk,Beverwijk,Noord-Holland,VBO,4.662372,52.485654
de Visscherstraat,20,,,1947GW,Beverwijk,Beverwijk,Noord-Holland,VBO,4.662328,52.485681
de Visscherstraat,22,,,1947GW,Beverwijk,Beverwijk,Noord-Holland,VBO,4.662238,52.485725
de Visscherstraat,24,,,1947GW,Beverwijk,Beverwijk,Noord-Holland,VBO,4.662194,52.485752
de Visscherstraat,26,,,1947GW,Beverwijk,Beverwijk,Noord-Holland,VBO,4.662046,52.485760
de Visscherstraat,28,,,1947GW,Beverwijk,Beverwijk,Noord-Holland,VBO,4.662031,52.485805
de Visscherstraat,30,,,1947GW,Beverwijk,Beverwijk,Noord-Holland,VBO,4.662002,52.485768
Windesheimerstraat,1,,,1947GX,Beverwijk,Beverwijk,Noord-Holland,VBO,4.662974,52.485756
Windesheimerstraat,2,,,1947GX,Beverwijk,Beverwijk,Noord-Holland,VBO,4.662928,52.485882
Windesheimerstraat,3,,,1947GX,Beverwijk,Beverwijk,Noord-Holland,VBO,4.663032,52.485793
Windesheimerstraat,4,,,1947GX,Beverwijk,Beverwijk,Noord-Holland,VBO,4.662971,52.485918
Windesheimerstraat,5,,,1947GX,Beverwijk,Beverwijk,Noord-Holland,VBO,4.663076,52.485829
Windesheimerstraat,6,,,1947GX,Beverwijk,Beverwijk,Noord-Holland,VBO,4.663030,52.485963
Windesheimerstraat,7,,,1947GX,Beverwijk,Beverwijk,Noord-Holland,VBO,4.663134,52.485865
Windesheimerstraat,8,,,1947GX,Beverwijk,Beverwijk,Noord-Holland,VBO,4.663073,52.486000
Windesheimerstraat,9,,,1947GX,Beverwijk,Beverwijk,Noord-Holland,VBO,4.663178,52.485910
Windesheimerstraat,10,,,1947GX,Beverwijk,Beverwijk,Noord-Holland,VBO,4.663131,52.486036
Windesheimerstraat,11,,,1947GX,Beverwijk,Beverwijk,Noord-Holland,VBO,4.663236,52.485947
Hendrik Mandeweg,1,A,,1947HA,Beverwijk,Beverwijk,Noord-Holland,VBO,4.661407,52.483948
Hendrik Mandeweg,1,,,1947HA,Beverwijk,Beverwijk,Noord-Holland,VBO,4.661389,52.483961
Hendrik Mandeweg,3,A,,1947HA,Beverwijk,Beverwijk,Noord-Holland,VBO,4.661458,52.484017
Hendrik Mandeweg,3,B,,1947HA,Beverwijk,Beverwijk,Noord-Holland,VBO,4.661485,52.484002
Hendrik Mandeweg,3,C,,1947HA,Beverwijk,Beverwijk,Noord-Holland,VBO,4.661437,52.483998
Hendrik Mandeweg,3,D,,1947HA,Beverwijk,Beverwijk,Noord-Holland,VBO,4.661480,52.483980
Hendrik Mandeweg,5,A,,1947HA,Beverwijk,Beverwijk,Noord-Holland,VBO,4.661574,52.484067
Hendrik Mandeweg,5,B,,1947HA,Beverwijk,Beverwijk,Noord-Holland,VBO,4.661545,52.484049
Hendrik Mandeweg,5,,,1947HA,Beverwijk,Beverwijk,Noord-Holland,VBO,4.661530,52.484067
Hendrik Mandeweg,7,A,,1947HA,Beverwijk,Beverwijk,Noord-Holland,VBO,4.661617,52.484103
Hendrik Mandeweg,7,,,1947HA,Beverwijk,Beverwijk,Noord-Holland,VBO,4.661588,52.484112
Hendrik Mandeweg,9,A,,1947HA,Beverwijk,Beverwijk,Noord-Holland,VBO,4.661675,52.484149
Hendrik Mandeweg,9,,,1947HA,Beverwijk,Beverwijk,Noord-Holland,VBO,4.661646,52.484157
Hendrik Mandeweg,11,A,,1947HA,Beverwijk,Beverwijk,Noord-Holland,VBO,4.661734,52.484185
Hendrik Mandeweg,11,,,1947HA,Beverwijk,Beverwijk,Noord-Holland,VBO,4.661704,52.484203
Hendrik Mandeweg,13,A,,1947HA,Beverwijk,Beverwijk,Noord-Holland,VBO,4.661792,52.484230
Hendrik Mandeweg,13,,,1947HA,Beverwijk,Beverwijk,Noord-Holland,VBO,4.661777,52.484248
Hendrik Mandeweg,15,A,,1947HA,Beverwijk,Beverwijk,Noord-Holland,VBO,4.661865,52.484276
Hendrik Mandeweg,15,,,1947HA,Beverwijk,Beverwijk,Noord-Holland,VBO,4.661835,52.484284
Hendrik Mandeweg,17,A,,1947HA,Beverwijk,Beverwijk,Noord-Holland,VBO,4.661923,52.484312
Hendrik Mandeweg,17,,,1947HA,Beverwijk,Beverwijk,Noord-Holland,VBO,4.661893,52.484330
Hendrik Mandeweg,23,,,1947HA,Beverwijk,Beverwijk,Noord-Holland,VBO,4.662053,52.484448
Hendrik Mandeweg,25,,,1947HA,Beverwijk,Beverwijk,Noord-Holland,VBO,4.662068,52.484439
Hendrik Mandeweg,27,,,1947HA,Beverwijk,Beverwijk,Noord-Holland,VBO,4.662126,52.484502
Hendrik Mandeweg,29,A,,1947HB,Beverwijk,Beverwijk,Noord-Holland,VBO,4.663249,52.485129
Hendrik Mandeweg,29,B,,1947HB,Beverwijk,Beverwijk,Noord-Holland,VBO,4.663322,52.485174
Hendrik Mandeweg,29,,,1947HB,Beverwijk,Beverwijk,Noord-Holland,VBO,4.663206,52.485102
Hendrik Mandeweg,31,A,,1947HB,Beverwijk,Beverwijk,Noord-Holland,VBO,4.663424,52.485238
Hendrik Mandeweg,31,,,1947HB,Beverwijk,Beverwijk,Noord-Holland,VBO,4.663394,52.485256
Hendrik Mandeweg,33,A,,1947HB,Beverwijk,Beverwijk,Noord-Holland,VBO,4.663468,52.485274
Hendrik Mandeweg,33,,,1947HB,Beverwijk,Beverwijk,Noord-Holland,VBO,4.663453,52.485292
Hendrik Mandeweg,35,A,,1947HB,Beverwijk,Beverwijk,Noord-Holland,VBO,4.663526,52.485310
Hendrik Mandeweg,35,,acht,1947HB,Beverwijk,Beverwijk,Noord-Holland,VBO,4.663674,52.485248
Hendrik Mandeweg,35,,,1947HB,Beverwijk,Beverwijk,Noord-Holland,VBO,4.663511,52.485328
Hendrik Mandeweg,37,A,,1947HB,Beverwijk,Beverwijk,Noord-Holland,VBO,4.663599,52.485356
Hendrik Mandeweg,37,,,1947HB,Beverwijk,Beverwijk,Noord-Holland,VBO,4.663569,52.485365
Hendrik Mandeweg,39,A,,1947HB,Beverwijk,Beverwijk,Noord-Holland,VBO,4.663657,52.485392
Hendrik Mandeweg,39,,,1947HB,Beverwijk,Beverwijk,Noord-Holland,VBO,4.663628,52.485401
Hendrik Mandeweg,41,A,,1947HB,Beverwijk,Beverwijk,Noord-Holland,VBO,4.663716,52.485428
Hendrik Mandeweg,41,,,1947HB,Beverwijk,Beverwijk,Noord-Holland,VBO,4.663686,52.485446
Hendrik Mandeweg,43,A,,1947HB,Beverwijk,Beverwijk,Noord-Holland,VBO,4.663774,52.485474
Hendrik Mandeweg,43,,,1947HB,Beverwijk,Beverwijk,Noord-Holland,VBO,4.663759,52.485483
Hendrik Mandeweg,45,,,1947HB,Beverwijk,Beverwijk,Noord-Holland,VBO,4.663832,52.485528
Hendrik Mandeweg,47,,,1947HB,Beverwijk,Beverwijk,Noord-Holland,VBO,4.663847,52.485519
Hendrik Mandeweg,49,A,,1947HB,Beverwijk,Beverwijk,Noord-Holland,VBO,4.663934,52.485573
Hendrik Mandeweg,49,B,,1947HB,Beverwijk,Beverwijk,Noord-Holland,VBO,4.664079,52.485691
Hendrik Mandeweg,49,,,1947HB,Beverwijk,Beverwijk,Noord-Holland,VBO,4.663919,52.485591
Hendrik Mandeweg,51,,,1947HB,Beverwijk,Beverwijk,Noord-Holland,VBO,4.663779,52.485177
Hendrik Mandeweg,53,,,1947HB,Beverwijk,Beverwijk,Noord-Holland,VBO,4.663822,52.485204
Hendrik Mandeweg,55,,,1947HB,Beverwijk,Beverwijk,Noord-Holland,VBO,4.663866,52.485232
Hendrik Mandeweg,57,,,1947HB,Beverwijk,Beverwijk,Noord-Holland,VBO,4.663910,52.485259
Hendrik Mandeweg,59,,,1947HB,Beverwijk,Beverwijk,Noord-Holland,VBO,4.663954,52.485277
Hendrik Mandeweg,61,,,1947HB,Beverwijk,Beverwijk,Noord-Holland,VBO,4.663997,52.485304
Hendrik Mandeweg,63,,,1947HB,Beverwijk,Beverwijk,Noord-Holland,VBO,4.664041,52.485331
Hendrik Mandeweg,65,,,1947HB,Beverwijk,Beverwijk,Noord-Holland,VBO,4.664070,52.485359
Hendrik Mandeweg,67,,,1947HB,Beverwijk,Beverwijk,Noord-Holland,VBO,4.664114,52.485386
Hendrik Mandeweg,69,,,1947HB,Beverwijk,Beverwijk,Noord-Holland,VBO,4.664157,52.485413
Hendrik Mandeweg,71,,,1947HB,Beverwijk,Beverwijk,Noord-Holland,VBO,4.664230,52.485449
Hendrik Mandeweg,4,,,1947HC,Beverwijk,Beverwijk,Noord-Holland,VBO,4.661599,52.484346
Hendrik Mandeweg,6,,,1947HC,Beverwijk,Beverwijk,Noord-Holland,VBO,4.661642,52.484382
Hendrik Mandeweg,8,,,1947HC,Beverwijk,Beverwijk,Noord-Holland,VBO,4.661700,52.484418
Hendrik Mandeweg,10,,,1947HC,Beverwijk,Beverwijk,Noord-Holland,VBO,4.661744,52.484446
Hendrik Mandeweg,12,,,1947HC,Beverwijk,Beverwijk,Noord-Holland,VBO,4.661788,52.484482
Hendrik Mandeweg,14,,,1947HC,Beverwijk,Beverwijk,Noord-Holland,VBO,4.661846,52.484518
Hendrik Mandeweg,30,,,1947HC,Beverwijk,Beverwijk,Noord-Holland,VBO,4.662451,52.484963
Hendrik Mandeweg,32,,,1947HC,Beverwijk,Beverwijk,Noord-Holland,VBO,4.662633,52.485035
Hendrik Mandeweg,34,,,1947HC,Beverwijk,Beverwijk,Noord-Holland,VBO,4.662691,52.485072
Hendrik Mandeweg,36,A,,1947HC,Beverwijk,Beverwijk,Noord-Holland,VBO,4.662705,52.485117
Hendrik Mandeweg,36,,,1947HC,Beverwijk,Beverwijk,Noord-Holland,VBO,4.662734,52.485108
Hendrik Mandeweg,38,,,1947HC,Beverwijk,Beverwijk,Noord-Holland,VBO,4.662793,52.485144
Hendrik Mandeweg,40,,,1947HC,Beverwijk,Beverwijk,Noord-Holland,VBO,4.662836,52.485180
Hendrik Mandeweg,42,,,1947HC,Beverwijk,Beverwijk,Noord-Holland,VBO,4.662880,52.485208
Hendrik Mandeweg,44,,,1947HC,Beverwijk,Beverwijk,Noord-Holland,VBO,4.662913,52.485235
Hendrik Mandeweg,46,,,1947HC,Beverwijk,Beverwijk,Noord-Holland,VBO,4.662850,52.485216
Hendrik Mandeweg,48,,,1947HC,Beverwijk,Beverwijk,Noord-Holland,VBO,4.662894,52.485244
Hendrik Mandeweg,50,,,1947HC,Beverwijk,Beverwijk,Noord-Holland,VBO,4.663302,52.485516
Hendrik Mandeweg,52,,,1947HC,Beverwijk,Beverwijk,Noord-Holland,VBO,4.663345,52.485561
Hendrik Mandeweg,54,,,1947HC,Beverwijk,Beverwijk,Noord-Holland,VBO,4.663404,52.485597
Hendrik Mandeweg,56,,,1947HC,Beverwijk,Beverwijk,Noord-Holland,VBO,4.663447,52.485633
Hendrik Mandeweg,58,,,1947HC,Beverwijk,Beverwijk,Noord-Holland,VBO,4.663505,52.485670
Hendrik Mandeweg,60,,,1947HC,Beverwijk,Beverwijk,Noord-Holland,VBO,4.663549,52.485706
Hendrik Mandeweg,62,,,1947HC,Beverwijk,Beverwijk,Noord-Holland,VBO,4.663607,52.485742
Hendrik Mandeweg,64,,,1947HC,Beverwijk,Beverwijk,Noord-Holland,VBO,4.663665,52.485788
Hendrik Mandeweg,66,,,1947HC,Beverwijk,Beverwijk,Noord-Holland,VBO,4.663782,52.485869
Beijneslaan,26,,,1947HK,Beverwijk,Beverwijk,Noord-Holland,VBO,4.667677,52.487151
Beijneslaan,28,,,1947HK,Beverwijk,Beverwijk,Noord-Holland,VBO,4.668430,52.487021
Beijneslaan,30,,,1947HK,Beverwijk,Beverwijk,Noord-Holland,VBO,4.668803,52.486745
Beijneslaan,32,,,1947HK,Beverwijk,Beverwijk,Noord-Holland,VBO,4.668862,52.486709
Beijneslaan,34,,,1947HK,Beverwijk,Beverwijk,Noord-Holland,VBO,4.668907,52.486673
Beijneslaan,36,,,1947HK,Beverwijk,Beverwijk,Noord-Holland,VBO,4.668966,52.486638
Beijneslaan,38,,,1947HK,Beverwijk,Beverwijk,Noord-Holland,VBO,4.669086,52.486548
Beijneslaan,40,,,1947HK,Beverwijk,Beverwijk,Noord-Holland,VBO,4.669145,52.486513
Beijneslaan,42,,,1947HK,Beverwijk,Beverwijk,Noord-Holland,VBO,4.669190,52.486477
Beijneslaan,44,,,1947HK,Beverwijk,Beverwijk,Noord-Holland,VBO,4.669249,52.486442
Beijneslaan,46,,,1947HK,Beverwijk,Beverwijk,Noord-Holland,VBO,4.669309,52.486406
Beijneslaan,48,,,1947HK,Beverwijk,Beverwijk,Noord-Holland,VBO,4.669324,52.486352
Beijneslaan,49,A,,1947HK,Beverwijk,Beverwijk,Noord-Holland,VBO,4.667313,52.487832
Beijneslaan,49,,,1947HK,Beverwijk,Beverwijk,Noord-Holland,VBO,4.667342,52.487823
Beijneslaan,50,,,1947HK,Beverwijk,Beverwijk,Noord-Holland,VBO,4.669384,52.486317
Beijneslaan,51,A,,1947HK,Beverwijk,Beverwijk,Noord-Holland,VBO,4.666908,52.487398
Beijneslaan,51,,,1947HK,Beverwijk,Beverwijk,Noord-Holland,VBO,4.667039,52.487471
Beijneslaan,52,,,1947HK,Beverwijk,Beverwijk,Noord-Holland,VBO,4.669443,52.486281
Beijneslaan,53,,,1947HK,Beverwijk,Beverwijk,Noord-Holland,VBO,4.666925,52.487209
Beijneslaan,54,,,1947HK,Beverwijk,Beverwijk,Noord-Holland,VBO,4.669488,52.486254
Beijneslaan,55,,,1947HK,Beverwijk,Beverwijk,Noord-Holland,VBO,4.668856,52.486188
Beijneslaan,56,,,1947HK,Beverwijk,Beverwijk,Noord-Holland,VBO,4.669651,52.486165
Beijneslaan,57,,,1947HK,Beverwijk,Beverwijk,Noord-Holland,VBO,4.668900,52.486215
Beijneslaan,58,,,1947HK,Beverwijk,Beverwijk,Noord-Holland,VBO,4.669593,52.486129
Beijneslaan,59,,,1947HK,Beverwijk,Beverwijk,Noord-Holland,VBO,4.668943,52.486242
Beijneslaan,60,,,1947HK,Beverwijk,Beverwijk,Noord-Holland,VBO,4.669549,52.486093
Beijneslaan,61,,,1947HK,Beverwijk,Beverwijk,Noord-Holland,VBO,4.668838,52.486358
Beijneslaan,62,,,1947HK,Beverwijk,Beverwijk,Noord-Holland,VBO,4.669491,52.486057
Beijneslaan,63,,,1947HK,Beverwijk,Beverwijk,Noord-Holland,VBO,4.668794,52.486385
Beijneslaan,64,,,1947HK,Beverwijk,Beverwijk,Noord-Holland,VBO,4.669433,52.486029
Beijneslaan,65,,,1947HK,Beverwijk,Beverwijk,Noord-Holland,VBO,4.668749,52.486412
Beijneslaan,66,,,1947HK,Beverwijk,Beverwijk,Noord-Holland,VBO,4.669374,52.485993
Beijneslaan,67,,,1947HK,Beverwijk,Beverwijk,Noord-Holland,VBO,4.668705,52.486429
Beijneslaan,68,,,1947HK,Beverwijk,Beverwijk,Noord-Holland,VBO,4.669258,52.485884
Beijneslaan,69,,,1947HK,Beverwijk,Beverwijk,Noord-Holland,VBO,4.668675,52.486456
Beijneslaan,70,,,1947HK,Beverwijk,Beverwijk,Noord-Holland,VBO,4.669214,52.485911
Beijneslaan,71,,,1947HK,Beverwijk,Beverwijk,Noord-Holland,VBO,4.668630,52.486483
Beijneslaan,72,,,1947HK,Beverwijk,Beverwijk,Noord-Holland,VBO,4.669154,52.485947
Beijneslaan,73,,,1947HK,Beverwijk,Beverwijk,Noord-Holland,VBO,4.668586,52.486501
Beijneslaan,74,,,1947HK,Beverwijk,Beverwijk,Noord-Holland,VBO,4.669095,52.485982
Beijneslaan,75,,,1947HK,Beverwijk,Beverwijk,Noord-Holland,VBO,4.668541,52.486527
Beijneslaan,76,,,1947HK,Beverwijk,Beverwijk,Noord-Holland,VBO,4.668831,52.485882
Beijneslaan,77,,,1947HK,Beverwijk,Beverwijk,Noord-Holland,VBO,4.668497,52.486554
Beijneslaan,78,,,1947HK,Beverwijk,Beverwijk,Noord-Holland,VBO,4.668773,52.485846
Beijneslaan,79,,,1947HK,Beverwijk,Beverwijk,Noord-Holland,VBO,4.668482,52.486572
Beijneslaan,80,,,1947HK,Beverwijk,Beverwijk,Noord-Holland,VBO,4.668715,52.485809
Beijneslaan,81,,,1947HK,Beverwijk,Beverwijk,Noord-Holland,VBO,4.668549,52.486024
Beijneslaan,82,,,1947HK,Beverwijk,Beverwijk,Noord-Holland,VBO,4.668686,52.485755
Beijneslaan,83,,,1947HK,Beverwijk,Beverwijk,Noord-Holland,VBO,4.668593,52.486042
Beijneslaan,84,,,1947HK,Beverwijk,Beverwijk,Noord-Holland,VBO,4.668628,52.485719
Beijneslaan,85,,,1947HK,Beverwijk,Beverwijk,Noord-Holland,VBO,4.668637,52.486069
Beijneslaan,86,,,1947HK,Beverwijk,Beverwijk,Noord-Holland,VBO,4.668570,52.485692
Beijneslaan,87,,,1947HK,Beverwijk,Beverwijk,Noord-Holland,VBO,4.668681,52.486097
Beijneslaan,88,,,1947HK,Beverwijk,Beverwijk,Noord-Holland,VBO,4.668511,52.485655
Beijneslaan,89,,,1947HK,Beverwijk,Beverwijk,Noord-Holland,VBO,4.668710,52.486124
Beijneslaan,90,,,1947HK,Beverwijk,Beverwijk,Noord-Holland,VBO,4.668453,52.485619
Beijneslaan,91,,,1947HK,Beverwijk,Beverwijk,Noord-Holland,VBO,4.668753,52.486151
Beijneslaan,92,,,1947HK,Beverwijk,Beverwijk,Noord-Holland,VBO,4.668249,52.485465
Beijneslaan,93,,,1947HK,Beverwijk,Beverwijk,Noord-Holland,VBO,4.668797,52.486178
Beijneslaan,94,,,1947HK,Beverwijk,Beverwijk,Noord-Holland,VBO,4.668309,52.485429
Beijneslaan,95,,,1947HK,Beverwijk,Beverwijk,Noord-Holland,VBO,4.668841,52.486205
Beijneslaan,96,,,1947HK,Beverwijk,Beverwijk,Noord-Holland,VBO,4.668368,52.485394
Beijneslaan,97,,,1947HK,Beverwijk,Beverwijk,Noord-Holland,VBO,4.668885,52.486224
Beijneslaan,98,,,1947HK,Beverwijk,Beverwijk,Noord-Holland,VBO,4.668413,52.485358
Beijneslaan,99,,,1947HK,Beverwijk,Beverwijk,Noord-Holland,VBO,4.668914,52.486251
Beijneslaan,100,,,1947HK,Beverwijk,Beverwijk,Noord-Holland,VBO,4.668473,52.485322
Beijneslaan,101,,,1947HK,Beverwijk,Beverwijk,Noord-Holland,VBO,4.668809,52.486340
Beijneslaan,102,,,1947HK,Beverwijk,Beverwijk,Noord-Holland,VBO,4.668963,52.485011
Beijneslaan,103,,,1947HK,Beverwijk,Beverwijk,Noord-Holland,VBO,4.668765,52.486367
Beijneslaan,104,,,1947HK,Beverwijk,Beverwijk,Noord-Holland,VBO,4.669023,52.484975
Beijneslaan,105,,,1947HK,Beverwijk,Beverwijk,Noord-Holland,VBO,4.668735,52.486394
Beijneslaan,106,,,1947HK,Beverwijk,Beverwijk,Noord-Holland,VBO,4.669082,52.484940
Beijneslaan,107,,,1947HK,Beverwijk,Beverwijk,Noord-Holland,VBO,4.668690,52.486420
Beijneslaan,108,,,1947HK,Beverwijk,Beverwijk,Noord-Holland,VBO,4.669142,52.484904
Beijneslaan,109,,,1947HK,Beverwijk,Beverwijk,Noord-Holland,VBO,4.668646,52.486438
Beijneslaan,110,A,,1947HK,Beverwijk,Beverwijk,Noord-Holland,VBO,4.669619,52.484521
Beijneslaan,110,,,1947HK,Beverwijk,Beverwijk,Noord-Holland,VBO,4.669187,52.484868
Beijneslaan,111,,,1947HK,Beverwijk,Beverwijk,Noord-Holland,VBO,4.668601,52.486465
Beijneslaan,112,,,1947HK,Beverwijk,Beverwijk,Noord-Holland,VBO,4.669460,52.484376
Beijneslaan,113,,,1947HK,Beverwijk,Beverwijk,Noord-Holland,VBO,4.668557,52.486491
Beijneslaan,114,,,1947HK,Beverwijk,Beverwijk,Noord-Holland,VBO,4.669519,52.484340
Beijneslaan,115,,,1947HK,Beverwijk,Beverwijk,Noord-Holland,VBO,4.668527,52.486518
Beijneslaan,116,,,1947HK,Beverwijk,Beverwijk,Noord-Holland,VBO,4.669578,52.484305
Beijneslaan,117,,,1947HK,Beverwijk,Beverwijk,Noord-Holland,VBO,4.668482,52.486536
Beijneslaan,118,,,1947HK,Beverwijk,Beverwijk,Noord-Holland,VBO,4.669638,52.484269
Beijneslaan,119,,,1947HK,Beverwijk,Beverwijk,Noord-Holland,VBO,4.668452,52.486554
Beijneslaan,120,,,1947HK,Beverwijk,Beverwijk,Noord-Holland,VBO,4.669300,52.484204
Beijneslaan,121,,,1947HK,Beverwijk,Beverwijk,Noord-Holland,VBO,4.668520,52.486033
Beijneslaan,122,,,1947HK,Beverwijk,Beverwijk,Noord-Holland,VBO,4.669242,52.484168
Beijneslaan,123,,,1947HK,Beverwijk,Beverwijk,Noord-Holland,VBO,4.668564,52.486060
Beijneslaan,124,,,1947HK,Beverwijk,Beverwijk,Noord-Holland,VBO,4.669184,52.484131
Beijneslaan,125,,,1947HK,Beverwijk,Beverwijk,Noord-Holland,VBO,4.668607,52.486087
Beijneslaan,126,,,1947HK,Beverwijk,Beverwijk,Noord-Holland,VBO,4.669125,52.484104
Beijneslaan,127,,,1947HK,Beverwijk,Beverwijk,Noord-Holland,VBO,4.668651,52.486114
Beijneslaan,128,,,1947HK,Beverwijk,Beverwijk,Noord-Holland,VBO,4.669037,52.484086
Beijneslaan,129,,,1947HK,Beverwijk,Beverwijk,Noord-Holland,VBO,4.668695,52.486142
Beijneslaan,130,,,1947HK,Beverwijk,Beverwijk,Noord-Holland,VBO,4.668979,52.484049
Beijneslaan,131,,,1947HK,Beverwijk,Beverwijk,Noord-Holland,VBO,4.668724,52.486160
Beijneslaan,132,,,1947HK,Beverwijk,Beverwijk,Noord-Holland,VBO,4.668921,52.484013
Beijneslaan,133,,,1947HK,Beverwijk,Beverwijk,Noord-Holland,VBO,4.668768,52.486187
Beijneslaan,134,,,1947HK,Beverwijk,Beverwijk,Noord-Holland,VBO,4.668862,52.483986
Beijneslaan,135,,,1947HK,Beverwijk,Beverwijk,Noord-Holland,VBO,4.668811,52.486214
Beijneslaan,136,,,1947HK,Beverwijk,Beverwijk,Noord-Holland,VBO,4.668804,52.483949
Beijneslaan,137,,,1947HK,Beverwijk,Beverwijk,Noord-Holland,VBO,4.668855,52.486242
Beijneslaan,138,,,1947HK,Beverwijk,Beverwijk,Noord-Holland,VBO,4.668571,52.483777
Beijneslaan,139,,,1947HK,Beverwijk,Beverwijk,Noord-Holland,VBO,4.668899,52.486269
Beijneslaan,140,,,1947HK,Beverwijk,Beverwijk,Noord-Holland,VBO,4.668616,52.483750
Beijneslaan,141,,,1947HK,Beverwijk,Beverwijk,Noord-Holland,VBO,4.668795,52.486331
Beijneslaan,142,,,1947HK,Beverwijk,Beverwijk,Noord-Holland,VBO,4.668675,52.483706
Beijneslaan,143,,,1947HK,Beverwijk,Beverwijk,Noord-Holland,VBO,4.668750,52.486349
Beijneslaan,144,,,1947HK,Beverwijk,Beverwijk,Noord-Holland,VBO,4.668720,52.483679
Beijneslaan,145,,,1947HK,Beverwijk,Beverwijk,Noord-Holland,VBO,4.668706,52.486375
Beijneslaan,146,,,1947HK,Beverwijk,Beverwijk,Noord-Holland,VBO,4.668809,52.483653
Beijneslaan,147,,,1947HK,Beverwijk,Beverwijk,Noord-Holland,VBO,4.668661,52.486402
Beijneslaan,149,,,1947HK,Beverwijk,Beverwijk,Noord-Holland,VBO,4.668616,52.486429
Beijneslaan,151,,,1947HK,Beverwijk,Beverwijk,Noord-Holland,VBO,4.668587,52.486447
Beijneslaan,153,,,1947HK,Beverwijk,Beverwijk,Noord-Holland,VBO,4.668542,52.486473
Beijneslaan,155,,,1947HK,Beverwijk,Beverwijk,Noord-Holland,VBO,4.668498,52.486500
Beijneslaan,157,,,1947HK,Beverwijk,Beverwijk,Noord-Holland,VBO,4.668453,52.486527
Beijneslaan,159,,,1947HK,Beverwijk,Beverwijk,Noord-Holland,VBO,4.668423,52.486544
Beijneslaan,161,,,1947HK,Beverwijk,Beverwijk,Noord-Holland,VBO,4.668696,52.486088
Beijneslaan,163,,,1947HK,Beverwijk,Beverwijk,Noord-Holland,VBO,4.668739,52.486115
Beijneslaan,165,,,1947HK,Beverwijk,Beverwijk,Noord-Holland,VBO,4.668783,52.486133
Beijneslaan,167,,,1947HK,Beverwijk,Beverwijk,Noord-Holland,VBO,4.668812,52.486160
Beijneslaan,169,A,,1947HK,Beverwijk,Beverwijk,Noord-Holland,VBO,4.668003,52.485248
Beijneslaan,169,,,1947HK,Beverwijk,Beverwijk,Noord-Holland,VBO,4.668017,52.485266
Vennelaan,1,,,1947HL,Beverwijk,Beverwijk,Noord-Holland,VBO,4.664858,52.485759
Vennelaan,2,,,1947HL,Beverwijk,Beverwijk,Noord-Holland,VBO,4.665622,52.485993
Vennelaan,3,,,1947HL,Beverwijk,Beverwijk,Noord-Holland,VBO,4.664873,52.485777
Vennelaan,4,,,1947HL,Beverwijk,Beverwijk,Noord-Holland,VBO,4.665752,52.486061
Vennelaan,5,,,1947HL,Beverwijk,Beverwijk,Noord-Holland,VBO,4.664887,52.485795
Vennelaan,6,,,1947HL,Beverwijk,Beverwijk,Noord-Holland,VBO,4.666086,52.486306
Vennelaan,7,,,1947HL,Beverwijk,Beverwijk,Noord-Holland,VBO,4.664902,52.485813
Vennelaan,8,,,1947HL,Beverwijk,Beverwijk,Noord-Holland,VBO,4.666187,52.486468
Vennelaan,9,,,1947HL,Beverwijk,Beverwijk,Noord-Holland,VBO,4.664916,52.485831
Vennelaan,11,,,1947HL,Beverwijk,Beverwijk,Noord-Holland,VBO,4.664931,52.485849
Vennelaan,13,,,1947HL,Beverwijk,Beverwijk,Noord-Holland,VBO,4.664945,52.485858
Vennelaan,15,,,1947HL,Beverwijk,Beverwijk,Noord-Holland,VBO,4.664829,52.485768
Vennelaan,17,,,1947HL,Beverwijk,Beverwijk,Noord-Holland,VBO,4.664843,52.485786
Vennelaan,19,,,1947HL,Beverwijk,Beverwijk,Noord-Holland,VBO,4.664858,52.485804
Vennelaan,20,,,1947HL,Beverwijk,Beverwijk,Noord-Holland,VBO,4.666604,52.487082
Vennelaan,21,,,1947HL,Beverwijk,Beverwijk,Noord-Holland,VBO,4.664872,52.485822
Vennelaan,23,,,1947HL,Beverwijk,Beverwijk,Noord-Holland,VBO,4.664887,52.485840
Vennelaan,25,,,1947HL,Beverwijk,Beverwijk,Noord-Holland,VBO,4.664901,52.485858
Vennelaan,27,,,1947HL,Beverwijk,Beverwijk,Noord-Holland,VBO,4.664916,52.485867
Vennelaan,29,,,1947HL,Beverwijk,Beverwijk,Noord-Holland,VBO,4.664799,52.485776
Vennelaan,31,,,1947HL,Beverwijk,Beverwijk,Noord-Holland,VBO,4.664814,52.485795
Vennelaan,33,,,1947HL,Beverwijk,Beverwijk,Noord-Holland,VBO,4.664828,52.485813
Vennelaan,35,,,1947HL,Beverwijk,Beverwijk,Noord-Holland,VBO,4.664843,52.485831
Vennelaan,37,,,1947HL,Beverwijk,Beverwijk,Noord-Holland,VBO,4.664857,52.485849
Vennelaan,39,,,1947HL,Beverwijk,Beverwijk,Noord-Holland,VBO,4.664871,52.485867
Vennelaan,41,,,1947HL,Beverwijk,Beverwijk,Noord-Holland,VBO,4.664886,52.485876
Vennelaan,43,,,1947HL,Beverwijk,Beverwijk,Noord-Holland,VBO,4.664770,52.485785
Vennelaan,45,,,1947HL,Beverwijk,Beverwijk,Noord-Holland,VBO,4.664784,52.485803
Vennelaan,47,,,1947HL,Beverwijk,Beverwijk,Noord-Holland,VBO,4.664799,52.485821
Vennelaan,49,,,1947HL,Beverwijk,Beverwijk,Noord-Holland,VBO,4.664813,52.485839
Vennelaan,51,,,1947HL,Beverwijk,Beverwijk,Noord-Holland,VBO,4.664827,52.485858
Vennelaan,53,,,1947HL,Beverwijk,Beverwijk,Noord-Holland,VBO,4.664842,52.485876
Vennelaan,55,,,1947HL,Beverwijk,Beverwijk,Noord-Holland,VBO,4.664856,52.485885
Vennelaan,57,,,1947HL,Beverwijk,Beverwijk,Noord-Holland,VBO,4.664740,52.485794
Vennelaan,59,,,1947HL,Beverwijk,Beverwijk,Noord-Holland,VBO,4.664755,52.485812
Vennelaan,61,,,1947HL,Beverwijk,Beverwijk,Noord-Holland,VBO,4.664769,52.485830
Vennelaan,63,,,1947HL,Beverwijk,Beverwijk,Noord-Holland,VBO,4.664783,52.485848
Vennelaan,65,,,1947HL,Beverwijk,Beverwijk,Noord-Holland,VBO,4.664798,52.485866
Vennelaan,67,,,1947HL,Beverwijk,Beverwijk,Noord-Holland,VBO,4.664812,52.485884
Vennelaan,69,,,1947HL,Beverwijk,Beverwijk,Noord-Holland,VBO,4.664827,52.485902
Vennelaan,71,,,1947HL,Beverwijk,Beverwijk,Noord-Holland,VBO,4.664711,52.485803
Vennelaan,73,,,1947HL,Beverwijk,Beverwijk,Noord-Holland,VBO,4.664725,52.485821
Vennelaan,75,,,1947HL,Beverwijk,Beverwijk,Noord-Holland,VBO,4.664739,52.485839
Vennelaan,77,,,1947HL,Beverwijk,Beverwijk,Noord-Holland,VBO,4.664754,52.485857
Vennelaan,79,,,1947HL,Beverwijk,Beverwijk,Noord-Holland,VBO,4.664768,52.485875
Vennelaan,81,,,1947HL,Beverwijk,Beverwijk,Noord-Holland,VBO,4.665262,52.486265
Vennelaan,83,,,1947HL,Beverwijk,Beverwijk,Noord-Holland,VBO,4.665740,52.486789
Vennelaan,85,,,1947HL,Beverwijk,Beverwijk,Noord-Holland,VBO,4.665783,52.486843
Vennelaan,87,,,1947HL,Beverwijk,Beverwijk,Noord-Holland,VBO,4.666275,52.487394
Vennelaan,89,,,1947HL,Beverwijk,Beverwijk,Noord-Holland,VBO,4.666376,52.487521
Vennelaan,91,,,1947HL,Beverwijk,Beverwijk,Noord-Holland,VBO,4.666207,52.488814
Vennelaan,93,,,1947HL,Beverwijk,Beverwijk,Noord-Holland,VBO,4.666118,52.488894
Vennelaan,95,,,1947HL,Beverwijk,Beverwijk,Noord-Holland,VBO,4.666043,52.488975
Vennelaan,97,,,1947HL,Beverwijk,Beverwijk,Noord-Holland,VBO,4.665953,52.489037
Vennelaan,99,,,1947HL,Beverwijk,Beverwijk,Noord-Holland,VBO,4.665864,52.489081
Vennelaan,101,,,1947HL,Beverwijk,Beverwijk,Noord-Holland,VBO,4.665775,52.489126
Vennelaan,103,,,1947HL,Beverwijk,Beverwijk,Noord-Holland,VBO,4.665672,52.489152
Christinaplantsoen,2,,,1947HM,Beverwijk,Beverwijk,Noord-Holland,VBO,4.664831,52.486532
Christinaplantsoen,4,,,1947HM,Beverwijk,Beverwijk,Noord-Holland,VBO,4.664905,52.486514
Christinaplantsoen,6,,,1947HM,Beverwijk,Beverwijk,Noord-Holland,VBO,4.664979,52.486488
Christinaplantsoen,8,,,1947HM,Beverwijk,Beverwijk,Noord-Holland,VBO,4.665053,52.486461
Christinaplantsoen,10,,,1947HM,Beverwijk,Beverwijk,Noord-Holland,VBO,4.665112,52.486443
Christinaplantsoen,12,,,1947HM,Beverwijk,Beverwijk,Noord-Holland,VBO,4.665186,52.486417
Christinaplantsoen,14,,,1947HM,Beverwijk,Beverwijk,Noord-Holland,VBO,4.665260,52.486390
Christinaplantsoen,16,,,1947HM,Beverwijk,Beverwijk,Noord-Holland,VBO,4.665334,52.486364
Mximahof,1,,,1947HN,Beverwijk,Beverwijk,Noord-Holland,VBO,4.665498,52.487138
Mximahof,2,,,1947HN,Beverwijk,Beverwijk,Noord-Holland,VBO,4.665536,52.486671
Mximahof,3,,,1947HN,Beverwijk,Beverwijk,Noord-Holland,VBO,4.665543,52.487129
Mximahof,4,,,1947HN,Beverwijk,Beverwijk,Noord-Holland,VBO,4.665491,52.486688
Mximahof,5,,,1947HN,Beverwijk,Beverwijk,Noord-Holland,VBO,4.665572,52.487120
Mximahof,6,,,1947HN,Beverwijk,Beverwijk,Noord-Holland,VBO,4.665461,52.486697
Mximahof,7,,,1947HN,Beverwijk,Beverwijk,Noord-Holland,VBO,4.665602,52.487103
Mximahof,8,,,1947HN,Beverwijk,Beverwijk,Noord-Holland,VBO,4.665417,52.486706
Mximahof,9,,,1947HN,Beverwijk,Beverwijk,Noord-Holland,VBO,4.665646,52.487094
Mximahof,10,,,1947HN,Beverwijk,Beverwijk,Noord-Holland,VBO,4.665387,52.486724
Mximahof,11,,,1947HN,Beverwijk,Beverwijk,Noord-Holland,VBO,4.665676,52.487085
Mximahof,12,,,1947HN,Beverwijk,Beverwijk,Noord-Holland,VBO,4.665358,52.486733
Mximahof,13,,,1947HN,Beverwijk,Beverwijk,Noord-Holland,VBO,4.665720,52.487067
Mximahof,14,,,1947HN,Beverwijk,Beverwijk,Noord-Holland,VBO,4.665314,52.486741
Mximahof,15,,,1947HN,Beverwijk,Beverwijk,Noord-Holland,VBO,4.665750,52.487059
Mximahof,16,,,1947HN,Beverwijk,Beverwijk,Noord-Holland,VBO,4.665284,52.486759
Mximahof,17,,,1947HN,Beverwijk,Beverwijk,Noord-Holland,VBO,4.665780,52.487050
Mximahof,18,,,1947HN,Beverwijk,Beverwijk,Noord-Holland,VBO,4.665239,52.486768
Mximahof,19,,,1947HN,Beverwijk,Beverwijk,Noord-Holland,VBO,4.665824,52.487032
Mximahof,20,,,1947HN,Beverwijk,Beverwijk,Noord-Holland,VBO,4.665210,52.486777
Mximahof,21,,,1947HN,Beverwijk,Beverwijk,Noord-Holland,VBO,4.665513,52.487156
Mximahof,22,,,1947HN,Beverwijk,Beverwijk,Noord-Holland,VBO,4.665506,52.486653
Mximahof,23,,,1947HN,Beverwijk,Beverwijk,Noord-Holland,VBO,4.665557,52.487147
Mximahof,24,,,1947HN,Beverwijk,Beverwijk,Noord-Holland,VBO,4.665477,52.486670
Mximahof,25,,,1947HN,Beverwijk,Beverwijk,Noord-Holland,VBO,4.665587,52.487138
Mximahof,26,,,1947HN,Beverwijk,Beverwijk,Noord-Holland,VBO,4.665447,52.486679
Mximahof,27,,,1947HN,Beverwijk,Beverwijk,Noord-Holland,VBO,4.665617,52.487121
Mximahof,28,,,1947HN,Beverwijk,Beverwijk,Noord-Holland,VBO,4.665403,52.486688
Mximahof,29,,,1947HN,Beverwijk,Beverwijk,Noord-Holland,VBO,4.665661,52.487112
Mximahof,30,,,1947HN,Beverwijk,Beverwijk,Noord-Holland,VBO,4.665373,52.486706
Mximahof,31,,,1947HN,Beverwijk,Beverwijk,Noord-Holland,VBO,4.665690,52.487103
Mximahof,32,,,1947HN,Beverwijk,Beverwijk,Noord-Holland,VBO,4.665329,52.486714
Mximahof,33,,,1947HN,Beverwijk,Beverwijk,Noord-Holland,VBO,4.665735,52.487085
Mximahof,34,,,1947HN,Beverwijk,Beverwijk,Noord-Holland,VBO,4.665299,52.486723
Mximahof,35,,,1947HN,Beverwijk,Beverwijk,Noord-Holland,VBO,4.665764,52.487077
Mximahof,36,,,1947HN,Beverwijk,Beverwijk,Noord-Holland,VBO,4.665269,52.486741
Mximahof,37,,,1947HN,Beverwijk,Beverwijk,Noord-Holland,VBO,4.665794,52.487068
Mximahof,38,,,1947HN,Beverwijk,Beverwijk,Noord-Holland,VBO,4.665225,52.486750
Mximahof,39,,,1947HN,Beverwijk,Beverwijk,Noord-Holland,VBO,4.665838,52.487050
Mximahof,40,,,1947HN,Beverwijk,Beverwijk,Noord-Holland,VBO,4.665195,52.486759
Mximahof,41,,,1947HN,Beverwijk,Beverwijk,Noord-Holland,VBO,4.665527,52.487174
Mximahof,42,,,1947HN,Beverwijk,Beverwijk,Noord-Holland,VBO,4.665492,52.486635
Margrietplantsoen,1,,,1947HP,Beverwijk,Beverwijk,Noord-Holland,VBO,4.665670,52.487480
Margrietplantsoen,3,,,1947HP,Beverwijk,Beverwijk,Noord-Holland,VBO,4.665744,52.487454
Margrietplantsoen,5,,,1947HP,Beverwijk,Beverwijk,Noord-Holland,VBO,4.665803,52.487427
Margrietplantsoen,7,,,1947HP,Beverwijk,Beverwijk,Noord-Holland,VBO,4.665877,52.487410
Margrietplantsoen,9,,,1947HP,Beverwijk,Beverwijk,Noord-Holland,VBO,4.665951,52.487383
Margrietplantsoen,11,,,1947HP,Beverwijk,Beverwijk,Noord-Holland,VBO,4.666025,52.487366
Margrietplantsoen,13,,,1947HP,Beverwijk,Beverwijk,Noord-Holland,VBO,4.666084,52.487339
Margrietplantsoen,15,,,1947HP,Beverwijk,Beverwijk,Noord-Holland,VBO,4.666158,52.487313
Irenelaan,2,,,1947HR,Beverwijk,Beverwijk,Noord-Holland,VBO,4.665959,52.487788
Irenelaan,4,,,1947HR,Beverwijk,Beverwijk,Noord-Holland,VBO,4.666033,52.487770
Irenelaan,6,,,1947HR,Beverwijk,Beverwijk,Noord-Holland,VBO,4.666107,52.487744
Irenelaan,8,,,1947HR,Beverwijk,Beverwijk,Noord-Holland,VBO,4.666181,52.487717
Irenelaan,10,,,1947HR,Beverwijk,Beverwijk,Noord-Holland,VBO,4.666255,52.487691
Irenelaan,12,,,1947HR,Beverwijk,Beverwijk,Noord-Holland,VBO,4.666314,52.487673
Irenelaan,14,,,1947HR,Beverwijk,Beverwijk,Noord-Holland,VBO,4.666388,52.487647
Irenelaan,16,,,1947HR,Beverwijk,Beverwijk,Noord-Holland,VBO,4.666462,52.487620
Beatrixlaan,1,,,1947HS,Beverwijk,Beverwijk,Noord-Holland,VBO,4.664083,52.486356
Beatrixlaan,2,,,1947HS,Beverwijk,Beverwijk,Noord-Holland,VBO,4.664529,52.486098
Beatrixlaan,3,,,1947HS,Beverwijk,Beverwijk,Noord-Holland,VBO,4.664112,52.486401
Beatrixlaan,4,,,1947HS,Beverwijk,Beverwijk,Noord-Holland,VBO,4.664500,52.486071
Beatrixlaan,5,,,1947HS,Beverwijk,Beverwijk,Noord-Holland,VBO,4.664155,52.486438
Beatrixlaan,6,,,1947HS,Beverwijk,Beverwijk,Noord-Holland,VBO,4.664559,52.486081
Beatrixlaan,7,,,1947HS,Beverwijk,Beverwijk,Noord-Holland,VBO,4.664184,52.486483
Beatrixlaan,8,,,1947HS,Beverwijk,Beverwijk,Noord-Holland,VBO,4.664544,52.486063
Beatrixlaan,9,,,1947HS,Beverwijk,Beverwijk,Noord-Holland,VBO,4.664228,52.486528
Beatrixlaan,10,,,1947HS,Beverwijk,Beverwijk,Noord-Holland,VBO,4.664715,52.486450
Beatrixlaan,11,,,1947HS,Beverwijk,Beverwijk,Noord-Holland,VBO,4.664271,52.486564
Beatrixlaan,12,,,1947HS,Beverwijk,Beverwijk,Noord-Holland,VBO,4.665162,52.486992
Beatrixlaan,13,,,1947HS,Beverwijk,Beverwijk,Noord-Holland,VBO,4.664300,52.486609
Beatrixlaan,14,,,1947HS,Beverwijk,Beverwijk,Noord-Holland,VBO,4.665220,52.487055
Beatrixlaan,15,,,1947HS,Beverwijk,Beverwijk,Noord-Holland,VBO,4.664343,52.486646
Beatrixlaan,16,,,1947HS,Beverwijk,Beverwijk,Noord-Holland,VBO,4.665741,52.487589
Beatrixlaan,17,,,1947HS,Beverwijk,Beverwijk,Noord-Holland,VBO,4.664387,52.486691
Beatrixlaan,18,,,1947HS,Beverwijk,Beverwijk,Noord-Holland,VBO,4.665857,52.487706
Beatrixlaan,19,,,1947HS,Beverwijk,Beverwijk,Noord-Holland,VBO,4.664342,52.486708
Beatrixlaan,20,,,1947HS,Beverwijk,Beverwijk,Noord-Holland,VBO,4.666337,52.488087
Beatrixlaan,21,,,1947HS,Beverwijk,Beverwijk,Noord-Holland,VBO,4.665167,52.487576
Beatrixlaan,22,,,1947HS,Beverwijk,Beverwijk,Noord-Holland,VBO,4.666323,52.488060
Beatrixlaan,23,,,1947HS,Beverwijk,Beverwijk,Noord-Holland,VBO,4.665123,52.487585
Beatrixlaan,24,,,1947HS,Beverwijk,Beverwijk,Noord-Holland,VBO,4.666293,52.488041
Beatrixlaan,25,,,1947HS,Beverwijk,Beverwijk,Noord-Holland,VBO,4.665196,52.487621
Beatrixlaan,26,,,1947HS,Beverwijk,Beverwijk,Noord-Holland,VBO,4.666279,52.488023
Beatrixlaan,27,,,1947HS,Beverwijk,Beverwijk,Noord-Holland,VBO,4.665240,52.487658
Beatrixlaan,28,,,1947HS,Beverwijk,Beverwijk,Noord-Holland,VBO,4.666265,52.487996
Beatrixlaan,29,,,1947HS,Beverwijk,Beverwijk,Noord-Holland,VBO,4.665283,52.487703
Beatrixlaan,30,,,1947HS,Beverwijk,Beverwijk,Noord-Holland,VBO,4.666366,52.488078
Beatrixlaan,31,,,1947HS,Beverwijk,Beverwijk,Noord-Holland,VBO,4.665312,52.487748
Beatrixlaan,32,,,1947HS,Beverwijk,Beverwijk,Noord-Holland,VBO,4.666352,52.488051
Beatrixlaan,33,,,1947HS,Beverwijk,Beverwijk,Noord-Holland,VBO,4.665355,52.487784
Beatrixlaan,34,,,1947HS,Beverwijk,Beverwijk,Noord-Holland,VBO,4.666323,52.488033
Beatrixlaan,35,,,1947HS,Beverwijk,Beverwijk,Noord-Holland,VBO,4.665384,52.487829
Beatrixlaan,36,,,1947HS,Beverwijk,Beverwijk,Noord-Holland,VBO,4.666309,52.488015
Beatrixlaan,37,,,1947HS,Beverwijk,Beverwijk,Noord-Holland,VBO,4.665428,52.487874
Beatrixlaan,38,,,1947HS,Beverwijk,Beverwijk,Noord-Holland,VBO,4.666294,52.487988
Beatrixlaan,39,,,1947HS,Beverwijk,Beverwijk,Noord-Holland,VBO,4.665471,52.487920
Beatrixlaan,40,,,1947HS,Beverwijk,Beverwijk,Noord-Holland,VBO,4.666396,52.488069
Beatrixlaan,41,,,1947HS,Beverwijk,Beverwijk,Noord-Holland,VBO,4.665500,52.487956
Beatrixlaan,42,,,1947HS,Beverwijk,Beverwijk,Noord-Holland,VBO,4.666382,52.488042
Beatrixlaan,43,,,1947HS,Beverwijk,Beverwijk,Noord-Holland,VBO,4.665688,52.488155
Beatrixlaan,44,,,1947HS,Beverwijk,Beverwijk,Noord-Holland,VBO,4.666367,52.488024
Beatrixlaan,45,,,1947HS,Beverwijk,Beverwijk,Noord-Holland,VBO,4.665717,52.488200
Beatrixlaan,46,,,1947HS,Beverwijk,Beverwijk,Noord-Holland,VBO,4.666338,52.487997
Beatrixlaan,47,,,1947HS,Beverwijk,Beverwijk,Noord-Holland,VBO,4.665760,52.488245
Beatrixlaan,48,,,1947HS,Beverwijk,Beverwijk,Noord-Holland,VBO,4.666324,52.487979
Beatrixlaan,49,,,1947HS,Beverwijk,Beverwijk,Noord-Holland,VBO,4.665804,52.488290
Beatrixlaan,50,,,1947HS,Beverwijk,Beverwijk,Noord-Holland,VBO,4.666426,52.488051
Beatrixlaan,51,,,1947HS,Beverwijk,Beverwijk,Noord-Holland,VBO,4.665832,52.488326
Beatrixlaan,52,,,1947HS,Beverwijk,Beverwijk,Noord-Holland,VBO,4.666411,52.488033
Beatrixlaan,53,,,1947HS,Beverwijk,Beverwijk,Noord-Holland,VBO,4.665876,52.488371
Beatrixlaan,54,,,1947HS,Beverwijk,Beverwijk,Noord-Holland,VBO,4.666397,52.488015
Beatrixlaan,55,,,1947HS,Beverwijk,Beverwijk,Noord-Holland,VBO,4.665919,52.488417
Beatrixlaan,56,,,1947HS,Beverwijk,Beverwijk,Noord-Holland,VBO,4.666368,52.487988
Beatrixlaan,57,,,1947HS,Beverwijk,Beverwijk,Noord-Holland,VBO,4.665948,52.488462
Beatrixlaan,58,,,1947HS,Beverwijk,Beverwijk,Noord-Holland,VBO,4.666354,52.487970
Beatrixlaan,59,,,1947HS,Beverwijk,Beverwijk,Noord-Holland,VBO,4.665992,52.488498
Beatrixlaan,60,,,1947HS,Beverwijk,Beverwijk,Noord-Holland,VBO,4.666455,52.488042
Beatrixlaan,61,,,1947HS,Beverwijk,Beverwijk,Noord-Holland,VBO,4.666035,52.488552
Beatrixlaan,62,,,1947HS,Beverwijk,Beverwijk,Noord-Holland,VBO,4.666441,52.488024
Beatrixlaan,63,,,1947HS,Beverwijk,Beverwijk,Noord-Holland,VBO,4.666064,52.488588
Beatrixlaan,64,,,1947HS,Beverwijk,Beverwijk,Noord-Holland,VBO,4.666427,52.488006
Beatrixlaan,65,,,1947HS,Beverwijk,Beverwijk,Noord-Holland,VBO,4.666107,52.488634
Beatrixlaan,66,,,1947HS,Beverwijk,Beverwijk,Noord-Holland,VBO,4.666398,52.487979
Beatrixlaan,67,,,1947HS,Beverwijk,Beverwijk,Noord-Holland,VBO,4.666136,52.488670
Beatrixlaan,68,,,1947HS,Beverwijk,Beverwijk,Noord-Holland,VBO,4.666383,52.487961
Beatrixlaan,69,,,1947HS,Beverwijk,Beverwijk,Noord-Holland,VBO,4.666121,52.488688
Beatrixlaan,70,,,1947HS,Beverwijk,Beverwijk,Noord-Holland,VBO,4.666485,52.488034
Beatrixlaan,72,,,1947HS,Beverwijk,Beverwijk,Noord-Holland,VBO,4.666471,52.488016
Beatrixlaan,74,,,1947HS,Beverwijk,Beverwijk,Noord-Holland,VBO,4.666456,52.487989
Beatrixlaan,76,,,1947HS,Beverwijk,Beverwijk,Noord-Holland,VBO,4.666427,52.487970
Beatrixlaan,78,,,1947HS,Beverwijk,Beverwijk,Noord-Holland,VBO,4.666413,52.487952
Beatrixlaan,80,,,1947HS,Beverwijk,Beverwijk,Noord-Holland,VBO,4.666515,52.488025
Beatrixlaan,82,,,1947HS,Beverwijk,Beverwijk,Noord-Holland,VBO,4.666500,52.488007
Beatrixlaan,84,,,1947HS,Beverwijk,Beverwijk,Noord-Holland,VBO,4.666486,52.487980
Beatrixlaan,86,,,1947HS,Beverwijk,Beverwijk,Noord-Holland,VBO,4.666457,52.487962
Beatrixlaan,88,,,1947HS,Beverwijk,Beverwijk,Noord-Holland,VBO,4.666442,52.487944
Beatrixlaan,90,,,1947HS,Beverwijk,Beverwijk,Noord-Holland,VBO,4.666544,52.488016
Beatrixlaan,92,,,1947HS,Beverwijk,Beverwijk,Noord-Holland,VBO,4.666530,52.487989
Beatrixlaan,94,,,1947HS,Beverwijk,Beverwijk,Noord-Holland,VBO,4.666515,52.487971
Beatrixlaan,96,,,1947HS,Beverwijk,Beverwijk,Noord-Holland,VBO,4.666486,52.487953
Beatrixlaan,98,,,1947HS,Beverwijk,Beverwijk,Noord-Holland,VBO,4.666472,52.487926
Catharina-Amaliahof,1,,,1947HT,Beverwijk,Beverwijk,Noord-Holland,VBO,4.664551,52.487447
Catharina-Amaliahof,2,,,1947HT,Beverwijk,Beverwijk,Noord-Holland,VBO,4.664262,52.487103
Catharina-Amaliahof,3,,,1947HT,Beverwijk,Beverwijk,Noord-Holland,VBO,4.664640,52.487411
Catharina-Amaliahof,4,,,1947HT,Beverwijk,Beverwijk,Noord-Holland,VBO,4.664351,52.487077
Catharina-Amaliahof,5,,,1947HT,Beverwijk,Beverwijk,Noord-Holland,VBO,4.664729,52.487385
Catharina-Amaliahof,6,,,1947HT,Beverwijk,Beverwijk,Noord-Holland,VBO,4.664440,52.487051
Catharina-Amaliahof,7,,,1947HT,Beverwijk,Beverwijk,Noord-Holland,VBO,4.664818,52.487358
Catharina-Amaliahof,8,,,1947HT,Beverwijk,Beverwijk,Noord-Holland,VBO,4.664529,52.487015
Catharina-Amaliahof,9,,,1947HT,Beverwijk,Beverwijk,Noord-Holland,VBO,4.664906,52.487332
Catharina-Amaliahof,10,,,1947HT,Beverwijk,Beverwijk,Noord-Holland,VBO,4.664603,52.486989
Catharina-Amaliahof,11,,,1947HT,Beverwijk,Beverwijk,Noord-Holland,VBO,4.664980,52.487305
Catharina-Amaliahof,12,,,1947HT,Beverwijk,Beverwijk,Noord-Holland,VBO,4.664692,52.486962
Catharina-Amaliahof,13,,,1947HT,Beverwijk,Beverwijk,Noord-Holland,VBO,4.664388,52.487518
Catharina-Amaliahof,14,,,1947HT,Beverwijk,Beverwijk,Noord-Holland,VBO,4.664085,52.487147
Catharina-Amaliahof,15,,,1947HT,Beverwijk,Beverwijk,Noord-Holland,VBO,4.664477,52.487491
Catharina-Amaliahof,16,,,1947HT,Beverwijk,Beverwijk,Noord-Holland,VBO,4.664174,52.487121
Catharina-Amaliahof,17,,,1947HT,Beverwijk,Beverwijk,Noord-Holland,VBO,4.664566,52.487465
Catharina-Amaliahof,18,,,1947HT,Beverwijk,Beverwijk,Noord-Holland,VBO,4.664248,52.487085
Catharina-Amaliahof,19,,,1947HT,Beverwijk,Beverwijk,Noord-Holland,VBO,4.664640,52.487438
Catharina-Amaliahof,20,,,1947HT,Beverwijk,Beverwijk,Noord-Holland,VBO,4.664337,52.487059
Catharina-Amaliahof,21,,,1947HT,Beverwijk,Beverwijk,Noord-Holland,VBO,4.664729,52.487403
Catharina-Amaliahof,22,,,1947HT,Beverwijk,Beverwijk,Noord-Holland,VBO,4.664425,52.487032
Catharina-Amaliahof,23,,,1947HT,Beverwijk,Beverwijk,Noord-Holland,VBO,4.664817,52.487376
Catharina-Amaliahof,24,,,1947HT,Beverwijk,Beverwijk,Noord-Holland,VBO,4.664514,52.487006
Catharina-Amaliahof,25,,,1947HT,Beverwijk,Beverwijk,Noord-Holland,VBO,4.664906,52.487350
Catharina-Amaliahof,26,,,1947HT,Beverwijk,Beverwijk,Noord-Holland,VBO,4.664588,52.486980
Catharina-Amaliahof,27,,,1947HT,Beverwijk,Beverwijk,Noord-Holland,VBO,4.664995,52.487324
Catharina-Amaliahof,28,,,1947HT,Beverwijk,Beverwijk,Noord-Holland,VBO,4.664677,52.486944
Catharina-Amaliahof,29,,,1947HT,Beverwijk,Beverwijk,Noord-Holland,VBO,4.664402,52.487536
Catharina-Amaliahof,30,,,1947HT,Beverwijk,Beverwijk,Noord-Holland,VBO,4.664070,52.487129
Catharina-Amaliahof,31,,,1947HT,Beverwijk,Beverwijk,Noord-Holland,VBO,4.664491,52.487509
Catharina-Amaliahof,32,,,1947HT,Beverwijk,Beverwijk,Noord-Holland,VBO,4.664159,52.487103
Catharina-Amaliahof,33,,,1947HT,Beverwijk,Beverwijk,Noord-Holland,VBO,4.664580,52.487483
Catharina-Amaliahof,34,,,1947HT,Beverwijk,Beverwijk,Noord-Holland,VBO,4.664233,52.487076
Catharina-Amaliahof,35,,,1947HT,Beverwijk,Beverwijk,Noord-Holland,VBO,4.664654,52.487447
Catharina-Amaliahof,36,,,1947HT,Beverwijk,Beverwijk,Noord-Holland,VBO,4.664322,52.487041
Catharina-Amaliahof,37,,,1947HT,Beverwijk,Beverwijk,Noord-Holland,VBO,4.664743,52.487421
Catharina-Amaliahof,38,,,1947HT,Beverwijk,Beverwijk,Noord-Holland,VBO,4.664411,52.487014
Catharina-Amaliahof,39,,,1947HT,Beverwijk,Beverwijk,Noord-Holland,VBO,4.664832,52.487394
Catharina-Amaliahof,40,,,1947HT,Beverwijk,Beverwijk,Noord-Holland,VBO,4.664500,52.486988
Catharina-Amaliahof,41,,,1947HT,Beverwijk,Beverwijk,Noord-Holland,VBO,4.664920,52.487368
Catharina-Amaliahof,42,,,1947HT,Beverwijk,Beverwijk,Noord-Holland,VBO,4.664574,52.486961
Catharina-Amaliahof,43,,,1947HT,Beverwijk,Beverwijk,Noord-Holland,VBO,4.665009,52.487333
Catharina-Amaliahof,44,,,1947HT,Beverwijk,Beverwijk,Noord-Holland,VBO,4.664663,52.486935
Catharina-Amaliahof,45,,,1947HT,Beverwijk,Beverwijk,Noord-Holland,VBO,4.665069,52.487315
Catharina-Amaliahof,46,,,1947HT,Beverwijk,Beverwijk,Noord-Holland,VBO,4.664722,52.486908
Catharina-Amaliahof,47,,,1947HT,Beverwijk,Beverwijk,Noord-Holland,VBO,4.664550,52.487510
Catharina-Amaliahof,48,,,1947HT,Beverwijk,Beverwijk,Noord-Holland,VBO,4.664263,52.487040
Catharina-Amaliahof,49,,,1947HT,Beverwijk,Beverwijk,Noord-Holland,VBO,4.664713,52.487448
Catharina-Amaliahof,50,,,1947HT,Beverwijk,Beverwijk,Noord-Holland,VBO,4.664441,52.486988
Catharina-Amaliahof,51,,,1947HT,Beverwijk,Beverwijk,Noord-Holland,VBO,4.664891,52.487395
Catharina-Amaliahof,52,,,1947HT,Beverwijk,Beverwijk,Noord-Holland,VBO,4.664604,52.486926
Catharina-Amaliahof,53,,,1947HT,Beverwijk,Beverwijk,Noord-Holland,VBO,4.665083,52.487333
Catharina-Amaliahof,54,,,1947HT,Beverwijk,Beverwijk,Noord-Holland,VBO,4.664707,52.486890
Zweedselaan,1,,,1947HW,Beverwijk,Beverwijk,Noord-Holland,VBO,4.663053,52.486332
Zweedselaan,3,,,1947HW,Beverwijk,Beverwijk,Noord-Holland,VBO,4.663112,52.486305
Zweedselaan,5,,,1947HW,Beverwijk,Beverwijk,Noord-Holland,VBO,4.663172,52.486270
Zweedselaan,7,,,1947HW,Beverwijk,Beverwijk,Noord-Holland,VBO,4.663231,52.486234
Zweedselaan,9,,,1947HW,Beverwijk,Beverwijk,Noord-Holland,VBO,4.663291,52.486199
Zweedselaan,11,,,1947HW,Beverwijk,Beverwijk,Noord-Holland,VBO,4.663529,52.486056
Zweedselaan,13,,,1947HW,Beverwijk,Beverwijk,Noord-Holland,VBO,4.663588,52.486021
Zweedselaan,15,,,1947HW,Beverwijk,Beverwijk,Noord-Holland,VBO,4.663633,52.485985
Zweedselaan,17,,,1947HW,Beverwijk,Beverwijk,Noord-Holland,VBO,4.663692,52.485949
Zweedselaan,2,,,1947HX,Beverwijk,Beverwijk,Noord-Holland,VBO,4.662650,52.486689
Zweedselaan,4,,,1947HX,Beverwijk,Beverwijk,Noord-Holland,VBO,4.662738,52.486663
Zweedselaan,6,,,1947HX,Beverwijk,Beverwijk,Noord-Holland,VBO,4.662812,52.486636
Zweedselaan,8,,,1947HX,Beverwijk,Beverwijk,Noord-Holland,VBO,4.662901,52.486610
Zweedselaan,10,,,1947HX,Beverwijk,Beverwijk,Noord-Holland,VBO,4.662975,52.486583
Zweedselaan,12,,,1947HX,Beverwijk,Beverwijk,Noord-Holland,VBO,4.663049,52.486566
Zweedselaan,14,,,1947HX,Beverwijk,Beverwijk,Noord-Holland,VBO,4.663138,52.486548
Zweedselaan,16,,,1947HX,Beverwijk,Beverwijk,Noord-Holland,VBO,4.663212,52.486522
Zweedselaan,40,,,1947HX,Beverwijk,Beverwijk,Noord-Holland,VBO,4.665157,52.485482
Zweedselaan,42,,,1947HX,Beverwijk,Beverwijk,Noord-Holland,VBO,4.665202,52.485464
Zweedselaan,44,,,1947HX,Beverwijk,Beverwijk,Noord-Holland,VBO,4.665217,52.485455
Jacqueline Hoogenboomstraat,2,,,1947JA,Beverwijk,Beverwijk,Noord-Holland,VBO,4.668784,52.485190
Jacqueline Hoogenboomstraat,4,,,1947JA,Beverwijk,Beverwijk,Noord-Holland,VBO,4.668842,52.485226
Jacqueline Hoogenboomstraat,6,,,1947JA,Beverwijk,Beverwijk,Noord-Holland,VBO,4.668900,52.485262
Jacqueline Hoogenboomstraat,8,,,1947JA,Beverwijk,Beverwijk,Noord-Holland,VBO,4.668959,52.485298
Jacqueline Hoogenboomstraat,10,,,1947JA,Beverwijk,Beverwijk,Noord-Holland,VBO,4.669002,52.485326
Jacqueline Hoogenboomstraat,12,,,1947JA,Beverwijk,Beverwijk,Noord-Holland,VBO,4.669061,52.485362
Jacqueline Hoogenboomstraat,14,,,1947JA,Beverwijk,Beverwijk,Noord-Holland,VBO,4.669119,52.485389
Jacqueline Hoogenboomstraat,16,,,1947JA,Beverwijk,Beverwijk,Noord-Holland,VBO,4.669132,52.485488
Jacqueline Hoogenboomstraat,18,,,1947JA,Beverwijk,Beverwijk,Noord-Holland,VBO,4.669191,52.485525
Jacqueline Hoogenboomstraat,20,,,1947JA,Beverwijk,Beverwijk,Noord-Holland,VBO,4.669234,52.485561
Jacqueline Hoogenboomstraat,22,,,1947JA,Beverwijk,Beverwijk,Noord-Holland,VBO,4.669293,52.485588
Jacqueline Hoogenboomstraat,24,,,1947JA,Beverwijk,Beverwijk,Noord-Holland,VBO,4.669351,52.485624
Jacqueline Hoogenboomstraat,26,,,1947JA,Beverwijk,Beverwijk,Noord-Holland,VBO,4.669409,52.485661
Jacqueline Hoogenboomstraat,28,,,1947JA,Beverwijk,Beverwijk,Noord-Holland,VBO,4.669525,52.485805
Jacqueline Hoogenboomstraat,30,,,1947JA,Beverwijk,Beverwijk,Noord-Holland,VBO,4.669584,52.485770
Jacqueline Hoogenboomstraat,32,,,1947JA,Beverwijk,Beverwijk,Noord-Holland,VBO,4.669644,52.485734
Jacqueline Hoogenboomstraat,34,,,1947JB,Beverwijk,Beverwijk,Noord-Holland,VBO,4.669703,52.485698
Jacqueline Hoogenboomstraat,36,,,1947JB,Beverwijk,Beverwijk,Noord-Holland,VBO,4.669748,52.485663
Jacqueline Hoogenboomstraat,38,,,1947JB,Beverwijk,Beverwijk,Noord-Holland,VBO,4.669807,52.485636
Jacqueline Hoogenboomstraat,40,,,1947JB,Beverwijk,Beverwijk,Noord-Holland,VBO,4.669971,52.485547
Jacqueline Hoogenboomstraat,42,,,1947JB,Beverwijk,Beverwijk,Noord-Holland,VBO,4.669912,52.485511
Jacqueline Hoogenboomstraat,44,,,1947JB,Beverwijk,Beverwijk,Noord-Holland,VBO,4.669854,52.485475
Jacqueline Hoogenboomstraat,46,,,1947JB,Beverwijk,Beverwijk,Noord-Holland,VBO,4.669796,52.485438
Jacqueline Hoogenboomstraat,48,,,1947JB,Beverwijk,Beverwijk,Noord-Holland,VBO,4.669737,52.485411
Jacqueline Hoogenboomstraat,50,,,1947JB,Beverwijk,Beverwijk,Noord-Holland,VBO,4.669679,52.485375
Jacqueline Hoogenboomstraat,52,,,1947JB,Beverwijk,Beverwijk,Noord-Holland,VBO,4.669532,52.485383
Jacqueline Hoogenboomstraat,54,,,1947JB,Beverwijk,Beverwijk,Noord-Holland,VBO,4.669473,52.485346
Jacqueline Hoogenboomstraat,56,,,1947JB,Beverwijk,Beverwijk,Noord-Holland,VBO,4.669415,52.485319
Jacqueline Hoogenboomstraat,58,,,1947JB,Beverwijk,Beverwijk,Noord-Holland,VBO,4.669371,52.485283
Jacqueline Hoogenboomstraat,60,,,1947JB,Beverwijk,Beverwijk,Noord-Holland,VBO,4.669313,52.485247
Jacqueline Hoogenboomstraat,62,,,1947JB,Beverwijk,Beverwijk,Noord-Holland,VBO,4.669255,52.485210
Jacqueline Hoogenboomstraat,64,,,1947JB,Beverwijk,Beverwijk,Noord-Holland,VBO,4.669196,52.485183
Hillegonda Lijesenstraat,2,,,1947JC,Beverwijk,Beverwijk,Noord-Holland,VBO,4.669483,52.484753
Hillegonda Lijesenstraat,4,,,1947JC,Beverwijk,Beverwijk,Noord-Holland,VBO,4.669541,52.484790
Hillegonda Lijesenstraat,6,,,1947JC,Beverwijk,Beverwijk,Noord-Holland,VBO,4.669599,52.484826
Hillegonda Lijesenstraat,8,,,1947JC,Beverwijk,Beverwijk,Noord-Holland,VBO,4.669658,52.484853
Hillegonda Lijesenstraat,10,,,1947JC,Beverwijk,Beverwijk,Noord-Holland,VBO,4.669716,52.484890
Hillegonda Lijesenstraat,12,,,1947JC,Beverwijk,Beverwijk,Noord-Holland,VBO,4.669774,52.484926
Hillegonda Lijesenstraat,14,,,1947JC,Beverwijk,Beverwijk,Noord-Holland,VBO,4.669773,52.485016
Hillegonda Lijesenstraat,16,,,1947JC,Beverwijk,Beverwijk,Noord-Holland,VBO,4.669831,52.485052
Hillegonda Lijesenstraat,18,,,1947JC,Beverwijk,Beverwijk,Noord-Holland,VBO,4.669890,52.485088
Hillegonda Lijesenstraat,20,,,1947JC,Beverwijk,Beverwijk,Noord-Holland,VBO,4.669948,52.485116
Hillegonda Lijesenstraat,22,,,1947JC,Beverwijk,Beverwijk,Noord-Holland,VBO,4.670034,52.485251
Hillegonda Lijesenstraat,24,,,1947JC,Beverwijk,Beverwijk,Noord-Holland,VBO,4.670094,52.485215
Hillegonda Lijesenstraat,26,,,1947JC,Beverwijk,Beverwijk,Noord-Holland,VBO,4.670153,52.485180
Hillegonda Lijesenstraat,28,,,1947JC,Beverwijk,Beverwijk,Noord-Holland,VBO,4.670198,52.485144
Hillegonda Lijesenstraat,30,,,1947JC,Beverwijk,Beverwijk,Noord-Holland,VBO,4.670257,52.485109
Hillegonda Lijesenstraat,32,,,1947JC,Beverwijk,Beverwijk,Noord-Holland,VBO,4.670302,52.485073
Hillegonda Lijesenstraat,34,,,1947JD,Beverwijk,Beverwijk,Noord-Holland,VBO,4.670480,52.484984
Hillegonda Lijesenstraat,36,,,1947JD,Beverwijk,Beverwijk,Noord-Holland,VBO,4.670422,52.484957
Hillegonda Lijesenstraat,38,,,1947JD,Beverwijk,Beverwijk,Noord-Holland,VBO,4.670363,52.484920
Hillegonda Lijesenstraat,40,,,1947JD,Beverwijk,Beverwijk,Noord-Holland,VBO,4.670305,52.484884
Hillegonda Lijesenstraat,42,,,1947JD,Beverwijk,Beverwijk,Noord-Holland,VBO,4.670247,52.484848
Hillegonda Lijesenstraat,44,,,1947JD,Beverwijk,Beverwijk,Noord-Holland,VBO,4.670188,52.484821
Hillegonda Lijesenstraat,46,,,1947JD,Beverwijk,Beverwijk,Noord-Holland,VBO,4.670130,52.484784
Hillegonda Lijesenstraat,48,,,1947JD,Beverwijk,Beverwijk,Noord-Holland,VBO,4.670072,52.484748
Hillegonda Lijesenstraat,50,,,1947JD,Beverwijk,Beverwijk,Noord-Holland,VBO,4.669924,52.484756
Hillegonda Lijesenstraat,52,,,1947JD,Beverwijk,Beverwijk,Noord-Holland,VBO,4.669866,52.484720
Hillegonda Lijesenstraat,54,,,1947JD,Beverwijk,Beverwijk,Noord-Holland,VBO,4.669808,52.484683
Hillegonda Lijesenstraat,56,,,1947JD,Beverwijk,Beverwijk,Noord-Holland,VBO,4.669749,52.484656
Hillegonda Lijesenstraat,58,,,1947JD,Beverwijk,Beverwijk,Noord-Holland,VBO,4.669691,52.484620
Hillegonda Lijesenstraat,60,,,1947JD,Beverwijk,Beverwijk,Noord-Holland,VBO,4.669633,52.484584
Vlietgors,1,,,1947JJ,Beverwijk,Beverwijk,Noord-Holland,VBO,4.663466,52.484492
Vlietgors,3,,,1947JJ,Beverwijk,Beverwijk,Noord-Holland,VBO,4.663524,52.484528
Vlietgors,5,,,1947JJ,Beverwijk,Beverwijk,Noord-Holland,VBO,4.663582,52.484565
Vlietgors,7,,,1947JJ,Beverwijk,Beverwijk,Noord-Holland,VBO,4.663641,52.484601
Vlietgors,9,,,1947JJ,Beverwijk,Beverwijk,Noord-Holland,VBO,4.663699,52.484637
Vlietgors,11,,,1947JJ,Beverwijk,Beverwijk,Noord-Holland,VBO,4.663757,52.484665
Vlietgors,13,,,1947JJ,Beverwijk,Beverwijk,Noord-Holland,VBO,4.663816,52.484701
Vlietgors,15,,,1947JJ,Beverwijk,Beverwijk,Noord-Holland,VBO,4.663874,52.484737
Vlietgors,17,,,1947JJ,Beverwijk,Beverwijk,Noord-Holland,VBO,4.664420,52.484633
Vlietgors,19,,,1947JJ,Beverwijk,Beverwijk,Noord-Holland,VBO,4.664361,52.484668
Vlietgors,21,,,1947JJ,Beverwijk,Beverwijk,Noord-Holland,VBO,4.664316,52.484704
Vlietgors,23,,,1947JJ,Beverwijk,Beverwijk,Noord-Holland,VBO,4.664257,52.484740
Vlietgors,25,,,1947JJ,Beverwijk,Beverwijk,Noord-Holland,VBO,4.664197,52.484775
Vlietgors,27,,,1947JJ,Beverwijk,Beverwijk,Noord-Holland,VBO,4.664078,52.484846
Vlietgors,29,,,1947JJ,Beverwijk,Beverwijk,Noord-Holland,VBO,4.664224,52.484955
Vlietgors,31,,,1947JJ,Beverwijk,Beverwijk,Noord-Holland,VBO,4.664282,52.484991
Vlietgors,33,,,1947JJ,Beverwijk,Beverwijk,Noord-Holland,VBO,4.664340,52.485028
Vlietgors,35,,,1947JJ,Beverwijk,Beverwijk,Noord-Holland,VBO,4.664399,52.485064
Vlietgors,37,,,1947JJ,Beverwijk,Beverwijk,Noord-Holland,VBO,4.664457,52.485091
Vlietgors,39,,,1947JJ,Beverwijk,Beverwijk,Noord-Holland,VBO,4.664515,52.485128
Vlietgors,41,,,1947JJ,Beverwijk,Beverwijk,Noord-Holland,VBO,4.664574,52.485164
Vlietgors,43,,,1947JJ,Beverwijk,Beverwijk,Noord-Holland,VBO,4.664632,52.485200
Vlietgors,2,,,1947JK,Beverwijk,Beverwijk,Noord-Holland,VBO,4.663236,52.485039
Vlietgors,4,,,1947JK,Beverwijk,Beverwijk,Noord-Holland,VBO,4.663325,52.484995
Vlietgors,6,,,1947JK,Beverwijk,Beverwijk,Noord-Holland,VBO,4.663385,52.484959
Vlietgors,8,,,1947JK,Beverwijk,Beverwijk,Noord-Holland,VBO,4.663444,52.484923
Vlietgors,10,,,1947JK,Beverwijk,Beverwijk,Noord-Holland,VBO,4.663504,52.484888
Vlietgors,12,,,1947JK,Beverwijk,Beverwijk,Noord-Holland,VBO,4.663578,52.484834
Vlietgors,14,,,1947JK,Beverwijk,Beverwijk,Noord-Holland,VBO,4.663827,52.484917
Vlietgors,16,,,1947JK,Beverwijk,Beverwijk,Noord-Holland,VBO,4.663885,52.484953
Vlietgors,18,,,1947JK,Beverwijk,Beverwijk,Noord-Holland,VBO,4.663944,52.484980
Vlietgors,20,,,1947JK,Beverwijk,Beverwijk,Noord-Holland,VBO,4.664002,52.485017
Vlietgors,22,,,1947JK,Beverwijk,Beverwijk,Noord-Holland,VBO,4.664060,52.485053
Vlietgors,24,,,1947JK,Beverwijk,Beverwijk,Noord-Holland,VBO,4.664119,52.485089
Vlietgors,26,,,1947JK,Beverwijk,Beverwijk,Noord-Holland,VBO,4.664162,52.485117
Vlietgors,28,,,1947JK,Beverwijk,Beverwijk,Noord-Holland,VBO,4.664221,52.485153
Vlietgors,30,,,1947JK,Beverwijk,Beverwijk,Noord-Holland,VBO,4.664279,52.485189
Vlietgors,32,,,1947JK,Beverwijk,Beverwijk,Noord-Holland,VBO,4.664337,52.485225
Vlietgors,34,,,1947JK,Beverwijk,Beverwijk,Noord-Holland,VBO,4.664395,52.485262
Vlietgors,36,,,1947JK,Beverwijk,Beverwijk,Noord-Holland,VBO,4.664454,52.485289
van Borsselestraat,1,,,1947JL,Beverwijk,Beverwijk,Noord-Holland,VBO,4.664237,52.484137
van Borsselestraat,2,,,1947JL,Beverwijk,Beverwijk,Noord-Holland,VBO,4.663926,52.484270
van Borsselestraat,3,,,1947JL,Beverwijk,Beverwijk,Noord-Holland,VBO,4.664208,52.484119
van Borsselestraat,4,,,1947JL,Beverwijk,Beverwijk,Noord-Holland,VBO,4.663984,52.484307
van Borsselestraat,5,,,1947JL,Beverwijk,Beverwijk,Noord-Holland,VBO,4.664164,52.484101
van Borsselestraat,6,,,1947JL,Beverwijk,Beverwijk,Noord-Holland,VBO,4.664042,52.484343
van Borsselestraat,7,,,1947JL,Beverwijk,Beverwijk,Noord-Holland,VBO,4.664267,52.484120
van Borsselestraat,8,,,1947JL,Beverwijk,Beverwijk,Noord-Holland,VBO,4.664101,52.484379
van Borsselestraat,9,,,1947JL,Beverwijk,Beverwijk,Noord-Holland,VBO,4.664223,52.484101
van Borsselestraat,10,,,1947JL,Beverwijk,Beverwijk,Noord-Holland,VBO,4.664159,52.484415
van Borsselestraat,11,,,1947JL,Beverwijk,Beverwijk,Noord-Holland,VBO,4.664354,52.484201
van Borsselestraat,12,,,1947JL,Beverwijk,Beverwijk,Noord-Holland,VBO,4.664203,52.484443
van Borsselestraat,13,,,1947JL,Beverwijk,Beverwijk,Noord-Holland,VBO,4.664325,52.484183
van Borsselestraat,14,,,1947JL,Beverwijk,Beverwijk,Noord-Holland,VBO,4.664261,52.484479
van Borsselestraat,15,,,1947JL,Beverwijk,Beverwijk,Noord-Holland,VBO,4.664281,52.484165
van Borsselestraat,16,,,1947JL,Beverwijk,Beverwijk,Noord-Holland,VBO,4.664742,52.484770
van Borsselestraat,17,,,1947JL,Beverwijk,Beverwijk,Noord-Holland,VBO,4.664384,52.484183
van Borsselestraat,18,,,1947JL,Beverwijk,Beverwijk,Noord-Holland,VBO,4.664800,52.484806
van Borsselestraat,19,,,1947JL,Beverwijk,Beverwijk,Noord-Holland,VBO,4.664340,52.484165
van Borsselestraat,20,,,1947JL,Beverwijk,Beverwijk,Noord-Holland,VBO,4.664844,52.484833
van Borsselestraat,21,,,1947JL,Beverwijk,Beverwijk,Noord-Holland,VBO,4.664311,52.484147
van Borsselestraat,22,,,1947JL,Beverwijk,Beverwijk,Noord-Holland,VBO,4.664902,52.484869
van Borsselestraat,23,,,1947JL,Beverwijk,Beverwijk,Noord-Holland,VBO,4.664471,52.484256
van Borsselestraat,24,,,1947JL,Beverwijk,Beverwijk,Noord-Holland,VBO,4.664961,52.484906
van Borsselestraat,25,,,1947JL,Beverwijk,Beverwijk,Noord-Holland,VBO,4.664427,52.484237
van Borsselestraat,26,,,1947JL,Beverwijk,Beverwijk,Noord-Holland,VBO,4.665019,52.484942
van Borsselestraat,27,,,1947JL,Beverwijk,Beverwijk,Noord-Holland,VBO,4.664398,52.484219
van Borsselestraat,29,,,1947JL,Beverwijk,Beverwijk,Noord-Holland,VBO,4.664486,52.484247
van Borsselestraat,31,,,1947JL,Beverwijk,Beverwijk,Noord-Holland,VBO,4.664457,52.484220
van Borsselestraat,33,,,1947JL,Beverwijk,Beverwijk,Noord-Holland,VBO,4.664739,52.484068
van Borsselestraat,35,,,1947JL,Beverwijk,Beverwijk,Noord-Holland,VBO,4.664709,52.484086
van Borsselestraat,37,,,1947JL,Beverwijk,Beverwijk,Noord-Holland,VBO,4.664679,52.484113
van Borsselestraat,39,,,1947JL,Beverwijk,Beverwijk,Noord-Holland,VBO,4.664710,52.484050
van Borsselestraat,41,,,1947JL,Beverwijk,Beverwijk,Noord-Holland,VBO,4.664680,52.484077
van Borsselestraat,43,,,1947JL,Beverwijk,Beverwijk,Noord-Holland,VBO,4.664843,52.483997
van Borsselestraat,45,,,1947JL,Beverwijk,Beverwijk,Noord-Holland,VBO,4.664813,52.484024
van Borsselestraat,47,,,1947JL,Beverwijk,Beverwijk,Noord-Holland,VBO,4.664769,52.484042
van Borsselestraat,49,,,1947JL,Beverwijk,Beverwijk,Noord-Holland,VBO,4.664814,52.483988
van Borsselestraat,51,,,1947JL,Beverwijk,Beverwijk,Noord-Holland,VBO,4.664784,52.484006
van Borsselestraat,53,,,1947JL,Beverwijk,Beverwijk,Noord-Holland,VBO,4.664754,52.484033
van Borsselestraat,55,,,1947JL,Beverwijk,Beverwijk,Noord-Holland,VBO,4.664933,52.483926
van Borsselestraat,57,,,1947JL,Beverwijk,Beverwijk,Noord-Holland,VBO,4.664903,52.483953
van Borsselestraat,59,,,1947JL,Beverwijk,Beverwijk,Noord-Holland,VBO,4.664873,52.483970
van Borsselestraat,61,,,1947JL,Beverwijk,Beverwijk,Noord-Holland,VBO,4.664918,52.483917
van Borsselestraat,63,,,1947JL,Beverwijk,Beverwijk,Noord-Holland,VBO,4.664888,52.483935
Spoorsingel,28,,,1947JN,Beverwijk,Beverwijk,Noord-Holland,VBO,4.665636,52.482348
Spoorsingel,30,,,1947JN,Beverwijk,Beverwijk,Noord-Holland,VBO,4.665724,52.482367
Spoorsingel,32,,,1947JN,Beverwijk,Beverwijk,Noord-Holland,VBO,4.665797,52.482394
Spoorsingel,34,,,1947JN,Beverwijk,Beverwijk,Noord-Holland,VBO,4.665885,52.482422
Spoorsingel,36,,,1947JN,Beverwijk,Beverwijk,Noord-Holland,VBO,4.665958,52.482449
Spoorsingel,38,,,1947JN,Beverwijk,Beverwijk,Noord-Holland,VBO,4.666046,52.482468
Spoorsingel,40,,,1947JN,Beverwijk,Beverwijk,Noord-Holland,VBO,4.666134,52.482495
Spoorsingel,42,,,1947JN,Beverwijk,Beverwijk,Noord-Holland,VBO,4.666426,52.482623
Spoorsingel,44,,,1947JN,Beverwijk,Beverwijk,Noord-Holland,VBO,4.666499,52.482650
Spoorsingel,46,,,1947JN,Beverwijk,Beverwijk,Noord-Holland,VBO,4.666572,52.482687
Spoorsingel,48,A,,1947JN,Beverwijk,Beverwijk,Noord-Holland,VBO,4.669015,52.483636
Spoorsingel,48,,,1947JN,Beverwijk,Beverwijk,Noord-Holland,VBO,4.666645,52.482723
Spoorsingel,50,A,,1947JN,Beverwijk,Beverwijk,Noord-Holland,VBO,4.669147,52.483691
Spoorsingel,50,,,1947JN,Beverwijk,Beverwijk,Noord-Holland,VBO,4.669103,52.483664
Spoorsingel,52,A,,1947JN,Beverwijk,Beverwijk,Noord-Holland,VBO,4.669264,52.483754
Spoorsingel,52,,,1947JN,Beverwijk,Beverwijk,Noord-Holland,VBO,4.669220,52.483727
Spoorsingel,54,A,,1947JN,Beverwijk,Beverwijk,Noord-Holland,VBO,4.669380,52.483827
Spoorsingel,54,,,1947JN,Beverwijk,Beverwijk,Noord-Holland,VBO,4.669336,52.483800
Spoorsingel,56,A,,1947JN,Beverwijk,Beverwijk,Noord-Holland,VBO,4.669571,52.483882
Spoorsingel,56,,,1947JN,Beverwijk,Beverwijk,Noord-Holland,VBO,4.669527,52.483855
Spoorsingel,58,A,,1947JN,Beverwijk,Beverwijk,Noord-Holland,VBO,4.669687,52.483946
Spoorsingel,58,,,1947JN,Beverwijk,Beverwijk,Noord-Holland,VBO,4.669644,52.483918
Spoorsingel,60,A,,1947JN,Beverwijk,Beverwijk,Noord-Holland,VBO,4.669804,52.484009
Spoorsingel,60,,,1947JN,Beverwijk,Beverwijk,Noord-Holland,VBO,4.669760,52.483982
Spoorsingel,62,A,,1947JN,Beverwijk,Beverwijk,Noord-Holland,VBO,4.669965,52.484046
Spoorsingel,62,,,1947JN,Beverwijk,Beverwijk,Noord-Holland,VBO,4.669877,52.484055
Spoorsingel,64,A,,1947JN,Beverwijk,Beverwijk,Noord-Holland,VBO,4.670082,52.484119
Spoorsingel,64,,,1947JN,Beverwijk,Beverwijk,Noord-Holland,VBO,4.670038,52.484092
Spoorsingel,66,A,,1947JN,Beverwijk,Beverwijk,Noord-Holland,VBO,4.670199,52.484182
Spoorsingel,66,,,1947JN,Beverwijk,Beverwijk,Noord-Holland,VBO,4.670155,52.484155
Spoorsingel,68,A,,1947JN,Beverwijk,Beverwijk,Noord-Holland,VBO,4.670315,52.484255
Spoorsingel,68,,,1947JN,Beverwijk,Beverwijk,Noord-Holland,VBO,4.670272,52.484228
Spoorsingel,70,A,,1947JN,Beverwijk,Beverwijk,Noord-Holland,VBO,4.670506,52.484301
Spoorsingel,70,,,1947JN,Beverwijk,Beverwijk,Noord-Holland,VBO,4.670462,52.484274
Spoorsingel,72,A,,1947JN,Beverwijk,Beverwijk,Noord-Holland,VBO,4.670623,52.484374
Spoorsingel,72,,,1947JN,Beverwijk,Beverwijk,Noord-Holland,VBO,4.670579,52.484347
Spoorsingel,74,A,,1947JN,Beverwijk,Beverwijk,Noord-Holland,VBO,4.670739,52.484437
Spoorsingel,74,,,1947JN,Beverwijk,Beverwijk,Noord-Holland,VBO,4.670696,52.484410
Spoorsingel,76,A,,1947JN,Beverwijk,Beverwijk,Noord-Holland,VBO,4.670810,52.484618
Spoorsingel,76,,,1947JN,Beverwijk,Beverwijk,Noord-Holland,VBO,4.670797,52.484501
Spoorsingel,78,A,,1947JN,Beverwijk,Beverwijk,Noord-Holland,VBO,4.670720,52.484707
Spoorsingel,78,,,1947JN,Beverwijk,Beverwijk,Noord-Holland,VBO,4.670765,52.484671
Spoorsingel,80,A,,1947JN,Beverwijk,Beverwijk,Noord-Holland,VBO,4.670601,52.484778
Spoorsingel,80,,,1947JN,Beverwijk,Beverwijk,Noord-Holland,VBO,4.670661,52.484743
Schans,2,,,1947JR,Beverwijk,Beverwijk,Noord-Holland,VBO,4.661414,52.483914
Schans,6,A,,1947JR,Beverwijk,Beverwijk,Noord-Holland,VBO,4.661641,52.483838
Schans,6,B,,1947JR,Beverwijk,Beverwijk,Noord-Holland,VBO,4.661679,52.483824
Schans,6,C,,1947JR,Beverwijk,Beverwijk,Noord-Holland,VBO,4.661647,52.483862
Schans,6,D,,1947JR,Beverwijk,Beverwijk,Noord-Holland,VBO,4.661706,52.483847
Schans,8,,,1947JR,Beverwijk,Beverwijk,Noord-Holland,VBO,4.661774,52.483797
Schans,10,,,1947JR,Beverwijk,Beverwijk,Noord-Holland,VBO,4.661918,52.483746
Schans,14,,,1947JR,Beverwijk,Beverwijk,Noord-Holland,VBO,4.661833,52.483511
Schans,16,,,1947JR,Beverwijk,Beverwijk,Noord-Holland,VBO,4.661893,52.483431
Schans,18,,,1947JR,Beverwijk,Beverwijk,Noord-Holland,VBO,4.661923,52.483386
Schans,20,,,1947JR,Beverwijk,Beverwijk,Noord-Holland,VBO,4.661969,52.483306
Schans,22,,,1947JR,Beverwijk,Beverwijk,Noord-Holland,VBO,4.661999,52.483261
Schans,24,,,1947JR,Beverwijk,Beverwijk,Noord-Holland,VBO,4.662029,52.483243
Schans,28,,,1947JR,Beverwijk,Beverwijk,Noord-Holland,VBO,4.662045,52.483144
Schans,30,,,1947JR,Beverwijk,Beverwijk,Noord-Holland,VBO,4.662076,52.483082
Schans,32,,,1947JR,Beverwijk,Beverwijk,Noord-Holland,VBO,4.662121,52.483019
Schans,34,,,1947JR,Beverwijk,Beverwijk,Noord-Holland,VBO,4.662136,52.482974
Schans,36,,,1947JR,Beverwijk,Beverwijk,Noord-Holland,VBO,4.662152,52.482911
Schans,38,,,1947JR,Beverwijk,Beverwijk,Noord-Holland,VBO,4.662182,52.482858
Schans,40,,,1947JR,Beverwijk,Beverwijk,Noord-Holland,VBO,4.662198,52.482804
Schans,42,,,1947JR,Beverwijk,Beverwijk,Noord-Holland,VBO,4.662213,52.482759
Schans,44,,,1947JR,Beverwijk,Beverwijk,Noord-Holland,VBO,4.662468,52.482518
Schans,46,,,1947JR,Beverwijk,Beverwijk,Noord-Holland,VBO,4.662632,52.482384
Schans,48,,,1947JR,Beverwijk,Beverwijk,Noord-Holland,VBO,4.662840,52.482232
Sionstraat,1,,,1947JS,Beverwijk,Beverwijk,Noord-Holland,VBO,4.661995,52.483539
Sionstraat,5,,,1947JS,Beverwijk,Beverwijk,Noord-Holland,VBO,4.662292,52.483344
Sionstraat,9,,,1947JS,Beverwijk,Beverwijk,Noord-Holland,VBO,4.662382,52.483281
Sionstraat,11,,,1947JS,Beverwijk,Beverwijk,Noord-Holland,VBO,4.662471,52.483219
Sionstraat,13,,,1947JS,Beverwijk,Beverwijk,Noord-Holland,VBO,4.662545,52.483174
Sionstraat,15,,,1947JS,Beverwijk,Beverwijk,Noord-Holland,VBO,4.662605,52.483130
Sionstraat,17,,,1947JS,Beverwijk,Beverwijk,Noord-Holland,VBO,4.662664,52.483085
Sionstraat,19,,,1947JS,Beverwijk,Beverwijk,Noord-Holland,VBO,4.662724,52.483050
Sionstraat,21,,,1947JS,Beverwijk,Beverwijk,Noord-Holland,VBO,4.662769,52.483014
Sionstraat,25,,,1947JS,Beverwijk,Beverwijk,Noord-Holland,VBO,4.662962,52.482880
Sionstraat,2,,,1947JT,Beverwijk,Beverwijk,Noord-Holland,VBO,4.662066,52.483657
Sionstraat,4,,,1947JT,Beverwijk,Beverwijk,Noord-Holland,VBO,4.662141,52.483612
Sionstraat,6,,,1947JT,Beverwijk,Beverwijk,Noord-Holland,VBO,4.662200,52.483568
Sionstraat,8,,,1947JT,Beverwijk,Beverwijk,Noord-Holland,VBO,4.662245,52.483541
Sionstraat,10,,,1947JT,Beverwijk,Beverwijk,Noord-Holland,VBO,4.662275,52.483514
Sionstraat,12,,,1947JT,Beverwijk,Beverwijk,Noord-Holland,VBO,4.662334,52.483479
Sionstraat,14,,,1947JT,Beverwijk,Beverwijk,Noord-Holland,VBO,4.662438,52.483461
Sionstraat,16,,,1947JT,Beverwijk,Beverwijk,Noord-Holland,VBO,4.662497,52.483417
Sionstraat,18,,,1947JT,Beverwijk,Beverwijk,Noord-Holland,VBO,4.662557,52.483381
Sionstraat,20,,,1947JT,Beverwijk,Beverwijk,Noord-Holland,VBO,4.662616,52.483337
Sionstraat,22,,,1947JT,Beverwijk,Beverwijk,Noord-Holland,VBO,4.662676,52.483292
Sionstraat,24,,,1947JT,Beverwijk,Beverwijk,Noord-Holland,VBO,4.662706,52.483220
Sionstraat,26,,,1947JT,Beverwijk,Beverwijk,Noord-Holland,VBO,4.662766,52.483176
Sionstraat,28,,,1947JT,Beverwijk,Beverwijk,Noord-Holland,VBO,4.662840,52.483131
Sionstraat,30,,,1947JT,Beverwijk,Beverwijk,Noord-Holland,VBO,4.662900,52.483087
Sionstraat,32,,,1947JT,Beverwijk,Beverwijk,Noord-Holland,VBO,4.662959,52.483051
Sionstraat,34,,,1947JT,Beverwijk,Beverwijk,Noord-Holland,VBO,4.663094,52.482953
Van Breenstraat,1,A,,1947JV,Beverwijk,Beverwijk,Noord-Holland,VBO,4.662131,52.484205
Van Breenstraat,1,B,,1947JV,Beverwijk,Beverwijk,Noord-Holland,VBO,4.662101,52.484223
Van Breenstraat,1,C,,1947JV,Beverwijk,Beverwijk,Noord-Holland,VBO,4.662071,52.484250
Van Breenstraat,1,,,1947JV,Beverwijk,Beverwijk,Noord-Holland,VBO,4.662190,52.484170
Van Breenstraat,3,A,,1947JV,Beverwijk,Beverwijk,Noord-Holland,VBO,4.662206,52.484116
Van Breenstraat,3,,,1947JV,Beverwijk,Beverwijk,Noord-Holland,VBO,4.662235,52.484134
Van Breenstraat,5,,,1947JV,Beverwijk,Beverwijk,Noord-Holland,VBO,4.662310,52.484072
Van Breenstraat,7,,,1947JV,Beverwijk,Beverwijk,Noord-Holland,VBO,4.662369,52.484036
Van Breenstraat,9,,,1947JV,Beverwijk,Beverwijk,Noord-Holland,VBO,4.662414,52.484000
Van Breenstraat,11,,,1947JV,Beverwijk,Beverwijk,Noord-Holland,VBO,4.662473,52.483974
Van Breenstraat,13,,,1947JV,Beverwijk,Beverwijk,Noord-Holland,VBO,4.662518,52.483938
Van Breenstraat,15,,,1947JV,Beverwijk,Beverwijk,Noord-Holland,VBO,4.662563,52.483902
Van Breenstraat,17,,,1947JV,Beverwijk,Beverwijk,Noord-Holland,VBO,4.662622,52.483867
Van Breenstraat,19,,,1947JV,Beverwijk,Beverwijk,Noord-Holland,VBO,4.662667,52.483831
Van Breenstraat,21,,,1947JV,Beverwijk,Beverwijk,Noord-Holland,VBO,4.662726,52.483796
Van Breenstraat,23,,,1947JV,Beverwijk,Beverwijk,Noord-Holland,VBO,4.662771,52.483760
Van Breenstraat,25,,,1947JV,Beverwijk,Beverwijk,Noord-Holland,VBO,4.662816,52.483724
Van Breenstraat,27,,,1947JV,Beverwijk,Beverwijk,Noord-Holland,VBO,4.662875,52.483689
Van Breenstraat,29,,,1947JW,Beverwijk,Beverwijk,Noord-Holland,VBO,4.662920,52.483653
Van Breenstraat,31,,,1947JW,Beverwijk,Beverwijk,Noord-Holland,VBO,4.662980,52.483617
Van Breenstraat,33,,,1947JW,Beverwijk,Beverwijk,Noord-Holland,VBO,4.663024,52.483582
Van Breenstraat,35,,,1947JW,Beverwijk,Beverwijk,Noord-Holland,VBO,4.663084,52.483546
Van Breenstraat,37,,,1947JW,Beverwijk,Beverwijk,Noord-Holland,VBO,4.663129,52.483510
Van Breenstraat,39,,,1947JW,Beverwijk,Beverwijk,Noord-Holland,VBO,4.663173,52.483475
Van Breenstraat,41,,,1947JW,Beverwijk,Beverwijk,Noord-Holland,VBO,4.663233,52.483439
Van Breenstraat,43,,,1947JW,Beverwijk,Beverwijk,Noord-Holland,VBO,4.663278,52.483403
Van Breenstraat,45,,,1947JW,Beverwijk,Beverwijk,Noord-Holland,VBO,4.663337,52.483368
Van Breenstraat,47,,,1947JW,Beverwijk,Beverwijk,Noord-Holland,VBO,4.663382,52.483332
Van Breenstraat,49,,,1947JW,Beverwijk,Beverwijk,Noord-Holland,VBO,4.663427,52.483297
Van Breenstraat,51,,,1947JW,Beverwijk,Beverwijk,Noord-Holland,VBO,4.663486,52.483261
Van Breenstraat,53,,,1947JW,Beverwijk,Beverwijk,Noord-Holland,VBO,4.663531,52.483234
Van Breenstraat,4,,,1947JX,Beverwijk,Beverwijk,Noord-Holland,VBO,4.662277,52.484269
Van Breenstraat,6,,,1947JX,Beverwijk,Beverwijk,Noord-Holland,VBO,4.662352,52.484216
Van Breenstraat,8,,,1947JX,Beverwijk,Beverwijk,Noord-Holland,VBO,4.662426,52.484162
Van Breenstraat,10,,,1947JX,Beverwijk,Beverwijk,Noord-Holland,VBO,4.662471,52.484127
Van Breenstraat,12,,,1947JX,Beverwijk,Beverwijk,Noord-Holland,VBO,4.662530,52.484091
Van Breenstraat,14,,,1947JX,Beverwijk,Beverwijk,Noord-Holland,VBO,4.662575,52.484055
Van Breenstraat,16,,,1947JX,Beverwijk,Beverwijk,Noord-Holland,VBO,4.662634,52.484020
Van Breenstraat,18,,,1947JX,Beverwijk,Beverwijk,Noord-Holland,VBO,4.662679,52.483984
Van Breenstraat,20,,,1947JX,Beverwijk,Beverwijk,Noord-Holland,VBO,4.662724,52.483948
Van Breenstraat,22,,,1947JX,Beverwijk,Beverwijk,Noord-Holland,VBO,4.662783,52.483913
Van Breenstraat,24,,,1947JX,Beverwijk,Beverwijk,Noord-Holland,VBO,4.662828,52.483877
Van Breenstraat,26,,,1947JX,Beverwijk,Beverwijk,Noord-Holland,VBO,4.662888,52.483841
Van Breenstraat,28,,,1947JX,Beverwijk,Beverwijk,Noord-Holland,VBO,4.662932,52.483806
Van Breenstraat,30,,,1947JZ,Beverwijk,Beverwijk,Noord-Holland,VBO,4.662992,52.483770
Van Breenstraat,32,,,1947JZ,Beverwijk,Beverwijk,Noord-Holland,VBO,4.663037,52.483735
Van Breenstraat,34,,,1947JZ,Beverwijk,Beverwijk,Noord-Holland,VBO,4.663081,52.483708
Van Breenstraat,36,,,1947JZ,Beverwijk,Beverwijk,Noord-Holland,VBO,4.663141,52.483672
Van Breenstraat,38,,,1947JZ,Beverwijk,Beverwijk,Noord-Holland,VBO,4.663185,52.483637
Van Breenstraat,40,,,1947JZ,Beverwijk,Beverwijk,Noord-Holland,VBO,4.663245,52.483601
Van Breenstraat,42,,,1947JZ,Beverwijk,Beverwijk,Noord-Holland,VBO,4.663290,52.483565
Van Breenstraat,44,,,1947JZ,Beverwijk,Beverwijk,Noord-Holland,VBO,4.663334,52.483530
Van Breenstraat,46,,,1947JZ,Beverwijk,Beverwijk,Noord-Holland,VBO,4.663394,52.483494
Van Breenstraat,48,,,1947JZ,Beverwijk,Beverwijk,Noord-Holland,VBO,4.663439,52.483458
Van Breenstraat,50,,,1947JZ,Beverwijk,Beverwijk,Noord-Holland,VBO,4.663498,52.483423
Van Breenstraat,52,,,1947JZ,Beverwijk,Beverwijk,Noord-Holland,VBO,4.663543,52.483387
Van Breenstraat,54,,,1947JZ,Beverwijk,Beverwijk,Noord-Holland,VBO,4.663602,52.483352
Van Breenstraat,56,,,1947JZ,Beverwijk,Beverwijk,Noord-Holland,VBO,4.663647,52.483316
Oever,2,,,1947KA,Beverwijk,Beverwijk,Noord-Holland,VBO,4.663167,52.482073
Oever,4,,,1947KA,Beverwijk,Beverwijk,Noord-Holland,VBO,4.663211,52.482082
Oever,6,,,1947KA,Beverwijk,Beverwijk,Noord-Holland,VBO,4.663255,52.482100
Oever,8,,,1947KA,Beverwijk,Beverwijk,Noord-Holland,VBO,4.663299,52.482109
Oever,10,,,1947KA,Beverwijk,Beverwijk,Noord-Holland,VBO,4.663152,52.482090
Oever,12,,,1947KA,Beverwijk,Beverwijk,Noord-Holland,VBO,4.663196,52.482100
Oever,14,,,1947KA,Beverwijk,Beverwijk,Noord-Holland,VBO,4.663240,52.482118
Oever,16,,,1947KA,Beverwijk,Beverwijk,Noord-Holland,VBO,4.663284,52.482127
Oever,18,,,1947KA,Beverwijk,Beverwijk,Noord-Holland,VBO,4.663387,52.482137
Oever,20,,,1947KA,Beverwijk,Beverwijk,Noord-Holland,VBO,4.663431,52.482155
Oever,22,,,1947KA,Beverwijk,Beverwijk,Noord-Holland,VBO,4.663475,52.482164
Oever,24,,,1947KA,Beverwijk,Beverwijk,Noord-Holland,VBO,4.663519,52.482174
Oever,26,,,1947KA,Beverwijk,Beverwijk,Noord-Holland,VBO,4.663372,52.482155
Oever,28,,,1947KA,Beverwijk,Beverwijk,Noord-Holland,VBO,4.663415,52.482173
Oever,30,,,1947KA,Beverwijk,Beverwijk,Noord-Holland,VBO,4.663460,52.482182
Oever,32,,,1947KA,Beverwijk,Beverwijk,Noord-Holland,VBO,4.663503,52.482200
Oever,34,,,1947KA,Beverwijk,Beverwijk,Noord-Holland,VBO,4.663357,52.482173
Oever,36,,,1947KA,Beverwijk,Beverwijk,Noord-Holland,VBO,4.663606,52.482210
Oever,38,,,1947KA,Beverwijk,Beverwijk,Noord-Holland,VBO,4.663650,52.482219
Oever,40,,,1947KA,Beverwijk,Beverwijk,Noord-Holland,VBO,4.663694,52.482238
Oever,42,,,1947KA,Beverwijk,Beverwijk,Noord-Holland,VBO,4.663738,52.482247
Oever,44,,,1947KA,Beverwijk,Beverwijk,Noord-Holland,VBO,4.663591,52.482228
Oever,46,,,1947KA,Beverwijk,Beverwijk,Noord-Holland,VBO,4.663635,52.482237
Oever,48,,,1947KA,Beverwijk,Beverwijk,Noord-Holland,VBO,4.663679,52.482255
Oever,50,,,1947KA,Beverwijk,Beverwijk,Noord-Holland,VBO,4.663723,52.482265
Oever,52,,,1947KA,Beverwijk,Beverwijk,Noord-Holland,VBO,4.663576,52.482246
Oever,54,,,1947KB,Beverwijk,Beverwijk,Noord-Holland,VBO,4.663620,52.482255
Oever,56,,,1947KB,Beverwijk,Beverwijk,Noord-Holland,VBO,4.663664,52.482273
Oever,58,,,1947KB,Beverwijk,Beverwijk,Noord-Holland,VBO,4.663708,52.482283
Oever,60,,,1947KB,Beverwijk,Beverwijk,Noord-Holland,VBO,4.663561,52.482264
Oever,62,,,1947KB,Beverwijk,Beverwijk,Noord-Holland,VBO,4.663836,52.482571
Oever,64,,,1947KB,Beverwijk,Beverwijk,Noord-Holland,VBO,4.663880,52.482580
Oever,66,,,1947KB,Beverwijk,Beverwijk,Noord-Holland,VBO,4.663924,52.482590
Oever,68,,,1947KB,Beverwijk,Beverwijk,Noord-Holland,VBO,4.663968,52.482608
Oever,70,,,1947KB,Beverwijk,Beverwijk,Noord-Holland,VBO,4.663821,52.482589
Oever,72,,,1947KB,Beverwijk,Beverwijk,Noord-Holland,VBO,4.663865,52.482598
Oever,74,,,1947KB,Beverwijk,Beverwijk,Noord-Holland,VBO,4.663909,52.482616
Oever,76,,,1947KB,Beverwijk,Beverwijk,Noord-Holland,VBO,4.663953,52.482626
Oever,78,,,1947KB,Beverwijk,Beverwijk,Noord-Holland,VBO,4.664056,52.482635
Oever,80,,,1947KB,Beverwijk,Beverwijk,Noord-Holland,VBO,4.664100,52.482654
Oever,82,,,1947KB,Beverwijk,Beverwijk,Noord-Holland,VBO,4.664144,52.482663
Oever,84,,,1947KB,Beverwijk,Beverwijk,Noord-Holland,VBO,4.664188,52.482672
Oever,86,,,1947KB,Beverwijk,Beverwijk,Noord-Holland,VBO,4.664041,52.482653
Oever,88,,,1947KB,Beverwijk,Beverwijk,Noord-Holland,VBO,4.664085,52.482671
Oever,90,,,1947KB,Beverwijk,Beverwijk,Noord-Holland,VBO,4.664129,52.482681
Oever,92,,,1947KB,Beverwijk,Beverwijk,Noord-Holland,VBO,4.664172,52.482699
Oever,94,,,1947KC,Beverwijk,Beverwijk,Noord-Holland,VBO,4.664275,52.482709
Oever,96,,,1947KC,Beverwijk,Beverwijk,Noord-Holland,VBO,4.664319,52.482718
Oever,98,,,1947KC,Beverwijk,Beverwijk,Noord-Holland,VBO,4.664363,52.482736
Oever,100,,,1947KC,Beverwijk,Beverwijk,Noord-Holland,VBO,4.664407,52.482745
Oever,102,,,1947KC,Beverwijk,Beverwijk,Noord-Holland,VBO,4.664260,52.482726
Oever,104,,,1947KC,Beverwijk,Beverwijk,Noord-Holland,VBO,4.664304,52.482736
Oever,106,,,1947KC,Beverwijk,Beverwijk,Noord-Holland,VBO,4.664348,52.482754
Oever,108,,,1947KC,Beverwijk,Beverwijk,Noord-Holland,VBO,4.664392,52.482763
Oever,110,,,1947KC,Beverwijk,Beverwijk,Noord-Holland,VBO,4.664510,52.482773
Oever,112,,,1947KC,Beverwijk,Beverwijk,Noord-Holland,VBO,4.664554,52.482791
Oever,114,,,1947KC,Beverwijk,Beverwijk,Noord-Holland,VBO,4.664598,52.482800
Oever,116,,,1947KC,Beverwijk,Beverwijk,Noord-Holland,VBO,4.664553,52.482827
Oever,118,,,1947KC,Beverwijk,Beverwijk,Noord-Holland,VBO,4.664495,52.482791
Oever,120,,,1947KC,Beverwijk,Beverwijk,Noord-Holland,VBO,4.664539,52.482809
Oever,122,,,1947KC,Beverwijk,Beverwijk,Noord-Holland,VBO,4.664583,52.482818
Oever,124,,,1947KC,Beverwijk,Beverwijk,Noord-Holland,VBO,4.664627,52.482836
Graaf Janstraat,35,,,1947KE,Beverwijk,Beverwijk,Noord-Holland,VBO,4.662763,52.482484
Graaf Janstraat,37,,,1947KE,Beverwijk,Beverwijk,Noord-Holland,VBO,4.662836,52.482529
Graaf Janstraat,39,,,1947KE,Beverwijk,Beverwijk,Noord-Holland,VBO,4.662894,52.482556
Graaf Janstraat,41,,,1947KE,Beverwijk,Beverwijk,Noord-Holland,VBO,4.662967,52.482602
Graaf Janstraat,43,,,1947KE,Beverwijk,Beverwijk,Noord-Holland,VBO,4.663040,52.482629
Graaf Janstraat,45,,,1947KE,Beverwijk,Beverwijk,Noord-Holland,VBO,4.663113,52.482674
Graaf Janstraat,47,,,1947KE,Beverwijk,Beverwijk,Noord-Holland,VBO,4.663186,52.482711
Graaf Janstraat,49,,,1947KE,Beverwijk,Beverwijk,Noord-Holland,VBO,4.663361,52.482811
Graaf Janstraat,51,,,1947KE,Beverwijk,Beverwijk,Noord-Holland,VBO,4.663419,52.482847
Graaf Janstraat,53,,,1947KE,Beverwijk,Beverwijk,Noord-Holland,VBO,4.663536,52.482902
Graaf Janstraat,55,,,1947KE,Beverwijk,Beverwijk,Noord-Holland,VBO,4.663594,52.482938
Graaf Janstraat,57,,,1947KE,Beverwijk,Beverwijk,Noord-Holland,VBO,4.663653,52.482974
Graaf Janstraat,59,,,1947KE,Beverwijk,Beverwijk,Noord-Holland,VBO,4.663726,52.483011
Graaf Janstraat,61,,,1947KE,Beverwijk,Beverwijk,Noord-Holland,VBO,4.663784,52.483047
Graaf Janstraat,63,,,1947KE,Beverwijk,Beverwijk,Noord-Holland,VBO,4.663872,52.483084
Graaf Janstraat,65,,,1947KE,Beverwijk,Beverwijk,Noord-Holland,VBO,4.663930,52.483129
Graaf Janstraat,67,,,1947KE,Beverwijk,Beverwijk,Noord-Holland,VBO,4.664003,52.483165
Graaf Janstraat,46,,,1947KH,Beverwijk,Beverwijk,Noord-Holland,VBO,4.662482,52.482572
Graaf Janstraat,48,,,1947KH,Beverwijk,Beverwijk,Noord-Holland,VBO,4.662555,52.482608
Graaf Janstraat,50,,,1947KH,Beverwijk,Beverwijk,Noord-Holland,VBO,4.662627,52.482654
Graaf Janstraat,52,,,1947KH,Beverwijk,Beverwijk,Noord-Holland,VBO,4.662686,52.482690
Graaf Janstraat,54,,,1947KH,Beverwijk,Beverwijk,Noord-Holland,VBO,4.662803,52.482700
Graaf Janstraat,56,,,1947KH,Beverwijk,Beverwijk,Noord-Holland,VBO,4.662876,52.482736
Graaf Janstraat,58,,,1947KH,Beverwijk,Beverwijk,Noord-Holland,VBO,4.662949,52.482772
Graaf Janstraat,60,,,1947KH,Beverwijk,Beverwijk,Noord-Holland,VBO,4.663241,52.482945
Graaf Janstraat,62,,,1947KH,Beverwijk,Beverwijk,Noord-Holland,VBO,4.663314,52.482981
Graaf Janstraat,64,,,1947KH,Beverwijk,Beverwijk,Noord-Holland,VBO,4.663402,52.483027
Graaf Janstraat,66,,,1947KH,Beverwijk,Beverwijk,Noord-Holland,VBO,4.663518,52.483099
Graaf Janstraat,68,,,1947KH,Beverwijk,Beverwijk,Noord-Holland,VBO,4.663606,52.483136
Graaf Janstraat,70,,,1947KH,Beverwijk,Beverwijk,Noord-Holland,VBO,4.663781,52.483254
Graaf Janstraat,72,,,1947KH,Beverwijk,Beverwijk,Noord-Holland,VBO,4.663824,52.483272
Graaf Janstraat,74,,,1947KH,Beverwijk,Beverwijk,Noord-Holland,VBO,4.663854,52.483290
Graaf Janstraat,76,,,1947KH,Beverwijk,Beverwijk,Noord-Holland,VBO,4.663883,52.483308
Graaf Janstraat,78,,,1947KH,Beverwijk,Beverwijk,Noord-Holland,VBO,4.663927,52.483327
Graaf Janstraat,80,,,1947KH,Beverwijk,Beverwijk,Noord-Holland,VBO,4.663956,52.483345
Graaf Janstraat,82,,,1947KH,Beverwijk,Beverwijk,Noord-Holland,VBO,4.663985,52.483363
Graaf Janstraat,84,,,1947KH,Beverwijk,Beverwijk,Noord-Holland,VBO,4.664014,52.483381
Graaf Florislaan,1,A,,1947KJ,Beverwijk,Beverwijk,Noord-Holland,VBO,4.662626,52.484550
Graaf Florislaan,1,B,,1947KJ,Beverwijk,Beverwijk,Noord-Holland,VBO,4.662671,52.484514
Graaf Florislaan,1,C,,1947KJ,Beverwijk,Beverwijk,Noord-Holland,VBO,4.662730,52.484470
Graaf Florislaan,1,,,1947KJ,Beverwijk,Beverwijk,Noord-Holland,VBO,4.662566,52.484594
Graaf Florislaan,3,,,1947KJ,Beverwijk,Beverwijk,Noord-Holland,VBO,4.662849,52.484398
Graaf Florislaan,5,,,1947KJ,Beverwijk,Beverwijk,Noord-Holland,VBO,4.662894,52.484354
Graaf Florislaan,7,,,1947KJ,Beverwijk,Beverwijk,Noord-Holland,VBO,4.662924,52.484336
Graaf Florislaan,9,,,1947KJ,Beverwijk,Beverwijk,Noord-Holland,VBO,4.662983,52.484300
Graaf Florislaan,11,,,1947KJ,Beverwijk,Beverwijk,Noord-Holland,VBO,4.663087,52.484229
Graaf Florislaan,13,,,1947KJ,Beverwijk,Beverwijk,Noord-Holland,VBO,4.663147,52.484185
Graaf Florislaan,15,,,1947KJ,Beverwijk,Beverwijk,Noord-Holland,VBO,4.663207,52.484140
Graaf Florislaan,17,,,1947KJ,Beverwijk,Beverwijk,Noord-Holland,VBO,4.663251,52.484113
Graaf Florislaan,19,,,1947KJ,Beverwijk,Beverwijk,Noord-Holland,VBO,4.663341,52.484051
Graaf Florislaan,21,,,1947KJ,Beverwijk,Beverwijk,Noord-Holland,VBO,4.663385,52.484015
Graaf Florislaan,23,,,1947KJ,Beverwijk,Beverwijk,Noord-Holland,VBO,4.663475,52.483944
Graaf Florislaan,25,,,1947KJ,Beverwijk,Beverwijk,Noord-Holland,VBO,4.663534,52.483899
Graaf Florislaan,27,,,1947KJ,Beverwijk,Beverwijk,Noord-Holland,VBO,4.663668,52.483828
Graaf Florislaan,29,,,1947KJ,Beverwijk,Beverwijk,Noord-Holland,VBO,4.663728,52.483784
Graaf Florislaan,31,,,1947KJ,Beverwijk,Beverwijk,Noord-Holland,VBO,4.663787,52.483739
Graaf Florislaan,33,,,1947KJ,Beverwijk,Beverwijk,Noord-Holland,VBO,4.663847,52.483695
Graaf Florislaan,35,,,1947KJ,Beverwijk,Beverwijk,Noord-Holland,VBO,4.663906,52.483659
Graaf Florislaan,37,,,1947KJ,Beverwijk,Beverwijk,Noord-Holland,VBO,4.663966,52.483614
Graaf Florislaan,39,,,1947KJ,Beverwijk,Beverwijk,Noord-Holland,VBO,4.664100,52.483525
Graaf Florislaan,43,,,1947KK,Beverwijk,Beverwijk,Noord-Holland,VBO,4.664429,52.483222
Graaf Florislaan,45,,,1947KK,Beverwijk,Beverwijk,Noord-Holland,VBO,4.664399,52.483240
Graaf Florislaan,47,,,1947KK,Beverwijk,Beverwijk,Noord-Holland,VBO,4.664369,52.483266
Graaf Florislaan,49,,,1947KK,Beverwijk,Beverwijk,Noord-Holland,VBO,4.664339,52.483284
Graaf Florislaan,51,,,1947KK,Beverwijk,Beverwijk,Noord-Holland,VBO,4.664400,52.483204
Graaf Florislaan,53,,,1947KK,Beverwijk,Beverwijk,Noord-Holland,VBO,4.664370,52.483230
Graaf Florislaan,55,,,1947KK,Beverwijk,Beverwijk,Noord-Holland,VBO,4.664340,52.483248
Graaf Florislaan,57,,,1947KK,Beverwijk,Beverwijk,Noord-Holland,VBO,4.664310,52.483275
Graaf Florislaan,59,,,1947KK,Beverwijk,Beverwijk,Noord-Holland,VBO,4.664608,52.483097
Graaf Florislaan,61,,,1947KK,Beverwijk,Beverwijk,Noord-Holland,VBO,4.664578,52.483124
Graaf Florislaan,63,,,1947KK,Beverwijk,Beverwijk,Noord-Holland,VBO,4.664533,52.483141
Graaf Florislaan,65,,,1947KK,Beverwijk,Beverwijk,Noord-Holland,VBO,4.664503,52.483168
Graaf Florislaan,67,,,1947KK,Beverwijk,Beverwijk,Noord-Holland,VBO,4.664578,52.483088
Graaf Florislaan,69,,,1947KK,Beverwijk,Beverwijk,Noord-Holland,VBO,4.664548,52.483106
Graaf Florislaan,71,,,1947KK,Beverwijk,Beverwijk,Noord-Holland,VBO,4.664519,52.483132
Graaf Florislaan,73,,,1947KK,Beverwijk,Beverwijk,Noord-Holland,VBO,4.664474,52.483150
Graaf Florislaan,2,A,,1947KM,Beverwijk,Beverwijk,Noord-Holland,VBO,4.663425,52.484312
Graaf Florislaan,2,B,,1947KM,Beverwijk,Beverwijk,Noord-Holland,VBO,4.663484,52.484268
Graaf Florislaan,2,,,1947KM,Beverwijk,Beverwijk,Noord-Holland,VBO,4.663320,52.484383
Graaf Florislaan,4,A,,1947KM,Beverwijk,Beverwijk,Noord-Holland,VBO,4.663588,52.484196
Graaf Florislaan,4,B,,1947KM,Beverwijk,Beverwijk,Noord-Holland,VBO,4.663633,52.484161
Graaf Florislaan,4,,,1947KM,Beverwijk,Beverwijk,Noord-Holland,VBO,4.663529,52.484232
Graaf Florislaan,6,A,,1947KM,Beverwijk,Beverwijk,Noord-Holland,VBO,4.664109,52.483894
Graaf Florislaan,6,,,1947KM,Beverwijk,Beverwijk,Noord-Holland,VBO,4.664064,52.483921
Graaf Florislaan,8,,,1947KM,Beverwijk,Beverwijk,Noord-Holland,VBO,4.664138,52.483876
Graaf Florislaan,10,,,1947KM,Beverwijk,Beverwijk,Noord-Holland,VBO,4.664168,52.483849
Graaf Florislaan,12,,,1947KM,Beverwijk,Beverwijk,Noord-Holland,VBO,4.664093,52.483930
Graaf Florislaan,14,,,1947KM,Beverwijk,Beverwijk,Noord-Holland,VBO,4.664123,52.483912
Graaf Florislaan,16,,,1947KM,Beverwijk,Beverwijk,Noord-Holland,VBO,4.664153,52.483885
Graaf Florislaan,18,,,1947KM,Beverwijk,Beverwijk,Noord-Holland,VBO,4.664197,52.483867
Graaf Florislaan,20,,,1947KM,Beverwijk,Beverwijk,Noord-Holland,VBO,4.664123,52.483948
Graaf Florislaan,22,,,1947KM,Beverwijk,Beverwijk,Noord-Holland,VBO,4.664152,52.483921
Graaf Florislaan,24,A,,1947KM,Beverwijk,Beverwijk,Noord-Holland,VBO,4.664212,52.483877
Graaf Florislaan,24,,,1947KM,Beverwijk,Beverwijk,Noord-Holland,VBO,4.664182,52.483903
Graaf Florislaan,26,A,,1947KM,Beverwijk,Beverwijk,Noord-Holland,VBO,4.664272,52.483787
Graaf Florislaan,26,,,1947KM,Beverwijk,Beverwijk,Noord-Holland,VBO,4.664228,52.483805
Graaf Florislaan,28,,,1947KM,Beverwijk,Beverwijk,Noord-Holland,VBO,4.664302,52.483760
Graaf Florislaan,30,,,1947KM,Beverwijk,Beverwijk,Noord-Holland,VBO,4.664332,52.483742
Graaf Florislaan,32,,,1947KM,Beverwijk,Beverwijk,Noord-Holland,VBO,4.664257,52.483823
Graaf Florislaan,34,,,1947KM,Beverwijk,Beverwijk,Noord-Holland,VBO,4.664287,52.483796
Graaf Florislaan,36,,,1947KM,Beverwijk,Beverwijk,Noord-Holland,VBO,4.664331,52.483778
Graaf Florislaan,38,,,1947KM,Beverwijk,Beverwijk,Noord-Holland,VBO,4.664361,52.483752
Graaf Florislaan,40,,,1947KM,Beverwijk,Beverwijk,Noord-Holland,VBO,4.664286,52.483832
Graaf Florislaan,42,,,1947KM,Beverwijk,Beverwijk,Noord-Holland,VBO,4.664316,52.483814
Graaf Florislaan,44,A,,1947KN,Beverwijk,Beverwijk,Noord-Holland,VBO,4.664376,52.483770
Graaf Florislaan,44,,,1947KN,Beverwijk,Beverwijk,Noord-Holland,VBO,4.664346,52.483787
Graaf Florislaan,46,A,,1947KN,Beverwijk,Beverwijk,Noord-Holland,VBO,4.664436,52.483671
Graaf Florislaan,46,,,1947KN,Beverwijk,Beverwijk,Noord-Holland,VBO,4.664406,52.483689
Graaf Florislaan,48,,,1947KN,Beverwijk,Beverwijk,Noord-Holland,VBO,4.664466,52.483644
Graaf Florislaan,50,,,1947KN,Beverwijk,Beverwijk,Noord-Holland,VBO,4.664496,52.483627
Graaf Florislaan,52,,,1947KN,Beverwijk,Beverwijk,Noord-Holland,VBO,4.664421,52.483707
Graaf Florislaan,54,,,1947KN,Beverwijk,Beverwijk,Noord-Holland,VBO,4.664451,52.483680
Graaf Florislaan,56,,,1947KN,Beverwijk,Beverwijk,Noord-Holland,VBO,4.664495,52.483663
Graaf Florislaan,58,,,1947KN,Beverwijk,Beverwijk,Noord-Holland,VBO,4.664525,52.483636
Graaf Florislaan,60,,,1947KN,Beverwijk,Beverwijk,Noord-Holland,VBO,4.664450,52.483716
Graaf Florislaan,62,,,1947KN,Beverwijk,Beverwijk,Noord-Holland,VBO,4.664480,52.483698
Graaf Florislaan,64,A,,1947KN,Beverwijk,Beverwijk,Noord-Holland,VBO,4.664554,52.483654
Graaf Florislaan,64,,,1947KN,Beverwijk,Beverwijk,Noord-Holland,VBO,4.664510,52.483672
Graaf Florislaan,66,A,,1947KN,Beverwijk,Beverwijk,Noord-Holland,VBO,4.664600,52.483555
Graaf Florislaan,66,,,1947KN,Beverwijk,Beverwijk,Noord-Holland,VBO,4.664570,52.483573
Graaf Florislaan,68,,,1947KN,Beverwijk,Beverwijk,Noord-Holland,VBO,4.664630,52.483529
Graaf Florislaan,70,,,1947KN,Beverwijk,Beverwijk,Noord-Holland,VBO,4.664660,52.483511
Graaf Florislaan,72,,,1947KN,Beverwijk,Beverwijk,Noord-Holland,VBO,4.664585,52.483591
Graaf Florislaan,74,,,1947KN,Beverwijk,Beverwijk,Noord-Holland,VBO,4.664629,52.483564
Graaf Florislaan,76,,,1947KN,Beverwijk,Beverwijk,Noord-Holland,VBO,4.664659,52.483547
Graaf Florislaan,78,,,1947KN,Beverwijk,Beverwijk,Noord-Holland,VBO,4.664689,52.483520
Graaf Florislaan,80,,,1947KN,Beverwijk,Beverwijk,Noord-Holland,VBO,4.664614,52.483600
Graaf Florislaan,82,,,1947KN,Beverwijk,Beverwijk,Noord-Holland,VBO,4.664644,52.483583
Graaf Florislaan,84,A,,1947KP,Beverwijk,Beverwijk,Noord-Holland,VBO,4.664718,52.483538
Graaf Florislaan,84,,,1947KP,Beverwijk,Beverwijk,Noord-Holland,VBO,4.664688,52.483556
Graaf Florislaan,88,,,1947KP,Beverwijk,Beverwijk,Noord-Holland,VBO,4.665036,52.483028
Graaf Florislaan,90,,,1947KP,Beverwijk,Beverwijk,Noord-Holland,VBO,4.665080,52.482983
Graaf Florislaan,92,,,1947KP,Beverwijk,Beverwijk,Noord-Holland,VBO,4.665111,52.482938
Graaf Florislaan,94,,,1947KP,Beverwijk,Beverwijk,Noord-Holland,VBO,4.665156,52.482885
Graaf Florislaan,96,,,1947KP,Beverwijk,Beverwijk,Noord-Holland,VBO,4.665201,52.482840
Graaf Florislaan,98,,,1947KP,Beverwijk,Beverwijk,Noord-Holland,VBO,4.665231,52.482786
Graaf Florislaan,100,,,1947KP,Beverwijk,Beverwijk,Noord-Holland,VBO,4.665276,52.482742
Graaf Florislaan,102,,,1947KP,Beverwijk,Beverwijk,Noord-Holland,VBO,4.665321,52.482697
Graaf Florislaan,104,,,1947KP,Beverwijk,Beverwijk,Noord-Holland,VBO,4.665351,52.482652
Graaf Florislaan,106,,,1947KP,Beverwijk,Beverwijk,Noord-Holland,VBO,4.665396,52.482598
Graaf Florislaan,108,,,1947KP,Beverwijk,Beverwijk,Noord-Holland,VBO,4.665426,52.482554
Graaf Florislaan,110,,,1947KP,Beverwijk,Beverwijk,Noord-Holland,VBO,4.665471,52.482509
Kerkbeeklaan,1,,,1947KR,Beverwijk,Beverwijk,Noord-Holland,VBO,4.664944,52.483198
Kerkbeeklaan,3,,,1947KR,Beverwijk,Beverwijk,Noord-Holland,VBO,4.665003,52.483234
Kerkbeeklaan,5,,,1947KR,Beverwijk,Beverwijk,Noord-Holland,VBO,4.665076,52.483271
Kerkbeeklaan,7,,,1947KR,Beverwijk,Beverwijk,Noord-Holland,VBO,4.665149,52.483307
Kerkbeeklaan,9,,,1947KR,Beverwijk,Beverwijk,Noord-Holland,VBO,4.665386,52.483210
Kerkbeeklaan,11,,,1947KR,Beverwijk,Beverwijk,Noord-Holland,VBO,4.665446,52.483165
Kerkbeeklaan,13,,,1947KR,Beverwijk,Beverwijk,Noord-Holland,VBO,4.665490,52.483120
Kerkbeeklaan,15,,,1947KR,Beverwijk,Beverwijk,Noord-Holland,VBO,4.665550,52.483076
Kerkbeeklaan,17,,,1947KR,Beverwijk,Beverwijk,Noord-Holland,VBO,4.665595,52.483031
Kerkbeeklaan,19,,,1947KR,Beverwijk,Beverwijk,Noord-Holland,VBO,4.665655,52.482987
Kerkbeeklaan,21,,,1947KR,Beverwijk,Beverwijk,Noord-Holland,VBO,4.665699,52.482942
Kerkbeeklaan,23,,,1947KR,Beverwijk,Beverwijk,Noord-Holland,VBO,4.665759,52.482906
Kerkbeeklaan,25,,,1947KR,Beverwijk,Beverwijk,Noord-Holland,VBO,4.665804,52.482862
Kerkbeeklaan,27,,,1947KR,Beverwijk,Beverwijk,Noord-Holland,VBO,4.665878,52.482799
Kerkbeeklaan,29,,,1947KR,Beverwijk,Beverwijk,Noord-Holland,VBO,4.665923,52.482754
Kerkbeeklaan,31,,,1947KR,Beverwijk,Beverwijk,Noord-Holland,VBO,4.665968,52.482710
Kerkbeeklaan,33,,,1947KR,Beverwijk,Beverwijk,Noord-Holland,VBO,4.666013,52.482656
Kerkbeeklaan,2,,,1947KS,Beverwijk,Beverwijk,Noord-Holland,VBO,4.664982,52.483612
Kerkbeeklaan,4,A,,1947KS,Beverwijk,Beverwijk,Noord-Holland,VBO,4.665617,52.483463
Kerkbeeklaan,4,,,1947KS,Beverwijk,Beverwijk,Noord-Holland,VBO,4.665040,52.483648
Kerkbeeklaan,6,,,1947KS,Beverwijk,Beverwijk,Noord-Holland,VBO,4.665531,52.483336
Kerkbeeklaan,8,,,1947KS,Beverwijk,Beverwijk,Noord-Holland,VBO,4.665576,52.483292
Kerkbeeklaan,10,,,1947KS,Beverwijk,Beverwijk,Noord-Holland,VBO,4.665621,52.483256
Kerkbeeklaan,12,,,1947KS,Beverwijk,Beverwijk,Noord-Holland,VBO,4.665680,52.483211
Kerkbeeklaan,14,,,1947KS,Beverwijk,Beverwijk,Noord-Holland,VBO,4.665725,52.483167
Kerkbeeklaan,16,,,1947KS,Beverwijk,Beverwijk,Noord-Holland,VBO,4.665785,52.483122
Kerkbeeklaan,18,,,1947KS,Beverwijk,Beverwijk,Noord-Holland,VBO,4.665844,52.483087
Kerkbeeklaan,20,,,1947KS,Beverwijk,Beverwijk,Noord-Holland,VBO,4.665889,52.483042
Kerkbeeklaan,22,,,1947KS,Beverwijk,Beverwijk,Noord-Holland,VBO,4.665949,52.482997
Kerkbeeklaan,24,,,1947KS,Beverwijk,Beverwijk,Noord-Holland,VBO,4.665994,52.482953
Kerkbeeklaan,26,,,1947KS,Beverwijk,Beverwijk,Noord-Holland,VBO,4.666068,52.482890
Kerkbeeklaan,28,,,1947KS,Beverwijk,Beverwijk,Noord-Holland,VBO,4.666113,52.482855
Kerkbeeklaan,30,,,1947KS,Beverwijk,Beverwijk,Noord-Holland,VBO,4.666173,52.482810
Kerkbeeklaan,32,,,1947KS,Beverwijk,Beverwijk,Noord-Holland,VBO,4.666218,52.482765
Brink,3,,,1947KT,Beverwijk,Beverwijk,Noord-Holland,VBO,4.665700,52.485260
Brink,5,,,1947KT,Beverwijk,Beverwijk,Noord-Holland,VBO,4.665661,52.485323
Brink,7,,,1947KT,Beverwijk,Beverwijk,Noord-Holland,VBO,4.665748,52.485351
Brink,9,,,1947KT,Beverwijk,Beverwijk,Noord-Holland,VBO,4.666026,52.485555
Brink,11,,,1947KT,Beverwijk,Beverwijk,Noord-Holland,STA,4.666433,52.485867
Brink,13,,,1947KT,Beverwijk,Beverwijk,Noord-Holland,STA,4.666549,52.485793
Brink,15,,,1947KT,Beverwijk,Beverwijk,Noord-Holland,STA,4.666679,52.485733
Brink,17,,,1947KT,Beverwijk,Beverwijk,Noord-Holland,STA,4.666962,52.485897
Brink,19,,,1947KT,Beverwijk,Beverwijk,Noord-Holland,STA,4.666839,52.485958
Brink,21,,,1947KT,Beverwijk,Beverwijk,Noord-Holland,STA,4.666719,52.486018
Brink,23,,,1947KT,Beverwijk,Beverwijk,Noord-Holland,STA,4.666894,52.486138
Brink,25,,,1947KT,Beverwijk,Beverwijk,Noord-Holland,STA,4.667021,52.486075
Brink,27,,,1947KT,Beverwijk,Beverwijk,Noord-Holland,STA,4.667156,52.486008
Brink,29,,,1947KT,Beverwijk,Beverwijk,Noord-Holland,STA,4.667454,52.486180
Brink,31,,,1947KT,Beverwijk,Beverwijk,Noord-Holland,STA,4.667330,52.486242
Brink,33,,,1947KT,Beverwijk,Beverwijk,Noord-Holland,STA,4.667222,52.486300
Brink,35,,,1947KT,Beverwijk,Beverwijk,Noord-Holland,STA,4.667094,52.486365
Brink,6,,,1947KV,Beverwijk,Beverwijk,Noord-Holland,VBO,4.665553,52.485583
Brink,8,,,1947KV,Beverwijk,Beverwijk,Noord-Holland,VBO,4.665549,52.485871
Brink,10,,bene,1947KV,Beverwijk,Beverwijk,Noord-Holland,VBO,4.665830,52.485774
Brink,10,,,1947KV,Beverwijk,Beverwijk,Noord-Holland,VBO,4.665860,52.485756
Brink,12,A,,1947KV,Beverwijk,Beverwijk,Noord-Holland,VBO,4.665975,52.485883
Brink,12,,,1947KV,Beverwijk,Beverwijk,Noord-Holland,VBO,4.666020,52.485865
Brink,14,,,1947KV,Beverwijk,Beverwijk,Noord-Holland,VBO,4.666151,52.485964
Brink,16,,,1947KV,Beverwijk,Beverwijk,Noord-Holland,VBO,4.666412,52.486164
Brink,18,,,1947KV,Beverwijk,Beverwijk,Noord-Holland,VBO,4.666674,52.486354
Brink,20,,,1947KV,Beverwijk,Beverwijk,Noord-Holland,VBO,4.666733,52.486381
Brink,22,A,,1947KV,Beverwijk,Beverwijk,Noord-Holland,VBO,4.666835,52.486454
Brink,22,,,1947KV,Beverwijk,Beverwijk,Noord-Holland,VBO,4.666791,52.486418
Brink,24,,,1947KV,Beverwijk,Beverwijk,Noord-Holland,VBO,4.666893,52.486508
Brink,26,,,1947KV,Beverwijk,Beverwijk,Noord-Holland,VBO,4.667038,52.486608
Brink,28,,,1947KV,Beverwijk,Beverwijk,Noord-Holland,VBO,4.667329,52.486816
Brink,125,A,,1947KV,Beverwijk,Beverwijk,Noord-Holland,VBO,4.667959,52.486617
Brink,125,,,1947KV,Beverwijk,Beverwijk,Noord-Holland,VBO,4.667583,52.486566
Sint Aagtendijk,1,A,,1947KW,Beverwijk,Beverwijk,Noord-Holland,VBO,4.670910,52.486613
Sint Aagtendijk,1,,,1947KW,Beverwijk,Beverwijk,Noord-Holland,VBO,4.670457,52.486440
Sint Aagtendijk,3,,,1947KW,Beverwijk,Beverwijk,Noord-Holland,VBO,4.673470,52.484004
Sint Aagtendijk,7,A,,1947KW,Beverwijk,Beverwijk,Noord-Holland,VBO,4.676469,52.482405
Sint Aagtendijk,7,,,1947KW,Beverwijk,Beverwijk,Noord-Holland,VBO,4.676437,52.482593
Sint Aagtendijk,9,,,1947KW,Beverwijk,Beverwijk,Noord-Holland,VBO,4.678990,52.482204
Adrichemlaan,1,A,,1947KX,Beverwijk,Beverwijk,Noord-Holland,VBO,4.671667,52.485306
Adrichemlaan,1,,,1947KX,Beverwijk,Beverwijk,Noord-Holland,VBO,4.672260,52.486909
Adrichemlaan,2,,,1947KX,Beverwijk,Beverwijk,Noord-Holland,VBO,4.669616,52.488340
Adrichemlaan,3,A,,1947KX,Beverwijk,Beverwijk,Noord-Holland,VBO,4.669218,52.487439
Adrichemlaan,3,,,1947KX,Beverwijk,Beverwijk,Noord-Holland,VBO,4.671212,52.486869
Adrichemlaan,5,,,1947KX,Beverwijk,Beverwijk,Noord-Holland,VBO,4.670710,52.488086
Adrichemlaan,7,,,1947KX,Beverwijk,Beverwijk,Noord-Holland,VBO,4.670797,52.488132
Adrichemlaan,9,,,1947KX,Beverwijk,Beverwijk,Noord-Holland,VBO,4.670923,52.488022
Spoorsingel,1,,1,1947LA,Beverwijk,Beverwijk,Noord-Holland,VBO,4.667431,52.483258
Spoorsingel,1,,,1947LA,Beverwijk,Beverwijk,Noord-Holland,VBO,4.667184,52.483086
Spoorsingel,3,,,1947LA,Beverwijk,Beverwijk,Noord-Holland,VBO,4.666761,52.483730
Spoorsingel,5,A,,1947LA,Beverwijk,Beverwijk,Noord-Holland,VBO,4.665580,52.483921
Spoorsingel,5,,,1947LA,Beverwijk,Beverwijk,Noord-Holland,VBO,4.666061,52.484211
Spoorsingel,7,,,1947LA,Beverwijk,Beverwijk,Noord-Holland,VBO,4.667331,52.483985
Spoorsingel,9,,,1947LA,Beverwijk,Beverwijk,Noord-Holland,VBO,4.666222,52.484293
Spoorsingel,11,,,1947LA,Beverwijk,Beverwijk,Noord-Holland,VBO,4.666132,52.484392
Spoorsingel,13,,,1947LA,Beverwijk,Beverwijk,Noord-Holland,VBO,4.666058,52.484436
Spoorsingel,15,,,1947LA,Beverwijk,Beverwijk,Noord-Holland,VBO,4.665853,52.484354
Spoorsingel,31,,,1947LB,Beverwijk,Beverwijk,Noord-Holland,VBO,4.665135,52.484143
Spoorsingel,33,,,1947LB,Beverwijk,Beverwijk,Noord-Holland,VBO,4.665208,52.484188
Spoorsingel,35,,,1947LB,Beverwijk,Beverwijk,Noord-Holland,VBO,4.665281,52.484234
Spoorsingel,37,,,1947LB,Beverwijk,Beverwijk,Noord-Holland,VBO,4.665368,52.484279
Spoorsingel,39,,,1947LB,Beverwijk,Beverwijk,Noord-Holland,VBO,4.665441,52.484315
Spoorsingel,41,,,1947LB,Beverwijk,Beverwijk,Noord-Holland,VBO,4.665514,52.484361
Spoorsingel,43,,,1947LB,Beverwijk,Beverwijk,Noord-Holland,VBO,4.665587,52.484406
Spoorsingel,45,,,1947LB,Beverwijk,Beverwijk,Noord-Holland,VBO,4.665660,52.484452
Spoorsingel,47,,,1947LB,Beverwijk,Beverwijk,Noord-Holland,VBO,4.665835,52.484578
Spoorsingel,49,,,1947LB,Beverwijk,Beverwijk,Noord-Holland,VBO,4.665760,52.484632
Spoorsingel,51,,,1947LB,Beverwijk,Beverwijk,Noord-Holland,VBO,4.665686,52.484676
Spoorsingel,53,,,1947LB,Beverwijk,Beverwijk,Noord-Holland,VBO,4.665597,52.484730
Spoorsingel,55,,,1947LB,Beverwijk,Beverwijk,Noord-Holland,VBO,4.665392,52.484648
Spoorsingel,57,,,1947LB,Beverwijk,Beverwijk,Noord-Holland,VBO,4.665319,52.484602
Spoorsingel,59,,,1947LB,Beverwijk,Beverwijk,Noord-Holland,VBO,4.665231,52.484557
Spoorsingel,61,,,1947LB,Beverwijk,Beverwijk,Noord-Holland,VBO,4.665159,52.484511
Spoorsingel,63,,,1947LB,Beverwijk,Beverwijk,Noord-Holland,VBO,4.665086,52.484466
Spoorsingel,65,,,1947LB,Beverwijk,Beverwijk,Noord-Holland,VBO,4.665013,52.484421
Spoorsingel,67,,,1947LB,Beverwijk,Beverwijk,Noord-Holland,VBO,4.664940,52.484375
Spoorsingel,69,,,1947LB,Beverwijk,Beverwijk,Noord-Holland,VBO,4.664852,52.484330
Spoorsingel,71,,,1947LB,Beverwijk,Beverwijk,Noord-Holland,VBO,4.666349,52.484627
Spoorsingel,79,,,1947LC,Beverwijk,Beverwijk,Noord-Holland,VBO,4.665798,52.485001
Spoorsingel,81,,,1947LC,Beverwijk,Beverwijk,Noord-Holland,VBO,4.665857,52.485037
Spoorsingel,83,,,1947LC,Beverwijk,Beverwijk,Noord-Holland,VBO,4.665930,52.485073
Spoorsingel,85,,,1947LC,Beverwijk,Beverwijk,Noord-Holland,VBO,4.665988,52.485119
Spoorsingel,87,,,1947LC,Beverwijk,Beverwijk,Noord-Holland,VBO,4.666061,52.485155
Spoorsingel,89,,,1947LC,Beverwijk,Beverwijk,Noord-Holland,VBO,4.666119,52.485191
Spoorsingel,91,,,1947LC,Beverwijk,Beverwijk,Noord-Holland,VBO,4.666192,52.485228
Spoorsingel,93,,,1947LC,Beverwijk,Beverwijk,Noord-Holland,VBO,4.666250,52.485273
Spoorsingel,95,,,1947LC,Beverwijk,Beverwijk,Noord-Holland,VBO,4.666323,52.485309
Spoorsingel,97,,,1947LC,Beverwijk,Beverwijk,Noord-Holland,VBO,4.666382,52.485346
Spoorsingel,99,,,1947LC,Beverwijk,Beverwijk,Noord-Holland,VBO,4.666454,52.485391
Spoorsingel,101,,,1947LC,Beverwijk,Beverwijk,Noord-Holland,VBO,4.666513,52.485427
Spoorsingel,103,,,1947LC,Beverwijk,Beverwijk,Noord-Holland,VBO,4.666586,52.485464
Spoorsingel,105,,,1947LC,Beverwijk,Beverwijk,Noord-Holland,VBO,4.666644,52.485500
Spoorsingel,107,,,1947LC,Beverwijk,Beverwijk,Noord-Holland,VBO,4.666717,52.485545
Spoorsingel,109,,,1947LC,Beverwijk,Beverwijk,Noord-Holland,VBO,4.666775,52.485582
Spoorsingel,111,,,1947LC,Beverwijk,Beverwijk,Noord-Holland,VBO,4.666848,52.485618
Spoorsingel,115,,,1947LD,Beverwijk,Beverwijk,Noord-Holland,VBO,4.667588,52.485461
Spoorsingel,129,,,1947LD,Beverwijk,Beverwijk,Noord-Holland,VBO,4.667872,52.485638
Sint Aagtendijk,10,,,1947PH,Beverwijk,Beverwijk,Noord-Holland,VBO,4.693056,52.480786
Sint Aagtendijk,20,,,1947PH,Beverwijk,Beverwijk,Noord-Holland,VBO,4.699111,52.487068
Hoflanderweg,5,,,1947ZA,Beverwijk,Beverwijk,Noord-Holland,VBO,4.660937,52.487892
Hoflanderweg,7,,,1947ZA,Beverwijk,Beverwijk,Noord-Holland,VBO,4.661010,52.487919
Hoflanderweg,11,A,,1947ZA,Beverwijk,Beverwijk,Noord-Holland,VBO,4.661157,52.487947
Hoflanderweg,13,A,,1947ZA,Beverwijk,Beverwijk,Noord-Holland,VBO,4.661361,52.488056
Hoflanderweg,13,B,,1947ZA,Beverwijk,Beverwijk,Noord-Holland,VBO,4.661151,52.488289
Hoflanderweg,13,C,,1947ZA,Beverwijk,Beverwijk,Noord-Holland,VBO,4.661136,52.488316
Hoflanderweg,13,D,,1947ZA,Beverwijk,Beverwijk,Noord-Holland,VBO,4.661091,52.488333
Hoflanderweg,13,E,,1947ZA,Beverwijk,Beverwijk,Noord-Holland,VBO,4.661062,52.488360
Hoflanderweg,13,F,,1947ZA,Beverwijk,Beverwijk,Noord-Holland,VBO,4.661047,52.488378
Hoflanderweg,13,G,,1947ZA,Beverwijk,Beverwijk,Noord-Holland,VBO,4.661163,52.488460
Hoflanderweg,13,H,,1947ZA,Beverwijk,Beverwijk,Noord-Holland,VBO,4.661178,52.488433
Hoflanderweg,13,J,,1947ZA,Beverwijk,Beverwijk,Noord-Holland,VBO,4.661208,52.488415
Hoflanderweg,13,K,,1947ZA,Beverwijk,Beverwijk,Noord-Holland,VBO,4.661238,52.488397
Hoflanderweg,13,L,,1947ZA,Beverwijk,Beverwijk,Noord-Holland,VBO,4.661267,52.488370
Hoflanderweg,13,M,,1947ZA,Beverwijk,Beverwijk,Noord-Holland,VBO,4.661254,52.488289
Hoflanderweg,13,,,1947ZA,Beverwijk,Beverwijk,Noord-Holland,VBO,4.661273,52.488029
Hoflanderweg,15,A,,1947ZA,Beverwijk,Beverwijk,Noord-Holland,VBO,4.661463,52.488102
Hoflanderweg,17,A,,1947ZA,Beverwijk,Beverwijk,Noord-Holland,VBO,4.661580,52.488148
Hoflanderweg,17,B,,1947ZA,Beverwijk,Beverwijk,Noord-Holland,VBO,4.661668,52.488175
Hoflanderweg,17,,,1947ZA,Beverwijk,Beverwijk,Noord-Holland,VBO,4.661522,52.488120
Hoflanderweg,19,A,,1947ZA,Beverwijk,Beverwijk,Noord-Holland,VBO,4.661829,52.488239
Hoflanderweg,19,B,,1947ZA,Beverwijk,Beverwijk,Noord-Holland,VBO,4.661888,52.488266
Hoflanderweg,19,C,,1947ZA,Beverwijk,Beverwijk,Noord-Holland,VBO,4.661946,52.488285
Hoflanderweg,19,,,1947ZA,Beverwijk,Beverwijk,Noord-Holland,VBO,4.661771,52.488221
Hoflanderweg,29,,,1947ZB,Beverwijk,Beverwijk,Noord-Holland,VBO,4.662400,52.488440
Hoflanderweg,31,,,1947ZB,Beverwijk,Beverwijk,Noord-Holland,VBO,4.662458,52.488467
Hoflanderweg,33,,,1947ZB,Beverwijk,Beverwijk,Noord-Holland,VBO,4.662546,52.488513
Hoflanderweg,35,A,,1947ZB,Beverwijk,Beverwijk,Noord-Holland,VBO,4.662707,52.488577
Hoflanderweg,35,,,1947ZB,Beverwijk,Beverwijk,Noord-Holland,VBO,4.662648,52.488559
Hoflanderweg,37,A,,1947ZB,Beverwijk,Beverwijk,Noord-Holland,VBO,4.662809,52.488622
Hoflanderweg,37,,,1947ZB,Beverwijk,Beverwijk,Noord-Holland,VBO,4.662751,52.488595
Hoflanderweg,39,A,,1947ZB,Beverwijk,Beverwijk,Noord-Holland,VBO,4.662926,52.488668
Hoflanderweg,39,,,1947ZB,Beverwijk,Beverwijk,Noord-Holland,VBO,4.662868,52.488641
Hoflanderweg,41,A,,1947ZB,Beverwijk,Beverwijk,Noord-Holland,VBO,4.663029,52.488714
Hoflanderweg,41,,,1947ZB,Beverwijk,Beverwijk,Noord-Holland,VBO,4.662985,52.488686
Hoflanderweg,43,A,,1947ZB,Beverwijk,Beverwijk,Noord-Holland,VBO,4.663131,52.488750
Hoflanderweg,43,B,,1947ZB,Beverwijk,Beverwijk,Noord-Holland,VBO,4.663276,52.488868
Hoflanderweg,43,,,1947ZB,Beverwijk,Beverwijk,Noord-Holland,VBO,4.663087,52.488732
Hoflanderweg,45,A,,1947ZB,Beverwijk,Beverwijk,Noord-Holland,VBO,4.664049,52.489367
Hoflanderweg,45,,,1947ZB,Beverwijk,Beverwijk,Noord-Holland,VBO,4.663815,52.489249
Hoflanderweg,2,,,1947ZE,Beverwijk,Beverwijk,Noord-Holland,VBO,4.660736,52.487576
Hoflanderweg,4,,,1947ZE,Beverwijk,Beverwijk,Noord-Holland,VBO,4.660809,52.487622
Hoflanderweg,6,,,1947ZE,Beverwijk,Beverwijk,Noord-Holland,VBO,4.660838,52.487649
Hoflanderweg,8,,,1947ZE,Beverwijk,Beverwijk,Noord-Holland,VBO,4.660911,52.487694
Hoflanderweg,10,,,1947ZE,Beverwijk,Beverwijk,Noord-Holland,VBO,4.661042,52.487749
Hoflanderweg,12,,,1947ZE,Beverwijk,Beverwijk,Noord-Holland,VBO,4.661101,52.487767
Hoflanderweg,14,,,1947ZE,Beverwijk,Beverwijk,Noord-Holland,VBO,4.661232,52.487822
Hoflanderweg,16,,,1947ZE,Beverwijk,Beverwijk,Noord-Holland,VBO,4.661247,52.487831
Hoflanderweg,18,,,1947ZE,Beverwijk,Beverwijk,Noord-Holland,VBO,4.661349,52.487868
Hoflanderweg,20,,,1947ZE,Beverwijk,Beverwijk,Noord-Holland,VBO,4.661379,52.487877
Hoflanderweg,22,,,1947ZE,Beverwijk,Beverwijk,Noord-Holland,VBO,4.661481,52.487913
Hoflanderweg,24,,,1947ZE,Beverwijk,Beverwijk,Noord-Holland,VBO,4.661510,52.487922
Hoflanderweg,26,,,1947ZE,Beverwijk,Beverwijk,Noord-Holland,VBO,4.661613,52.487977
Hoflanderweg,28,,,1947ZE,Beverwijk,Beverwijk,Noord-Holland,VBO,4.661686,52.487995
Hoflanderweg,30,,,1947ZE,Beverwijk,Beverwijk,Noord-Holland,VBO,4.661744,52.488023
Hoflanderweg,32,,,1947ZE,Beverwijk,Beverwijk,Noord-Holland,VBO,4.661803,52.488050
Hoflanderweg,34,,,1947ZE,Beverwijk,Beverwijk,Noord-Holland,VBO,4.661876,52.488077
Hoflanderweg,36,,,1947ZE,Beverwijk,Beverwijk,Noord-Holland,VBO,4.661949,52.488105
Hoflanderweg,38,,,1947ZE,Beverwijk,Beverwijk,Noord-Holland,VBO,4.662008,52.488123
Hoflanderweg,40,,,1947ZE,Beverwijk,Beverwijk,Noord-Holland,VBO,4.662066,52.488151
Hoflanderweg,42,,,1947ZE,Beverwijk,Beverwijk,Noord-Holland,VBO,4.662154,52.488178
Hoflanderweg,44,,,1947ZE,Beverwijk,Beverwijk,Noord-Holland,VBO,4.662212,52.488205
Hoflanderweg,46,A,,1947ZE,Beverwijk,Beverwijk,Noord-Holland,VBO,4.662330,52.488251
Hoflanderweg,46,,,1947ZE,Beverwijk,Beverwijk,Noord-Holland,VBO,4.662271,52.488224
Hoflanderweg,48,A,,1947ZG,Beverwijk,Beverwijk,Noord-Holland,VBO,4.662476,52.488306
Hoflanderweg,48,,,1947ZG,Beverwijk,Beverwijk,Noord-Holland,VBO,4.662417,52.488279
Hoflanderweg,50,A,,1947ZG,Beverwijk,Beverwijk,Noord-Holland,VBO,4.662593,52.488351
Hoflanderweg,50,,,1947ZG,Beverwijk,Beverwijk,Noord-Holland,VBO,4.662534,52.488333
Hoflanderweg,52,A,,1947ZG,Beverwijk,Beverwijk,Noord-Holland,VBO,4.662739,52.488406
Hoflanderweg,52,,,1947ZG,Beverwijk,Beverwijk,Noord-Holland,VBO,4.662681,52.488388
Hoflanderweg,54,A,,1947ZG,Beverwijk,Beverwijk,Noord-Holland,VBO,4.662871,52.488461
Hoflanderweg,54,,,1947ZG,Beverwijk,Beverwijk,Noord-Holland,VBO,4.662798,52.488434
Hoflanderweg,56,A,,1947ZG,Beverwijk,Beverwijk,Noord-Holland,VBO,4.663002,52.488516
Hoflanderweg,56,,,1947ZG,Beverwijk,Beverwijk,Noord-Holland,VBO,4.662944,52.488488
Hoflanderweg,58,A,,1947ZG,Beverwijk,Beverwijk,Noord-Holland,VBO,4.663119,52.488561
Hoflanderweg,58,,,1947ZG,Beverwijk,Beverwijk,Noord-Holland,VBO,4.663061,52.488534
Hoflanderweg,60,,,1947ZG,Beverwijk,Beverwijk,Noord-Holland,VBO,4.663237,52.488607
Hoflanderweg,62,,,1947ZG,Beverwijk,Beverwijk,Noord-Holland,VBO,4.663310,52.488625
Hoflanderweg,64,,,1947ZG,Beverwijk,Beverwijk,Noord-Holland,VBO,4.663412,52.488671
Hoflanderweg,66,,,1947ZG,Beverwijk,Beverwijk,Noord-Holland,VBO,4.663456,52.488680
Hoflanderweg,68,A,,1947ZG,Beverwijk,Beverwijk,Noord-Holland,VBO,4.663707,52.488628
Hoflanderweg,68,B,,1947ZG,Beverwijk,Beverwijk,Noord-Holland,VBO,4.663737,52.488610
Hoflanderweg,68,C,,1947ZG,Beverwijk,Beverwijk,Noord-Holland,VBO,4.663767,52.488583
Hoflanderweg,68,,,1947ZG,Beverwijk,Beverwijk,Noord-Holland,VBO,4.663602,52.488780
Hoflanderweg,70,,,1947ZG,Beverwijk,Beverwijk,Noord-Holland,VBO,4.663675,52.488816
Hoflanderweg,72,,,1947ZG,Beverwijk,Beverwijk,Noord-Holland,VBO,4.663763,52.488853
Hoflanderweg,74,,,1947ZG,Beverwijk,Beverwijk,Noord-Holland,VBO,4.663836,52.488871
Hoflanderweg,76,,,1947ZG,Beverwijk,Beverwijk,Noord-Holland,VBO,4.663997,52.488935
Hoflanderweg,78,,,1947ZG,Beverwijk,Beverwijk,Noord-Holland,VBO,4.664114,52.488981
Hoflanderweg,82,,,1947ZG,Beverwijk,Beverwijk,Noord-Holland,VBO,4.664319,52.489063
Hoflanderweg,104,,,1947ZH,Beverwijk,Beverwijk,Noord-Holland,VBO,4.666886,52.490508
Hoflanderweg,182,,,1947ZH,Beverwijk,Beverwijk,Noord-Holland,VBO,4.669223,52.489857
