openbareruimtenaam,huisnummer,huisletter,huisnummertoevoeging,postcode,woonplaatsnaam,gemeentenaam,provincienaam,typeadresseerbaarobject,longitude,latitude
Fenacoliuslaan,1,A,,3143AA,Maassluis,Maassluis,Zuid-Holland,VBO,4.254773,51.920030
Fenacoliuslaan,1,B,,3143AA,Maassluis,Maassluis,Zuid-Holland,VBO,4.254687,51.920002
Fenacoliuslaan,1,C,,3143AA,Maassluis,Maassluis,Zuid-Holland,VBO,4.254597,51.919972
Fenacoliuslaan,3,,,3143AA,Maassluis,Maassluis,Zuid-Holland,VBO,4.253716,51.919676
Fenacoliuslaan,5,,,3143AA,Maassluis,Maassluis,Zuid-Holland,VBO,4.253251,51.919577
Fenacoliuslaan,7,,,3143AA,Maassluis,Maassluis,Zuid-Holland,VBO,4.253183,51.919546
Fenacoliuslaan,9,,RD,3143AA,Maassluis,Maassluis,Zuid-Holland,VBO,4.253140,51.919490
Fenacoliuslaan,11,,,3143AA,Maassluis,Maassluis,Zuid-Holland,VBO,4.253040,51.919499
Fenacoliuslaan,13,,,3143AA,Maassluis,Maassluis,Zuid-Holland,VBO,4.252969,51.919476
Fenacoliuslaan,15,A,,3143AA,Maassluis,Maassluis,Zuid-Holland,VBO,4.252820,51.919363
Fenacoliuslaan,15,B,,3143AA,Maassluis,Maassluis,Zuid-Holland,VBO,4.252754,51.919341
Fenacoliuslaan,15,C,,3143AA,Maassluis,Maassluis,Zuid-Holland,VBO,4.252639,51.919373
Fenacoliuslaan,17,A,,3143AA,Maassluis,Maassluis,Zuid-Holland,VBO,4.252573,51.919351
Fenacoliuslaan,17,B,,3143AA,Maassluis,Maassluis,Zuid-Holland,VBO,4.252508,51.919330
Fenacoliuslaan,17,C,,3143AA,Maassluis,Maassluis,Zuid-Holland,VBO,4.252442,51.919308
Fenacoliuslaan,19,A,,3143AA,Maassluis,Maassluis,Zuid-Holland,VBO,4.252387,51.919283
Fenacoliuslaan,19,B,,3143AA,Maassluis,Maassluis,Zuid-Holland,VBO,4.252312,51.919265
Fenacoliuslaan,19,C,,3143AA,Maassluis,Maassluis,Zuid-Holland,VBO,4.252246,51.919243
Fenacoliuslaan,21,A,,3143AA,Maassluis,Maassluis,Zuid-Holland,VBO,4.252181,51.919221
Fenacoliuslaan,21,B,,3143AA,Maassluis,Maassluis,Zuid-Holland,VBO,4.252114,51.919199
Fenacoliuslaan,23,,RD,3143AB,Maassluis,Maassluis,Zuid-Holland,VBO,4.251830,51.919111
Fenacoliuslaan,23,,ZW,3143AB,Maassluis,Maassluis,Zuid-Holland,VBO,4.251830,51.919111
Fenacoliuslaan,25,,RD,3143AB,Maassluis,Maassluis,Zuid-Holland,VBO,4.251759,51.919087
Fenacoliuslaan,25,,ZW,3143AB,Maassluis,Maassluis,Zuid-Holland,VBO,4.251759,51.919087
Fenacoliuslaan,27,,,3143AB,Maassluis,Maassluis,Zuid-Holland,VBO,4.251689,51.919064
Fenacoliuslaan,29,,RD,3143AB,Maassluis,Maassluis,Zuid-Holland,VBO,4.251618,51.919040
Fenacoliuslaan,29,,ZW,3143AB,Maassluis,Maassluis,Zuid-Holland,VBO,4.251618,51.919040
Fenacoliuslaan,31,,RD,3143AB,Maassluis,Maassluis,Zuid-Holland,VBO,4.251547,51.919017
Fenacoliuslaan,31,,ZW,3143AB,Maassluis,Maassluis,Zuid-Holland,VBO,4.251547,51.919017
Fenacoliuslaan,33,,,3143AB,Maassluis,Maassluis,Zuid-Holland,VBO,4.251477,51.918993
Fenacoliuslaan,35,,RD,3143AB,Maassluis,Maassluis,Zuid-Holland,VBO,4.251406,51.918970
Fenacoliuslaan,35,,ZW,3143AB,Maassluis,Maassluis,Zuid-Holland,VBO,4.251406,51.918970
Fenacoliuslaan,37,,,3143AB,Maassluis,Maassluis,Zuid-Holland,VBO,4.251213,51.918910
Fenacoliuslaan,39,,,3143AB,Maassluis,Maassluis,Zuid-Holland,VBO,4.251150,51.918889
Fenacoliuslaan,41,,,3143AB,Maassluis,Maassluis,Zuid-Holland,VBO,4.251087,51.918868
Fenacoliuslaan,43,,,3143AB,Maassluis,Maassluis,Zuid-Holland,VBO,4.251023,51.918847
Fenacoliuslaan,45,,,3143AB,Maassluis,Maassluis,Zuid-Holland,VBO,4.250960,51.918826
Fenacoliuslaan,49,,,3143AB,Maassluis,Maassluis,Zuid-Holland,VBO,4.250760,51.918730
Fenacoliuslaan,51,,RD,3143AB,Maassluis,Maassluis,Zuid-Holland,VBO,4.250573,51.918662
Fenacoliuslaan,51,,ZW,3143AB,Maassluis,Maassluis,Zuid-Holland,VBO,4.250573,51.918662
Fenacoliuslaan,2,A,,3143AC,Maassluis,Maassluis,Zuid-Holland,VBO,4.254487,51.920231
Fenacoliuslaan,2,B,,3143AC,Maassluis,Maassluis,Zuid-Holland,VBO,4.254487,51.920231
Fenacoliuslaan,2,C,,3143AC,Maassluis,Maassluis,Zuid-Holland,VBO,4.254487,51.920231
Fenacoliuslaan,2,D,,3143AC,Maassluis,Maassluis,Zuid-Holland,VBO,4.254487,51.920231
Fenacoliuslaan,2,E,,3143AC,Maassluis,Maassluis,Zuid-Holland,VBO,4.254487,51.920231
Fenacoliuslaan,2,F,,3143AC,Maassluis,Maassluis,Zuid-Holland,VBO,4.254487,51.920231
Fenacoliuslaan,4,A,RD,3143AC,Maassluis,Maassluis,Zuid-Holland,VBO,4.254329,51.920158
Fenacoliuslaan,4,A,,3143AC,Maassluis,Maassluis,Zuid-Holland,VBO,4.254329,51.920158
Fenacoliuslaan,6,A,RD,3143AC,Maassluis,Maassluis,Zuid-Holland,VBO,4.254229,51.920103
Fenacoliuslaan,6,,RD,3143AC,Maassluis,Maassluis,Zuid-Holland,VBO,4.254229,51.920103
Fenacoliuslaan,6,,,3143AC,Maassluis,Maassluis,Zuid-Holland,VBO,4.254229,51.920103
Fenacoliuslaan,8,A,,3143AD,Maassluis,Maassluis,Zuid-Holland,VBO,4.254074,51.920009
Fenacoliuslaan,8,B,,3143AD,Maassluis,Maassluis,Zuid-Holland,VBO,4.253991,51.919993
Fenacoliuslaan,8,C,,3143AD,Maassluis,Maassluis,Zuid-Holland,VBO,4.253931,51.919958
Fenacoliuslaan,10,,,3143AD,Maassluis,Maassluis,Zuid-Holland,VBO,4.253870,51.919928
Fenacoliuslaan,12,,,3143AD,Maassluis,Maassluis,Zuid-Holland,VBO,4.253811,51.919907
Fenacoliuslaan,14,,,3143AD,Maassluis,Maassluis,Zuid-Holland,VBO,4.253721,51.919891
Fenacoliuslaan,16,,RD,3143AD,Maassluis,Maassluis,Zuid-Holland,VBO,4.253637,51.919860
Fenacoliuslaan,16,,ZW,3143AD,Maassluis,Maassluis,Zuid-Holland,VBO,4.253637,51.919860
Fenacoliuslaan,18,A,,3143AD,Maassluis,Maassluis,Zuid-Holland,VBO,4.253420,51.919906
Fenacoliuslaan,18,B,,3143AD,Maassluis,Maassluis,Zuid-Holland,VBO,4.253420,51.919906
Fenacoliuslaan,18,,,3143AD,Maassluis,Maassluis,Zuid-Holland,VBO,4.253563,51.919834
Fenacoliuslaan,20,,,3143AD,Maassluis,Maassluis,Zuid-Holland,VBO,4.253350,51.919806
Fenacoliuslaan,22,,,3143AD,Maassluis,Maassluis,Zuid-Holland,VBO,4.253276,51.919781
Fenacoliuslaan,24,,,3143AD,Maassluis,Maassluis,Zuid-Holland,VBO,4.253201,51.919756
Fenacoliuslaan,26,,,3143AD,Maassluis,Maassluis,Zuid-Holland,VBO,4.253127,51.919732
Fenacoliuslaan,28,,,3143AD,Maassluis,Maassluis,Zuid-Holland,VBO,4.253053,51.919707
Fenacoliuslaan,30,,,3143AD,Maassluis,Maassluis,Zuid-Holland,VBO,4.252978,51.919682
Fenacoliuslaan,32,,,3143AE,Maassluis,Maassluis,Zuid-Holland,VBO,4.252904,51.919657
Fenacoliuslaan,34,,,3143AE,Maassluis,Maassluis,Zuid-Holland,VBO,4.252830,51.919632
Fenacoliuslaan,36,,,3143AE,Maassluis,Maassluis,Zuid-Holland,VBO,4.252744,51.919630
Fenacoliuslaan,38,,,3143AE,Maassluis,Maassluis,Zuid-Holland,VBO,4.252681,51.919583
Fenacoliuslaan,40,A,,3143AE,Maassluis,Maassluis,Zuid-Holland,VBO,4.252614,51.919584
Fenacoliuslaan,40,,,3143AE,Maassluis,Maassluis,Zuid-Holland,VBO,4.252557,51.919542
Fenacoliuslaan,42,,,3143AE,Maassluis,Maassluis,Zuid-Holland,VBO,4.252480,51.919516
Fenacoliuslaan,44,,,3143AE,Maassluis,Maassluis,Zuid-Holland,VBO,4.252402,51.919491
Fenacoliuslaan,46,,,3143AE,Maassluis,Maassluis,Zuid-Holland,VBO,4.252324,51.919465
Fenacoliuslaan,48,,,3143AE,Maassluis,Maassluis,Zuid-Holland,VBO,4.252246,51.919439
Fenacoliuslaan,50,,,3143AE,Maassluis,Maassluis,Zuid-Holland,VBO,4.252169,51.919413
Fenacoliuslaan,52,,,3143AE,Maassluis,Maassluis,Zuid-Holland,VBO,4.252091,51.919387
Fenacoliuslaan,54,,,3143AE,Maassluis,Maassluis,Zuid-Holland,VBO,4.252013,51.919362
Fenacoliuslaan,56,A,,3143AE,Maassluis,Maassluis,Zuid-Holland,VBO,4.251073,51.919284
Fenacoliuslaan,56,B,,3143AE,Maassluis,Maassluis,Zuid-Holland,VBO,4.251014,51.919038
Fenacoliuslaan,58,A,RD,3143AE,Maassluis,Maassluis,Zuid-Holland,VBO,4.250928,51.918983
Fenacoliuslaan,58,B,RD,3143AE,Maassluis,Maassluis,Zuid-Holland,VBO,4.250928,51.918983
Fenacoliuslaan,58,,,3143AE,Maassluis,Maassluis,Zuid-Holland,VBO,4.250928,51.918983
Fenacoliuslaan,60,,,3143AE,Maassluis,Maassluis,Zuid-Holland,VBO,4.250324,51.919034
Fenacoliuslaan,62,,,3143AE,Maassluis,Maassluis,Zuid-Holland,VBO,4.250343,51.918759
Fenacoliuslaan,66,,RD,3143AE,Maassluis,Maassluis,Zuid-Holland,VBO,4.250077,51.918715
Fenacoliuslaan,100,,,3143AE,Maassluis,Maassluis,Zuid-Holland,VBO,4.251238,51.919364
Fenacoliuslaan,102,,,3143AE,Maassluis,Maassluis,Zuid-Holland,VBO,4.251238,51.919364
Fenacoliuslaan,104,,,3143AE,Maassluis,Maassluis,Zuid-Holland,VBO,4.251238,51.919364
Fenacoliuslaan,106,,,3143AE,Maassluis,Maassluis,Zuid-Holland,VBO,4.251238,51.919364
Fenacoliuslaan,108,,,3143AE,Maassluis,Maassluis,Zuid-Holland,VBO,4.251238,51.919364
Fenacoliuslaan,110,,,3143AE,Maassluis,Maassluis,Zuid-Holland,VBO,4.251238,51.919364
Fenacoliuslaan,112,,,3143AE,Maassluis,Maassluis,Zuid-Holland,VBO,4.251238,51.919364
Fenacoliuslaan,114,,,3143AE,Maassluis,Maassluis,Zuid-Holland,VBO,4.251238,51.919364
Fenacoliuslaan,116,,,3143AE,Maassluis,Maassluis,Zuid-Holland,VBO,4.251238,51.919364
Fenacoliuslaan,118,,,3143AE,Maassluis,Maassluis,Zuid-Holland,VBO,4.251238,51.919364
Fenacoliuslaan,120,,,3143AE,Maassluis,Maassluis,Zuid-Holland,VBO,4.251238,51.919364
Fenacoliuslaan,122,,,3143AE,Maassluis,Maassluis,Zuid-Holland,VBO,4.251238,51.919364
Fenacoliuslaan,124,,,3143AE,Maassluis,Maassluis,Zuid-Holland,VBO,4.251238,51.919364
Fenacoliuslaan,126,,,3143AE,Maassluis,Maassluis,Zuid-Holland,VBO,4.251238,51.919364
Fenacoliuslaan,128,,,3143AE,Maassluis,Maassluis,Zuid-Holland,VBO,4.251238,51.919364
Fenacoliuslaan,130,,,3143AE,Maassluis,Maassluis,Zuid-Holland,VBO,4.251238,51.919364
Fenacoliuslaan,132,,,3143AE,Maassluis,Maassluis,Zuid-Holland,VBO,4.251238,51.919364
Fenacoliuslaan,134,,,3143AE,Maassluis,Maassluis,Zuid-Holland,VBO,4.251238,51.919364
Fenacoliuslaan,136,,,3143AE,Maassluis,Maassluis,Zuid-Holland,VBO,4.251238,51.919364
Fenacoliuslaan,138,,,3143AE,Maassluis,Maassluis,Zuid-Holland,VBO,4.251238,51.919364
Fenacoliuslaan,140,,,3143AE,Maassluis,Maassluis,Zuid-Holland,VBO,4.251238,51.919364
Fenacoliuslaan,142,,,3143AE,Maassluis,Maassluis,Zuid-Holland,VBO,4.251238,51.919364
Fenacoliuslaan,144,,,3143AE,Maassluis,Maassluis,Zuid-Holland,VBO,4.251238,51.919364
Fenacoliuslaan,146,,,3143AE,Maassluis,Maassluis,Zuid-Holland,VBO,4.251238,51.919364
Fenacoliusplein,1,A,,3143AG,Maassluis,Maassluis,Zuid-Holland,VBO,4.254727,51.919398
Fenacoliusplein,1,B,,3143AG,Maassluis,Maassluis,Zuid-Holland,VBO,4.254727,51.919398
Fenacoliusplein,1,C,,3143AG,Maassluis,Maassluis,Zuid-Holland,VBO,4.254727,51.919398
Fenacoliusplein,1,D,,3143AG,Maassluis,Maassluis,Zuid-Holland,VBO,4.254727,51.919398
Fenacoliusplein,2,A,,3143AG,Maassluis,Maassluis,Zuid-Holland,VBO,4.254727,51.919398
Fenacoliusplein,2,B,,3143AG,Maassluis,Maassluis,Zuid-Holland,VBO,4.254727,51.919398
Fenacoliusplein,2,C,,3143AG,Maassluis,Maassluis,Zuid-Holland,VBO,4.254727,51.919398
Fenacoliusplein,2,D,,3143AG,Maassluis,Maassluis,Zuid-Holland,VBO,4.254727,51.919398
Fenacoliusplein,3,A,,3143AG,Maassluis,Maassluis,Zuid-Holland,VBO,4.254496,51.919306
Fenacoliusplein,3,B,,3143AG,Maassluis,Maassluis,Zuid-Holland,VBO,4.254496,51.919306
Fenacoliusplein,3,C,,3143AG,Maassluis,Maassluis,Zuid-Holland,VBO,4.254496,51.919306
Fenacoliusplein,3,D,,3143AG,Maassluis,Maassluis,Zuid-Holland,VBO,4.254496,51.919306
Fenacoliusplein,4,A,,3143AG,Maassluis,Maassluis,Zuid-Holland,VBO,4.254496,51.919306
Fenacoliusplein,4,B,,3143AG,Maassluis,Maassluis,Zuid-Holland,VBO,4.254496,51.919306
Fenacoliusplein,4,C,,3143AG,Maassluis,Maassluis,Zuid-Holland,VBO,4.254496,51.919306
Fenacoliusplein,4,D,,3143AG,Maassluis,Maassluis,Zuid-Holland,VBO,4.254496,51.919306
Fenacoliusplein,5,A,,3143AG,Maassluis,Maassluis,Zuid-Holland,VBO,4.254294,51.919250
Fenacoliusplein,5,B,,3143AG,Maassluis,Maassluis,Zuid-Holland,VBO,4.254294,51.919250
Fenacoliusplein,5,C,,3143AG,Maassluis,Maassluis,Zuid-Holland,VBO,4.254294,51.919250
Fenacoliusplein,5,D,,3143AG,Maassluis,Maassluis,Zuid-Holland,VBO,4.254294,51.919250
Fenacoliusplein,6,A,,3143AG,Maassluis,Maassluis,Zuid-Holland,VBO,4.254294,51.919250
Fenacoliusplein,6,B,,3143AG,Maassluis,Maassluis,Zuid-Holland,VBO,4.254294,51.919250
Fenacoliusplein,6,C,,3143AG,Maassluis,Maassluis,Zuid-Holland,VBO,4.254294,51.919250
Fenacoliusplein,6,D,,3143AG,Maassluis,Maassluis,Zuid-Holland,VBO,4.254294,51.919250
Johan Evertsenlaan,1,A,,3143AH,Maassluis,Maassluis,Zuid-Holland,VBO,4.254731,51.919802
Johan Evertsenlaan,1,B,,3143AH,Maassluis,Maassluis,Zuid-Holland,VBO,4.254731,51.919802
Johan Evertsenlaan,1,,,3143AH,Maassluis,Maassluis,Zuid-Holland,VBO,4.254731,51.919802
Johan Evertsenlaan,2,A,,3143AH,Maassluis,Maassluis,Zuid-Holland,VBO,4.254731,51.919802
Johan Evertsenlaan,2,B,,3143AH,Maassluis,Maassluis,Zuid-Holland,VBO,4.254731,51.919802
Johan Evertsenlaan,2,,,3143AH,Maassluis,Maassluis,Zuid-Holland,VBO,4.254731,51.919802
Johan Evertsenlaan,3,A,,3143AH,Maassluis,Maassluis,Zuid-Holland,VBO,4.254879,51.919678
Johan Evertsenlaan,3,B,,3143AH,Maassluis,Maassluis,Zuid-Holland,VBO,4.254879,51.919678
Johan Evertsenlaan,3,,,3143AH,Maassluis,Maassluis,Zuid-Holland,VBO,4.254879,51.919678
Johan Evertsenlaan,4,A,,3143AH,Maassluis,Maassluis,Zuid-Holland,VBO,4.254879,51.919678
Johan Evertsenlaan,4,B,,3143AH,Maassluis,Maassluis,Zuid-Holland,VBO,4.254879,51.919678
Johan Evertsenlaan,4,,,3143AH,Maassluis,Maassluis,Zuid-Holland,VBO,4.254879,51.919678
Johan Evertsenlaan,5,A,,3143AH,Maassluis,Maassluis,Zuid-Holland,VBO,4.255013,51.919562
Johan Evertsenlaan,5,B,,3143AH,Maassluis,Maassluis,Zuid-Holland,VBO,4.255013,51.919562
Johan Evertsenlaan,5,,,3143AH,Maassluis,Maassluis,Zuid-Holland,VBO,4.255013,51.919562
Johan Evertsenlaan,6,A,,3143AH,Maassluis,Maassluis,Zuid-Holland,VBO,4.255013,51.919562
Johan Evertsenlaan,6,B,,3143AH,Maassluis,Maassluis,Zuid-Holland,VBO,4.255013,51.919562
Johan Evertsenlaan,6,,,3143AH,Maassluis,Maassluis,Zuid-Holland,VBO,4.255013,51.919562
Johan Evertsenlaan,7,A,,3143AH,Maassluis,Maassluis,Zuid-Holland,VBO,4.255324,51.919359
Johan Evertsenlaan,7,B,,3143AH,Maassluis,Maassluis,Zuid-Holland,VBO,4.255324,51.919359
Johan Evertsenlaan,7,,,3143AH,Maassluis,Maassluis,Zuid-Holland,VBO,4.255324,51.919359
Johan Evertsenlaan,8,A,,3143AH,Maassluis,Maassluis,Zuid-Holland,VBO,4.255324,51.919359
Johan Evertsenlaan,8,B,,3143AH,Maassluis,Maassluis,Zuid-Holland,VBO,4.255324,51.919359
Johan Evertsenlaan,8,,,3143AH,Maassluis,Maassluis,Zuid-Holland,VBO,4.255324,51.919359
Johan Evertsenlaan,9,,,3143AH,Maassluis,Maassluis,Zuid-Holland,VBO,4.255324,51.919359
Johan Evertsenlaan,10,A,,3143AH,Maassluis,Maassluis,Zuid-Holland,VBO,4.255324,51.919359
Johan Evertsenlaan,10,B,,3143AH,Maassluis,Maassluis,Zuid-Holland,VBO,4.255324,51.919359
Johan Evertsenlaan,10,,,3143AH,Maassluis,Maassluis,Zuid-Holland,VBO,4.255324,51.919359
Johan Evertsenlaan,11,A,,3143AH,Maassluis,Maassluis,Zuid-Holland,VBO,4.255324,51.919359
Johan Evertsenlaan,11,B,,3143AH,Maassluis,Maassluis,Zuid-Holland,VBO,4.255324,51.919359
Johan Evertsenlaan,11,,,3143AH,Maassluis,Maassluis,Zuid-Holland,VBO,4.255324,51.919359
Johan Evertsenlaan,12,,,3143AH,Maassluis,Maassluis,Zuid-Holland,VBO,4.255324,51.919359
Johan Evertsenlaan,13,,,3143AJ,Maassluis,Maassluis,Zuid-Holland,VBO,4.255474,51.919103
Johan Evertsenlaan,14,,,3143AJ,Maassluis,Maassluis,Zuid-Holland,VBO,4.255541,51.919045
Johan Evertsenlaan,15,,,3143AJ,Maassluis,Maassluis,Zuid-Holland,VBO,4.255658,51.918941
Johan Evertsenlaan,16,,,3143AJ,Maassluis,Maassluis,Zuid-Holland,VBO,4.255713,51.918893
Johan Evertsenlaan,17,,,3143AJ,Maassluis,Maassluis,Zuid-Holland,VBO,4.255831,51.918788
Johan Evertsenlaan,18,,,3143AJ,Maassluis,Maassluis,Zuid-Holland,VBO,4.255889,51.918736
Johan Evertsenlaan,19,,,3143AJ,Maassluis,Maassluis,Zuid-Holland,VBO,4.256051,51.918620
Johan Evertsenlaan,20,,,3143AJ,Maassluis,Maassluis,Zuid-Holland,VBO,4.256218,51.918538
Piet Heinstraat,2,,,3143AK,Maassluis,Maassluis,Zuid-Holland,VBO,4.251347,51.918799
Piet Heinstraat,3,,,3143AK,Maassluis,Maassluis,Zuid-Holland,VBO,4.251531,51.918781
Piet Heinstraat,4,,,3143AK,Maassluis,Maassluis,Zuid-Holland,VBO,4.251378,51.918764
Piet Heinstraat,5,,,3143AK,Maassluis,Maassluis,Zuid-Holland,VBO,4.251560,51.918749
Piet Heinstraat,6,,,3143AK,Maassluis,Maassluis,Zuid-Holland,VBO,4.251409,51.918730
Piet Heinstraat,7,,,3143AK,Maassluis,Maassluis,Zuid-Holland,VBO,4.251589,51.918716
Piet Heinstraat,8,,,3143AK,Maassluis,Maassluis,Zuid-Holland,VBO,4.251439,51.918695
Piet Heinstraat,9,,,3143AK,Maassluis,Maassluis,Zuid-Holland,VBO,4.251618,51.918683
Piet Heinstraat,10,,,3143AK,Maassluis,Maassluis,Zuid-Holland,VBO,4.251470,51.918660
Piet Heinstraat,11,,,3143AK,Maassluis,Maassluis,Zuid-Holland,VBO,4.251647,51.918651
Piet Heinstraat,12,,,3143AK,Maassluis,Maassluis,Zuid-Holland,VBO,4.251501,51.918626
Piet Heinstraat,13,,,3143AK,Maassluis,Maassluis,Zuid-Holland,VBO,4.251676,51.918618
Piet Heinstraat,14,,,3143AK,Maassluis,Maassluis,Zuid-Holland,VBO,4.251531,51.918591
Piet Heinstraat,15,,,3143AK,Maassluis,Maassluis,Zuid-Holland,VBO,4.251705,51.918586
Piet Heinstraat,16,,,3143AK,Maassluis,Maassluis,Zuid-Holland,VBO,4.251571,51.918546
Piet Heinstraat,17,,,3143AK,Maassluis,Maassluis,Zuid-Holland,VBO,4.251734,51.918553
Piet Heinstraat,18,,,3143AK,Maassluis,Maassluis,Zuid-Holland,VBO,4.251621,51.918490
Piet Heinstraat,19,,,3143AK,Maassluis,Maassluis,Zuid-Holland,VBO,4.251763,51.918521
Piet Heinstraat,20,,,3143AK,Maassluis,Maassluis,Zuid-Holland,VBO,4.251670,51.918434
Piet Heinstraat,21,,,3143AK,Maassluis,Maassluis,Zuid-Holland,VBO,4.251792,51.918488
Piet Heinstraat,22,,,3143AK,Maassluis,Maassluis,Zuid-Holland,VBO,4.251719,51.918378
Piet Heinstraat,23,,,3143AK,Maassluis,Maassluis,Zuid-Holland,VBO,4.251862,51.918410
Piet Heinstraat,24,,,3143AK,Maassluis,Maassluis,Zuid-Holland,VBO,4.251730,51.918326
Stationsstraat,1,,,3143AL,Maassluis,Maassluis,Zuid-Holland,VBO,4.250827,51.918672
Stationsstraat,3,,RD,3143AL,Maassluis,Maassluis,Zuid-Holland,VBO,4.250922,51.918669
Stationsstraat,3,,ZW,3143AL,Maassluis,Maassluis,Zuid-Holland,VBO,4.250922,51.918669
Stationsstraat,5,,RD,3143AL,Maassluis,Maassluis,Zuid-Holland,VBO,4.250964,51.918614
Stationsstraat,5,,ZW,3143AL,Maassluis,Maassluis,Zuid-Holland,VBO,4.250964,51.918614
Stationsstraat,7,,RD,3143AL,Maassluis,Maassluis,Zuid-Holland,VBO,4.251068,51.918616
Stationsstraat,7,,ZW,3143AL,Maassluis,Maassluis,Zuid-Holland,VBO,4.251068,51.918616
Stationsstraat,9,,RD,3143AL,Maassluis,Maassluis,Zuid-Holland,VBO,4.251113,51.918581
Stationsstraat,9,,ZW,3143AL,Maassluis,Maassluis,Zuid-Holland,VBO,4.251113,51.918581
Stationsstraat,11,,RD,3143AL,Maassluis,Maassluis,Zuid-Holland,VBO,4.251169,51.918527
Stationsstraat,11,,ZW,3143AL,Maassluis,Maassluis,Zuid-Holland,VBO,4.251169,51.918527
Stationsstraat,13,,RD,3143AL,Maassluis,Maassluis,Zuid-Holland,VBO,4.251274,51.918528
Stationsstraat,13,,ZW,3143AL,Maassluis,Maassluis,Zuid-Holland,VBO,4.251274,51.918528
Stationsstraat,15,,RD,3143AL,Maassluis,Maassluis,Zuid-Holland,VBO,4.251333,51.918502
Stationsstraat,15,,ZW,3143AL,Maassluis,Maassluis,Zuid-Holland,VBO,4.251333,51.918502
Stationsstraat,17,,,3143AL,Maassluis,Maassluis,Zuid-Holland,VBO,4.251374,51.918440
Stationsstraat,19,,RD,3143AL,Maassluis,Maassluis,Zuid-Holland,VBO,4.251480,51.918423
Stationsstraat,19,,ZW,3143AL,Maassluis,Maassluis,Zuid-Holland,VBO,4.251480,51.918423
Stationsstraat,21,,,3143AL,Maassluis,Maassluis,Zuid-Holland,VBO,4.251547,51.918367
Stationsstraat,2,,RD,3143AM,Maassluis,Maassluis,Zuid-Holland,VBO,4.250501,51.918620
Stationsstraat,4,,,3143AM,Maassluis,Maassluis,Zuid-Holland,VBO,4.250604,51.918585
Stationsstraat,6,,,3143AM,Maassluis,Maassluis,Zuid-Holland,VBO,4.250726,51.918598
Stationsstraat,8,,,3143AM,Maassluis,Maassluis,Zuid-Holland,VBO,4.250797,51.918568
Stationsstraat,10,,RD,3143AM,Maassluis,Maassluis,Zuid-Holland,VBO,4.250868,51.918538
Stationsstraat,10,,ZW,3143AM,Maassluis,Maassluis,Zuid-Holland,VBO,4.250868,51.918538
Stationsstraat,12,,,3143AM,Maassluis,Maassluis,Zuid-Holland,VBO,4.250939,51.918508
Stationsstraat,14,,RD,3143AM,Maassluis,Maassluis,Zuid-Holland,VBO,4.251010,51.918478
Stationsstraat,14,,ZW,3143AM,Maassluis,Maassluis,Zuid-Holland,VBO,4.251010,51.918478
Stationsstraat,16,,RD,3143AM,Maassluis,Maassluis,Zuid-Holland,VBO,4.251082,51.918448
Stationsstraat,16,,ZW,3143AM,Maassluis,Maassluis,Zuid-Holland,VBO,4.251082,51.918448
Stationsstraat,18,,,3143AM,Maassluis,Maassluis,Zuid-Holland,VBO,4.251104,51.918374
Stationsstraat,20,,,3143AN,Maassluis,Maassluis,Zuid-Holland,VBO,4.251224,51.918388
Stationsstraat,22,,,3143AN,Maassluis,Maassluis,Zuid-Holland,VBO,4.251295,51.918358
Stationsstraat,24,,,3143AN,Maassluis,Maassluis,Zuid-Holland,VBO,4.251366,51.918328
Stationsstraat,26,,RD,3143AN,Maassluis,Maassluis,Zuid-Holland,VBO,4.251437,51.918298
Stationsstraat,26,,ZW,3143AN,Maassluis,Maassluis,Zuid-Holland,VBO,4.251437,51.918298
Stationsstraat,28,,RD,3143AN,Maassluis,Maassluis,Zuid-Holland,VBO,4.251499,51.918243
Stationsstraat,28,,ZW,3143AN,Maassluis,Maassluis,Zuid-Holland,VBO,4.251499,51.918243
M.H. Trompstraat,4,,,3143AP,Maassluis,Maassluis,Zuid-Holland,VBO,4.252035,51.918952
M.H. Trompstraat,6,,,3143AP,Maassluis,Maassluis,Zuid-Holland,VBO,4.252066,51.918916
M.H. Trompstraat,8,,,3143AP,Maassluis,Maassluis,Zuid-Holland,VBO,4.252097,51.918882
M.H. Trompstraat,10,,,3143AP,Maassluis,Maassluis,Zuid-Holland,VBO,4.252128,51.918847
M.H. Trompstraat,12,,,3143AP,Maassluis,Maassluis,Zuid-Holland,VBO,4.252158,51.918813
M.H. Trompstraat,14,,,3143AP,Maassluis,Maassluis,Zuid-Holland,VBO,4.252187,51.918780
M.H. Trompstraat,16,,,3143AP,Maassluis,Maassluis,Zuid-Holland,VBO,4.252218,51.918745
M.H. Trompstraat,18,,,3143AP,Maassluis,Maassluis,Zuid-Holland,VBO,4.252246,51.918714
M.H. Trompstraat,20,,,3143AP,Maassluis,Maassluis,Zuid-Holland,VBO,4.252279,51.918677
M.H. Trompstraat,22,,,3143AP,Maassluis,Maassluis,Zuid-Holland,VBO,4.252308,51.918644
M.H. Trompstraat,24,,,3143AP,Maassluis,Maassluis,Zuid-Holland,VBO,4.252338,51.918610
M.H. Trompstraat,26,,,3143AP,Maassluis,Maassluis,Zuid-Holland,VBO,4.252370,51.918574
M.H. Trompstraat,28,,,3143AP,Maassluis,Maassluis,Zuid-Holland,VBO,4.252399,51.918541
M.H. Trompstraat,30,,,3143AP,Maassluis,Maassluis,Zuid-Holland,VBO,4.252432,51.918503
Zuiddijk,1,,RD,3143AR,Maassluis,Maassluis,Zuid-Holland,VBO,4.253685,51.921491
Zuiddijk,1,,,3143AR,Maassluis,Maassluis,Zuid-Holland,VBO,4.253685,51.921491
Zuiddijk,3,,,3143AR,Maassluis,Maassluis,Zuid-Holland,VBO,4.253713,51.921405
Zuiddijk,5,,,3143AR,Maassluis,Maassluis,Zuid-Holland,VBO,4.253782,51.921355
Zuiddijk,7,,,3143AR,Maassluis,Maassluis,Zuid-Holland,VBO,4.253845,51.921305
Zuiddijk,9,,,3143AR,Maassluis,Maassluis,Zuid-Holland,VBO,4.253906,51.921259
Zuiddijk,11,,,3143AR,Maassluis,Maassluis,Zuid-Holland,VBO,4.253941,51.921231
Zuiddijk,13,,,3143AR,Maassluis,Maassluis,Zuid-Holland,VBO,4.254004,51.921199
Zuiddijk,15,,,3143AR,Maassluis,Maassluis,Zuid-Holland,VBO,4.254051,51.921164
Zuiddijk,17,,,3143AR,Maassluis,Maassluis,Zuid-Holland,VBO,4.254098,51.921128
Zuiddijk,19,,,3143AR,Maassluis,Maassluis,Zuid-Holland,VBO,4.254146,51.921092
Zuiddijk,21,,,3143AR,Maassluis,Maassluis,Zuid-Holland,VBO,4.254193,51.921057
Zuiddijk,23,,,3143AR,Maassluis,Maassluis,Zuid-Holland,VBO,4.254240,51.921021
Zuiddijk,25,,,3143AR,Maassluis,Maassluis,Zuid-Holland,VBO,4.254288,51.920985
Zuiddijk,2,,,3143AS,Maassluis,Maassluis,Zuid-Holland,VBO,4.253412,51.921354
Zuiddijk,4,,,3143AS,Maassluis,Maassluis,Zuid-Holland,VBO,4.253412,51.921354
Zuiddijk,6,,,3143AS,Maassluis,Maassluis,Zuid-Holland,VBO,4.253412,51.921354
Zuiddijk,8,,,3143AS,Maassluis,Maassluis,Zuid-Holland,VBO,4.253901,51.921139
Zuiddijk,10,,,3143AS,Maassluis,Maassluis,Zuid-Holland,VBO,4.253949,51.921105
Zuiddijk,12,,,3143AS,Maassluis,Maassluis,Zuid-Holland,VBO,4.253997,51.921070
Zuiddijk,14,,,3143AS,Maassluis,Maassluis,Zuid-Holland,VBO,4.254056,51.921028
Zuiddijk,16,,,3143AS,Maassluis,Maassluis,Zuid-Holland,VBO,4.254305,51.920844
Zuiddijk,20,,,3143AS,Maassluis,Maassluis,Zuid-Holland,VBO,4.254353,51.920806
Zuiddijk,22,,,3143AS,Maassluis,Maassluis,Zuid-Holland,VBO,4.254400,51.920771
Zuiddijk,24,,,3143AS,Maassluis,Maassluis,Zuid-Holland,VBO,4.254448,51.920735
Zuiddijk,26,,,3143AS,Maassluis,Maassluis,Zuid-Holland,VBO,4.254505,51.920690
Zuiddijk,28,,,3143AS,Maassluis,Maassluis,Zuid-Holland,VBO,4.254548,51.920656
Zuiddijk,30,,,3143AS,Maassluis,Maassluis,Zuid-Holland,VBO,4.254591,51.920622
Zuiddijk,32,,,3143AS,Maassluis,Maassluis,Zuid-Holland,VBO,4.254635,51.920588
Zuiddijk,34,,,3143AS,Maassluis,Maassluis,Zuid-Holland,VBO,4.254678,51.920553
Zuiddijk,36,,,3143AS,Maassluis,Maassluis,Zuid-Holland,VBO,4.254742,51.920503
Zuiddijk,38,,,3143AS,Maassluis,Maassluis,Zuid-Holland,VBO,4.254789,51.920468
Zuiddijk,42,,,3143AS,Maassluis,Maassluis,Zuid-Holland,VBO,4.254831,51.920435
Zuiddijk,44,,,3143AS,Maassluis,Maassluis,Zuid-Holland,VBO,4.254871,51.920405
Zuiddijk,46,,,3143AS,Maassluis,Maassluis,Zuid-Holland,VBO,4.254910,51.920376
Zuiddijk,54,,,3143AT,Maassluis,Maassluis,Zuid-Holland,VBO,4.255202,51.920154
Zuiddijk,56,,,3143AT,Maassluis,Maassluis,Zuid-Holland,VBO,4.255264,51.920107
Zuiddijk,58,,,3143AT,Maassluis,Maassluis,Zuid-Holland,VBO,4.255311,51.920070
Zuiddijk,60,,,3143AT,Maassluis,Maassluis,Zuid-Holland,VBO,4.255350,51.920040
Zuiddijk,62,,,3143AT,Maassluis,Maassluis,Zuid-Holland,VBO,4.255384,51.920013
Zuiddijk,64,,,3143AT,Maassluis,Maassluis,Zuid-Holland,VBO,4.255428,51.919979
Zuiddijk,66,,,3143AT,Maassluis,Maassluis,Zuid-Holland,VBO,4.255494,51.919930
Zuiddijk,68,,,3143AT,Maassluis,Maassluis,Zuid-Holland,VBO,4.255544,51.919891
Zuiddijk,70,,,3143AT,Maassluis,Maassluis,Zuid-Holland,VBO,4.255589,51.919856
Zuiddijk,72,,,3143AT,Maassluis,Maassluis,Zuid-Holland,VBO,4.255631,51.919792
Zuiddijk,74,A,,3143AT,Maassluis,Maassluis,Zuid-Holland,VBO,4.255784,51.919543
Zuiddijk,74,,,3143AT,Maassluis,Maassluis,Zuid-Holland,VBO,4.255784,51.919543
Zuiddijk,76,A,,3143AT,Maassluis,Maassluis,Zuid-Holland,VBO,4.255784,51.919543
Zuiddijk,76,,,3143AT,Maassluis,Maassluis,Zuid-Holland,VBO,4.255784,51.919543
Zuiddijk,78,A,,3143AT,Maassluis,Maassluis,Zuid-Holland,VBO,4.255784,51.919543
Zuiddijk,78,,,3143AT,Maassluis,Maassluis,Zuid-Holland,VBO,4.255784,51.919543
Zuiddijk,80,,,3143AT,Maassluis,Maassluis,Zuid-Holland,VBO,4.256083,51.919473
Zuiddijk,82,,,3143AT,Maassluis,Maassluis,Zuid-Holland,VBO,4.256121,51.919443
Zuiddijk,84,,,3143AT,Maassluis,Maassluis,Zuid-Holland,VBO,4.256160,51.919412
Zuiddijk,86,,,3143AT,Maassluis,Maassluis,Zuid-Holland,VBO,4.256178,51.919363
Zuiddijk,88,A,,3143AT,Maassluis,Maassluis,Zuid-Holland,VBO,4.256345,51.919236
Zuiddijk,88,B,,3143AT,Maassluis,Maassluis,Zuid-Holland,VBO,4.256401,51.919192
Zuiddijk,88,,,3143AT,Maassluis,Maassluis,Zuid-Holland,VBO,4.256244,51.919314
Zuiddijk,90,,,3143AT,Maassluis,Maassluis,Zuid-Holland,VBO,4.256492,51.919122
Zuiddijk,92,,,3143AT,Maassluis,Maassluis,Zuid-Holland,VBO,4.256595,51.919043
Zuiddijk,94,,,3143AT,Maassluis,Maassluis,Zuid-Holland,VBO,4.256820,51.918807
Haven,1,,,3143BB,Maassluis,Maassluis,Zuid-Holland,VBO,4.253412,51.921354
Haven,3,,,3143BB,Maassluis,Maassluis,Zuid-Holland,VBO,4.253184,51.921199
Haven,5,A,,3143BB,Maassluis,Maassluis,Zuid-Holland,VBO,4.253102,51.921000
Haven,5,,,3143BB,Maassluis,Maassluis,Zuid-Holland,VBO,4.253184,51.921199
Haven,7,,,3143BB,Maassluis,Maassluis,Zuid-Holland,VBO,4.252849,51.921047
Haven,8,,,3143BB,Maassluis,Maassluis,Zuid-Holland,VBO,4.252763,51.921006
Haven,9,,,3143BB,Maassluis,Maassluis,Zuid-Holland,VBO,4.252698,51.920976
Haven,10,A,,3143BB,Maassluis,Maassluis,Zuid-Holland,VBO,4.252632,51.920944
Haven,10,,,3143BB,Maassluis,Maassluis,Zuid-Holland,VBO,4.252632,51.920944
Haven,11,,,3143BB,Maassluis,Maassluis,Zuid-Holland,VBO,4.252627,51.920798
Haven,12,A,,3143BB,Maassluis,Maassluis,Zuid-Holland,VBO,4.252627,51.920798
Haven,12,B,,3143BB,Maassluis,Maassluis,Zuid-Holland,VBO,4.252627,51.920798
Haven,12,C,,3143BB,Maassluis,Maassluis,Zuid-Holland,VBO,4.252627,51.920798
Haven,12,D,,3143BB,Maassluis,Maassluis,Zuid-Holland,VBO,4.252627,51.920798
Haven,12,E,,3143BB,Maassluis,Maassluis,Zuid-Holland,VBO,4.252627,51.920798
Haven,12,F,,3143BB,Maassluis,Maassluis,Zuid-Holland,VBO,4.252627,51.920798
Haven,12,G,,3143BB,Maassluis,Maassluis,Zuid-Holland,VBO,4.252627,51.920798
Haven,12,,,3143BB,Maassluis,Maassluis,Zuid-Holland,VBO,4.252627,51.920798
Haven,14,A,,3143BB,Maassluis,Maassluis,Zuid-Holland,VBO,4.252271,51.920689
Haven,14,B,,3143BB,Maassluis,Maassluis,Zuid-Holland,VBO,4.252271,51.920689
Haven,14,,,3143BB,Maassluis,Maassluis,Zuid-Holland,VBO,4.252271,51.920689
Haven,15,,,3143BB,Maassluis,Maassluis,Zuid-Holland,VBO,4.252199,51.920630
Haven,16,A,,3143BB,Maassluis,Maassluis,Zuid-Holland,VBO,4.252198,51.920497
Haven,16,B,,3143BB,Maassluis,Maassluis,Zuid-Holland,VBO,4.252198,51.920497
Haven,16,C,,3143BB,Maassluis,Maassluis,Zuid-Holland,VBO,4.252198,51.920497
Haven,16,D,,3143BB,Maassluis,Maassluis,Zuid-Holland,VBO,4.252198,51.920497
Haven,16,E,,3143BB,Maassluis,Maassluis,Zuid-Holland,VBO,4.252198,51.920497
Haven,16,F,,3143BB,Maassluis,Maassluis,Zuid-Holland,VBO,4.252198,51.920497
Haven,16,G,,3143BB,Maassluis,Maassluis,Zuid-Holland,VBO,4.252198,51.920497
Haven,16,H,,3143BB,Maassluis,Maassluis,Zuid-Holland,VBO,4.252198,51.920497
Haven,17,,,3143BB,Maassluis,Maassluis,Zuid-Holland,VBO,4.252198,51.920497
Haven,18,A,RD,3143BB,Maassluis,Maassluis,Zuid-Holland,VBO,4.252001,51.920460
Haven,18,,RD,3143BB,Maassluis,Maassluis,Zuid-Holland,VBO,4.252001,51.920460
Haven,18,,ZW,3143BB,Maassluis,Maassluis,Zuid-Holland,VBO,4.252001,51.920460
Haven,19,,,3143BB,Maassluis,Maassluis,Zuid-Holland,VBO,4.251950,51.920416
Haven,20,,,3143BC,Maassluis,Maassluis,Zuid-Holland,VBO,4.251897,51.920373
Haven,21,,RD,3143BC,Maassluis,Maassluis,Zuid-Holland,VBO,4.251897,51.920323
Haven,21,,ZW,3143BC,Maassluis,Maassluis,Zuid-Holland,VBO,4.251897,51.920323
Haven,22,A,,3143BC,Maassluis,Maassluis,Zuid-Holland,VBO,4.251805,51.920304
Haven,22,B,,3143BC,Maassluis,Maassluis,Zuid-Holland,VBO,4.251780,51.920285
Haven,22,,,3143BC,Maassluis,Maassluis,Zuid-Holland,VBO,4.251822,51.920315
Haven,23,,RD,3143BC,Maassluis,Maassluis,Zuid-Holland,VBO,4.251737,51.920246
Haven,23,,ZW,3143BC,Maassluis,Maassluis,Zuid-Holland,VBO,4.251737,51.920246
Haven,24,A,,3143BC,Maassluis,Maassluis,Zuid-Holland,VBO,4.251742,51.920142
Haven,24,,,3143BC,Maassluis,Maassluis,Zuid-Holland,VBO,4.251742,51.920142
Haven,25,,,3143BC,Maassluis,Maassluis,Zuid-Holland,VBO,4.251602,51.920137
Haven,26,,,3143BC,Maassluis,Maassluis,Zuid-Holland,VBO,4.251543,51.920089
Haven,27,,,3143BC,Maassluis,Maassluis,Zuid-Holland,VBO,4.251489,51.920046
Haven,28,,,3143BC,Maassluis,Maassluis,Zuid-Holland,VBO,4.251431,51.920000
Haven,29,,,3143BC,Maassluis,Maassluis,Zuid-Holland,VBO,4.251380,51.919958
Haven,30,A,,3143BC,Maassluis,Maassluis,Zuid-Holland,VBO,4.251317,51.919906
Haven,30,B,,3143BC,Maassluis,Maassluis,Zuid-Holland,VBO,4.251317,51.919906
Haven,31,,,3143BC,Maassluis,Maassluis,Zuid-Holland,VBO,4.251253,51.919853
Haven,33,A,,3143BC,Maassluis,Maassluis,Zuid-Holland,VBO,4.251238,51.919364
Haven,33,B,,3143BC,Maassluis,Maassluis,Zuid-Holland,VBO,4.251238,51.919364
Haven,33,C,,3143BC,Maassluis,Maassluis,Zuid-Holland,VBO,4.251238,51.919364
Haven,33,D,,3143BC,Maassluis,Maassluis,Zuid-Holland,VBO,4.251238,51.919364
Haven,33,E,,3143BC,Maassluis,Maassluis,Zuid-Holland,VBO,4.251238,51.919364
Haven,33,G,,3143BC,Maassluis,Maassluis,Zuid-Holland,VBO,4.251238,51.919364
Haven,33,,,3143BC,Maassluis,Maassluis,Zuid-Holland,VBO,4.251238,51.919364
Haven,34,,,3143BC,Maassluis,Maassluis,Zuid-Holland,VBO,4.251238,51.919364
Haven,35,,,3143BC,Maassluis,Maassluis,Zuid-Holland,VBO,4.251238,51.919364
Haven,36,A,,3143BC,Maassluis,Maassluis,Zuid-Holland,VBO,4.251238,51.919364
Haven,36,B,,3143BC,Maassluis,Maassluis,Zuid-Holland,VBO,4.251238,51.919364
Haven,36,C,,3143BC,Maassluis,Maassluis,Zuid-Holland,VBO,4.251238,51.919364
Haven,36,D,,3143BC,Maassluis,Maassluis,Zuid-Holland,VBO,4.251238,51.919364
Haven,36,E,,3143BC,Maassluis,Maassluis,Zuid-Holland,VBO,4.251238,51.919364
Haven,36,,,3143BC,Maassluis,Maassluis,Zuid-Holland,VBO,4.251238,51.919364
Haven,37,,,3143BC,Maassluis,Maassluis,Zuid-Holland,VBO,4.251238,51.919364
Haven,38,,,3143BD,Maassluis,Maassluis,Zuid-Holland,VBO,4.250745,51.919423
Haven,39,,,3143BD,Maassluis,Maassluis,Zuid-Holland,VBO,4.250712,51.919385
Haven,40,A,,3143BD,Maassluis,Maassluis,Zuid-Holland,VBO,4.250640,51.919331
Haven,40,,,3143BD,Maassluis,Maassluis,Zuid-Holland,VBO,4.250640,51.919331
Haven,41,,,3143BD,Maassluis,Maassluis,Zuid-Holland,VBO,4.250570,51.919268
Haven,43,,,3143BD,Maassluis,Maassluis,Zuid-Holland,VBO,4.250490,51.919200
Haven,44,A,,3143BD,Maassluis,Maassluis,Zuid-Holland,VBO,4.250388,51.919068
Haven,44,B,,3143BD,Maassluis,Maassluis,Zuid-Holland,VBO,4.250388,51.919068
Haven,44,,,3143BD,Maassluis,Maassluis,Zuid-Holland,VBO,4.250461,51.919078
Haven,45,A,,3143BD,Maassluis,Maassluis,Zuid-Holland,VBO,4.250261,51.918941
Haven,45,B,,3143BD,Maassluis,Maassluis,Zuid-Holland,VBO,4.250261,51.918941
Haven,45,C,,3143BD,Maassluis,Maassluis,Zuid-Holland,VBO,4.250261,51.918941
Haven,45,D,,3143BD,Maassluis,Maassluis,Zuid-Holland,VBO,4.250261,51.918941
Haven,45,E,,3143BD,Maassluis,Maassluis,Zuid-Holland,VBO,4.250261,51.918941
Haven,45,,,3143BD,Maassluis,Maassluis,Zuid-Holland,VBO,4.250324,51.919034
Haven,48,,RD,3143BD,Maassluis,Maassluis,Zuid-Holland,VBO,4.250147,51.918841
Haven,49,,,3143BD,Maassluis,Maassluis,Zuid-Holland,VBO,4.250047,51.918768
Havenplein,1,A,,3143BE,Maassluis,Maassluis,Zuid-Holland,VBO,4.249713,51.918738
Havenplein,1,,RD,3143BE,Maassluis,Maassluis,Zuid-Holland,VBO,4.250047,51.918768
Havenplein,1,,ZW,3143BE,Maassluis,Maassluis,Zuid-Holland,VBO,4.250047,51.918768
Havenplein,2,,RD,3143BE,Maassluis,Maassluis,Zuid-Holland,VBO,4.250077,51.918715
Havenplein,2,,ZW,3143BE,Maassluis,Maassluis,Zuid-Holland,VBO,4.250077,51.918715
Taanstraat,19,A,,3143BG,Maassluis,Maassluis,Zuid-Holland,VBO,4.253899,51.920347
Taanstraat,19,,,3143BG,Maassluis,Maassluis,Zuid-Holland,VBO,4.253864,51.920381
Taanstraat,21,A,,3143BG,Maassluis,Maassluis,Zuid-Holland,VBO,4.253965,51.920285
Taanstraat,21,,,3143BG,Maassluis,Maassluis,Zuid-Holland,VBO,4.253932,51.920316
Taanstraat,23,,RD,3143BG,Maassluis,Maassluis,Zuid-Holland,VBO,4.254064,51.920290
Taanstraat,23,,ZW,3143BG,Maassluis,Maassluis,Zuid-Holland,VBO,4.254064,51.920290
Taanstraat,25,,RD,3143BG,Maassluis,Maassluis,Zuid-Holland,VBO,4.254109,51.920255
Taanstraat,25,,ZW,3143BG,Maassluis,Maassluis,Zuid-Holland,VBO,4.254109,51.920255
Taanstraat,27,,RD,3143BG,Maassluis,Maassluis,Zuid-Holland,VBO,4.254139,51.920219
Taanstraat,29,,,3143BG,Maassluis,Maassluis,Zuid-Holland,VBO,4.253899,51.920522
Taanstraat,31,,,3143BG,Maassluis,Maassluis,Zuid-Holland,VBO,4.253899,51.920522
Taanstraat,33,,,3143BG,Maassluis,Maassluis,Zuid-Holland,VBO,4.253899,51.920522
Taanstraat,35,,,3143BG,Maassluis,Maassluis,Zuid-Holland,VBO,4.253899,51.920522
Taanstraat,37,,,3143BG,Maassluis,Maassluis,Zuid-Holland,VBO,4.253899,51.920522
Taanstraat,39,,,3143BG,Maassluis,Maassluis,Zuid-Holland,VBO,4.253688,51.920799
Taanstraat,41,,,3143BG,Maassluis,Maassluis,Zuid-Holland,VBO,4.253688,51.920799
Taanstraat,43,,,3143BG,Maassluis,Maassluis,Zuid-Holland,VBO,4.253688,51.920799
Taanstraat,45,,,3143BG,Maassluis,Maassluis,Zuid-Holland,VBO,4.253688,51.920799
Taanstraat,47,,,3143BG,Maassluis,Maassluis,Zuid-Holland,VBO,4.253688,51.920799
Taanstraat,49,,,3143BG,Maassluis,Maassluis,Zuid-Holland,VBO,4.253688,51.920799
Taanstraat,51,,,3143BG,Maassluis,Maassluis,Zuid-Holland,VBO,4.253688,51.920799
Taanstraat,53,,,3143BG,Maassluis,Maassluis,Zuid-Holland,VBO,4.253688,51.920799
Taanstraat,55,,,3143BG,Maassluis,Maassluis,Zuid-Holland,VBO,4.253319,51.921029
Taanstraat,57,,,3143BG,Maassluis,Maassluis,Zuid-Holland,VBO,4.253319,51.921029
Taanstraat,59,,,3143BG,Maassluis,Maassluis,Zuid-Holland,VBO,4.253688,51.920799
Taanstraat,61,,,3143BG,Maassluis,Maassluis,Zuid-Holland,VBO,4.253688,51.920799
Taanstraat,63,,,3143BG,Maassluis,Maassluis,Zuid-Holland,VBO,4.253688,51.920799
Taanstraat,65,,,3143BG,Maassluis,Maassluis,Zuid-Holland,VBO,4.253688,51.920799
Taanstraat,67,,,3143BG,Maassluis,Maassluis,Zuid-Holland,VBO,4.253688,51.920799
Taanstraat,69,,,3143BG,Maassluis,Maassluis,Zuid-Holland,VBO,4.253688,51.920799
Taanstraat,71,,,3143BG,Maassluis,Maassluis,Zuid-Holland,VBO,4.253688,51.920799
Taanstraat,73,,,3143BG,Maassluis,Maassluis,Zuid-Holland,VBO,4.253688,51.920799
Taanstraat,75,,,3143BG,Maassluis,Maassluis,Zuid-Holland,VBO,4.253899,51.920522
Taanstraat,77,,,3143BG,Maassluis,Maassluis,Zuid-Holland,VBO,4.253899,51.920522
Taanstraat,79,,,3143BG,Maassluis,Maassluis,Zuid-Holland,VBO,4.253899,51.920522
Taanstraat,81,,,3143BG,Maassluis,Maassluis,Zuid-Holland,VBO,4.253899,51.920522
Taanstraat,83,,,3143BG,Maassluis,Maassluis,Zuid-Holland,VBO,4.253899,51.920522
Taanstraat,14,A,,3143BH,Maassluis,Maassluis,Zuid-Holland,VBO,4.253704,51.920337
Taanstraat,14,B,,3143BH,Maassluis,Maassluis,Zuid-Holland,VBO,4.253746,51.920298
Taanstraat,16,,,3143BH,Maassluis,Maassluis,Zuid-Holland,VBO,4.253814,51.920270
Taanstraat,18,,,3143BH,Maassluis,Maassluis,Zuid-Holland,VBO,4.253884,51.920204
Taanstraat,20,,,3143BH,Maassluis,Maassluis,Zuid-Holland,VBO,4.253895,51.920100
Taanstraat,24,,,3143BH,Maassluis,Maassluis,Zuid-Holland,VBO,4.253521,51.920510
Taanstraat,26,,,3143BH,Maassluis,Maassluis,Zuid-Holland,VBO,4.253491,51.920554
Taanstraat,28,,,3143BH,Maassluis,Maassluis,Zuid-Holland,VBO,4.253446,51.920590
Taanstraat,30,,,3143BH,Maassluis,Maassluis,Zuid-Holland,VBO,4.253416,51.920635
Taanstraat,32,,,3143BH,Maassluis,Maassluis,Zuid-Holland,VBO,4.253386,51.920670
Taanstraat,34,,,3143BH,Maassluis,Maassluis,Zuid-Holland,VBO,4.253342,51.920706
Taanstraat,36,,,3143BH,Maassluis,Maassluis,Zuid-Holland,VBO,4.253311,51.920750
Taanstraat,38,,,3143BH,Maassluis,Maassluis,Zuid-Holland,VBO,4.253267,51.920786
Taanstraat,40,,,3143BH,Maassluis,Maassluis,Zuid-Holland,VBO,4.253102,51.921000
Taanstraat,42,,,3143BH,Maassluis,Maassluis,Zuid-Holland,VBO,4.253102,51.921000
Taanstraat,44,,,3143BH,Maassluis,Maassluis,Zuid-Holland,VBO,4.253102,51.921000
Taanstraat,46,,,3143BH,Maassluis,Maassluis,Zuid-Holland,VBO,4.253102,51.921000
Taanstraat,48,,,3143BH,Maassluis,Maassluis,Zuid-Holland,VBO,4.253102,51.921000
Taanstraat,50,,,3143BH,Maassluis,Maassluis,Zuid-Holland,VBO,4.253102,51.921000
Zandpad,1,,,3143BJ,Maassluis,Maassluis,Zuid-Holland,VBO,4.253571,51.920388
Zandpad,3,,,3143BJ,Maassluis,Maassluis,Zuid-Holland,VBO,4.253334,51.920304
Zandpad,5,,,3143BJ,Maassluis,Maassluis,Zuid-Holland,VBO,4.253255,51.920276
Zandpad,7,,,3143BJ,Maassluis,Maassluis,Zuid-Holland,VBO,4.253177,51.920247
Zandpad,9,,,3143BJ,Maassluis,Maassluis,Zuid-Holland,VBO,4.253098,51.920219
Zandpad,11,,,3143BJ,Maassluis,Maassluis,Zuid-Holland,VBO,4.252986,51.920173
Zandpad,13,,,3143BJ,Maassluis,Maassluis,Zuid-Holland,VBO,4.252912,51.920139
Zandpad,15,,,3143BJ,Maassluis,Maassluis,Zuid-Holland,VBO,4.252838,51.920104
Zandpad,17,,,3143BJ,Maassluis,Maassluis,Zuid-Holland,VBO,4.252764,51.920069
Zandpad,19,,,3143BJ,Maassluis,Maassluis,Zuid-Holland,VBO,4.252690,51.920034
Zandpad,21,A,,3143BJ,Maassluis,Maassluis,Zuid-Holland,VBO,4.252604,51.919962
Zandpad,21,,,3143BJ,Maassluis,Maassluis,Zuid-Holland,VBO,4.252616,51.919999
Zandpad,23,,,3143BJ,Maassluis,Maassluis,Zuid-Holland,VBO,4.252542,51.919965
Zandpad,25,,,3143BJ,Maassluis,Maassluis,Zuid-Holland,VBO,4.252468,51.919930
Zandpad,27,,,3143BJ,Maassluis,Maassluis,Zuid-Holland,VBO,4.252394,51.919895
Zandpad,29,,,3143BJ,Maassluis,Maassluis,Zuid-Holland,VBO,4.252320,51.919860
Zandpad,31,,,3143BJ,Maassluis,Maassluis,Zuid-Holland,VBO,4.252246,51.919825
Zandpad,33,,,3143BJ,Maassluis,Maassluis,Zuid-Holland,VBO,4.252172,51.919791
Zandpad,35,,,3143BJ,Maassluis,Maassluis,Zuid-Holland,VBO,4.252064,51.919749
Zandpad,37,,,3143BJ,Maassluis,Maassluis,Zuid-Holland,VBO,4.251984,51.919723
Zandpad,39,,,3143BJ,Maassluis,Maassluis,Zuid-Holland,VBO,4.251904,51.919698
Zandpad,41,,,3143BJ,Maassluis,Maassluis,Zuid-Holland,VBO,4.251825,51.919672
Zandpad,43,,,3143BJ,Maassluis,Maassluis,Zuid-Holland,VBO,4.251745,51.919646
Zandpad,45,,,3143BJ,Maassluis,Maassluis,Zuid-Holland,VBO,4.251661,51.919614
Zandpad,2,A,,3143BK,Maassluis,Maassluis,Zuid-Holland,VBO,4.253217,51.920397
Zandpad,2,,,3143BK,Maassluis,Maassluis,Zuid-Holland,VBO,4.253309,51.920418
Zandpad,4,,,3143BK,Maassluis,Maassluis,Zuid-Holland,VBO,4.253167,51.920379
Zandpad,6,,,3143BK,Maassluis,Maassluis,Zuid-Holland,VBO,4.253118,51.920362
Zandpad,8,,,3143BK,Maassluis,Maassluis,Zuid-Holland,VBO,4.253063,51.920343
Zandpad,10,,,3143BK,Maassluis,Maassluis,Zuid-Holland,VBO,4.253008,51.920324
Zandpad,12,A,,3143BK,Maassluis,Maassluis,Zuid-Holland,VBO,4.252857,51.920270
Zandpad,12,B,,3143BK,Maassluis,Maassluis,Zuid-Holland,VBO,4.252802,51.920251
Zandpad,12,C,,3143BK,Maassluis,Maassluis,Zuid-Holland,VBO,4.252746,51.920231
Zandpad,12,D,,3143BK,Maassluis,Maassluis,Zuid-Holland,VBO,4.252692,51.920208
Zandpad,12,E,,3143BK,Maassluis,Maassluis,Zuid-Holland,VBO,4.252638,51.920182
Zandpad,12,F,,3143BK,Maassluis,Maassluis,Zuid-Holland,VBO,4.252586,51.920156
Zandpad,14,A,,3143BK,Maassluis,Maassluis,Zuid-Holland,VBO,4.252516,51.920124
Zandpad,14,B,,3143BK,Maassluis,Maassluis,Zuid-Holland,VBO,4.252516,51.920124
Zandpad,14,C,,3143BK,Maassluis,Maassluis,Zuid-Holland,VBO,4.252516,51.920124
Zandpad,14,D,,3143BK,Maassluis,Maassluis,Zuid-Holland,VBO,4.252516,51.920124
Zandpad,14,E,,3143BK,Maassluis,Maassluis,Zuid-Holland,VBO,4.252516,51.920124
Zandpad,14,,,3143BK,Maassluis,Maassluis,Zuid-Holland,VBO,4.252516,51.920124
Zandpad,16,C,,3143BK,Maassluis,Maassluis,Zuid-Holland,VBO,4.252279,51.920008
Zandpad,16,,,3143BK,Maassluis,Maassluis,Zuid-Holland,VBO,4.252516,51.920124
Zandpad,18,,,3143BK,Maassluis,Maassluis,Zuid-Holland,VBO,4.251953,51.919832
Zandpad,20,A,,3143BK,Maassluis,Maassluis,Zuid-Holland,VBO,4.251766,51.919792
Zandpad,20,B,,3143BK,Maassluis,Maassluis,Zuid-Holland,VBO,4.251766,51.919792
Zandpad,20,,,3143BK,Maassluis,Maassluis,Zuid-Holland,VBO,4.251766,51.919792
Zandpad,22,,,3143BK,Maassluis,Maassluis,Zuid-Holland,VBO,4.251679,51.919773
Havenstraat,1,,,3143BL,Maassluis,Maassluis,Zuid-Holland,VBO,4.251885,51.919340
Havenstraat,2,,,3143BL,Maassluis,Maassluis,Zuid-Holland,VBO,4.251238,51.919364
Havenstraat,4,,,3143BL,Maassluis,Maassluis,Zuid-Holland,VBO,4.251354,51.919421
Zure Vischsteeg,2,,,3143BM,Maassluis,Maassluis,Zuid-Holland,VBO,4.252627,51.920798
Zure Vischsteeg,4,,,3143BM,Maassluis,Maassluis,Zuid-Holland,VBO,4.252627,51.920798
Zure Vischsteeg,6,,,3143BM,Maassluis,Maassluis,Zuid-Holland,VBO,4.252627,51.920798
Zure Vischsteeg,8,,,3143BM,Maassluis,Maassluis,Zuid-Holland,VBO,4.252627,51.920798
Zure Vischsteeg,10,,,3143BM,Maassluis,Maassluis,Zuid-Holland,VBO,4.252627,51.920798
Zure Vischsteeg,12,,,3143BM,Maassluis,Maassluis,Zuid-Holland,VBO,4.252627,51.920798
Zure Vischsteeg,14,,,3143BM,Maassluis,Maassluis,Zuid-Holland,VBO,4.252627,51.920798
Zure Vischsteeg,16,,,3143BM,Maassluis,Maassluis,Zuid-Holland,VBO,4.252627,51.920798
Zure Vischsteeg,18,,,3143BM,Maassluis,Maassluis,Zuid-Holland,VBO,4.252627,51.920798
Zure Vischsteeg,20,,,3143BM,Maassluis,Maassluis,Zuid-Holland,VBO,4.252627,51.920798
Zure Vischsteeg,22,,,3143BM,Maassluis,Maassluis,Zuid-Holland,VBO,4.252627,51.920798
Zure Vischsteeg,24,,,3143BM,Maassluis,Maassluis,Zuid-Holland,VBO,4.252627,51.920798
Zure Vischsteeg,26,,,3143BM,Maassluis,Maassluis,Zuid-Holland,VBO,4.252627,51.920798
Zure Vischsteeg,28,,,3143BM,Maassluis,Maassluis,Zuid-Holland,VBO,4.252627,51.920798
Zure Vischsteeg,30,,,3143BM,Maassluis,Maassluis,Zuid-Holland,VBO,4.252627,51.920798
Zure Vischsteeg,32,,,3143BM,Maassluis,Maassluis,Zuid-Holland,VBO,4.252627,51.920798
Zure Vischsteeg,34,,,3143BM,Maassluis,Maassluis,Zuid-Holland,VBO,4.252627,51.920798
Zure Vischsteeg,36,,,3143BM,Maassluis,Maassluis,Zuid-Holland,VBO,4.252627,51.920798
Zure Vischsteeg,38,,,3143BM,Maassluis,Maassluis,Zuid-Holland,VBO,4.252627,51.920798
Zure Vischsteeg,40,,,3143BM,Maassluis,Maassluis,Zuid-Holland,VBO,4.252627,51.920798
Zure Vischsteeg,42,,,3143BM,Maassluis,Maassluis,Zuid-Holland,VBO,4.252627,51.920798
Zure Vischsteeg,44,,,3143BM,Maassluis,Maassluis,Zuid-Holland,VBO,4.252627,51.920798
Zure Vischsteeg,46,,,3143BM,Maassluis,Maassluis,Zuid-Holland,VBO,4.252627,51.920798
Zure Vischsteeg,48,,,3143BM,Maassluis,Maassluis,Zuid-Holland,VBO,4.253098,51.920551
De Put,2,,,3143BN,Maassluis,Maassluis,Zuid-Holland,VBO,4.253184,51.921199
De Put,4,,,3143BN,Maassluis,Maassluis,Zuid-Holland,VBO,4.253184,51.921199
De Put,6,,,3143BN,Maassluis,Maassluis,Zuid-Holland,VBO,4.253319,51.921029
De Put,8,,,3143BN,Maassluis,Maassluis,Zuid-Holland,VBO,4.253319,51.921029
De Put,10,,,3143BN,Maassluis,Maassluis,Zuid-Holland,VBO,4.253184,51.921199
De Put,12,,,3143BN,Maassluis,Maassluis,Zuid-Holland,VBO,4.253184,51.921199
De Put,14,,,3143BN,Maassluis,Maassluis,Zuid-Holland,VBO,4.253412,51.921354
De Put,16,,,3143BN,Maassluis,Maassluis,Zuid-Holland,VBO,4.253412,51.921354
De Put,18,,,3143BN,Maassluis,Maassluis,Zuid-Holland,VBO,4.253412,51.921354
De Put,20,,,3143BN,Maassluis,Maassluis,Zuid-Holland,VBO,4.253412,51.921354
De Put,22,,,3143BN,Maassluis,Maassluis,Zuid-Holland,VBO,4.253319,51.921029
De Put,24,,,3143BN,Maassluis,Maassluis,Zuid-Holland,VBO,4.253319,51.921029
De Put,26,,,3143BN,Maassluis,Maassluis,Zuid-Holland,VBO,4.253412,51.921354
De Put,28,,,3143BN,Maassluis,Maassluis,Zuid-Holland,VBO,4.253412,51.921354
De Put,30,,,3143BN,Maassluis,Maassluis,Zuid-Holland,VBO,4.253412,51.921354
De Put,32,,,3143BN,Maassluis,Maassluis,Zuid-Holland,VBO,4.253901,51.921139
Adriaan van Heelstraat,3,,,3143CA,Maassluis,Maassluis,Zuid-Holland,VBO,4.252097,51.916869
Adriaan van Heelstraat,19,,,3143CA,Maassluis,Maassluis,Zuid-Holland,VBO,4.255597,51.914264
Adriaan van Heelstraat,20,B,,3143CA,Maassluis,Maassluis,Zuid-Holland,VBO,4.251950,51.916395
Burg. De Jonghkade,8,,,3143CB,Maassluis,Maassluis,Zuid-Holland,VBO,4.249014,51.917344
Burg. De Jonghkade,9,,RD,3143CB,Maassluis,Maassluis,Zuid-Holland,VBO,4.249023,51.917284
Burg. De Jonghkade,9,,ZW,3143CB,Maassluis,Maassluis,Zuid-Holland,VBO,4.249023,51.917284
Burg. De Jonghkade,9,,,3143CB,Maassluis,Maassluis,Zuid-Holland,VBO,4.248986,51.917312
Burg. De Jonghkade,10,,,3143CB,Maassluis,Maassluis,Zuid-Holland,VBO,4.248904,51.917243
Burg. De Jonghkade,11,,,3143CB,Maassluis,Maassluis,Zuid-Holland,VBO,4.248820,51.917167
Burg. De Jonghkade,12,,,3143CB,Maassluis,Maassluis,Zuid-Holland,VBO,4.248960,51.917075
Burg. De Jonghkade,13,,,3143CB,Maassluis,Maassluis,Zuid-Holland,VBO,4.248891,51.917043
Burg. De Jonghkade,14,,,3143CB,Maassluis,Maassluis,Zuid-Holland,VBO,4.248819,51.917017
Burg. De Jonghkade,15,,,3143CB,Maassluis,Maassluis,Zuid-Holland,VBO,4.248745,51.916988
Burg. De Jonghkade,16,,,3143CB,Maassluis,Maassluis,Zuid-Holland,VBO,4.248673,51.916958
Burg. De Jonghkade,17,,,3143CB,Maassluis,Maassluis,Zuid-Holland,VBO,4.248581,51.916916
Burg. De Jonghkade,18,,,3143CB,Maassluis,Maassluis,Zuid-Holland,VBO,4.248500,51.916873
Burg. De Jonghkade,19,A,,3143CB,Maassluis,Maassluis,Zuid-Holland,VBO,4.248461,51.916840
Burg. De Jonghkade,19,B,,3143CB,Maassluis,Maassluis,Zuid-Holland,VBO,4.248493,51.916825
Burg. De Jonghkade,19,,,3143CB,Maassluis,Maassluis,Zuid-Holland,VBO,4.248427,51.916815
Burg. De Jonghkade,20,,,3143CB,Maassluis,Maassluis,Zuid-Holland,VBO,4.248306,51.916711
Burg. De Jonghkade,21,,,3143CB,Maassluis,Maassluis,Zuid-Holland,VBO,4.248306,51.916711
Burg. De Jonghkade,22,,RD,3143CC,Maassluis,Maassluis,Zuid-Holland,VBO,4.248228,51.916557
Burg. De Jonghkade,22,,ZW,3143CC,Maassluis,Maassluis,Zuid-Holland,VBO,4.248228,51.916557
Burg. De Jonghkade,23,,,3143CC,Maassluis,Maassluis,Zuid-Holland,VBO,4.248095,51.916517
Burg. De Jonghkade,24,,,3143CC,Maassluis,Maassluis,Zuid-Holland,VBO,4.248038,51.916463
Burg. De Jonghkade,25,,,3143CC,Maassluis,Maassluis,Zuid-Holland,VBO,4.247988,51.916417
Burg. De Jonghkade,26,A,,3143CC,Maassluis,Maassluis,Zuid-Holland,VBO,4.247986,51.916348
Burg. De Jonghkade,26,B,,3143CC,Maassluis,Maassluis,Zuid-Holland,VBO,4.247986,51.916348
Burg. De Jonghkade,26,C,,3143CC,Maassluis,Maassluis,Zuid-Holland,VBO,4.247986,51.916348
Burg. De Jonghkade,26,,,3143CC,Maassluis,Maassluis,Zuid-Holland,VBO,4.247986,51.916348
Burg. De Jonghkade,27,,,3143CC,Maassluis,Maassluis,Zuid-Holland,VBO,4.248020,51.916169
Burg. De Jonghkade,30,A,,3143CC,Maassluis,Maassluis,Zuid-Holland,VBO,4.247702,51.916067
Burg. De Jonghkade,30,B,,3143CC,Maassluis,Maassluis,Zuid-Holland,VBO,4.247702,51.916067
Burg. De Jonghkade,30,C,,3143CC,Maassluis,Maassluis,Zuid-Holland,VBO,4.247702,51.916067
Burg. De Jonghkade,30,,,3143CC,Maassluis,Maassluis,Zuid-Holland,VBO,4.247702,51.916067
Burg. De Jonghkade,31,A,,3143CC,Maassluis,Maassluis,Zuid-Holland,VBO,4.247702,51.916067
Burg. De Jonghkade,31,B,,3143CC,Maassluis,Maassluis,Zuid-Holland,VBO,4.247702,51.916067
Burg. De Jonghkade,31,C,,3143CC,Maassluis,Maassluis,Zuid-Holland,VBO,4.247702,51.916067
Burg. De Jonghkade,32,A,,3143CC,Maassluis,Maassluis,Zuid-Holland,VBO,4.247702,51.916067
Burg. De Jonghkade,32,B,,3143CC,Maassluis,Maassluis,Zuid-Holland,VBO,4.247702,51.916067
Burg. De Jonghkade,32,C,,3143CC,Maassluis,Maassluis,Zuid-Holland,VBO,4.247702,51.916067
Burg. De Jonghkade,33,,,3143CC,Maassluis,Maassluis,Zuid-Holland,VBO,4.247534,51.916005
Burg. De Jonghkade,34,,,3143CC,Maassluis,Maassluis,Zuid-Holland,VBO,4.247516,51.915957
Burg. De Jonghkade,35,A,,3143CC,Maassluis,Maassluis,Zuid-Holland,VBO,4.247504,51.915849
Burg. De Jonghkade,35,B,,3143CC,Maassluis,Maassluis,Zuid-Holland,VBO,4.247504,51.915849
Burg. De Jonghkade,35,C,,3143CC,Maassluis,Maassluis,Zuid-Holland,VBO,4.247504,51.915849
Burg. De Jonghkade,35,D,,3143CC,Maassluis,Maassluis,Zuid-Holland,VBO,4.247504,51.915849
Burg. De Jonghkade,35,E,,3143CC,Maassluis,Maassluis,Zuid-Holland,VBO,4.247504,51.915849
Burg. De Jonghkade,35,,,3143CC,Maassluis,Maassluis,Zuid-Holland,VBO,4.247504,51.915849
Burg. Van der Lelykade,1,,,3143CD,Maassluis,Maassluis,Zuid-Holland,VBO,4.247741,51.915708
Burg. Van der Lelykade,3,,,3143CD,Maassluis,Maassluis,Zuid-Holland,VBO,4.247990,51.915611
Burg. Van der Lelykade,4,,,3143CD,Maassluis,Maassluis,Zuid-Holland,VBO,4.248122,51.915567
Burg. Van der Lelykade,5,,RD,3143CD,Maassluis,Maassluis,Zuid-Holland,VBO,4.248312,51.915515
Burg. Van der Lelykade,5,,ZW,3143CD,Maassluis,Maassluis,Zuid-Holland,VBO,4.248312,51.915515
Burg. Van der Lelykade,6,,RD,3143CD,Maassluis,Maassluis,Zuid-Holland,VBO,4.248400,51.915489
Burg. Van der Lelykade,6,,ZW,3143CD,Maassluis,Maassluis,Zuid-Holland,VBO,4.248400,51.915489
Burg. Van der Lelykade,7,,,3143CD,Maassluis,Maassluis,Zuid-Holland,VBO,4.248488,51.915472
Burg. Van der Lelykade,8,,RD,3143CD,Maassluis,Maassluis,Zuid-Holland,VBO,4.248576,51.915446
Burg. Van der Lelykade,8,,ZW,3143CD,Maassluis,Maassluis,Zuid-Holland,VBO,4.248576,51.915446
Burg. Van der Lelykade,9,,,3143CD,Maassluis,Maassluis,Zuid-Holland,VBO,4.248649,51.915420
Burg. Van der Lelykade,15,,,3143CD,Maassluis,Maassluis,Zuid-Holland,VBO,4.251010,51.914589
Cronj√©straat,2,,,3143CE,Maassluis,Maassluis,Zuid-Holland,VBO,4.250006,51.916925
Cronj√©straat,4,,,3143CE,Maassluis,Maassluis,Zuid-Holland,VBO,4.250065,51.916899
Cronj√©straat,6,,,3143CE,Maassluis,Maassluis,Zuid-Holland,VBO,4.250109,51.916881
Cronj√©straat,8,,,3143CE,Maassluis,Maassluis,Zuid-Holland,VBO,4.250168,51.916855
De la Reystraat,1,,,3143CG,Maassluis,Maassluis,Zuid-Holland,VBO,4.249332,51.915834
De la Reystraat,2,,,3143CG,Maassluis,Maassluis,Zuid-Holland,VBO,4.249216,51.915885
De la Reystraat,3,,,3143CG,Maassluis,Maassluis,Zuid-Holland,VBO,4.249296,51.915802
De la Reystraat,4,,,3143CG,Maassluis,Maassluis,Zuid-Holland,VBO,4.249181,51.915853
De la Reystraat,5,,,3143CG,Maassluis,Maassluis,Zuid-Holland,VBO,4.249260,51.915769
De la Reystraat,6,,,3143CG,Maassluis,Maassluis,Zuid-Holland,VBO,4.249146,51.915821
De la Reystraat,7,,,3143CG,Maassluis,Maassluis,Zuid-Holland,VBO,4.249224,51.915737
De la Reystraat,8,,,3143CG,Maassluis,Maassluis,Zuid-Holland,VBO,4.249110,51.915789
De la Reystraat,9,,,3143CG,Maassluis,Maassluis,Zuid-Holland,VBO,4.249189,51.915705
De la Reystraat,10,,,3143CG,Maassluis,Maassluis,Zuid-Holland,VBO,4.249075,51.915757
De la Reystraat,11,,,3143CG,Maassluis,Maassluis,Zuid-Holland,VBO,4.249153,51.915673
De la Reystraat,12,,,3143CG,Maassluis,Maassluis,Zuid-Holland,VBO,4.249040,51.915725
De la Reystraat,13,,,3143CG,Maassluis,Maassluis,Zuid-Holland,VBO,4.249117,51.915640
De la Reystraat,14,,,3143CG,Maassluis,Maassluis,Zuid-Holland,VBO,4.249005,51.915693
De la Reystraat,15,,,3143CG,Maassluis,Maassluis,Zuid-Holland,VBO,4.249081,51.915608
De la Reystraat,16,,,3143CG,Maassluis,Maassluis,Zuid-Holland,VBO,4.248969,51.915662
De la Reystraat,17,,,3143CG,Maassluis,Maassluis,Zuid-Holland,VBO,4.249045,51.915576
De la Reystraat,18,,,3143CG,Maassluis,Maassluis,Zuid-Holland,VBO,4.248934,51.915630
De la Reystraat,19,,,3143CG,Maassluis,Maassluis,Zuid-Holland,VBO,4.249009,51.915544
De la Reystraat,20,,,3143CG,Maassluis,Maassluis,Zuid-Holland,VBO,4.248899,51.915598
De la Reystraat,21,,,3143CG,Maassluis,Maassluis,Zuid-Holland,VBO,4.248973,51.915511
De la Reystraat,22,,,3143CG,Maassluis,Maassluis,Zuid-Holland,VBO,4.248863,51.915566
De la Reystraat,23,,,3143CG,Maassluis,Maassluis,Zuid-Holland,VBO,4.248937,51.915479
De la Reystraat,24,,,3143CG,Maassluis,Maassluis,Zuid-Holland,VBO,4.248828,51.915534
De la Reystraat,27,,,3143CG,Maassluis,Maassluis,Zuid-Holland,VBO,4.248945,51.915447
De la Reystraat,29,,,3143CG,Maassluis,Maassluis,Zuid-Holland,VBO,4.248830,51.915382
De la Reystraat,31,,,3143CG,Maassluis,Maassluis,Zuid-Holland,VBO,4.248787,51.915344
Dutoitstraat,2,,,3143CH,Maassluis,Maassluis,Zuid-Holland,VBO,4.248882,51.916220
Dutoitstraat,3,,,3143CH,Maassluis,Maassluis,Zuid-Holland,VBO,4.248828,51.916015
Dutoitstraat,4,,,3143CH,Maassluis,Maassluis,Zuid-Holland,VBO,4.248749,51.916100
Dutoitstraat,5,,,3143CH,Maassluis,Maassluis,Zuid-Holland,VBO,4.248794,51.915983
Dutoitstraat,6,,,3143CH,Maassluis,Maassluis,Zuid-Holland,VBO,4.248707,51.916061
Dutoitstraat,7,,,3143CH,Maassluis,Maassluis,Zuid-Holland,VBO,4.248759,51.915951
Dutoitstraat,8,,,3143CH,Maassluis,Maassluis,Zuid-Holland,VBO,4.248664,51.916022
Dutoitstraat,9,,,3143CH,Maassluis,Maassluis,Zuid-Holland,VBO,4.248725,51.915920
Dutoitstraat,10,,,3143CH,Maassluis,Maassluis,Zuid-Holland,VBO,4.248622,51.915983
Dutoitstraat,11,,,3143CH,Maassluis,Maassluis,Zuid-Holland,VBO,4.248691,51.915888
Dutoitstraat,12,,,3143CH,Maassluis,Maassluis,Zuid-Holland,VBO,4.248579,51.915945
Dutoitstraat,13,,,3143CH,Maassluis,Maassluis,Zuid-Holland,VBO,4.248656,51.915857
Dutoitstraat,14,,,3143CH,Maassluis,Maassluis,Zuid-Holland,VBO,4.248537,51.915906
Dutoitstraat,15,,,3143CH,Maassluis,Maassluis,Zuid-Holland,VBO,4.248622,51.915825
Dutoitstraat,16,,,3143CH,Maassluis,Maassluis,Zuid-Holland,VBO,4.248494,51.915867
Dutoitstraat,17,,,3143CH,Maassluis,Maassluis,Zuid-Holland,VBO,4.248587,51.915794
Dutoitstraat,18,,,3143CH,Maassluis,Maassluis,Zuid-Holland,VBO,4.248452,51.915828
Dutoitstraat,19,,,3143CH,Maassluis,Maassluis,Zuid-Holland,VBO,4.248553,51.915762
Dutoitstraat,20,,,3143CH,Maassluis,Maassluis,Zuid-Holland,VBO,4.248409,51.915789
Dutoitstraat,21,,,3143CH,Maassluis,Maassluis,Zuid-Holland,VBO,4.248518,51.915731
Dutoitstraat,22,,,3143CH,Maassluis,Maassluis,Zuid-Holland,VBO,4.248367,51.915751
Dutoitstraat,23,,,3143CH,Maassluis,Maassluis,Zuid-Holland,VBO,4.248480,51.915696
Dutoitstraat,24,,,3143CH,Maassluis,Maassluis,Zuid-Holland,VBO,4.248324,51.915712
Dutoitstraat,25,,,3143CH,Maassluis,Maassluis,Zuid-Holland,VBO,4.248435,51.915655
Generaal de Wetstraat,13,,,3143CJ,Maassluis,Maassluis,Zuid-Holland,VBO,4.250419,51.916794
Generaal de Wetstraat,15,,RD,3143CJ,Maassluis,Maassluis,Zuid-Holland,VBO,4.250373,51.916753
Generaal de Wetstraat,15,,ZW,3143CJ,Maassluis,Maassluis,Zuid-Holland,VBO,4.250373,51.916753
Generaal de Wetstraat,17,,,3143CJ,Maassluis,Maassluis,Zuid-Holland,VBO,4.250333,51.916717
Generaal de Wetstraat,19,,,3143CJ,Maassluis,Maassluis,Zuid-Holland,VBO,4.250295,51.916683
Generaal de Wetstraat,21,,,3143CJ,Maassluis,Maassluis,Zuid-Holland,VBO,4.250263,51.916654
Generaal de Wetstraat,23,,,3143CJ,Maassluis,Maassluis,Zuid-Holland,VBO,4.250227,51.916622
Generaal de Wetstraat,25,,,3143CJ,Maassluis,Maassluis,Zuid-Holland,VBO,4.250192,51.916590
Generaal de Wetstraat,27,,,3143CJ,Maassluis,Maassluis,Zuid-Holland,VBO,4.250162,51.916562
Generaal de Wetstraat,29,,,3143CJ,Maassluis,Maassluis,Zuid-Holland,VBO,4.250128,51.916532
Generaal de Wetstraat,31,,,3143CJ,Maassluis,Maassluis,Zuid-Holland,VBO,4.250093,51.916500
Generaal de Wetstraat,33,,,3143CJ,Maassluis,Maassluis,Zuid-Holland,VBO,4.250058,51.916469
Generaal de Wetstraat,35,,,3143CJ,Maassluis,Maassluis,Zuid-Holland,VBO,4.250028,51.916442
Generaal de Wetstraat,37,,,3143CJ,Maassluis,Maassluis,Zuid-Holland,VBO,4.249994,51.916412
Generaal de Wetstraat,39,,,3143CJ,Maassluis,Maassluis,Zuid-Holland,VBO,4.249966,51.916386
Generaal de Wetstraat,41,,,3143CJ,Maassluis,Maassluis,Zuid-Holland,VBO,4.249930,51.916354
Generaal de Wetstraat,43,,,3143CJ,Maassluis,Maassluis,Zuid-Holland,VBO,4.249895,51.916322
Generaal de Wetstraat,45,,,3143CJ,Maassluis,Maassluis,Zuid-Holland,VBO,4.249853,51.916284
Generaal de Wetstraat,47,,,3143CJ,Maassluis,Maassluis,Zuid-Holland,VBO,4.249793,51.916231
Generaal de Wetstraat,49,,RD,3143CJ,Maassluis,Maassluis,Zuid-Holland,VBO,4.249750,51.916191
Generaal de Wetstraat,49,,ZW,3143CJ,Maassluis,Maassluis,Zuid-Holland,VBO,4.249750,51.916191
Generaal de Wetstraat,51,,,3143CJ,Maassluis,Maassluis,Zuid-Holland,VBO,4.249706,51.916152
Generaal de Wetstraat,14,,,3143CK,Maassluis,Maassluis,Zuid-Holland,VBO,4.250229,51.916784
Generaal de Wetstraat,16,,,3143CK,Maassluis,Maassluis,Zuid-Holland,VBO,4.250168,51.916730
Generaal de Wetstraat,18,,,3143CK,Maassluis,Maassluis,Zuid-Holland,VBO,4.250135,51.916699
Generaal de Wetstraat,20,,,3143CK,Maassluis,Maassluis,Zuid-Holland,VBO,4.250098,51.916667
Generaal de Wetstraat,22,,,3143CK,Maassluis,Maassluis,Zuid-Holland,VBO,4.250063,51.916635
Generaal de Wetstraat,24,,,3143CK,Maassluis,Maassluis,Zuid-Holland,VBO,4.250034,51.916608
Generaal de Wetstraat,26,,,3143CK,Maassluis,Maassluis,Zuid-Holland,VBO,4.250004,51.916581
Generaal de Wetstraat,28,,,3143CK,Maassluis,Maassluis,Zuid-Holland,VBO,4.249974,51.916554
Generaal de Wetstraat,30,,,3143CK,Maassluis,Maassluis,Zuid-Holland,VBO,4.249943,51.916526
Generaal de Wetstraat,32,,,3143CK,Maassluis,Maassluis,Zuid-Holland,VBO,4.249913,51.916499
Generaal de Wetstraat,34,,,3143CK,Maassluis,Maassluis,Zuid-Holland,VBO,4.249885,51.916474
Generaal de Wetstraat,36,,,3143CK,Maassluis,Maassluis,Zuid-Holland,VBO,4.249850,51.916442
Generaal de Wetstraat,38,,,3143CK,Maassluis,Maassluis,Zuid-Holland,VBO,4.249816,51.916412
Generaal de Wetstraat,40,,,3143CK,Maassluis,Maassluis,Zuid-Holland,VBO,4.249783,51.916381
Joubertstraat,1,,,3143CL,Maassluis,Maassluis,Zuid-Holland,VBO,4.248397,51.916617
Joubertstraat,3,,,3143CL,Maassluis,Maassluis,Zuid-Holland,VBO,4.248451,51.916593
Joubertstraat,9,,,3143CL,Maassluis,Maassluis,Zuid-Holland,VBO,4.248717,51.916484
Joubertstraat,11,,RD,3143CL,Maassluis,Maassluis,Zuid-Holland,VBO,4.248788,51.916453
Joubertstraat,11,,ZW,3143CL,Maassluis,Maassluis,Zuid-Holland,VBO,4.248788,51.916453
Joubertstraat,13,,,3143CL,Maassluis,Maassluis,Zuid-Holland,VBO,4.248859,51.916422
Joubertstraat,15,,,3143CL,Maassluis,Maassluis,Zuid-Holland,VBO,4.248930,51.916392
Joubertstraat,17,,RD,3143CL,Maassluis,Maassluis,Zuid-Holland,VBO,4.249000,51.916361
Joubertstraat,17,,ZW,3143CL,Maassluis,Maassluis,Zuid-Holland,VBO,4.249000,51.916361
Joubertstraat,19,,RD,3143CL,Maassluis,Maassluis,Zuid-Holland,VBO,4.249251,51.916333
Joubertstraat,19,,ZW,3143CL,Maassluis,Maassluis,Zuid-Holland,VBO,4.249251,51.916333
Joubertstraat,21,,,3143CL,Maassluis,Maassluis,Zuid-Holland,VBO,4.249281,51.916240
Joubertstraat,23,,,3143CL,Maassluis,Maassluis,Zuid-Holland,VBO,4.249348,51.916211
Joubertstraat,25,,,3143CL,Maassluis,Maassluis,Zuid-Holland,VBO,4.249416,51.916182
Joubertstraat,27,,RD,3143CL,Maassluis,Maassluis,Zuid-Holland,VBO,4.249484,51.916153
Joubertstraat,27,,ZW,3143CL,Maassluis,Maassluis,Zuid-Holland,VBO,4.249484,51.916153
Joubertstraat,29,,,3143CL,Maassluis,Maassluis,Zuid-Holland,VBO,4.249703,51.916058
Joubertstraat,2,,,3143CM,Maassluis,Maassluis,Zuid-Holland,VBO,4.248657,51.916384
Joubertstraat,4,,,3143CM,Maassluis,Maassluis,Zuid-Holland,VBO,4.248724,51.916355
Joubertstraat,6,,,3143CM,Maassluis,Maassluis,Zuid-Holland,VBO,4.248791,51.916326
Joubertstraat,8,,,3143CM,Maassluis,Maassluis,Zuid-Holland,VBO,4.248858,51.916298
Joubertstraat,10,,RD,3143CM,Maassluis,Maassluis,Zuid-Holland,VBO,4.249083,51.916203
Joubertstraat,10,,ZW,3143CM,Maassluis,Maassluis,Zuid-Holland,VBO,4.249083,51.916203
Joubertstraat,12,,RD,3143CM,Maassluis,Maassluis,Zuid-Holland,VBO,4.249147,51.916175
Joubertstraat,12,,ZW,3143CM,Maassluis,Maassluis,Zuid-Holland,VBO,4.249147,51.916175
Joubertstraat,14,,RD,3143CM,Maassluis,Maassluis,Zuid-Holland,VBO,4.249211,51.916147
Joubertstraat,14,,ZW,3143CM,Maassluis,Maassluis,Zuid-Holland,VBO,4.249211,51.916147
Joubertstraat,16,,RD,3143CM,Maassluis,Maassluis,Zuid-Holland,VBO,4.249275,51.916119
Joubertstraat,16,,ZW,3143CM,Maassluis,Maassluis,Zuid-Holland,VBO,4.249275,51.916119
Joubertstraat,18,,,3143CM,Maassluis,Maassluis,Zuid-Holland,VBO,4.249340,51.916092
Joubertstraat,20,,RD,3143CM,Maassluis,Maassluis,Zuid-Holland,VBO,4.249404,51.916064
Joubertstraat,20,,ZW,3143CM,Maassluis,Maassluis,Zuid-Holland,VBO,4.249404,51.916064
Joubertstraat,22,,,3143CM,Maassluis,Maassluis,Zuid-Holland,VBO,4.249557,51.915996
Joubertstraat,24,,,3143CM,Maassluis,Maassluis,Zuid-Holland,VBO,4.249619,51.915970
Joubertstraat,26,,RD,3143CM,Maassluis,Maassluis,Zuid-Holland,VBO,4.249682,51.915944
Joubertstraat,26,,ZW,3143CM,Maassluis,Maassluis,Zuid-Holland,VBO,4.249682,51.915944
Paul Krugerstraat,3,,,3143CN,Maassluis,Maassluis,Zuid-Holland,VBO,4.249484,51.917204
Paul Krugerstraat,5,,,3143CN,Maassluis,Maassluis,Zuid-Holland,VBO,4.249412,51.917180
Paul Krugerstraat,7,,,3143CN,Maassluis,Maassluis,Zuid-Holland,VBO,4.249378,51.917151
Paul Krugerstraat,9,,,3143CN,Maassluis,Maassluis,Zuid-Holland,VBO,4.249339,51.917119
Paul Krugerstraat,11,,,3143CN,Maassluis,Maassluis,Zuid-Holland,VBO,4.249309,51.917093
Paul Krugerstraat,13,,,3143CN,Maassluis,Maassluis,Zuid-Holland,VBO,4.249279,51.917060
Paul Krugerstraat,15,,,3143CN,Maassluis,Maassluis,Zuid-Holland,VBO,4.249249,51.917028
Paul Krugerstraat,17,,,3143CN,Maassluis,Maassluis,Zuid-Holland,VBO,4.249217,51.916996
Paul Krugerstraat,19,,,3143CN,Maassluis,Maassluis,Zuid-Holland,VBO,4.249180,51.916968
Paul Krugerstraat,21,,,3143CN,Maassluis,Maassluis,Zuid-Holland,VBO,4.249146,51.916935
Paul Krugerstraat,23,,,3143CN,Maassluis,Maassluis,Zuid-Holland,VBO,4.249115,51.916903
Paul Krugerstraat,25,,,3143CN,Maassluis,Maassluis,Zuid-Holland,VBO,4.249082,51.916875
Paul Krugerstraat,27,,,3143CN,Maassluis,Maassluis,Zuid-Holland,VBO,4.249044,51.916845
Paul Krugerstraat,29,,,3143CN,Maassluis,Maassluis,Zuid-Holland,VBO,4.249007,51.916818
Paul Krugerstraat,31,,,3143CN,Maassluis,Maassluis,Zuid-Holland,VBO,4.248978,51.916784
Paul Krugerstraat,33,,,3143CN,Maassluis,Maassluis,Zuid-Holland,VBO,4.248943,51.916755
Paul Krugerstraat,35,,,3143CN,Maassluis,Maassluis,Zuid-Holland,VBO,4.248910,51.916723
Paul Krugerstraat,37,,,3143CN,Maassluis,Maassluis,Zuid-Holland,VBO,4.248877,51.916693
Paul Krugerstraat,39,,,3143CN,Maassluis,Maassluis,Zuid-Holland,VBO,4.248836,51.916660
Paul Krugerstraat,41,,,3143CN,Maassluis,Maassluis,Zuid-Holland,VBO,4.248807,51.916626
Paul Krugerstraat,2,,,3143CP,Maassluis,Maassluis,Zuid-Holland,VBO,4.249185,51.917106
Paul Krugerstraat,4,,,3143CP,Maassluis,Maassluis,Zuid-Holland,VBO,4.249134,51.917059
Paul Krugerstraat,6,,,3143CP,Maassluis,Maassluis,Zuid-Holland,VBO,4.249082,51.917012
Paul Krugerstraat,8,,,3143CP,Maassluis,Maassluis,Zuid-Holland,VBO,4.249030,51.916965
Paul Krugerstraat,10,,,3143CP,Maassluis,Maassluis,Zuid-Holland,VBO,4.248979,51.916918
Paul Krugerstraat,12,,,3143CP,Maassluis,Maassluis,Zuid-Holland,VBO,4.248927,51.916871
Paul Krugerstraat,14,,,3143CP,Maassluis,Maassluis,Zuid-Holland,VBO,4.248875,51.916824
Paul Krugerstraat,18,,,3143CP,Maassluis,Maassluis,Zuid-Holland,VBO,4.248732,51.916693
Paul Krugerstraat,20,,,3143CP,Maassluis,Maassluis,Zuid-Holland,VBO,4.248656,51.916625
Paul Krugerstraat,22,,,3143CP,Maassluis,Maassluis,Zuid-Holland,VBO,4.248589,51.916565
President Steynstraat,9,,,3143CR,Maassluis,Maassluis,Zuid-Holland,VBO,4.249882,51.916941
President Steynstraat,11,,,3143CR,Maassluis,Maassluis,Zuid-Holland,VBO,4.249848,51.916909
President Steynstraat,13,,,3143CR,Maassluis,Maassluis,Zuid-Holland,VBO,4.249813,51.916877
President Steynstraat,15,,,3143CR,Maassluis,Maassluis,Zuid-Holland,VBO,4.249779,51.916846
President Steynstraat,17,,,3143CR,Maassluis,Maassluis,Zuid-Holland,VBO,4.249744,51.916814
President Steynstraat,19,,,3143CR,Maassluis,Maassluis,Zuid-Holland,VBO,4.249710,51.916783
President Steynstraat,21,,,3143CR,Maassluis,Maassluis,Zuid-Holland,VBO,4.249675,51.916751
President Steynstraat,23,,,3143CR,Maassluis,Maassluis,Zuid-Holland,VBO,4.249641,51.916720
President Steynstraat,25,,,3143CR,Maassluis,Maassluis,Zuid-Holland,VBO,4.249607,51.916689
President Steynstraat,27,,,3143CR,Maassluis,Maassluis,Zuid-Holland,VBO,4.249572,51.916658
President Steynstraat,29,,,3143CR,Maassluis,Maassluis,Zuid-Holland,VBO,4.249538,51.916627
President Steynstraat,31,,,3143CR,Maassluis,Maassluis,Zuid-Holland,VBO,4.249504,51.916597
President Steynstraat,33,,,3143CR,Maassluis,Maassluis,Zuid-Holland,VBO,4.249469,51.916566
President Steynstraat,35,,,3143CR,Maassluis,Maassluis,Zuid-Holland,VBO,4.249435,51.916535
President Steynstraat,37,,,3143CR,Maassluis,Maassluis,Zuid-Holland,VBO,4.249382,51.916488
President Steynstraat,4,,,3143CS,Maassluis,Maassluis,Zuid-Holland,VBO,4.249693,51.916934
President Steynstraat,6,,,3143CS,Maassluis,Maassluis,Zuid-Holland,VBO,4.249659,51.916903
President Steynstraat,8,,,3143CS,Maassluis,Maassluis,Zuid-Holland,VBO,4.249625,51.916872
President Steynstraat,10,,,3143CS,Maassluis,Maassluis,Zuid-Holland,VBO,4.249591,51.916841
President Steynstraat,12,,,3143CS,Maassluis,Maassluis,Zuid-Holland,VBO,4.249557,51.916810
President Steynstraat,14,,,3143CS,Maassluis,Maassluis,Zuid-Holland,VBO,4.249523,51.916779
President Steynstraat,16,,,3143CS,Maassluis,Maassluis,Zuid-Holland,VBO,4.249489,51.916748
President Steynstraat,18,,,3143CS,Maassluis,Maassluis,Zuid-Holland,VBO,4.249455,51.916717
President Steynstraat,20,,,3143CS,Maassluis,Maassluis,Zuid-Holland,VBO,4.249421,51.916686
President Steynstraat,22,,,3143CS,Maassluis,Maassluis,Zuid-Holland,VBO,4.249387,51.916655
President Steynstraat,24,,,3143CS,Maassluis,Maassluis,Zuid-Holland,VBO,4.249353,51.916624
President Steynstraat,26,,,3143CS,Maassluis,Maassluis,Zuid-Holland,VBO,4.249317,51.916592
President Steynstraat,28,,,3143CS,Maassluis,Maassluis,Zuid-Holland,VBO,4.249262,51.916540
Witte de Withstraat,1,,,3143KA,Maassluis,Maassluis,Zuid-Holland,VBO,4.252927,51.919131
Witte de Withstraat,2,,,3143KA,Maassluis,Maassluis,Zuid-Holland,VBO,4.252963,51.919090
Witte de Withstraat,3,,,3143KA,Maassluis,Maassluis,Zuid-Holland,VBO,4.252998,51.919049
Witte de Withstraat,4,,,3143KA,Maassluis,Maassluis,Zuid-Holland,VBO,4.253034,51.919009
Witte de Withstraat,5,,,3143KA,Maassluis,Maassluis,Zuid-Holland,VBO,4.253070,51.918968
Witte de Withstraat,6,,,3143KA,Maassluis,Maassluis,Zuid-Holland,VBO,4.253105,51.918928
Witte de Withstraat,7,,,3143KA,Maassluis,Maassluis,Zuid-Holland,VBO,4.253141,51.918887
Witte de Withstraat,8,,,3143KA,Maassluis,Maassluis,Zuid-Holland,VBO,4.253264,51.918875
Witte de Withstraat,9,,,3143KA,Maassluis,Maassluis,Zuid-Holland,VBO,4.253300,51.918835
Witte de Withstraat,10,,,3143KA,Maassluis,Maassluis,Zuid-Holland,VBO,4.253336,51.918794
Witte de Withstraat,11,,,3143KA,Maassluis,Maassluis,Zuid-Holland,VBO,4.253373,51.918753
Witte de Withstraat,12,,,3143KA,Maassluis,Maassluis,Zuid-Holland,VBO,4.253590,51.918937
Witte de Withstraat,13,,,3143KA,Maassluis,Maassluis,Zuid-Holland,VBO,4.253545,51.918973
Witte de Withstraat,14,,,3143KA,Maassluis,Maassluis,Zuid-Holland,VBO,4.253515,51.919017
Witte de Withstraat,15,,,3143KA,Maassluis,Maassluis,Zuid-Holland,VBO,4.253485,51.919062
Witte de Withstraat,17,,,3143KA,Maassluis,Maassluis,Zuid-Holland,VBO,4.253425,51.919142
Witte de Withstraat,18,,,3143KA,Maassluis,Maassluis,Zuid-Holland,VBO,4.253380,51.919178
Witte de Withstraat,19,,,3143KA,Maassluis,Maassluis,Zuid-Holland,VBO,4.253350,51.919223
Witte de Withstraat,21,,,3143KA,Maassluis,Maassluis,Zuid-Holland,VBO,4.253305,51.919258
Witte de Withstraat,22,,,3143KA,Maassluis,Maassluis,Zuid-Holland,VBO,4.253350,51.919223
Witte de Withstraat,23,,,3143KA,Maassluis,Maassluis,Zuid-Holland,VBO,4.253380,51.919178
Witte de Withstraat,24,,,3143KA,Maassluis,Maassluis,Zuid-Holland,VBO,4.253425,51.919142
Witte de Withstraat,25,,,3143KA,Maassluis,Maassluis,Zuid-Holland,VBO,4.253455,51.919098
Witte de Withstraat,26,,,3143KA,Maassluis,Maassluis,Zuid-Holland,VBO,4.253485,51.919062
Witte de Withstraat,27,,,3143KA,Maassluis,Maassluis,Zuid-Holland,VBO,4.253515,51.919017
Witte de Withstraat,28,,,3143KA,Maassluis,Maassluis,Zuid-Holland,VBO,4.253545,51.918973
Witte de Withstraat,29,,,3143KA,Maassluis,Maassluis,Zuid-Holland,VBO,4.253590,51.918937
Cortenaerstraat,1,,,3143KB,Maassluis,Maassluis,Zuid-Holland,VBO,4.252411,51.919069
Cortenaerstraat,2,,,3143KB,Maassluis,Maassluis,Zuid-Holland,VBO,4.252443,51.919033
Cortenaerstraat,3,,,3143KB,Maassluis,Maassluis,Zuid-Holland,VBO,4.252472,51.918999
Cortenaerstraat,4,,,3143KB,Maassluis,Maassluis,Zuid-Holland,VBO,4.252502,51.918966
Cortenaerstraat,5,,,3143KB,Maassluis,Maassluis,Zuid-Holland,VBO,4.252531,51.918932
Cortenaerstraat,6,,,3143KB,Maassluis,Maassluis,Zuid-Holland,VBO,4.252561,51.918899
Cortenaerstraat,7,,,3143KB,Maassluis,Maassluis,Zuid-Holland,VBO,4.252589,51.918866
Cortenaerstraat,8,,,3143KB,Maassluis,Maassluis,Zuid-Holland,VBO,4.252622,51.918829
Cortenaerstraat,9,,,3143KB,Maassluis,Maassluis,Zuid-Holland,VBO,4.252699,51.918805
Cortenaerstraat,10,,,3143KB,Maassluis,Maassluis,Zuid-Holland,VBO,4.252735,51.918764
Jan van Galenstraat,12,,,3143KC,Maassluis,Maassluis,Zuid-Holland,VBO,4.255135,51.918348
Jan van Galenstraat,13,,,3143KC,Maassluis,Maassluis,Zuid-Holland,VBO,4.255080,51.918329
Jan van Galenstraat,14,,,3143KC,Maassluis,Maassluis,Zuid-Holland,VBO,4.255024,51.918311
Jan van Galenstraat,15,,,3143KC,Maassluis,Maassluis,Zuid-Holland,VBO,4.254968,51.918293
Jan van Galenstraat,16,,,3143KC,Maassluis,Maassluis,Zuid-Holland,VBO,4.254913,51.918274
Jan van Galenstraat,17,,,3143KC,Maassluis,Maassluis,Zuid-Holland,VBO,4.254857,51.918256
Jan van Galenstraat,18,,,3143KC,Maassluis,Maassluis,Zuid-Holland,VBO,4.254801,51.918238
Jan van Galenstraat,19,,,3143KC,Maassluis,Maassluis,Zuid-Holland,VBO,4.254745,51.918219
Jan van Galenstraat,20,,,3143KC,Maassluis,Maassluis,Zuid-Holland,VBO,4.254663,51.918224
Jan van Galenstraat,21,,,3143KC,Maassluis,Maassluis,Zuid-Holland,VBO,4.254596,51.918202
Jan van Galenstraat,22,,,3143KC,Maassluis,Maassluis,Zuid-Holland,VBO,4.254529,51.918180
Jan van Galenstraat,23,,,3143KC,Maassluis,Maassluis,Zuid-Holland,VBO,4.254462,51.918158
Jan van Galenstraat,24,,,3143KC,Maassluis,Maassluis,Zuid-Holland,VBO,4.254331,51.918164
Jan van Galenstraat,25,,,3143KC,Maassluis,Maassluis,Zuid-Holland,VBO,4.254265,51.918142
Jan van Galenstraat,26,,,3143KC,Maassluis,Maassluis,Zuid-Holland,VBO,4.254198,51.918120
Jan van Galenstraat,27,,,3143KC,Maassluis,Maassluis,Zuid-Holland,VBO,4.254131,51.918098
Jan van Galenstraat,28,,,3143KC,Maassluis,Maassluis,Zuid-Holland,VBO,4.254065,51.918075
Karel Doormanstraat,1,,,3143KD,Maassluis,Maassluis,Zuid-Holland,VBO,4.252639,51.918457
Karel Doormanstraat,2,,,3143KD,Maassluis,Maassluis,Zuid-Holland,VBO,4.252585,51.918439
Karel Doormanstraat,3,,,3143KD,Maassluis,Maassluis,Zuid-Holland,VBO,4.252533,51.918421
Karel Doormanstraat,4,,,3143KD,Maassluis,Maassluis,Zuid-Holland,VBO,4.252475,51.918402
Karel Doormanstraat,5,,,3143KD,Maassluis,Maassluis,Zuid-Holland,VBO,4.252418,51.918383
Karel Doormanstraat,6,,,3143KD,Maassluis,Maassluis,Zuid-Holland,VBO,4.252363,51.918365
Karel Doormanstraat,7,,,3143KD,Maassluis,Maassluis,Zuid-Holland,VBO,4.252309,51.918347
Karel Doormanstraat,8,,,3143KD,Maassluis,Maassluis,Zuid-Holland,VBO,4.252254,51.918329
Michiel de Ruyterplein,1,,,3143KE,Maassluis,Maassluis,Zuid-Holland,VBO,4.253379,51.918602
Michiel de Ruyterplein,2,,,3143KE,Maassluis,Maassluis,Zuid-Holland,VBO,4.253415,51.918560
Michiel de Ruyterplein,3,,,3143KE,Maassluis,Maassluis,Zuid-Holland,VBO,4.253448,51.918521
Michiel de Ruyterplein,4,,,3143KE,Maassluis,Maassluis,Zuid-Holland,VBO,4.253484,51.918479
Michiel de Ruyterplein,5,,,3143KE,Maassluis,Maassluis,Zuid-Holland,VBO,4.253521,51.918438
Michiel de Ruyterplein,6,,,3143KE,Maassluis,Maassluis,Zuid-Holland,VBO,4.253557,51.918396
Michiel de Ruyterplein,7,,,3143KE,Maassluis,Maassluis,Zuid-Holland,VBO,4.253655,51.918227
Michiel de Ruyterplein,8,,,3143KE,Maassluis,Maassluis,Zuid-Holland,VBO,4.253692,51.918185
Michiel de Ruyterplein,9,,,3143KE,Maassluis,Maassluis,Zuid-Holland,VBO,4.253640,51.918114
Michiel de Ruyterplein,10,,,3143KE,Maassluis,Maassluis,Zuid-Holland,VBO,4.253675,51.918073
Michiel de Ruyterplein,11,,,3143KE,Maassluis,Maassluis,Zuid-Holland,VBO,4.253711,51.918033
Michiel de Ruyterplein,12,,,3143KE,Maassluis,Maassluis,Zuid-Holland,VBO,4.253746,51.917992
Michiel de Ruyterplein,13,,,3143KE,Maassluis,Maassluis,Zuid-Holland,VBO,4.253781,51.917951
Michiel de Ruyterplein,14,,,3143KE,Maassluis,Maassluis,Zuid-Holland,VBO,4.253817,51.917910
Michiel de Ruyterplein,15,,,3143KE,Maassluis,Maassluis,Zuid-Holland,VBO,4.253869,51.917849
Michiel de Ruyterplein,16,,,3143KE,Maassluis,Maassluis,Zuid-Holland,VBO,4.253996,51.917837
Michiel de Ruyterplein,17,,,3143KE,Maassluis,Maassluis,Zuid-Holland,VBO,4.253887,51.918306
Michiel de Ruyterplein,18,,,3143KE,Maassluis,Maassluis,Zuid-Holland,VBO,4.253852,51.918347
Michiel de Ruyterplein,19,,,3143KE,Maassluis,Maassluis,Zuid-Holland,VBO,4.253817,51.918388
Michiel de Ruyterplein,20,,,3143KE,Maassluis,Maassluis,Zuid-Holland,VBO,4.253781,51.918429
Michiel de Ruyterplein,21,,,3143KE,Maassluis,Maassluis,Zuid-Holland,VBO,4.253746,51.918470
Michiel de Ruyterplein,22,,,3143KE,Maassluis,Maassluis,Zuid-Holland,VBO,4.253711,51.918511
Van Speykstraat,1,,,3143KG,Maassluis,Maassluis,Zuid-Holland,VBO,4.252982,51.918501
Van Speykstraat,2,,,3143KG,Maassluis,Maassluis,Zuid-Holland,VBO,4.253020,51.918456
Van Speykstraat,3,,,3143KG,Maassluis,Maassluis,Zuid-Holland,VBO,4.253053,51.918418
Van Speykstraat,4,,,3143KG,Maassluis,Maassluis,Zuid-Holland,VBO,4.253089,51.918377
Van Speykstraat,5,,,3143KG,Maassluis,Maassluis,Zuid-Holland,VBO,4.253038,51.918307
Van Speykstraat,6,,,3143KG,Maassluis,Maassluis,Zuid-Holland,VBO,4.253075,51.918264
Van Speykstraat,7,,,3143KG,Maassluis,Maassluis,Zuid-Holland,VBO,4.253109,51.918225
Van Speykstraat,8,,,3143KG,Maassluis,Maassluis,Zuid-Holland,VBO,4.253143,51.918184
Van Speykstraat,9,,,3143KG,Maassluis,Maassluis,Zuid-Holland,VBO,4.253248,51.917851
Van Speykstraat,11,,,3143KG,Maassluis,Maassluis,Zuid-Holland,VBO,4.253248,51.917851
Van Speykstraat,12,,,3143KG,Maassluis,Maassluis,Zuid-Holland,VBO,4.253211,51.917893
Van Speykstraat,13,,,3143KG,Maassluis,Maassluis,Zuid-Holland,VBO,4.253004,51.917875
Van Speykstraat,15,,,3143KG,Maassluis,Maassluis,Zuid-Holland,VBO,4.253004,51.917875
Van Speykstraat,16,,,3143KG,Maassluis,Maassluis,Zuid-Holland,VBO,4.252966,51.917918
Van Speykstraat,19,,,3143KG,Maassluis,Maassluis,Zuid-Holland,VBO,4.252626,51.917957
Van Speykstraat,20,,,3143KG,Maassluis,Maassluis,Zuid-Holland,VBO,4.252596,51.917993
Van Speykstraat,21,,,3143KG,Maassluis,Maassluis,Zuid-Holland,VBO,4.252758,51.917905
Van Speykstraat,22,,,3143KG,Maassluis,Maassluis,Zuid-Holland,VBO,4.252714,51.917940
Van Speykstraat,23,,,3143KG,Maassluis,Maassluis,Zuid-Holland,VBO,4.252626,51.917957
Van Speykstraat,24,,,3143KG,Maassluis,Maassluis,Zuid-Holland,VBO,4.252596,51.917993
Van Speykstraat,25,,,3143KH,Maassluis,Maassluis,Zuid-Holland,VBO,4.252378,51.918000
Van Speykstraat,27,,,3143KH,Maassluis,Maassluis,Zuid-Holland,VBO,4.252303,51.918080
Van Speykstraat,28,,,3143KH,Maassluis,Maassluis,Zuid-Holland,VBO,4.252378,51.918000
Van Speykstraat,29,,,3143KH,Maassluis,Maassluis,Zuid-Holland,VBO,4.252318,51.918044
Van Speykstraat,30,,,3143KH,Maassluis,Maassluis,Zuid-Holland,VBO,4.252303,51.918080
Van Speykstraat,33,,,3143KH,Maassluis,Maassluis,Zuid-Holland,VBO,4.252068,51.918168
Van Speykstraat,34,,,3143KH,Maassluis,Maassluis,Zuid-Holland,VBO,4.252038,51.918203
Van Speykstraat,35,,,3143KH,Maassluis,Maassluis,Zuid-Holland,VBO,4.251980,51.918221
Van Speykstraat,36,,,3143KH,Maassluis,Maassluis,Zuid-Holland,VBO,4.251950,51.918256
Van Speykstraat,37,,,3143KH,Maassluis,Maassluis,Zuid-Holland,VBO,4.252157,51.918087
Van Speykstraat,38,,,3143KH,Maassluis,Maassluis,Zuid-Holland,VBO,4.252113,51.918123
Van Speykstraat,39,,,3143KH,Maassluis,Maassluis,Zuid-Holland,VBO,4.252068,51.918168
Van Speykstraat,40,,,3143KH,Maassluis,Maassluis,Zuid-Holland,VBO,4.252038,51.918203
Van Speykstraat,41,,,3143KH,Maassluis,Maassluis,Zuid-Holland,VBO,4.251980,51.918221
Van Speykstraat,42,,,3143KH,Maassluis,Maassluis,Zuid-Holland,VBO,4.251950,51.918256
Wassenaer van Obdamstraat,1,,,3143KJ,Maassluis,Maassluis,Zuid-Holland,VBO,4.255658,51.918358
Wassenaer van Obdamstraat,2,,,3143KJ,Maassluis,Maassluis,Zuid-Holland,VBO,4.255623,51.918399
Wassenaer van Obdamstraat,3,,,3143KJ,Maassluis,Maassluis,Zuid-Holland,VBO,4.255587,51.918440
Wassenaer van Obdamstraat,4,,,3143KJ,Maassluis,Maassluis,Zuid-Holland,VBO,4.255552,51.918482
Wassenaer van Obdamstraat,5,,,3143KJ,Maassluis,Maassluis,Zuid-Holland,VBO,4.255517,51.918523
Wassenaer van Obdamstraat,6,,,3143KJ,Maassluis,Maassluis,Zuid-Holland,VBO,4.255386,51.918558
Wassenaer van Obdamstraat,7,,,3143KJ,Maassluis,Maassluis,Zuid-Holland,VBO,4.255350,51.918600
Wassenaer van Obdamstraat,8,,,3143KJ,Maassluis,Maassluis,Zuid-Holland,VBO,4.255315,51.918641
Wassenaer van Obdamstraat,9,,,3143KJ,Maassluis,Maassluis,Zuid-Holland,VBO,4.255279,51.918682
Wassenaer van Obdamstraat,10,,,3143KJ,Maassluis,Maassluis,Zuid-Holland,VBO,4.255244,51.918724
Wassenaer van Obdamstraat,11,,,3143KJ,Maassluis,Maassluis,Zuid-Holland,VBO,4.255209,51.918765
Wassenaer van Obdamstraat,12,,,3143KJ,Maassluis,Maassluis,Zuid-Holland,VBO,4.255076,51.918854
Wassenaer van Obdamstraat,13,,,3143KJ,Maassluis,Maassluis,Zuid-Holland,VBO,4.255041,51.918895
Wassenaer van Obdamstraat,14,,,3143KJ,Maassluis,Maassluis,Zuid-Holland,VBO,4.255005,51.918936
Wassenaer van Obdamstraat,15,,,3143KJ,Maassluis,Maassluis,Zuid-Holland,VBO,4.254970,51.918977
Wassenaer van Obdamstraat,16,,,3143KJ,Maassluis,Maassluis,Zuid-Holland,VBO,4.254935,51.919018
Wassenaer van Obdamstraat,17,,,3143KJ,Maassluis,Maassluis,Zuid-Holland,VBO,4.254899,51.919059
Wassenaer van Obdamstraat,18,,,3143KJ,Maassluis,Maassluis,Zuid-Holland,VBO,4.254864,51.919100
Wassenaer van Obdamstraat,19,,,3143KJ,Maassluis,Maassluis,Zuid-Holland,VBO,4.254828,51.919141
Wassenaer van Obdamstraat,28,,,3143KK,Maassluis,Maassluis,Zuid-Holland,VBO,4.254629,51.918754
Wassenaer van Obdamstraat,29,,,3143KK,Maassluis,Maassluis,Zuid-Holland,VBO,4.254593,51.918795
Wassenaer van Obdamstraat,30,,,3143KK,Maassluis,Maassluis,Zuid-Holland,VBO,4.254558,51.918836
Wassenaer van Obdamstraat,31,,,3143KK,Maassluis,Maassluis,Zuid-Holland,VBO,4.254522,51.918877
Wassenaer van Obdamstraat,32,A,,3143KK,Maassluis,Maassluis,Zuid-Holland,VBO,4.253847,51.919102
Wassenaer van Obdamstraat,32,,,3143KK,Maassluis,Maassluis,Zuid-Holland,VBO,4.254487,51.918918
Wassenaer van Obdamstraat,33,,,3143KK,Maassluis,Maassluis,Zuid-Holland,VBO,4.254028,51.918964
Wassenaer van Obdamstraat,34,,,3143KK,Maassluis,Maassluis,Zuid-Holland,VBO,4.254064,51.918923
Wassenaer van Obdamstraat,35,,,3143KK,Maassluis,Maassluis,Zuid-Holland,VBO,4.254099,51.918883
Wassenaer van Obdamstraat,36,,,3143KK,Maassluis,Maassluis,Zuid-Holland,VBO,4.254135,51.918842
Wassenaer van Obdamstraat,37,,,3143KK,Maassluis,Maassluis,Zuid-Holland,VBO,4.254170,51.918801
Wassenaer van Obdamstraat,38,,,3143KK,Maassluis,Maassluis,Zuid-Holland,VBO,4.254206,51.918760
Wassenaer van Obdamstraat,39,,,3143KK,Maassluis,Maassluis,Zuid-Holland,VBO,4.254241,51.918719
Wassenaer van Obdamstraat,40,,,3143KK,Maassluis,Maassluis,Zuid-Holland,VBO,4.254277,51.918679
Wassenaer van Obdamstraat,41,,,3143KK,Maassluis,Maassluis,Zuid-Holland,VBO,4.254312,51.918638
Wassenaer van Obdamstraat,54,,,3143KK,Maassluis,Maassluis,Zuid-Holland,VBO,4.253932,51.918638
Wassenaer van Obdamstraat,55,,,3143KK,Maassluis,Maassluis,Zuid-Holland,VBO,4.253968,51.918597
Wassenaer van Obdamstraat,56,,,3143KK,Maassluis,Maassluis,Zuid-Holland,VBO,4.254003,51.918556
Wassenaer van Obdamstraat,57,,,3143KK,Maassluis,Maassluis,Zuid-Holland,VBO,4.254038,51.918514
Wassenaer van Obdamstraat,58,,,3143KK,Maassluis,Maassluis,Zuid-Holland,VBO,4.254074,51.918473
Wassenaer van Obdamstraat,59,,,3143KK,Maassluis,Maassluis,Zuid-Holland,VBO,4.254109,51.918432
Wassenaer van Obdamstraat,60,,,3143KK,Maassluis,Maassluis,Zuid-Holland,VBO,4.254144,51.918391
Wassenaer van Obdamstraat,61,,,3143KK,Maassluis,Maassluis,Zuid-Holland,VBO,4.254441,51.918420
Wassenaer van Obdamstraat,62,,,3143KK,Maassluis,Maassluis,Zuid-Holland,VBO,4.254508,51.918442
Wassenaer van Obdamstraat,63,,,3143KK,Maassluis,Maassluis,Zuid-Holland,VBO,4.254574,51.918464
Wassenaer van Obdamstraat,64,,,3143KK,Maassluis,Maassluis,Zuid-Holland,VBO,4.254640,51.918486
Wassenaer van Obdamstraat,65,,,3143KK,Maassluis,Maassluis,Zuid-Holland,VBO,4.254660,51.918563
Wassenaer van Obdamstraat,66,,,3143KK,Maassluis,Maassluis,Zuid-Holland,VBO,4.254729,51.918586
Prinses Beatrixlaan,1,,,3143LA,Maassluis,Maassluis,Zuid-Holland,VBO,4.253825,51.916952
Prinses Beatrixlaan,2,,,3143LA,Maassluis,Maassluis,Zuid-Holland,VBO,4.253904,51.916920
Prinses Beatrixlaan,3,,,3143LA,Maassluis,Maassluis,Zuid-Holland,VBO,4.253984,51.916887
Prinses Beatrixlaan,4,,,3143LA,Maassluis,Maassluis,Zuid-Holland,VBO,4.254133,51.916851
Prinses Beatrixlaan,5,,,3143LA,Maassluis,Maassluis,Zuid-Holland,VBO,4.254217,51.916816
Prinses Beatrixlaan,6,,,3143LA,Maassluis,Maassluis,Zuid-Holland,VBO,4.254367,51.916750
Prinses Beatrixlaan,7,,,3143LA,Maassluis,Maassluis,Zuid-Holland,VBO,4.254450,51.916715
Prinses Beatrixlaan,8,,,3143LA,Maassluis,Maassluis,Zuid-Holland,VBO,4.254610,51.916651
Prinses Beatrixlaan,9,,,3143LA,Maassluis,Maassluis,Zuid-Holland,VBO,4.254695,51.916615
Prinses Beatrixlaan,10,,,3143LA,Maassluis,Maassluis,Zuid-Holland,VBO,4.254858,51.916549
Prinses Beatrixlaan,11,,,3143LA,Maassluis,Maassluis,Zuid-Holland,VBO,4.254938,51.916516
Prinses Beatrixlaan,12,,,3143LA,Maassluis,Maassluis,Zuid-Holland,VBO,4.255092,51.916451
Prinses Beatrixlaan,13,,,3143LA,Maassluis,Maassluis,Zuid-Holland,VBO,4.255175,51.916416
Prinses Beatrixlaan,14,,,3143LA,Maassluis,Maassluis,Zuid-Holland,VBO,4.255314,51.916344
Frederik Hendrikstraat,1,,,3143LB,Maassluis,Maassluis,Zuid-Holland,VBO,4.254644,51.917285
Frederik Hendrikstraat,3,,,3143LB,Maassluis,Maassluis,Zuid-Holland,VBO,4.254683,51.917269
Frederik Hendrikstraat,5,,,3143LB,Maassluis,Maassluis,Zuid-Holland,VBO,4.254795,51.917259
Frederik Hendrikstraat,7,,,3143LB,Maassluis,Maassluis,Zuid-Holland,VBO,4.254821,51.917211
Frederik Hendrikstraat,9,,,3143LB,Maassluis,Maassluis,Zuid-Holland,VBO,4.254930,51.917165
Frederik Hendrikstraat,11,,,3143LB,Maassluis,Maassluis,Zuid-Holland,VBO,4.254962,51.917152
Frederik Hendrikstraat,13,,,3143LB,Maassluis,Maassluis,Zuid-Holland,VBO,4.255069,51.917107
Frederik Hendrikstraat,15,,,3143LB,Maassluis,Maassluis,Zuid-Holland,VBO,4.255101,51.917093
Frederik Hendrikstraat,17,,,3143LB,Maassluis,Maassluis,Zuid-Holland,VBO,4.255201,51.917051
Frederik Hendrikstraat,19,,,3143LB,Maassluis,Maassluis,Zuid-Holland,VBO,4.255232,51.917038
Frederik Hendrikstraat,21,,,3143LB,Maassluis,Maassluis,Zuid-Holland,VBO,4.255334,51.916995
Frederik Hendrikstraat,23,,,3143LB,Maassluis,Maassluis,Zuid-Holland,VBO,4.255365,51.916983
Frederik Hendrikstraat,25,,,3143LB,Maassluis,Maassluis,Zuid-Holland,VBO,4.255471,51.916938
Frederik Hendrikstraat,27,,,3143LB,Maassluis,Maassluis,Zuid-Holland,VBO,4.255496,51.916928
Frederik Hendrikstraat,29,,,3143LB,Maassluis,Maassluis,Zuid-Holland,VBO,4.255598,51.916885
Frederik Hendrikstraat,31,,,3143LB,Maassluis,Maassluis,Zuid-Holland,VBO,4.255630,51.916871
Frederik Hendrikstraat,33,,,3143LB,Maassluis,Maassluis,Zuid-Holland,VBO,4.255734,51.916828
Frederik Hendrikstraat,35,,,3143LB,Maassluis,Maassluis,Zuid-Holland,VBO,4.255810,51.916796
Frederik Hendrikstraat,37,,,3143LB,Maassluis,Maassluis,Zuid-Holland,VBO,4.255894,51.916761
Frederik Hendrikstraat,39,,,3143LB,Maassluis,Maassluis,Zuid-Holland,VBO,4.255985,51.916740
Frederik Hendrikstraat,41,,,3143LB,Maassluis,Maassluis,Zuid-Holland,VBO,4.256060,51.916669
Frederik Hendrikstraat,43,,,3143LB,Maassluis,Maassluis,Zuid-Holland,VBO,4.256081,51.916607
Frederik Hendrikstraat,45,,,3143LB,Maassluis,Maassluis,Zuid-Holland,VBO,4.256116,51.916567
Frederik Hendrikstraat,47,,,3143LB,Maassluis,Maassluis,Zuid-Holland,VBO,4.256159,51.916515
Frederik Hendrikstraat,2,,RD,3143LC,Maassluis,Maassluis,Zuid-Holland,VBO,4.254400,51.917187
Frederik Hendrikstraat,2,,ZW,3143LC,Maassluis,Maassluis,Zuid-Holland,VBO,4.254400,51.917187
Frederik Hendrikstraat,4,G,,3143LC,Maassluis,Maassluis,Zuid-Holland,VBO,4.254214,51.917253
Frederik Hendrikstraat,4,,RD,3143LC,Maassluis,Maassluis,Zuid-Holland,VBO,4.254472,51.917151
Frederik Hendrikstraat,4,,ZW,3143LC,Maassluis,Maassluis,Zuid-Holland,VBO,4.254472,51.917151
Frederik Hendrikstraat,6,G,,3143LC,Maassluis,Maassluis,Zuid-Holland,VBO,4.254272,51.917236
Frederik Hendrikstraat,6,,RD,3143LC,Maassluis,Maassluis,Zuid-Holland,VBO,4.254560,51.917113
Frederik Hendrikstraat,6,,ZW,3143LC,Maassluis,Maassluis,Zuid-Holland,VBO,4.254560,51.917113
Frederik Hendrikstraat,8,G,,3143LC,Maassluis,Maassluis,Zuid-Holland,VBO,4.254302,51.917218
Frederik Hendrikstraat,8,,RD,3143LC,Maassluis,Maassluis,Zuid-Holland,VBO,4.254602,51.917096
Frederik Hendrikstraat,8,,ZW,3143LC,Maassluis,Maassluis,Zuid-Holland,VBO,4.254602,51.917096
Frederik Hendrikstraat,10,,RD,3143LC,Maassluis,Maassluis,Zuid-Holland,VBO,4.254723,51.917045
Frederik Hendrikstraat,10,,ZW,3143LC,Maassluis,Maassluis,Zuid-Holland,VBO,4.254723,51.917045
Frederik Hendrikstraat,12,,RD,3143LC,Maassluis,Maassluis,Zuid-Holland,VBO,4.254764,51.917028
Frederik Hendrikstraat,12,,ZW,3143LC,Maassluis,Maassluis,Zuid-Holland,VBO,4.254764,51.917028
Frederik Hendrikstraat,14,,RD,3143LC,Maassluis,Maassluis,Zuid-Holland,VBO,4.254869,51.916984
Frederik Hendrikstraat,14,,ZW,3143LC,Maassluis,Maassluis,Zuid-Holland,VBO,4.254869,51.916984
Frederik Hendrikstraat,16,,RD,3143LC,Maassluis,Maassluis,Zuid-Holland,VBO,4.254912,51.916965
Frederik Hendrikstraat,16,,ZW,3143LC,Maassluis,Maassluis,Zuid-Holland,VBO,4.254912,51.916965
Frederik Hendrikstraat,18,,RD,3143LC,Maassluis,Maassluis,Zuid-Holland,VBO,4.255061,51.916902
Frederik Hendrikstraat,18,,ZW,3143LC,Maassluis,Maassluis,Zuid-Holland,VBO,4.255061,51.916902
Frederik Hendrikstraat,20,,RD,3143LD,Maassluis,Maassluis,Zuid-Holland,VBO,4.255110,51.916882
Frederik Hendrikstraat,20,,ZW,3143LD,Maassluis,Maassluis,Zuid-Holland,VBO,4.255110,51.916882
Frederik Hendrikstraat,22,,RD,3143LD,Maassluis,Maassluis,Zuid-Holland,VBO,4.255215,51.916838
Frederik Hendrikstraat,22,,ZW,3143LD,Maassluis,Maassluis,Zuid-Holland,VBO,4.255215,51.916838
Frederik Hendrikstraat,24,,RD,3143LD,Maassluis,Maassluis,Zuid-Holland,VBO,4.255260,51.916819
Frederik Hendrikstraat,24,,ZW,3143LD,Maassluis,Maassluis,Zuid-Holland,VBO,4.255260,51.916819
Frederik Hendrikstraat,26,,RD,3143LD,Maassluis,Maassluis,Zuid-Holland,VBO,4.255365,51.916775
Frederik Hendrikstraat,26,,ZW,3143LD,Maassluis,Maassluis,Zuid-Holland,VBO,4.255365,51.916775
Frederik Hendrikstraat,28,,RD,3143LD,Maassluis,Maassluis,Zuid-Holland,VBO,4.255409,51.916757
Frederik Hendrikstraat,28,,ZW,3143LD,Maassluis,Maassluis,Zuid-Holland,VBO,4.255409,51.916757
Frederik Hendrikstraat,30,,RD,3143LD,Maassluis,Maassluis,Zuid-Holland,VBO,4.255512,51.916714
Frederik Hendrikstraat,30,,ZW,3143LD,Maassluis,Maassluis,Zuid-Holland,VBO,4.255512,51.916714
Frederik Hendrikstraat,32,,RD,3143LD,Maassluis,Maassluis,Zuid-Holland,VBO,4.255669,51.916587
Frederik Hendrikstraat,32,,ZW,3143LD,Maassluis,Maassluis,Zuid-Holland,VBO,4.255669,51.916587
Frederik Hendrikstraat,34,,RD,3143LD,Maassluis,Maassluis,Zuid-Holland,VBO,4.255706,51.916536
Frederik Hendrikstraat,34,,ZW,3143LD,Maassluis,Maassluis,Zuid-Holland,VBO,4.255706,51.916536
Frederik Hendrikstraat,36,,RD,3143LD,Maassluis,Maassluis,Zuid-Holland,VBO,4.255760,51.916474
Frederik Hendrikstraat,36,,ZW,3143LD,Maassluis,Maassluis,Zuid-Holland,VBO,4.255760,51.916474
Frederik Hendrikstraat,38,,RD,3143LD,Maassluis,Maassluis,Zuid-Holland,VBO,4.255816,51.916410
Frederik Hendrikstraat,38,,ZW,3143LD,Maassluis,Maassluis,Zuid-Holland,VBO,4.255816,51.916410
Prinses Julianaplantsoen,1,,,3143LE,Maassluis,Maassluis,Zuid-Holland,VBO,4.257968,51.916885
Prinses Julianaplantsoen,2,,,3143LE,Maassluis,Maassluis,Zuid-Holland,VBO,4.257620,51.916867
Prinses Julianaplantsoen,3,,,3143LE,Maassluis,Maassluis,Zuid-Holland,VBO,4.257153,51.916819
Prinses Julianaplantsoen,4,,,3143LE,Maassluis,Maassluis,Zuid-Holland,VBO,4.255420,51.916305
Prinses Julianaplantsoen,6,,,3143LE,Maassluis,Maassluis,Zuid-Holland,VBO,4.257285,51.916492
Prinses Julianaplantsoen,8,,,3143LE,Maassluis,Maassluis,Zuid-Holland,VBO,4.257285,51.916492
Koningin Wilhelminalaan,1,,,3143LG,Maassluis,Maassluis,Zuid-Holland,VBO,4.257141,51.918343
Koningin Wilhelminalaan,2,,,3143LG,Maassluis,Maassluis,Zuid-Holland,VBO,4.256964,51.918281
Koningin Wilhelminalaan,3,,,3143LG,Maassluis,Maassluis,Zuid-Holland,VBO,4.256884,51.918256
Koningin Wilhelminalaan,4,,,3143LG,Maassluis,Maassluis,Zuid-Holland,VBO,4.256805,51.918231
Koningin Wilhelminalaan,5,,,3143LG,Maassluis,Maassluis,Zuid-Holland,VBO,4.256726,51.918206
Koningin Wilhelminalaan,6,,,3143LG,Maassluis,Maassluis,Zuid-Holland,VBO,4.256647,51.918181
Koningin Wilhelminalaan,7,,,3143LG,Maassluis,Maassluis,Zuid-Holland,VBO,4.256568,51.918156
Koningin Wilhelminalaan,8,,,3143LG,Maassluis,Maassluis,Zuid-Holland,VBO,4.256488,51.918131
Koningin Wilhelminalaan,9,,,3143LH,Maassluis,Maassluis,Zuid-Holland,VBO,4.256261,51.918057
Koningin Wilhelminalaan,10,,,3143LH,Maassluis,Maassluis,Zuid-Holland,VBO,4.256188,51.918034
Koningin Wilhelminalaan,11,,,3143LH,Maassluis,Maassluis,Zuid-Holland,VBO,4.256115,51.918010
Koningin Wilhelminalaan,12,,,3143LH,Maassluis,Maassluis,Zuid-Holland,VBO,4.256042,51.917987
Koningin Wilhelminalaan,13,,,3143LH,Maassluis,Maassluis,Zuid-Holland,VBO,4.255969,51.917964
Koningin Wilhelminalaan,14,,,3143LH,Maassluis,Maassluis,Zuid-Holland,VBO,4.255896,51.917941
Koningin Wilhelminalaan,15,,,3143LH,Maassluis,Maassluis,Zuid-Holland,VBO,4.255823,51.917917
Koningin Wilhelminalaan,16,,,3143LH,Maassluis,Maassluis,Zuid-Holland,VBO,4.255750,51.917894
Koningin Wilhelminalaan,17,,,3143LH,Maassluis,Maassluis,Zuid-Holland,VBO,4.255677,51.917871
Koningin Wilhelminalaan,18,,,3143LH,Maassluis,Maassluis,Zuid-Holland,VBO,4.255603,51.917847
Koningin Wilhelminalaan,19,,,3143LH,Maassluis,Maassluis,Zuid-Holland,VBO,4.255530,51.917824
Koningin Wilhelminalaan,20,,,3143LH,Maassluis,Maassluis,Zuid-Holland,VBO,4.255457,51.917801
Koningin Wilhelminalaan,21,,,3143LH,Maassluis,Maassluis,Zuid-Holland,VBO,4.255384,51.917777
Koningin Wilhelminalaan,22,,,3143LH,Maassluis,Maassluis,Zuid-Holland,VBO,4.255311,51.917754
Koningin Wilhelminalaan,23,,,3143LH,Maassluis,Maassluis,Zuid-Holland,VBO,4.255238,51.917731
Koningin Wilhelminalaan,24,,,3143LH,Maassluis,Maassluis,Zuid-Holland,VBO,4.255165,51.917708
Koningin Wilhelminalaan,25,,,3143LJ,Maassluis,Maassluis,Zuid-Holland,VBO,4.254737,51.917578
Koningin Wilhelminalaan,26,,,3143LJ,Maassluis,Maassluis,Zuid-Holland,VBO,4.254660,51.917554
Koningin Wilhelminalaan,27,,,3143LJ,Maassluis,Maassluis,Zuid-Holland,VBO,4.254583,51.917529
Koningin Wilhelminalaan,28,,,3143LJ,Maassluis,Maassluis,Zuid-Holland,VBO,4.254533,51.917515
Koningin Wilhelminalaan,29,,,3143LJ,Maassluis,Maassluis,Zuid-Holland,VBO,4.254467,51.917490
Koningin Wilhelminalaan,30,,,3143LJ,Maassluis,Maassluis,Zuid-Holland,VBO,4.254405,51.917464
Koningin Wilhelminalaan,31,,,3143LJ,Maassluis,Maassluis,Zuid-Holland,VBO,4.254275,51.917430
Koningin Wilhelminalaan,32,,,3143LJ,Maassluis,Maassluis,Zuid-Holland,VBO,4.253979,51.917255
Koningin Wilhelminalaan,33,,,3143LJ,Maassluis,Maassluis,Zuid-Holland,VBO,4.253920,51.917236
Koningin Wilhelminalaan,34,,,3143LJ,Maassluis,Maassluis,Zuid-Holland,VBO,4.253835,51.917209
Koningin Wilhelminalaan,35,,,3143LJ,Maassluis,Maassluis,Zuid-Holland,VBO,4.253760,51.917185
Koningin Wilhelminalaan,36,,,3143LJ,Maassluis,Maassluis,Zuid-Holland,VBO,4.253691,51.917163
Prinses Julianalaan,1,,,3143LK,Maassluis,Maassluis,Zuid-Holland,VBO,4.257274,51.918283
Prinses Julianalaan,2,,,3143LK,Maassluis,Maassluis,Zuid-Holland,VBO,4.257352,51.918189
Prinses Julianalaan,3,,,3143LK,Maassluis,Maassluis,Zuid-Holland,VBO,4.257387,51.918139
Prinses Julianalaan,4,,,3143LK,Maassluis,Maassluis,Zuid-Holland,VBO,4.257453,51.918042
Prinses Julianalaan,5,,,3143LK,Maassluis,Maassluis,Zuid-Holland,VBO,4.257484,51.917992
Prinses Julianalaan,6,,,3143LK,Maassluis,Maassluis,Zuid-Holland,VBO,4.257545,51.917888
Prinses Julianalaan,7,,,3143LK,Maassluis,Maassluis,Zuid-Holland,VBO,4.257607,51.917768
Prinses Julianalaan,8,,,3143LK,Maassluis,Maassluis,Zuid-Holland,VBO,4.257670,51.917651
Prinses Julianalaan,9,,,3143LK,Maassluis,Maassluis,Zuid-Holland,VBO,4.257736,51.917529
Prinses Julianalaan,10,,,3143LK,Maassluis,Maassluis,Zuid-Holland,VBO,4.257759,51.917486
Prinses Julianalaan,11,,,3143LK,Maassluis,Maassluis,Zuid-Holland,VBO,4.257828,51.917366
Prinses Julianalaan,12,,,3143LK,Maassluis,Maassluis,Zuid-Holland,VBO,4.257833,51.917301
Prinses Julianalaan,13,,,3143LK,Maassluis,Maassluis,Zuid-Holland,VBO,4.257921,51.917176
Prinses Julianalaan,14,,,3143LK,Maassluis,Maassluis,Zuid-Holland,VBO,4.257970,51.917035
Prinses Julianalaan,16,,,3143LK,Maassluis,Maassluis,Zuid-Holland,VBO,4.260019,51.915305
Prins Mauritsstraat,1,,,3143LL,Maassluis,Maassluis,Zuid-Holland,VBO,4.255113,51.917618
Prins Mauritsstraat,3,,,3143LL,Maassluis,Maassluis,Zuid-Holland,VBO,4.255533,51.917475
Prins Mauritsstraat,5,,,3143LL,Maassluis,Maassluis,Zuid-Holland,VBO,4.255611,51.917441
Prins Mauritsstraat,7,,,3143LL,Maassluis,Maassluis,Zuid-Holland,VBO,4.255688,51.917407
Prins Mauritsstraat,9,,,3143LL,Maassluis,Maassluis,Zuid-Holland,VBO,4.255765,51.917373
Prins Mauritsstraat,11,,,3143LL,Maassluis,Maassluis,Zuid-Holland,VBO,4.255842,51.917339
Prins Mauritsstraat,13,,,3143LL,Maassluis,Maassluis,Zuid-Holland,VBO,4.255920,51.917305
Prins Mauritsstraat,15,,,3143LL,Maassluis,Maassluis,Zuid-Holland,VBO,4.255997,51.917272
Prins Mauritsstraat,17,,,3143LL,Maassluis,Maassluis,Zuid-Holland,VBO,4.256074,51.917238
Prins Mauritsstraat,19,,,3143LL,Maassluis,Maassluis,Zuid-Holland,VBO,4.256152,51.917204
Prins Mauritsstraat,21,,,3143LL,Maassluis,Maassluis,Zuid-Holland,VBO,4.256229,51.917170
Prins Mauritsstraat,23,,,3143LL,Maassluis,Maassluis,Zuid-Holland,VBO,4.256306,51.917136
Prins Mauritsstraat,25,,,3143LL,Maassluis,Maassluis,Zuid-Holland,VBO,4.256383,51.917102
Prins Mauritsstraat,27,,,3143LL,Maassluis,Maassluis,Zuid-Holland,VBO,4.256461,51.917068
Prins Mauritsstraat,29,,,3143LL,Maassluis,Maassluis,Zuid-Holland,VBO,4.256619,51.916949
Prins Mauritsstraat,31,,,3143LL,Maassluis,Maassluis,Zuid-Holland,VBO,4.256668,51.916890
Prins Mauritsstraat,33,,,3143LL,Maassluis,Maassluis,Zuid-Holland,VBO,4.256756,51.916788
Prins Mauritsstraat,35,,,3143LL,Maassluis,Maassluis,Zuid-Holland,VBO,4.256805,51.916729
Prins Mauritsstraat,2,,,3143LM,Maassluis,Maassluis,Zuid-Holland,VBO,4.254881,51.917582
Prins Mauritsstraat,4,,,3143LM,Maassluis,Maassluis,Zuid-Holland,VBO,4.255100,51.917472
Prins Mauritsstraat,6,,,3143LM,Maassluis,Maassluis,Zuid-Holland,VBO,4.255173,51.917440
Prins Mauritsstraat,8,,,3143LM,Maassluis,Maassluis,Zuid-Holland,VBO,4.255247,51.917408
Prins Mauritsstraat,10,,,3143LM,Maassluis,Maassluis,Zuid-Holland,VBO,4.255320,51.917376
Prins Mauritsstraat,12,,,3143LM,Maassluis,Maassluis,Zuid-Holland,VBO,4.255393,51.917344
Prins Mauritsstraat,14,,,3143LM,Maassluis,Maassluis,Zuid-Holland,VBO,4.255466,51.917312
Prins Mauritsstraat,16,,,3143LM,Maassluis,Maassluis,Zuid-Holland,VBO,4.255540,51.917279
Prins Mauritsstraat,18,,,3143LM,Maassluis,Maassluis,Zuid-Holland,VBO,4.255613,51.917247
Prins Mauritsstraat,20,,,3143LM,Maassluis,Maassluis,Zuid-Holland,VBO,4.255686,51.917215
Prins Mauritsstraat,22,,,3143LM,Maassluis,Maassluis,Zuid-Holland,VBO,4.255759,51.917183
Prins Mauritsstraat,24,,,3143LM,Maassluis,Maassluis,Zuid-Holland,VBO,4.255878,51.917132
Prins Mauritsstraat,26,,,3143LM,Maassluis,Maassluis,Zuid-Holland,VBO,4.255951,51.917100
Prins Mauritsstraat,28,,,3143LM,Maassluis,Maassluis,Zuid-Holland,VBO,4.256025,51.917068
Prins Mauritsstraat,30,,,3143LM,Maassluis,Maassluis,Zuid-Holland,VBO,4.256098,51.917035
Prins Mauritsstraat,32,,,3143LM,Maassluis,Maassluis,Zuid-Holland,VBO,4.256172,51.917003
Prins Mauritsstraat,34,,,3143LM,Maassluis,Maassluis,Zuid-Holland,VBO,4.256245,51.916970
Prins Mauritsstraat,36,,,3143LM,Maassluis,Maassluis,Zuid-Holland,VBO,4.256379,51.916869
Prins Mauritsstraat,38,,,3143LM,Maassluis,Maassluis,Zuid-Holland,VBO,4.256429,51.916810
Prins Mauritsstraat,40,,,3143LM,Maassluis,Maassluis,Zuid-Holland,VBO,4.256516,51.916708
Prins Mauritsstraat,42,,,3143LM,Maassluis,Maassluis,Zuid-Holland,VBO,4.256565,51.916650
Vlaardingsedijk,1,,,3143LN,Maassluis,Maassluis,Zuid-Holland,VBO,4.260220,51.914255
Vlaardingsedijk,5,,,3143LN,Maassluis,Maassluis,Zuid-Holland,VBO,4.262725,51.912886
Vlaardingsedijk,6,,,3143LN,Maassluis,Maassluis,Zuid-Holland,VBO,4.258487,51.914382
Vlaardingsedijk,7,A,,3143LN,Maassluis,Maassluis,Zuid-Holland,VBO,4.263541,51.912821
Vlaardingsedijk,7,,,3143LN,Maassluis,Maassluis,Zuid-Holland,VBO,4.263541,51.912821
Vlaardingsedijk,8,,,3143LN,Maassluis,Maassluis,Zuid-Holland,VBO,4.258694,51.914222
Vlaardingsedijk,9,,,3143LN,Maassluis,Maassluis,Zuid-Holland,VBO,4.265540,51.913056
Vlaardingsedijk,10,,,3143LN,Maassluis,Maassluis,Zuid-Holland,VBO,4.258843,51.914098
Vlaardingsedijk,12,A,,3143LN,Maassluis,Maassluis,Zuid-Holland,VBO,4.258965,51.913856
Vlaardingsedijk,12,B,,3143LN,Maassluis,Maassluis,Zuid-Holland,VBO,4.258778,51.913774
Vlaardingsedijk,12,,,3143LN,Maassluis,Maassluis,Zuid-Holland,VBO,4.258902,51.914044
Vlaardingsedijk,14,,,3143LN,Maassluis,Maassluis,Zuid-Holland,VBO,4.258807,51.913199
Vlaardingsedijk,16,,,3143LN,Maassluis,Maassluis,Zuid-Holland,VBO,4.259311,51.913410
Vlaardingsedijk,18,,,3143LN,Maassluis,Maassluis,Zuid-Holland,VBO,4.259136,51.912851
Willem de Zwijgerstraat,3,,,3143LP,Maassluis,Maassluis,Zuid-Holland,VBO,4.256644,51.917977
Willem de Zwijgerstraat,5,,,3143LP,Maassluis,Maassluis,Zuid-Holland,VBO,4.256687,51.917928
Willem de Zwijgerstraat,7,,,3143LP,Maassluis,Maassluis,Zuid-Holland,VBO,4.256731,51.917879
Willem de Zwijgerstraat,9,,,3143LP,Maassluis,Maassluis,Zuid-Holland,VBO,4.256774,51.917830
Willem de Zwijgerstraat,11,,,3143LP,Maassluis,Maassluis,Zuid-Holland,VBO,4.256818,51.917781
Willem de Zwijgerstraat,13,,,3143LP,Maassluis,Maassluis,Zuid-Holland,VBO,4.256861,51.917731
Willem de Zwijgerstraat,15,,,3143LP,Maassluis,Maassluis,Zuid-Holland,VBO,4.256905,51.917682
Willem de Zwijgerstraat,17,,,3143LP,Maassluis,Maassluis,Zuid-Holland,VBO,4.256948,51.917633
Willem de Zwijgerstraat,19,,,3143LP,Maassluis,Maassluis,Zuid-Holland,VBO,4.257002,51.917569
Willem de Zwijgerstraat,21,,,3143LP,Maassluis,Maassluis,Zuid-Holland,VBO,4.257037,51.917524
Willem de Zwijgerstraat,23,,,3143LP,Maassluis,Maassluis,Zuid-Holland,VBO,4.257072,51.917479
Willem de Zwijgerstraat,25,,,3143LP,Maassluis,Maassluis,Zuid-Holland,VBO,4.257107,51.917435
Willem de Zwijgerstraat,27,,,3143LP,Maassluis,Maassluis,Zuid-Holland,VBO,4.257142,51.917390
Willem de Zwijgerstraat,29,,,3143LP,Maassluis,Maassluis,Zuid-Holland,VBO,4.257177,51.917346
Willem de Zwijgerstraat,31,,,3143LP,Maassluis,Maassluis,Zuid-Holland,VBO,4.257211,51.917301
Willem de Zwijgerstraat,33,,,3143LP,Maassluis,Maassluis,Zuid-Holland,VBO,4.257246,51.917256
Willem de Zwijgerstraat,35,,,3143LP,Maassluis,Maassluis,Zuid-Holland,VBO,4.257281,51.917212
Willem de Zwijgerstraat,37,,,3143LP,Maassluis,Maassluis,Zuid-Holland,VBO,4.257316,51.917167
Willem de Zwijgerstraat,39,,,3143LP,Maassluis,Maassluis,Zuid-Holland,VBO,4.257351,51.917122
Willem de Zwijgerstraat,41,,,3143LP,Maassluis,Maassluis,Zuid-Holland,VBO,4.257386,51.917078
Willem de Zwijgerstraat,43,,,3143LP,Maassluis,Maassluis,Zuid-Holland,VBO,4.257534,51.916923
Willem de Zwijgerstraat,2,,,3143LR,Maassluis,Maassluis,Zuid-Holland,VBO,4.256400,51.917850
Willem de Zwijgerstraat,4,,,3143LR,Maassluis,Maassluis,Zuid-Holland,VBO,4.256441,51.917796
Willem de Zwijgerstraat,6,,,3143LR,Maassluis,Maassluis,Zuid-Holland,VBO,4.256482,51.917742
Willem de Zwijgerstraat,8,,,3143LR,Maassluis,Maassluis,Zuid-Holland,VBO,4.256523,51.917687
Willem de Zwijgerstraat,10,,,3143LR,Maassluis,Maassluis,Zuid-Holland,VBO,4.256565,51.917633
Willem de Zwijgerstraat,12,,,3143LR,Maassluis,Maassluis,Zuid-Holland,VBO,4.256606,51.917579
Willem de Zwijgerstraat,14,,,3143LR,Maassluis,Maassluis,Zuid-Holland,VBO,4.256682,51.917481
Willem de Zwijgerstraat,16,,,3143LR,Maassluis,Maassluis,Zuid-Holland,VBO,4.256724,51.917428
Willem de Zwijgerstraat,18,,,3143LR,Maassluis,Maassluis,Zuid-Holland,VBO,4.256767,51.917374
Willem de Zwijgerstraat,20,,,3143LR,Maassluis,Maassluis,Zuid-Holland,VBO,4.256809,51.917321
Willem de Zwijgerstraat,22,,,3143LR,Maassluis,Maassluis,Zuid-Holland,VBO,4.256852,51.917268
Willem de Zwijgerstraat,24,,,3143LR,Maassluis,Maassluis,Zuid-Holland,VBO,4.256894,51.917214
Willem de Zwijgerstraat,26,,,3143LR,Maassluis,Maassluis,Zuid-Holland,VBO,4.256972,51.917115
Willem de Zwijgerstraat,28,,,3143LR,Maassluis,Maassluis,Zuid-Holland,VBO,4.257015,51.917062
Willem de Zwijgerstraat,30,,,3143LR,Maassluis,Maassluis,Zuid-Holland,VBO,4.257059,51.917008
Willem de Zwijgerstraat,32,,,3143LR,Maassluis,Maassluis,Zuid-Holland,VBO,4.257103,51.916954
Willem de Zwijgerstraat,34,,,3143LR,Maassluis,Maassluis,Zuid-Holland,VBO,4.257146,51.916900
Willem de Zwijgerstraat,36,,,3143LR,Maassluis,Maassluis,Zuid-Holland,VBO,4.257816,51.916218
Stationsweg,7,,,3143LS,Maassluis,Maassluis,Zuid-Holland,VBO,4.253732,51.916745
Stationsweg,8,A,,3143LS,Maassluis,Maassluis,Zuid-Holland,VBO,4.253579,51.916492
Stationsweg,15,,,3143LS,Maassluis,Maassluis,Zuid-Holland,VBO,4.252339,51.917226
Stationsweg,16,,,3143LS,Maassluis,Maassluis,Zuid-Holland,VBO,4.252310,51.917244
Stationsweg,17,,,3143LS,Maassluis,Maassluis,Zuid-Holland,VBO,4.252266,51.917262
Stationsweg,18,,,3143LS,Maassluis,Maassluis,Zuid-Holland,VBO,4.252236,51.917270
Stationsweg,19,,,3143LS,Maassluis,Maassluis,Zuid-Holland,VBO,4.252192,51.917288
Stationsweg,20,,,3143LS,Maassluis,Maassluis,Zuid-Holland,VBO,4.252163,51.917305
Stationsweg,21,,,3143LS,Maassluis,Maassluis,Zuid-Holland,VBO,4.252119,51.917322
Stationsweg,22,,,3143LS,Maassluis,Maassluis,Zuid-Holland,VBO,4.252089,51.917337
Stationsweg,23,,,3143LS,Maassluis,Maassluis,Zuid-Holland,VBO,4.252045,51.917349
Stationsweg,24,,,3143LS,Maassluis,Maassluis,Zuid-Holland,VBO,4.252016,51.917367
Stationsweg,25,,,3143LS,Maassluis,Maassluis,Zuid-Holland,VBO,4.251980,51.917385
Stationsweg,26,,,3143LS,Maassluis,Maassluis,Zuid-Holland,VBO,4.251942,51.917393
Stationsweg,27,,,3143LS,Maassluis,Maassluis,Zuid-Holland,VBO,4.251898,51.917411
Stationsweg,28,,,3143LS,Maassluis,Maassluis,Zuid-Holland,VBO,4.251870,51.917430
Stationsweg,29,,,3143LS,Maassluis,Maassluis,Zuid-Holland,VBO,4.251825,51.917437
Stationsweg,30,,,3143LS,Maassluis,Maassluis,Zuid-Holland,VBO,4.251796,51.917455
Stationsweg,31,,,3143LS,Maassluis,Maassluis,Zuid-Holland,VBO,4.251751,51.917472
Stationsweg,32,,,3143LS,Maassluis,Maassluis,Zuid-Holland,VBO,4.251722,51.917481
Stationsweg,33,,,3143LS,Maassluis,Maassluis,Zuid-Holland,VBO,4.251678,51.917499
Stationsweg,34,,,3143LS,Maassluis,Maassluis,Zuid-Holland,VBO,4.251649,51.917516
Stationsweg,35,,,3143LS,Maassluis,Maassluis,Zuid-Holland,VBO,4.251619,51.917534
Stationsweg,36,,,3143LS,Maassluis,Maassluis,Zuid-Holland,VBO,4.251575,51.917543
Stationsweg,37,,,3143LS,Maassluis,Maassluis,Zuid-Holland,VBO,4.251546,51.917560
Stationsweg,38,,,3143LS,Maassluis,Maassluis,Zuid-Holland,VBO,4.251502,51.917578
Stationsweg,39,,,3143LS,Maassluis,Maassluis,Zuid-Holland,VBO,4.251475,51.917597
Stationsweg,40,,,3143LS,Maassluis,Maassluis,Zuid-Holland,VBO,4.251440,51.917615
Stationsweg,41,,,3143LS,Maassluis,Maassluis,Zuid-Holland,VBO,4.251399,51.917628
Stationsweg,42,,,3143LS,Maassluis,Maassluis,Zuid-Holland,VBO,4.251365,51.917644
Stationsweg,43,,,3143LS,Maassluis,Maassluis,Zuid-Holland,VBO,4.251327,51.917658
Stationsweg,44,,,3143LS,Maassluis,Maassluis,Zuid-Holland,VBO,4.251292,51.917674
Stationsweg,45,,,3143LS,Maassluis,Maassluis,Zuid-Holland,VBO,4.251255,51.917688
Stationsweg,46,,,3143LS,Maassluis,Maassluis,Zuid-Holland,VBO,4.251219,51.917704
Stationsweg,47,,,3143LS,Maassluis,Maassluis,Zuid-Holland,VBO,4.251183,51.917720
Stationsweg,48,,,3143LS,Maassluis,Maassluis,Zuid-Holland,VBO,4.251149,51.917735
Stationsweg,49,,,3143LS,Maassluis,Maassluis,Zuid-Holland,VBO,4.251111,51.917753
Stationsweg,50,,,3143LS,Maassluis,Maassluis,Zuid-Holland,VBO,4.251077,51.917768
Stationsweg,51,,,3143LS,Maassluis,Maassluis,Zuid-Holland,VBO,4.251039,51.917782
Stationsweg,52,,,3143LS,Maassluis,Maassluis,Zuid-Holland,VBO,4.251003,51.917796
Stationsweg,53,,,3143LS,Maassluis,Maassluis,Zuid-Holland,VBO,4.250966,51.917814
Stationsweg,54,,,3143LS,Maassluis,Maassluis,Zuid-Holland,VBO,4.250932,51.917829
Stationsweg,55,,,3143LS,Maassluis,Maassluis,Zuid-Holland,VBO,4.250894,51.917843
Stationsweg,56,,,3143LS,Maassluis,Maassluis,Zuid-Holland,VBO,4.250856,51.917858
Stationsweg,57,,,3143LS,Maassluis,Maassluis,Zuid-Holland,VBO,4.250822,51.917873
Stationsweg,58,,,3143LS,Maassluis,Maassluis,Zuid-Holland,VBO,4.250783,51.917890
Stationsweg,59,,,3143LS,Maassluis,Maassluis,Zuid-Holland,VBO,4.250750,51.917905
Stationsweg,60,,,3143LS,Maassluis,Maassluis,Zuid-Holland,VBO,4.250713,51.917919
Stationsweg,61,,,3143LS,Maassluis,Maassluis,Zuid-Holland,VBO,4.250676,51.917936
Stationsweg,62,,,3143LS,Maassluis,Maassluis,Zuid-Holland,VBO,4.250641,51.917950
Stationsweg,63,,,3143LS,Maassluis,Maassluis,Zuid-Holland,VBO,4.250602,51.917966
Stationsweg,64,,,3143LS,Maassluis,Maassluis,Zuid-Holland,VBO,4.250567,51.917981
Stationsweg,65,,,3143LS,Maassluis,Maassluis,Zuid-Holland,VBO,4.250532,51.917995
Stationsweg,66,,,3143LS,Maassluis,Maassluis,Zuid-Holland,VBO,4.250496,51.918011
Stationsweg,67,,,3143LS,Maassluis,Maassluis,Zuid-Holland,VBO,4.250458,51.918027
Stationsweg,68,,,3143LS,Maassluis,Maassluis,Zuid-Holland,VBO,4.250422,51.918041
Stationsweg,69,,,3143LS,Maassluis,Maassluis,Zuid-Holland,VBO,4.250385,51.918056
Stationsweg,70,,,3143LS,Maassluis,Maassluis,Zuid-Holland,VBO,4.250350,51.918072
Stationsweg,71,,,3143LS,Maassluis,Maassluis,Zuid-Holland,VBO,4.250315,51.918084
Stationsweg,72,,,3143LS,Maassluis,Maassluis,Zuid-Holland,VBO,4.250280,51.918101
Stationsweg,73,,,3143LS,Maassluis,Maassluis,Zuid-Holland,VBO,4.250244,51.918115
Stationsweg,74,,,3143LS,Maassluis,Maassluis,Zuid-Holland,VBO,4.250208,51.918128
Stationsweg,75,,,3143LS,Maassluis,Maassluis,Zuid-Holland,VBO,4.250175,51.918145
Stationsweg,76,,,3143LS,Maassluis,Maassluis,Zuid-Holland,VBO,4.250137,51.918158
Hooge Zeedijk,2,,,3143LT,Maassluis,Maassluis,Zuid-Holland,VBO,4.262037,51.911857
