openbareruimtenaam,huisnummer,huisletter,huisnummertoevoeging,postcode,woonplaatsnaam,gemeentenaam,provincienaam,typeadresseerbaarobject,longitude,latitude
Van Maanenstraat,1,,,4043GA,Opheusden,Neder-Betuwe,Gelderland,VBO,5.622774,51.928836
Van Maanenstraat,2,,,4043GA,Opheusden,Neder-Betuwe,Gelderland,VBO,5.624308,51.930252
Van Maanenstraat,3,,,4043GA,Opheusden,Neder-Betuwe,Gelderland,VBO,5.624159,51.930234
Van Maanenstraat,4,,,4043GA,Opheusden,Neder-Betuwe,Gelderland,VBO,5.623985,51.930248
Van Maanenstraat,5,,,4043GA,Opheusden,Neder-Betuwe,Gelderland,VBO,5.623881,51.930309
Van Maanenstraat,6,,,4043GA,Opheusden,Neder-Betuwe,Gelderland,VBO,5.623873,51.930467
Van Maanenstraat,7,,,4043GA,Opheusden,Neder-Betuwe,Gelderland,VBO,5.623871,51.930502
Van Maanenstraat,8,,,4043GA,Opheusden,Neder-Betuwe,Gelderland,VBO,5.624233,51.930271
Van Maanenstraat,9,,,4043GA,Opheusden,Neder-Betuwe,Gelderland,VBO,5.624146,51.930267
Van Maanenstraat,10,,,4043GA,Opheusden,Neder-Betuwe,Gelderland,VBO,5.624099,51.930280
Van Maanenstraat,11,,,4043GA,Opheusden,Neder-Betuwe,Gelderland,VBO,5.624009,51.930292
Van Maanenstraat,12,,,4043GA,Opheusden,Neder-Betuwe,Gelderland,VBO,5.623954,51.930330
Van Maanenstraat,13,,,4043GA,Opheusden,Neder-Betuwe,Gelderland,VBO,5.623942,51.930379
Van Maanenstraat,14,,,4043GA,Opheusden,Neder-Betuwe,Gelderland,VBO,5.623953,51.930428
Van Maanenstraat,15,,,4043GA,Opheusden,Neder-Betuwe,Gelderland,VBO,5.623949,51.930477
Verschuurestraat,1,,,4043GB,Opheusden,Neder-Betuwe,Gelderland,VBO,5.623123,51.930327
Verschuurestraat,2,,,4043GB,Opheusden,Neder-Betuwe,Gelderland,VBO,5.623174,51.930294
Verschuurestraat,3,,,4043GB,Opheusden,Neder-Betuwe,Gelderland,VBO,5.623222,51.930264
Verschuurestraat,4,,,4043GB,Opheusden,Neder-Betuwe,Gelderland,VBO,5.623255,51.930237
Verschuurestraat,5,,,4043GB,Opheusden,Neder-Betuwe,Gelderland,VBO,5.623297,51.930205
Verschuurestraat,6,,,4043GB,Opheusden,Neder-Betuwe,Gelderland,VBO,5.623071,51.929971
Verschuurestraat,7,,,4043GB,Opheusden,Neder-Betuwe,Gelderland,VBO,5.623155,51.930276
Verschuurestraat,8,,,4043GB,Opheusden,Neder-Betuwe,Gelderland,VBO,5.623198,51.930246
Verschuurestraat,9,,,4043GB,Opheusden,Neder-Betuwe,Gelderland,VBO,5.623316,51.930110
Verschuurestraat,10,,,4043GB,Opheusden,Neder-Betuwe,Gelderland,VBO,5.623278,51.930077
Verschuurestraat,11,,,4043GB,Opheusden,Neder-Betuwe,Gelderland,VBO,5.623252,51.930058
Verschuurestraat,12,,,4043GB,Opheusden,Neder-Betuwe,Gelderland,VBO,5.623223,51.930036
Verschuurestraat,13,,,4043GB,Opheusden,Neder-Betuwe,Gelderland,VBO,5.623170,51.930013
Verschuurestraat,14,,,4043GB,Opheusden,Neder-Betuwe,Gelderland,VBO,5.623135,51.929993
Viergeverstraat,1,,,4043GC,Opheusden,Neder-Betuwe,Gelderland,VBO,5.624349,51.930719
Viergeverstraat,3,,,4043GC,Opheusden,Neder-Betuwe,Gelderland,VBO,5.624269,51.930718
Viergeverstraat,5,,,4043GC,Opheusden,Neder-Betuwe,Gelderland,VBO,5.624189,51.930716
Viergeverstraat,7,,,4043GC,Opheusden,Neder-Betuwe,Gelderland,VBO,5.624109,51.930715
Viergeverstraat,9,,,4043GC,Opheusden,Neder-Betuwe,Gelderland,VBO,5.624030,51.930717
Viergeverstraat,11,,,4043GC,Opheusden,Neder-Betuwe,Gelderland,VBO,5.623921,51.930731
Viergeverstraat,13,,,4043GC,Opheusden,Neder-Betuwe,Gelderland,VBO,5.622866,51.930475
Viergeverstraat,15,,,4043GC,Opheusden,Neder-Betuwe,Gelderland,VBO,5.622814,51.930430
Viergeverstraat,17,,,4043GC,Opheusden,Neder-Betuwe,Gelderland,VBO,5.622757,51.930400
Viergeverstraat,19,,,4043GC,Opheusden,Neder-Betuwe,Gelderland,VBO,5.622703,51.930367
Viergeverstraat,21,,,4043GC,Opheusden,Neder-Betuwe,Gelderland,VBO,5.622641,51.930332
Viergeverstraat,23,,,4043GC,Opheusden,Neder-Betuwe,Gelderland,VBO,5.622558,51.930298
Viergeverstraat,25,,,4043GC,Opheusden,Neder-Betuwe,Gelderland,VBO,5.622229,51.930149
Viergeverstraat,27,,,4043GC,Opheusden,Neder-Betuwe,Gelderland,VBO,5.622157,51.930133
Viergeverstraat,29,,,4043GC,Opheusden,Neder-Betuwe,Gelderland,VBO,5.622085,51.930112
Viergeverstraat,31,,,4043GC,Opheusden,Neder-Betuwe,Gelderland,VBO,5.622019,51.930090
Viergeverstraat,33,,,4043GC,Opheusden,Neder-Betuwe,Gelderland,VBO,5.621938,51.930073
Viergeverstraat,35,,,4043GC,Opheusden,Neder-Betuwe,Gelderland,VBO,5.621760,51.930023
Viergeverstraat,37,,,4043GC,Opheusden,Neder-Betuwe,Gelderland,VBO,5.621694,51.930013
Viergeverstraat,39,,,4043GC,Opheusden,Neder-Betuwe,Gelderland,VBO,5.621628,51.929993
Viergeverstraat,41,,,4043GC,Opheusden,Neder-Betuwe,Gelderland,VBO,5.621550,51.929977
Viergeverstraat,43,,,4043GC,Opheusden,Neder-Betuwe,Gelderland,VBO,5.621494,51.929951
Viergeverstraat,2,,,4043GD,Opheusden,Neder-Betuwe,Gelderland,VBO,5.625427,51.931296
Viergeverstraat,4,,,4043GD,Opheusden,Neder-Betuwe,Gelderland,VBO,5.625217,51.931244
Viergeverstraat,6,,,4043GD,Opheusden,Neder-Betuwe,Gelderland,VBO,5.625001,51.931204
Viergeverstraat,8,,,4043GD,Opheusden,Neder-Betuwe,Gelderland,VBO,5.624797,51.931147
Viergeverstraat,10,,,4043GD,Opheusden,Neder-Betuwe,Gelderland,VBO,5.624332,51.931106
Viergeverstraat,12,,,4043GD,Opheusden,Neder-Betuwe,Gelderland,VBO,5.624119,51.931135
Viergeverstraat,14,,,4043GD,Opheusden,Neder-Betuwe,Gelderland,VBO,5.623924,51.931154
Viergeverstraat,16,,,4043GD,Opheusden,Neder-Betuwe,Gelderland,VBO,5.623739,51.931192
Viergeverstraat,18,,,4043GD,Opheusden,Neder-Betuwe,Gelderland,VBO,5.623542,51.931218
Viergeverstraat,20,,,4043GD,Opheusden,Neder-Betuwe,Gelderland,VBO,5.623271,51.931236
Viergeverstraat,22,,,4043GD,Opheusden,Neder-Betuwe,Gelderland,VBO,5.622752,51.931129
Annevelinkhof,1,,,4043GE,Opheusden,Neder-Betuwe,Gelderland,VBO,5.623203,51.930708
Annevelinkhof,2,,,4043GE,Opheusden,Neder-Betuwe,Gelderland,VBO,5.623130,51.930696
Annevelinkhof,3,,,4043GE,Opheusden,Neder-Betuwe,Gelderland,VBO,5.623422,51.930763
Annevelinkhof,4,,,4043GE,Opheusden,Neder-Betuwe,Gelderland,VBO,5.623504,51.930760
Annevelinkhof,5,,,4043GE,Opheusden,Neder-Betuwe,Gelderland,VBO,5.623133,51.930658
Annevelinkhof,6,,,4043GE,Opheusden,Neder-Betuwe,Gelderland,VBO,5.623224,51.930670
Annevelinkhof,7,,,4043GE,Opheusden,Neder-Betuwe,Gelderland,VBO,5.623343,51.930685
Annevelinkhof,8,,,4043GE,Opheusden,Neder-Betuwe,Gelderland,VBO,5.623445,51.930701
Annevelinkhof,9,,,4043GE,Opheusden,Neder-Betuwe,Gelderland,VBO,5.623195,51.930627
Annevelinkhof,10,,,4043GE,Opheusden,Neder-Betuwe,Gelderland,VBO,5.623286,51.930733
Annevelinkhof,11,,,4043GE,Opheusden,Neder-Betuwe,Gelderland,VBO,5.623265,51.930642
Annevelinkhof,12,,,4043GE,Opheusden,Neder-Betuwe,Gelderland,VBO,5.623411,51.930653
Annevelinkhof,13,,,4043GE,Opheusden,Neder-Betuwe,Gelderland,VBO,5.623486,51.930670
Annevelinkhof,14,,,4043GE,Opheusden,Neder-Betuwe,Gelderland,VBO,5.623283,51.930620
Caspersstraat,1,,,4043GG,Opheusden,Neder-Betuwe,Gelderland,VBO,5.623251,51.932037
Caspersstraat,2,,,4043GG,Opheusden,Neder-Betuwe,Gelderland,VBO,5.623479,51.931846
Caspersstraat,3,,,4043GG,Opheusden,Neder-Betuwe,Gelderland,VBO,5.623433,51.932064
Caspersstraat,4,,,4043GG,Opheusden,Neder-Betuwe,Gelderland,VBO,5.623566,51.931790
Caspersstraat,5,,,4043GG,Opheusden,Neder-Betuwe,Gelderland,VBO,5.623643,51.932112
Caspersstraat,6,,,4043GG,Opheusden,Neder-Betuwe,Gelderland,VBO,5.623645,51.931688
Caspersstraat,7,,,4043GG,Opheusden,Neder-Betuwe,Gelderland,VBO,5.623731,51.932135
Caspersstraat,8,,,4043GG,Opheusden,Neder-Betuwe,Gelderland,VBO,5.623698,51.931645
Caspersstraat,10,,,4043GG,Opheusden,Neder-Betuwe,Gelderland,VBO,5.623845,51.931534
Caspersstraat,12,,,4043GG,Opheusden,Neder-Betuwe,Gelderland,VBO,5.624056,51.931518
Caspersstraat,14,,,4043GG,Opheusden,Neder-Betuwe,Gelderland,VBO,5.624126,51.931495
Caspersstraat,15,,,4043GG,Opheusden,Neder-Betuwe,Gelderland,VBO,5.624632,51.932123
Caspersstraat,16,,,4043GG,Opheusden,Neder-Betuwe,Gelderland,VBO,5.624416,51.931460
Caspersstraat,17,,,4043GG,Opheusden,Neder-Betuwe,Gelderland,VBO,5.624819,51.932027
Caspersstraat,19,,,4043GG,Opheusden,Neder-Betuwe,Gelderland,VBO,5.624861,51.931974
Caspersstraat,21,,,4043GG,Opheusden,Neder-Betuwe,Gelderland,VBO,5.624954,51.931863
Caspersstraat,23,,,4043GG,Opheusden,Neder-Betuwe,Gelderland,VBO,5.624958,51.931798
Caspersstraat,25,,,4043GG,Opheusden,Neder-Betuwe,Gelderland,VBO,5.624932,51.931658
Caspersstraat,27,,,4043GG,Opheusden,Neder-Betuwe,Gelderland,VBO,5.624879,51.931596
Caspersstraat,29,,,4043GG,Opheusden,Neder-Betuwe,Gelderland,VBO,5.624809,51.931451
Gerrit Achterbergstraat,1,,,4043GH,Opheusden,Neder-Betuwe,Gelderland,VBO,5.622860,51.932313
Gerrit Achterbergstraat,2,a,,4043GH,Opheusden,Neder-Betuwe,Gelderland,VBO,5.622430,51.931971
Gerrit Achterbergstraat,2,,,4043GH,Opheusden,Neder-Betuwe,Gelderland,VBO,5.622405,51.932021
Gerrit Achterbergstraat,3,,,4043GH,Opheusden,Neder-Betuwe,Gelderland,VBO,5.622885,51.932265
Gerrit Achterbergstraat,4,,,4043GH,Opheusden,Neder-Betuwe,Gelderland,VBO,5.622408,51.931840
Gerrit Achterbergstraat,5,a,,4043GH,Opheusden,Neder-Betuwe,Gelderland,VBO,5.622945,51.932115
Gerrit Achterbergstraat,5,b,,4043GH,Opheusden,Neder-Betuwe,Gelderland,VBO,5.622980,51.932051
Gerrit Achterbergstraat,5,,,4043GH,Opheusden,Neder-Betuwe,Gelderland,VBO,5.622927,51.932222
Gerrit Achterbergstraat,6,,,4043GH,Opheusden,Neder-Betuwe,Gelderland,VBO,5.622524,51.931604
Gerrit Achterbergstraat,7,,,4043GH,Opheusden,Neder-Betuwe,Gelderland,VBO,5.622986,51.931664
Gerrit Achterbergstraat,8,,,4043GH,Opheusden,Neder-Betuwe,Gelderland,VBO,5.622554,51.931531
Gerrit Achterbergstraat,9,,,4043GH,Opheusden,Neder-Betuwe,Gelderland,VBO,5.623030,51.931596
Gerrit Achterbergstraat,10,,,4043GH,Opheusden,Neder-Betuwe,Gelderland,VBO,5.622622,51.931385
Gerrit Achterbergstraat,11,,,4043GH,Opheusden,Neder-Betuwe,Gelderland,VBO,5.623147,51.931532
Gerrit Achterbergstraat,12,,,4043GH,Opheusden,Neder-Betuwe,Gelderland,VBO,5.622687,51.931312
Gerrit Achterbergstraat,13,,,4043GH,Opheusden,Neder-Betuwe,Gelderland,VBO,5.623185,51.931438
Nannenbergstraat,2,,,4043GJ,Opheusden,Neder-Betuwe,Gelderland,VBO,5.622147,51.931741
Nannenbergstraat,4,,,4043GJ,Opheusden,Neder-Betuwe,Gelderland,VBO,5.622059,51.931730
Nannenbergstraat,6,,,4043GJ,Opheusden,Neder-Betuwe,Gelderland,VBO,5.621989,51.931719
Nannenbergstraat,8,,,4043GJ,Opheusden,Neder-Betuwe,Gelderland,VBO,5.621918,51.931700
Nannenbergstraat,18,,,4043GJ,Opheusden,Neder-Betuwe,Gelderland,VBO,5.621521,51.931352
Nannenbergstraat,42,,,4043GJ,Opheusden,Neder-Betuwe,Gelderland,VBO,5.620839,51.930367
Nannenbergstraat,44,,,4043GJ,Opheusden,Neder-Betuwe,Gelderland,VBO,5.620865,51.930320
Nannenbergstraat,3,,,4043GK,Opheusden,Neder-Betuwe,Gelderland,VBO,5.621948,51.931310
Nannenbergstraat,5,,,4043GK,Opheusden,Neder-Betuwe,Gelderland,VBO,5.621936,51.931182
Nannenbergstraat,7,,,4043GK,Opheusden,Neder-Betuwe,Gelderland,VBO,5.621935,51.931131
Nannenbergstraat,13,,,4043GK,Opheusden,Neder-Betuwe,Gelderland,VBO,5.621661,51.930859
Nannenbergstraat,17,,,4043GK,Opheusden,Neder-Betuwe,Gelderland,VBO,5.621276,51.930676
Nannenbergstraat,19,,,4043GK,Opheusden,Neder-Betuwe,Gelderland,VBO,5.621215,51.930647
Nannenbergstraat,21,,,4043GK,Opheusden,Neder-Betuwe,Gelderland,VBO,5.621151,51.930615
Nannenbergstraat,23,,,4043GK,Opheusden,Neder-Betuwe,Gelderland,VBO,5.621092,51.930579
Zijlstrastraat,1,,,4043GL,Opheusden,Neder-Betuwe,Gelderland,VBO,5.621670,51.929670
Zijlstrastraat,2,,,4043GL,Opheusden,Neder-Betuwe,Gelderland,VBO,5.621044,51.929866
Zijlstrastraat,4,,,4043GL,Opheusden,Neder-Betuwe,Gelderland,VBO,5.621110,51.929737
Zijlstrastraat,5,,,4043GL,Opheusden,Neder-Betuwe,Gelderland,VBO,5.621972,51.929787
Zijlstrastraat,6,,,4043GL,Opheusden,Neder-Betuwe,Gelderland,VBO,5.621184,51.929629
Zijlstrastraat,7,,,4043GL,Opheusden,Neder-Betuwe,Gelderland,VBO,5.622129,51.929818
Zijlstrastraat,9,,,4043GL,Opheusden,Neder-Betuwe,Gelderland,VBO,5.622265,51.929785
Zijlstrastraat,11,,,4043GL,Opheusden,Neder-Betuwe,Gelderland,VBO,5.622469,51.929887
Zijlstrastraat,13,,,4043GL,Opheusden,Neder-Betuwe,Gelderland,VBO,5.622557,51.929928
Rijksweg A-15,1,,,4043HA,Opheusden,Neder-Betuwe,Gelderland,VBO,5.605094,51.922071
Rijksweg A-15,2,,,4043HA,Opheusden,Neder-Betuwe,Gelderland,VBO,5.606976,51.923578
Rijksweg A-15,4,,,4043HA,Opheusden,Neder-Betuwe,Gelderland,VBO,5.603356,51.923449
Koningsstraat,1,,,4043JA,Opheusden,Neder-Betuwe,Gelderland,VBO,5.634331,51.936070
Koningsstraat,3,,,4043JA,Opheusden,Neder-Betuwe,Gelderland,VBO,5.635044,51.936015
Koningsstraat,5,a,,4043JA,Opheusden,Neder-Betuwe,Gelderland,VBO,5.635884,51.936035
Koningsstraat,5,b,,4043JA,Opheusden,Neder-Betuwe,Gelderland,VBO,5.636002,51.936168
Koningsstraat,5,,,4043JA,Opheusden,Neder-Betuwe,Gelderland,VBO,5.635684,51.936032
Koningsstraat,7,a,,4043JA,Opheusden,Neder-Betuwe,Gelderland,VBO,5.638797,51.936339
Koningsstraat,7,,,4043JA,Opheusden,Neder-Betuwe,Gelderland,VBO,5.636994,51.936271
Koningsstraat,9,,,4043JA,Opheusden,Neder-Betuwe,Gelderland,VBO,5.639176,51.936420
Koningsstraat,15,,,4043JA,Opheusden,Neder-Betuwe,Gelderland,VBO,5.641224,51.936988
Koningsstraat,17,,,4043JA,Opheusden,Neder-Betuwe,Gelderland,VBO,5.641390,51.937080
Koningsstraat,19,a,,4043JA,Opheusden,Neder-Betuwe,Gelderland,VBO,5.642938,51.937763
Koningsstraat,19,,,4043JA,Opheusden,Neder-Betuwe,Gelderland,VBO,5.641521,51.937143
Koningsstraat,2,a,,4043JB,Opheusden,Neder-Betuwe,Gelderland,VBO,5.634057,51.935828
Koningsstraat,2,,,4043JB,Opheusden,Neder-Betuwe,Gelderland,VBO,5.634257,51.935747
Koningsstraat,4,,,4043JB,Opheusden,Neder-Betuwe,Gelderland,VBO,5.634475,51.935728
Koningsstraat,6,,,4043JB,Opheusden,Neder-Betuwe,Gelderland,VBO,5.634751,51.935719
Koningsstraat,8,,,4043JB,Opheusden,Neder-Betuwe,Gelderland,VBO,5.634940,51.935683
Koningsstraat,10,a,,4043JB,Opheusden,Neder-Betuwe,Gelderland,VBO,5.635493,51.935735
Koningsstraat,10,,,4043JB,Opheusden,Neder-Betuwe,Gelderland,VBO,5.635217,51.935730
Koningsstraat,12,,,4043JB,Opheusden,Neder-Betuwe,Gelderland,VBO,5.635595,51.935771
Koningsstraat,14,a,,4043JB,Opheusden,Neder-Betuwe,Gelderland,VBO,5.636322,51.935814
Koningsstraat,14,,,4043JB,Opheusden,Neder-Betuwe,Gelderland,VBO,5.635915,51.935788
Koningsstraat,16,,,4043JB,Opheusden,Neder-Betuwe,Gelderland,VBO,5.636686,51.935805
Koningsstraat,18,a,,4043JB,Opheusden,Neder-Betuwe,Gelderland,VBO,5.637586,51.935596
Koningsstraat,18,b,,4043JB,Opheusden,Neder-Betuwe,Gelderland,VBO,5.637181,51.935867
Koningsstraat,18,,,4043JB,Opheusden,Neder-Betuwe,Gelderland,VBO,5.636771,51.935526
Koningsstraat,20,a,,4043JB,Opheusden,Neder-Betuwe,Gelderland,VBO,5.637751,51.935684
Koningsstraat,20,b,,4043JB,Opheusden,Neder-Betuwe,Gelderland,VBO,5.637813,51.935771
Koningsstraat,20,,,4043JB,Opheusden,Neder-Betuwe,Gelderland,VBO,5.637479,51.935946
Koningsstraat,22,a,,4043JB,Opheusden,Neder-Betuwe,Gelderland,VBO,5.639130,51.936087
Koningsstraat,22,,,4043JB,Opheusden,Neder-Betuwe,Gelderland,VBO,5.639304,51.935907
Koningsstraat,24,,,4043JB,Opheusden,Neder-Betuwe,Gelderland,VBO,5.639741,51.936167
Koningsstraat,26,,,4043JB,Opheusden,Neder-Betuwe,Gelderland,VBO,5.640237,51.936363
Koningsstraat,28,,,4043JB,Opheusden,Neder-Betuwe,Gelderland,VBO,5.640294,51.936219
Koningsstraat,30,,,4043JB,Opheusden,Neder-Betuwe,Gelderland,VBO,5.640717,51.936353
Koningsstraat,32,,,4043JB,Opheusden,Neder-Betuwe,Gelderland,VBO,5.640965,51.936622
Lakemondsestraat,1,a,,4043JC,Opheusden,Neder-Betuwe,Gelderland,VBO,5.643733,51.937940
Lakemondsestraat,1,,,4043JC,Opheusden,Neder-Betuwe,Gelderland,VBO,5.643550,51.937877
Lakemondsestraat,5,a,,4043JC,Opheusden,Neder-Betuwe,Gelderland,VBO,5.648586,51.939284
Lakemondsestraat,5,,,4043JC,Opheusden,Neder-Betuwe,Gelderland,VBO,5.647596,51.939062
Lakemondsestraat,7,a,,4043JC,Opheusden,Neder-Betuwe,Gelderland,VBO,5.650100,51.939541
Lakemondsestraat,7,,,4043JC,Opheusden,Neder-Betuwe,Gelderland,VBO,5.650023,51.939521
Lakemondsestraat,9,a,,4043JC,Opheusden,Neder-Betuwe,Gelderland,VBO,5.652315,51.940265
Lakemondsestraat,9,,,4043JC,Opheusden,Neder-Betuwe,Gelderland,VBO,5.651658,51.939925
Lakemondsestraat,11,a,,4043JC,Opheusden,Neder-Betuwe,Gelderland,VBO,5.653422,51.940667
Lakemondsestraat,11,,,4043JC,Opheusden,Neder-Betuwe,Gelderland,VBO,5.653539,51.940959
Lakemondsestraat,13,a,,4043JC,Opheusden,Neder-Betuwe,Gelderland,VBO,5.657208,51.941440
Lakemondsestraat,13,b,,4043JC,Opheusden,Neder-Betuwe,Gelderland,VBO,5.655431,51.940986
Lakemondsestraat,13,,,4043JC,Opheusden,Neder-Betuwe,Gelderland,VBO,5.654673,51.940673
Lakemondsestraat,15,,,4043JC,Opheusden,Neder-Betuwe,Gelderland,VBO,5.659070,51.942020
Lakemondsestraat,17,a,,4043JC,Opheusden,Neder-Betuwe,Gelderland,VBO,5.660477,51.942520
Lakemondsestraat,17,,,4043JC,Opheusden,Neder-Betuwe,Gelderland,VBO,5.659773,51.942315
Lakemondsestraat,19,,,4043JC,Opheusden,Neder-Betuwe,Gelderland,VBO,5.661070,51.942680
Lakemondsestraat,21,,,4043JC,Opheusden,Neder-Betuwe,Gelderland,VBO,5.661463,51.942814
Lakemondsestraat,2,a,,4043JD,Opheusden,Neder-Betuwe,Gelderland,VBO,5.643631,51.937483
Lakemondsestraat,2,b,,4043JD,Opheusden,Neder-Betuwe,Gelderland,VBO,5.644564,51.937747
Lakemondsestraat,2,c,,4043JD,Opheusden,Neder-Betuwe,Gelderland,VBO,5.644992,51.937811
Lakemondsestraat,2,d,,4043JD,Opheusden,Neder-Betuwe,Gelderland,VBO,5.644212,51.937349
Lakemondsestraat,2,,,4043JD,Opheusden,Neder-Betuwe,Gelderland,VBO,5.644929,51.937892
Lakemondsestraat,4,,,4043JD,Opheusden,Neder-Betuwe,Gelderland,VBO,5.645558,51.938026
Lakemondsestraat,6,a,,4043JD,Opheusden,Neder-Betuwe,Gelderland,VBO,5.647041,51.938614
Lakemondsestraat,6,,,4043JD,Opheusden,Neder-Betuwe,Gelderland,VBO,5.646428,51.938336
Lakemondsestraat,8,,,4043JD,Opheusden,Neder-Betuwe,Gelderland,VBO,5.647914,51.938710
Lakemondsestraat,10,a,,4043JD,Opheusden,Neder-Betuwe,Gelderland,VBO,5.648323,51.938809
Lakemondsestraat,10,,,4043JD,Opheusden,Neder-Betuwe,Gelderland,VBO,5.648202,51.938861
Lakemondsestraat,12,,,4043JD,Opheusden,Neder-Betuwe,Gelderland,VBO,5.648584,51.938862
Lakemondsestraat,14,,,4043JD,Opheusden,Neder-Betuwe,Gelderland,VBO,5.648918,51.938924
Lakemondsestraat,16,,,4043JD,Opheusden,Neder-Betuwe,Gelderland,VBO,5.649326,51.938995
Lakemondsestraat,18,,,4043JD,Opheusden,Neder-Betuwe,Gelderland,VBO,5.650221,51.939167
Lakemondsestraat,24,a,,4043JD,Opheusden,Neder-Betuwe,Gelderland,VBO,5.651263,51.939458
Lakemondsestraat,24,,,4043JD,Opheusden,Neder-Betuwe,Gelderland,VBO,5.650806,51.939329
Lakemondsestraat,26,,,4043JD,Opheusden,Neder-Betuwe,Gelderland,VBO,5.651787,51.939538
Lakemondsestraat,28,,,4043JD,Opheusden,Neder-Betuwe,Gelderland,VBO,5.652355,51.939689
Lakemondsestraat,30,,,4043JD,Opheusden,Neder-Betuwe,Gelderland,VBO,5.653243,51.939912
Lakemondsestraat,32,,,4043JD,Opheusden,Neder-Betuwe,Gelderland,VBO,5.655340,51.940393
Lakemondsestraat,34,,,4043JD,Opheusden,Neder-Betuwe,Gelderland,VBO,5.656185,51.940525
Lakemondsestraat,36,,,4043JD,Opheusden,Neder-Betuwe,Gelderland,VBO,5.657482,51.941089
Lakemondsestraat,38,,,4043JD,Opheusden,Neder-Betuwe,Gelderland,VBO,5.659595,51.941749
Lakemondsestraat,40,,,4043JD,Opheusden,Neder-Betuwe,Gelderland,VBO,5.660047,51.941892
Lakemondsestraat,42,a,,4043JD,Opheusden,Neder-Betuwe,Gelderland,VBO,5.660709,51.942124
Lakemondsestraat,42,,,4043JD,Opheusden,Neder-Betuwe,Gelderland,VBO,5.660615,51.942097
Lakemondsestraat,44,a,,4043JD,Opheusden,Neder-Betuwe,Gelderland,VBO,5.661474,51.941252
Lakemondsestraat,44,,,4043JD,Opheusden,Neder-Betuwe,Gelderland,VBO,5.661522,51.941052
Lakemondsestraat,46,,,4043JD,Opheusden,Neder-Betuwe,Gelderland,VBO,5.661256,51.942302
Wolfswaard,1,,,4043JE,Opheusden,Neder-Betuwe,Gelderland,VBO,5.658082,51.950898
Wolfswaard,2,,,4043JE,Opheusden,Neder-Betuwe,Gelderland,VBO,5.657337,51.950769
Wolfswaard,3,,,4043JE,Opheusden,Neder-Betuwe,Gelderland,VBO,5.658332,51.951140
Rijnbandijk,1,a,,4043JH,Opheusden,Neder-Betuwe,Gelderland,VBO,5.650239,51.940988
Rijnbandijk,1,,,4043JH,Opheusden,Neder-Betuwe,Gelderland,VBO,5.649950,51.941259
Rijnbandijk,3,,,4043JH,Opheusden,Neder-Betuwe,Gelderland,VBO,5.647471,51.940150
Rijnbandijk,5,,,4043JH,Opheusden,Neder-Betuwe,Gelderland,VBO,5.639745,51.936796
Rijnbandijk,7,,,4043JH,Opheusden,Neder-Betuwe,Gelderland,VBO,5.638201,51.936260
Rijnbandijk,9,,,4043JH,Opheusden,Neder-Betuwe,Gelderland,VBO,5.637706,51.936216
Rijnbandijk,11,,,4043JH,Opheusden,Neder-Betuwe,Gelderland,VBO,5.632687,51.935813
Rijnbandijk,15,,,4043JH,Opheusden,Neder-Betuwe,Gelderland,VBO,5.632597,51.935487
Rijnbandijk,17,,,4043JH,Opheusden,Neder-Betuwe,Gelderland,VBO,5.632353,51.935850
Rijnbandijk,19,,,4043JH,Opheusden,Neder-Betuwe,Gelderland,VBO,5.632236,51.935805
Rijnbandijk,21,,,4043JH,Opheusden,Neder-Betuwe,Gelderland,VBO,5.632105,51.935805
Rijnbandijk,29,,,4043JH,Opheusden,Neder-Betuwe,Gelderland,VBO,5.631457,51.935643
Rijnbandijk,31,,,4043JH,Opheusden,Neder-Betuwe,Gelderland,VBO,5.631160,51.935771
Rijnbandijk,33,,,4043JH,Opheusden,Neder-Betuwe,Gelderland,VBO,5.630980,51.935720
Rijnbandijk,43,,,4043JH,Opheusden,Neder-Betuwe,Gelderland,VBO,5.630489,51.935431
Rijnbandijk,47,,,4043JJ,Opheusden,Neder-Betuwe,Gelderland,VBO,5.626825,51.935565
Rijnbandijk,51,,,4043JJ,Opheusden,Neder-Betuwe,Gelderland,VBO,5.626201,51.935674
Rijnbandijk,53,,,4043JJ,Opheusden,Neder-Betuwe,Gelderland,VBO,5.625357,51.935639
Rijnbandijk,55,,,4043JJ,Opheusden,Neder-Betuwe,Gelderland,VBO,5.624092,51.935660
Rijnbandijk,57,a,,4043JJ,Opheusden,Neder-Betuwe,Gelderland,VBO,5.623292,51.935500
Rijnbandijk,57,a,,4043JJ,Opheusden,Neder-Betuwe,Gelderland,VBO,5.623686,51.935530
Rijnbandijk,57,,,4043JJ,Opheusden,Neder-Betuwe,Gelderland,VBO,5.623816,51.935661
Rijnbandijk,59,,,4043JJ,Opheusden,Neder-Betuwe,Gelderland,VBO,5.622039,51.935567
Rijnbandijk,61,,,4043JJ,Opheusden,Neder-Betuwe,Gelderland,VBO,5.621887,51.935712
Rijnbandijk,63,,,4043JJ,Opheusden,Neder-Betuwe,Gelderland,VBO,5.621831,51.935586
Rijnbandijk,65,,,4043JJ,Opheusden,Neder-Betuwe,Gelderland,VBO,5.621300,51.935648
Rijnbandijk,67,,,4043JJ,Opheusden,Neder-Betuwe,Gelderland,VBO,5.620583,51.935675
Rijnbandijk,69,,,4043JJ,Opheusden,Neder-Betuwe,Gelderland,VBO,5.620225,51.935785
Rijnbandijk,71,,,4043JJ,Opheusden,Neder-Betuwe,Gelderland,VBO,5.619004,51.935904
Rijnbandijk,73,,,4043JJ,Opheusden,Neder-Betuwe,Gelderland,VBO,5.618917,51.935904
Rijnbandijk,75,,,4043JJ,Opheusden,Neder-Betuwe,Gelderland,VBO,5.618496,51.936076
Rijnbandijk,77,,,4043JJ,Opheusden,Neder-Betuwe,Gelderland,VBO,5.618438,51.936148
Rijnbandijk,81,,,4043JJ,Opheusden,Neder-Betuwe,Gelderland,VBO,5.618351,51.936139
Rijnbandijk,87,,,4043JJ,Opheusden,Neder-Betuwe,Gelderland,VBO,5.618292,51.936058
Rijnbandijk,89,,,4043JJ,Opheusden,Neder-Betuwe,Gelderland,VBO,5.618263,51.936013
Rijnbandijk,91,,,4043JK,Opheusden,Neder-Betuwe,Gelderland,VBO,5.617812,51.935870
Rijnbandijk,93,,,4043JK,Opheusden,Neder-Betuwe,Gelderland,VBO,5.617886,51.936149
Rijnbandijk,97,,,4043JK,Opheusden,Neder-Betuwe,Gelderland,VBO,5.617872,51.936382
Rijnbandijk,99,,,4043JK,Opheusden,Neder-Betuwe,Gelderland,VBO,5.617698,51.936365
Rijnbandijk,101,,,4043JK,Opheusden,Neder-Betuwe,Gelderland,VBO,5.617597,51.936500
Rijnbandijk,103,,,4043JK,Opheusden,Neder-Betuwe,Gelderland,VBO,5.616552,51.936969
Rijnbandijk,105,,,4043JK,Opheusden,Neder-Betuwe,Gelderland,VBO,5.614986,51.937781
Rijnbandijk,107,,,4043JK,Opheusden,Neder-Betuwe,Gelderland,VBO,5.613912,51.938170
Rijnbandijk,109,,,4043JK,Opheusden,Neder-Betuwe,Gelderland,VBO,5.613678,51.938089
Rijnbandijk,111,,,4043JK,Opheusden,Neder-Betuwe,Gelderland,VBO,5.613563,51.938192
Rijnbandijk,115,,,4043JK,Opheusden,Neder-Betuwe,Gelderland,VBO,5.612475,51.938694
Rijnbandijk,117,a,,4043JK,Opheusden,Neder-Betuwe,Gelderland,VBO,5.611842,51.938508
Rijnbandijk,117,b,,4043JK,Opheusden,Neder-Betuwe,Gelderland,VBO,5.612011,51.938536
Rijnbandijk,117,c,,4043JK,Opheusden,Neder-Betuwe,Gelderland,VBO,5.612245,51.938340
Rijnbandijk,117,d,,4043JK,Opheusden,Neder-Betuwe,Gelderland,VBO,5.612082,51.938502
Rijnbandijk,117,,,4043JK,Opheusden,Neder-Betuwe,Gelderland,VBO,5.612387,51.938730
Rijnbandijk,119,,,4043JK,Opheusden,Neder-Betuwe,Gelderland,VBO,5.612126,51.938820
Rijnbandijk,129,a,,4043JK,Opheusden,Neder-Betuwe,Gelderland,VBO,5.609017,51.939490
Rijnbandijk,129,b,,4043JK,Opheusden,Neder-Betuwe,Gelderland,VBO,5.607649,51.939179
Rijnbandijk,129,,,4043JK,Opheusden,Neder-Betuwe,Gelderland,VBO,5.609187,51.939496
Rijnbandijk,131,,,4043JK,Opheusden,Neder-Betuwe,Gelderland,VBO,5.607110,51.939064
Rijnbandijk,133,,,4043JK,Opheusden,Neder-Betuwe,Gelderland,VBO,5.606456,51.939101
Rijnbandijk,137,,,4043JK,Opheusden,Neder-Betuwe,Gelderland,VBO,5.603927,51.939465
Rijnbandijk,139,a,,4043JK,Opheusden,Neder-Betuwe,Gelderland,VBO,5.600821,51.940567
Rijnbandijk,139,,,4043JK,Opheusden,Neder-Betuwe,Gelderland,VBO,5.603318,51.939790
Rijnbandijk,141,,,4043JK,Opheusden,Neder-Betuwe,Gelderland,VBO,5.599580,51.940895
Rijnbandijk,143,,,4043JK,Opheusden,Neder-Betuwe,Gelderland,VBO,5.599442,51.940986
Rijnbandijk,145,,,4043JK,Opheusden,Neder-Betuwe,Gelderland,VBO,5.598133,51.941075
Rijnbandijk,147,,,4043JK,Opheusden,Neder-Betuwe,Gelderland,VBO,5.597173,51.941032
Rijnbandijk,2,,,4043JL,Opheusden,Neder-Betuwe,Gelderland,VBO,5.634129,51.936251
Rijnbandijk,4,,,4043JL,Opheusden,Neder-Betuwe,Gelderland,VBO,5.633081,51.936145
Rijnbandijk,6,,,4043JL,Opheusden,Neder-Betuwe,Gelderland,VBO,5.630754,51.935925
Rijnbandijk,12,,,4043JL,Opheusden,Neder-Betuwe,Gelderland,VBO,5.628762,51.935974
Rijnbandijk,14,,,4043JL,Opheusden,Neder-Betuwe,Gelderland,VBO,5.628543,51.935822
Rijnbandijk,16,a,,4043JL,Opheusden,Neder-Betuwe,Gelderland,VBO,5.628016,51.935828
Rijnbandijk,16,,,4043JL,Opheusden,Neder-Betuwe,Gelderland,VBO,5.628247,51.935761
Rijnbandijk,18,,,4043JL,Opheusden,Neder-Betuwe,Gelderland,VBO,5.627656,51.935833
Rijnbandijk,22,,,4043JL,Opheusden,Neder-Betuwe,Gelderland,VBO,5.625125,51.935820
Rijnbandijk,24,,,4043JL,Opheusden,Neder-Betuwe,Gelderland,VBO,5.625038,51.935811
Rijnbandijk,26,,,4043JL,Opheusden,Neder-Betuwe,Gelderland,VBO,5.624806,51.935820
Rijnbandijk,34,,,4043JL,Opheusden,Neder-Betuwe,Gelderland,VBO,5.610066,51.939849
Rijnbandijk,36,a,,4043JL,Opheusden,Neder-Betuwe,Gelderland,VBO,5.600184,51.941180
Rijnbandijk,36,,,4043JL,Opheusden,Neder-Betuwe,Gelderland,VBO,5.600591,51.941152
In 't Land,1,a,,4043JM,Opheusden,Neder-Betuwe,Gelderland,VBO,5.619190,51.934517
In 't Land,1,,,4043JM,Opheusden,Neder-Betuwe,Gelderland,VBO,5.619308,51.934537
In 't Land,2,a,,4043JM,Opheusden,Neder-Betuwe,Gelderland,VBO,5.618465,51.935617
In 't Land,2,b,,4043JM,Opheusden,Neder-Betuwe,Gelderland,VBO,5.617766,51.935592
In 't Land,2,c,,4043JM,Opheusden,Neder-Betuwe,Gelderland,VBO,5.616919,51.936145
In 't Land,2,,,4043JM,Opheusden,Neder-Betuwe,Gelderland,VBO,5.619290,51.934870
In 't Land,3,,,4043JM,Opheusden,Neder-Betuwe,Gelderland,VBO,5.618982,51.934385
In 't Land,4,,,4043JM,Opheusden,Neder-Betuwe,Gelderland,VBO,5.618054,51.934989
In 't Land,6,,,4043JM,Opheusden,Neder-Betuwe,Gelderland,VBO,5.618198,51.934773
In 't Land,7,,,4043JM,Opheusden,Neder-Betuwe,Gelderland,VBO,5.618152,51.934252
In 't Land,9,,,4043JM,Opheusden,Neder-Betuwe,Gelderland,VBO,5.617657,51.934028
In 't Land,13,,,4043JM,Opheusden,Neder-Betuwe,Gelderland,VBO,5.617395,51.933975
In 't Land,15,,,4043JM,Opheusden,Neder-Betuwe,Gelderland,VBO,5.617016,51.933858
In 't Land,17,a,,4043JM,Opheusden,Neder-Betuwe,Gelderland,VBO,5.616783,51.933832
In 't Land,17,b,,4043JM,Opheusden,Neder-Betuwe,Gelderland,VBO,5.616740,51.933823
In 't Land,19,,,4043JM,Opheusden,Neder-Betuwe,Gelderland,VBO,5.616463,51.933716
In 't Land,20,,,4043JM,Opheusden,Neder-Betuwe,Gelderland,VBO,5.620224,51.932765
In 't Land,21,,,4043JM,Opheusden,Neder-Betuwe,Gelderland,VBO,5.615794,51.933699
In 't Land,23,,,4043JM,Opheusden,Neder-Betuwe,Gelderland,VBO,5.616534,51.933518
In 't Land,25,,,4043JM,Opheusden,Neder-Betuwe,Gelderland,VBO,5.616563,51.933356
In 't Land,27,,,4043JM,Opheusden,Neder-Betuwe,Gelderland,VBO,5.616809,51.933239
In 't Land,29,,,4043JM,Opheusden,Neder-Betuwe,Gelderland,VBO,5.616559,51.932682
In 't Land,31,,,4043JM,Opheusden,Neder-Betuwe,Gelderland,VBO,5.618947,51.933306
Vispad,2,,,4043JN,Opheusden,Neder-Betuwe,Gelderland,VBO,5.620291,51.934418
Vispad,3,,,4043JN,Opheusden,Neder-Betuwe,Gelderland,VBO,5.620792,51.934456
Vispad,4,,,4043JN,Opheusden,Neder-Betuwe,Gelderland,VBO,5.620536,51.934103
Tielsestraat,1,a,,4043JP,Opheusden,Neder-Betuwe,Gelderland,VBO,5.616855,51.936492
Tielsestraat,3,a,,4043JP,Opheusden,Neder-Betuwe,Gelderland,VBO,5.615737,51.936881
Tielsestraat,3,,,4043JP,Opheusden,Neder-Betuwe,Gelderland,VBO,5.615839,51.936890
Tielsestraat,5,a,,4043JP,Opheusden,Neder-Betuwe,Gelderland,VBO,5.615272,51.936801
Tielsestraat,5,,,4043JP,Opheusden,Neder-Betuwe,Gelderland,VBO,5.615533,51.936836
Tielsestraat,7,,,4043JP,Opheusden,Neder-Betuwe,Gelderland,VBO,5.615169,51.936612
Tielsestraat,9,a,,4043JP,Opheusden,Neder-Betuwe,Gelderland,VBO,5.614660,51.936577
Tielsestraat,9,,,4043JP,Opheusden,Neder-Betuwe,Gelderland,VBO,5.614908,51.936712
Tielsestraat,11,,,4043JP,Opheusden,Neder-Betuwe,Gelderland,VBO,5.615164,51.935651
Tielsestraat,13,,,4043JP,Opheusden,Neder-Betuwe,Gelderland,VBO,5.615032,51.936204
Tielsestraat,15,,,4043JP,Opheusden,Neder-Betuwe,Gelderland,VBO,5.615137,51.936242
Tielsestraat,17,,,4043JP,Opheusden,Neder-Betuwe,Gelderland,VBO,5.614442,51.936731
Tielsestraat,19,,,4043JP,Opheusden,Neder-Betuwe,Gelderland,VBO,5.614311,51.936722
Tielsestraat,21,,,4043JP,Opheusden,Neder-Betuwe,Gelderland,VBO,5.614239,51.936722
Tielsestraat,27,,,4043JP,Opheusden,Neder-Betuwe,Gelderland,VBO,5.614454,51.936254
Tielsestraat,29,,,4043JP,Opheusden,Neder-Betuwe,Gelderland,VBO,5.614454,51.936191
Tielsestraat,31,,,4043JP,Opheusden,Neder-Betuwe,Gelderland,VBO,5.614628,51.936110
Tielsestraat,33,,,4043JP,Opheusden,Neder-Betuwe,Gelderland,VBO,5.614627,51.935948
Tielsestraat,35,,,4043JP,Opheusden,Neder-Betuwe,Gelderland,VBO,5.614064,51.936642
Tielsestraat,37,,,4043JP,Opheusden,Neder-Betuwe,Gelderland,VBO,5.613758,51.936570
Tielsestraat,39,,,4043JP,Opheusden,Neder-Betuwe,Gelderland,VBO,5.613540,51.936544
Tielsestraat,43,,,4043JP,Opheusden,Neder-Betuwe,Gelderland,VBO,5.613523,51.936085
Tielsestraat,47,,,4043JP,Opheusden,Neder-Betuwe,Gelderland,VBO,5.613855,51.935572
Tielsestraat,49,,,4043JP,Opheusden,Neder-Betuwe,Gelderland,VBO,5.613336,51.936436
Tielsestraat,51,,,4043JR,Opheusden,Neder-Betuwe,Gelderland,VBO,5.613263,51.936436
Tielsestraat,53,,,4043JR,Opheusden,Neder-Betuwe,Gelderland,VBO,5.613116,51.936158
Tielsestraat,55,,,4043JR,Opheusden,Neder-Betuwe,Gelderland,VBO,5.612841,51.936338
Tielsestraat,57,,,4043JR,Opheusden,Neder-Betuwe,Gelderland,VBO,5.612724,51.936330
Tielsestraat,59,,,4043JR,Opheusden,Neder-Betuwe,Gelderland,VBO,5.612985,51.936014
Tielsestraat,61,,,4043JR,Opheusden,Neder-Betuwe,Gelderland,VBO,5.612809,51.935808
Tielsestraat,63,,,4043JR,Opheusden,Neder-Betuwe,Gelderland,VBO,5.612723,51.935961
Tielsestraat,65,,,4043JR,Opheusden,Neder-Betuwe,Gelderland,VBO,5.612564,51.936186
Tielsestraat,67,,,4043JR,Opheusden,Neder-Betuwe,Gelderland,VBO,5.612564,51.936312
Tielsestraat,69,,,4043JR,Opheusden,Neder-Betuwe,Gelderland,VBO,5.612477,51.936267
Tielsestraat,71,,,4043JR,Opheusden,Neder-Betuwe,Gelderland,VBO,5.612069,51.936070
Tielsestraat,73,a,,4043JR,Opheusden,Neder-Betuwe,Gelderland,VBO,5.610919,51.935770
Tielsestraat,73,,,4043JR,Opheusden,Neder-Betuwe,Gelderland,VBO,5.611806,51.935846
Tielsestraat,75,,,4043JR,Opheusden,Neder-Betuwe,Gelderland,VBO,5.610569,51.935633
Tielsestraat,79,,,4043JR,Opheusden,Neder-Betuwe,Gelderland,VBO,5.609957,51.935409
Tielsestraat,81,a,,4043JR,Opheusden,Neder-Betuwe,Gelderland,VBO,5.609431,51.935279
Tielsestraat,81,,,4043JR,Opheusden,Neder-Betuwe,Gelderland,VBO,5.609520,51.935194
Tielsestraat,83,a,,4043JR,Opheusden,Neder-Betuwe,Gelderland,VBO,5.604575,51.934359
Tielsestraat,83,,,4043JR,Opheusden,Neder-Betuwe,Gelderland,VBO,5.607343,51.935162
Tielsestraat,85,a,,4043JR,Opheusden,Neder-Betuwe,Gelderland,VBO,5.602568,51.934538
Tielsestraat,85,b,,4043JR,Opheusden,Neder-Betuwe,Gelderland,VBO,5.602029,51.934265
Tielsestraat,85,c,,4043JR,Opheusden,Neder-Betuwe,Gelderland,VBO,5.600593,51.934007
Tielsestraat,85,,,4043JR,Opheusden,Neder-Betuwe,Gelderland,VBO,5.603425,51.934810
Tielsestraat,87,,,4043JR,Opheusden,Neder-Betuwe,Gelderland,VBO,5.599290,51.933685
Tielsestraat,89,,,4043JR,Opheusden,Neder-Betuwe,Gelderland,VBO,5.598663,51.933318
Tielsestraat,2,a,,4043JS,Opheusden,Neder-Betuwe,Gelderland,VBO,5.615295,51.937498
Tielsestraat,2,,,4043JS,Opheusden,Neder-Betuwe,Gelderland,VBO,5.615695,51.937205
Tielsestraat,4,,,4043JS,Opheusden,Neder-Betuwe,Gelderland,VBO,5.615322,51.937242
Tielsestraat,6,,,4043JS,Opheusden,Neder-Betuwe,Gelderland,VBO,5.615232,51.937170
Tielsestraat,8,,,4043JS,Opheusden,Neder-Betuwe,Gelderland,VBO,5.614898,51.937611
Tielsestraat,10,,,4043JS,Opheusden,Neder-Betuwe,Gelderland,VBO,5.615054,51.937157
Tielsestraat,12,,,4043JS,Opheusden,Neder-Betuwe,Gelderland,VBO,5.614804,51.937203
Tielsestraat,14,,,4043JS,Opheusden,Neder-Betuwe,Gelderland,VBO,5.614733,51.937224
Tielsestraat,16,,,4043JS,Opheusden,Neder-Betuwe,Gelderland,VBO,5.614575,51.937180
Tielsestraat,18,,,4043JS,Opheusden,Neder-Betuwe,Gelderland,VBO,5.614269,51.937019
Tielsestraat,22,,,4043JS,Opheusden,Neder-Betuwe,Gelderland,VBO,5.613880,51.937613
Tielsestraat,24,,,4043JS,Opheusden,Neder-Betuwe,Gelderland,VBO,5.613937,51.937370
Tielsestraat,26,,,4043JS,Opheusden,Neder-Betuwe,Gelderland,VBO,5.614051,51.936947
Tielsestraat,28,,,4043JS,Opheusden,Neder-Betuwe,Gelderland,VBO,5.613920,51.936929
Tielsestraat,30,,,4043JS,Opheusden,Neder-Betuwe,Gelderland,VBO,5.613687,51.936930
Tielsestraat,32,,,4043JS,Opheusden,Neder-Betuwe,Gelderland,VBO,5.613425,51.936867
Tielsestraat,36,,,4043JS,Opheusden,Neder-Betuwe,Gelderland,VBO,5.612901,51.936725
Tielsestraat,40,a,,4043JS,Opheusden,Neder-Betuwe,Gelderland,VBO,5.612408,51.936593
Tielsestraat,40,,,4043JS,Opheusden,Neder-Betuwe,Gelderland,VBO,5.612712,51.936689
Tielsestraat,42,,,4043JS,Opheusden,Neder-Betuwe,Gelderland,VBO,5.612162,51.936550
Tielsestraat,44,,,4043JS,Opheusden,Neder-Betuwe,Gelderland,VBO,5.612082,51.936430
Tielsestraat,46,,,4043JS,Opheusden,Neder-Betuwe,Gelderland,VBO,5.612008,51.936393
Tielsestraat,50,a,,4043JT,Opheusden,Neder-Betuwe,Gelderland,VBO,5.611857,51.936391
Tielsestraat,50,,,4043JT,Opheusden,Neder-Betuwe,Gelderland,VBO,5.611809,51.936439
Tielsestraat,52,,,4043JT,Opheusden,Neder-Betuwe,Gelderland,VBO,5.611532,51.936389
Tielsestraat,54,,,4043JT,Opheusden,Neder-Betuwe,Gelderland,VBO,5.611616,51.936310
Tielsestraat,56,,,4043JT,Opheusden,Neder-Betuwe,Gelderland,VBO,5.611358,51.936359
Tielsestraat,60,a,,4043JT,Opheusden,Neder-Betuwe,Gelderland,VBO,5.609320,51.938964
Tielsestraat,60,,,4043JT,Opheusden,Neder-Betuwe,Gelderland,VBO,5.611096,51.936306
Tielsestraat,62,,,4043JT,Opheusden,Neder-Betuwe,Gelderland,VBO,5.610630,51.936190
Tielsestraat,64,,,4043JT,Opheusden,Neder-Betuwe,Gelderland,VBO,5.610309,51.936091
Tielsestraat,66,a,,4043JT,Opheusden,Neder-Betuwe,Gelderland,VBO,5.609409,51.936127
Tielsestraat,66,b,,4043JT,Opheusden,Neder-Betuwe,Gelderland,VBO,5.608566,51.935925
Tielsestraat,66,,,4043JT,Opheusden,Neder-Betuwe,Gelderland,VBO,5.609960,51.935957
Tielsestraat,68,,,4043JT,Opheusden,Neder-Betuwe,Gelderland,VBO,5.608065,51.935896
Tielsestraat,70,a,,4043JT,Opheusden,Neder-Betuwe,Gelderland,VBO,5.606526,51.935595
Tielsestraat,70,,,4043JT,Opheusden,Neder-Betuwe,Gelderland,VBO,5.607772,51.935945
Tielsestraat,72,,,4043JT,Opheusden,Neder-Betuwe,Gelderland,VBO,5.605901,51.935686
Tielsestraat,74,,,4043JT,Opheusden,Neder-Betuwe,Gelderland,VBO,5.604854,51.935535
Tielsestraat,80,,,4043JT,Opheusden,Neder-Betuwe,Gelderland,VBO,5.604155,51.935420
Tielsestraat,82,,,4043JT,Opheusden,Neder-Betuwe,Gelderland,VBO,5.603516,51.935511
Tielsestraat,88,,,4043JT,Opheusden,Neder-Betuwe,Gelderland,VBO,5.602584,51.935216
Tielsestraat,92,a,,4043JT,Opheusden,Neder-Betuwe,Gelderland,VBO,5.601095,51.934851
Tielsestraat,92,,,4043JT,Opheusden,Neder-Betuwe,Gelderland,VBO,5.601623,51.934921
Tielsestraat,94,,,4043JT,Opheusden,Neder-Betuwe,Gelderland,VBO,5.600778,51.934617
Tielsestraat,96,,,4043JT,Opheusden,Neder-Betuwe,Gelderland,VBO,5.600531,51.934600
Tielsestraat,98,,,4043JT,Opheusden,Neder-Betuwe,Gelderland,VBO,5.600341,51.934546
Tielsestraat,102,,,4043JT,Opheusden,Neder-Betuwe,Gelderland,VBO,5.600021,51.934403
Tielsestraat,110,,,4043JT,Opheusden,Neder-Betuwe,Gelderland,VBO,5.598740,51.934126
Veerweg,1,,,4043JV,Opheusden,Neder-Betuwe,Gelderland,VBO,5.615317,51.940118
Veerweg,2,,,4043JV,Opheusden,Neder-Betuwe,Gelderland,LIG,5.614050,51.940790
Veerweg,3,,,4043JV,Opheusden,Neder-Betuwe,Gelderland,VBO,5.613995,51.940255
Veerweg,5,,,4043JV,Opheusden,Neder-Betuwe,Gelderland,VBO,5.612745,51.940410
Marsdijk,1,,,4043JW,Opheusden,Neder-Betuwe,Gelderland,VBO,5.597285,51.943261
Marsdijk,3,a,,4043JW,Opheusden,Neder-Betuwe,Gelderland,VBO,5.596907,51.943433
Marsdijk,3,,,4043JW,Opheusden,Neder-Betuwe,Gelderland,VBO,5.596994,51.943352
Markstraat,1,a,,4043JX,Opheusden,Neder-Betuwe,Gelderland,VBO,5.596706,51.939176
Markstraat,1,,,4043JX,Opheusden,Neder-Betuwe,Gelderland,VBO,5.596466,51.939146
Markstraat,3,a,,4043JX,Opheusden,Neder-Betuwe,Gelderland,VBO,5.597341,51.936610
Markstraat,3,b,,4043JX,Opheusden,Neder-Betuwe,Gelderland,VBO,5.597350,51.936820
Markstraat,3,,,4043JX,Opheusden,Neder-Betuwe,Gelderland,VBO,5.596923,51.937321
Markstraat,7,,,4043JX,Opheusden,Neder-Betuwe,Gelderland,VBO,5.600349,51.927050
Varakker,1,,,4043JZ,Opheusden,Neder-Betuwe,Gelderland,VBO,5.614927,51.926267
Varakker,2,,,4043JZ,Opheusden,Neder-Betuwe,Gelderland,VBO,5.615308,51.926896
Varakker,4,,,4043JZ,Opheusden,Neder-Betuwe,Gelderland,VBO,5.614552,51.926736
Varakker,6,,,4043JZ,Opheusden,Neder-Betuwe,Gelderland,VBO,5.614085,51.926440
Varakker,8,,,4043JZ,Opheusden,Neder-Betuwe,Gelderland,VBO,5.613211,51.926208
Varakker,10,,,4043JZ,Opheusden,Neder-Betuwe,Gelderland,VBO,5.604675,51.925400
Nijlandseweg,1,,,4043KA,Opheusden,Neder-Betuwe,Gelderland,VBO,5.638329,51.928125
Nijlandseweg,2,,,4043KA,Opheusden,Neder-Betuwe,Gelderland,VBO,5.637775,51.927740
Nijlandseweg,3,,,4043KA,Opheusden,Neder-Betuwe,Gelderland,VBO,5.639712,51.928446
Nijlandseweg,4,,,4043KA,Opheusden,Neder-Betuwe,Gelderland,VBO,5.638238,51.927837
Nijlandseweg,5,a,,4043KA,Opheusden,Neder-Betuwe,Gelderland,VBO,5.640123,51.928775
Nijlandseweg,5,b,,4043KA,Opheusden,Neder-Betuwe,Gelderland,VBO,5.638496,51.928214
Nijlandseweg,5,,,4043KA,Opheusden,Neder-Betuwe,Gelderland,VBO,5.640252,51.928480
Nijlandseweg,6,a,,4043KA,Opheusden,Neder-Betuwe,Gelderland,VBO,5.639292,51.928052
Nijlandseweg,6,,,4043KA,Opheusden,Neder-Betuwe,Gelderland,VBO,5.638837,51.927917
Nijlandseweg,7,a,,4043KA,Opheusden,Neder-Betuwe,Gelderland,VBO,5.640381,51.928876
Nijlandseweg,7,b,,4043KA,Opheusden,Neder-Betuwe,Gelderland,VBO,5.640375,51.928880
Nijlandseweg,7,,,4043KA,Opheusden,Neder-Betuwe,Gelderland,VBO,5.640507,51.928541
Nijlandseweg,8,,,4043KA,Opheusden,Neder-Betuwe,Gelderland,VBO,5.639580,51.928069
Nijlandseweg,9,a,,4043KA,Opheusden,Neder-Betuwe,Gelderland,VBO,5.640838,51.928923
Nijlandseweg,10,,,4043KA,Opheusden,Neder-Betuwe,Gelderland,VBO,5.640133,51.928175
Nijlandseweg,12,,,4043KA,Opheusden,Neder-Betuwe,Gelderland,VBO,5.640715,51.928264
Nijlandseweg,14,,,4043KA,Opheusden,Neder-Betuwe,Gelderland,VBO,5.641236,51.928328
Nijlandseweg,16,,,4043KA,Opheusden,Neder-Betuwe,Gelderland,VBO,5.641500,51.928397
Tolsestraat,1,a,,4043KB,Opheusden,Neder-Betuwe,Gelderland,VBO,5.637453,51.929925
Tolsestraat,1,b,,4043KB,Opheusden,Neder-Betuwe,Gelderland,VBO,5.637773,51.930050
Tolsestraat,1,,,4043KB,Opheusden,Neder-Betuwe,Gelderland,VBO,5.637336,51.929934
Tolsestraat,2,,,4043KB,Opheusden,Neder-Betuwe,Gelderland,VBO,5.637873,51.929672
Tolsestraat,3,a,,4043KB,Opheusden,Neder-Betuwe,Gelderland,VBO,5.638646,51.930192
Tolsestraat,3,b,,4043KB,Opheusden,Neder-Betuwe,Gelderland,VBO,5.638278,51.930226
Tolsestraat,3,,,4043KB,Opheusden,Neder-Betuwe,Gelderland,VBO,5.637992,51.930112
Tolsestraat,4,,,4043KB,Opheusden,Neder-Betuwe,Gelderland,VBO,5.638193,51.929770
Tolsestraat,5,,,4043KB,Opheusden,Neder-Betuwe,Gelderland,VBO,5.638836,51.930254
Tolsestraat,6,a,,4043KB,Opheusden,Neder-Betuwe,Gelderland,VBO,5.639679,51.929959
Tolsestraat,6,,,4043KB,Opheusden,Neder-Betuwe,Gelderland,VBO,5.639795,51.930092
Tolsestraat,7,,,4043KB,Opheusden,Neder-Betuwe,Gelderland,VBO,5.639039,51.930272
Tolsestraat,8,a,,4043KB,Opheusden,Neder-Betuwe,Gelderland,VBO,5.640139,51.930009
Tolsestraat,8,,,4043KB,Opheusden,Neder-Betuwe,Gelderland,VBO,5.640392,51.930194
Tolsestraat,9,a,,4043KB,Opheusden,Neder-Betuwe,Gelderland,VBO,5.639330,51.930280
Tolsestraat,9,b,,4043KB,Opheusden,Neder-Betuwe,Gelderland,VBO,5.639195,51.930375
Tolsestraat,9,,,4043KB,Opheusden,Neder-Betuwe,Gelderland,VBO,5.639249,51.930264
Tolsestraat,10,,,4043KB,Opheusden,Neder-Betuwe,Gelderland,VBO,5.641175,51.930239
Tolsestraat,11,,,4043KB,Opheusden,Neder-Betuwe,Gelderland,VBO,5.639657,51.930363
Tolsestraat,13,,,4043KB,Opheusden,Neder-Betuwe,Gelderland,VBO,5.639709,51.930369
Tolsestraat,14,,,4043KB,Opheusden,Neder-Betuwe,Gelderland,VBO,5.641885,51.930125
Tolsestraat,15,,,4043KB,Opheusden,Neder-Betuwe,Gelderland,VBO,5.640029,51.930432
Tolsestraat,17,,,4043KB,Opheusden,Neder-Betuwe,Gelderland,VBO,5.640335,51.930485
Tolsestraat,19,,,4043KB,Opheusden,Neder-Betuwe,Gelderland,VBO,5.640538,51.930529
Tolsestraat,21,a,,4043KB,Opheusden,Neder-Betuwe,Gelderland,VBO,5.641045,51.930683
Tolsestraat,21,b,,4043KB,Opheusden,Neder-Betuwe,Gelderland,VBO,5.641616,51.930798
Tolsestraat,21,,,4043KB,Opheusden,Neder-Betuwe,Gelderland,VBO,5.640800,51.930647
Tolsestraat,23,,,4043KB,Opheusden,Neder-Betuwe,Gelderland,VBO,5.642096,51.930885
Tolsestraat,25,,,4043KB,Opheusden,Neder-Betuwe,Gelderland,VBO,5.646610,51.931945
Tolsestraat,27,,,4043KB,Opheusden,Neder-Betuwe,Gelderland,VBO,5.647817,51.932131
Tolsestraat,29,,,4043KB,Opheusden,Neder-Betuwe,Gelderland,VBO,5.651004,51.932610
Tolsestraat,33,,,4043KB,Opheusden,Neder-Betuwe,Gelderland,VBO,5.655269,51.933283
Tolsestraat,35,,,4043KB,Opheusden,Neder-Betuwe,Gelderland,VBO,5.656143,51.933506
Tolsestraat,37,,,4043KB,Opheusden,Neder-Betuwe,Gelderland,VBO,5.659009,51.933778
Molenkempke,1,a,,4043KC,Opheusden,Neder-Betuwe,Gelderland,VBO,5.640469,51.929788
Molenkempke,1,b,,4043KC,Opheusden,Neder-Betuwe,Gelderland,VBO,5.640407,51.929775
Molenkempke,1,c,,4043KC,Opheusden,Neder-Betuwe,Gelderland,VBO,5.640361,51.929759
Molenkempke,1,d,,4043KC,Opheusden,Neder-Betuwe,Gelderland,VBO,5.640518,51.929736
Molenkempke,1,e,,4043KC,Opheusden,Neder-Betuwe,Gelderland,VBO,5.640450,51.929724
Molenkempke,1,f,,4043KC,Opheusden,Neder-Betuwe,Gelderland,VBO,5.640398,51.929727
Molenkempke,1,g,,4043KC,Opheusden,Neder-Betuwe,Gelderland,VBO,5.640349,51.929724
Molenkempke,1,h,,4043KC,Opheusden,Neder-Betuwe,Gelderland,VBO,5.640344,51.929698
Molenkempke,1,i,,4043KC,Opheusden,Neder-Betuwe,Gelderland,VBO,5.640309,51.929758
Molenkempke,1,j,,4043KC,Opheusden,Neder-Betuwe,Gelderland,VBO,5.640441,51.929759
Molenkempke,1,k,,4043KC,Opheusden,Neder-Betuwe,Gelderland,VBO,5.640500,51.929768
Molenkempke,1,l,,4043KC,Opheusden,Neder-Betuwe,Gelderland,VBO,5.640535,51.929770
Molenkempke,1,m,,4043KC,Opheusden,Neder-Betuwe,Gelderland,VBO,5.640573,51.929741
Molenkempke,1,,,4043KC,Opheusden,Neder-Betuwe,Gelderland,VBO,5.640528,51.929804
Molenkempke,3,,,4043KC,Opheusden,Neder-Betuwe,Gelderland,VBO,5.640868,51.929224
Molenkempke,4,a,,4043KC,Opheusden,Neder-Betuwe,Gelderland,VBO,5.641275,51.929187
Molenkempke,4,b,,4043KC,Opheusden,Neder-Betuwe,Gelderland,VBO,5.641423,51.929201
Molenkempke,4,,,4043KC,Opheusden,Neder-Betuwe,Gelderland,VBO,5.641276,51.929277
Molenkempke,6,,,4043KC,Opheusden,Neder-Betuwe,Gelderland,VBO,5.641098,51.930050
Swaenenstate,1,,,4043KE,Opheusden,Neder-Betuwe,Gelderland,VBO,5.627400,51.934459
Swaenenstate,2,a,,4043KE,Opheusden,Neder-Betuwe,Gelderland,VBO,5.627516,51.934468
Swaenenstate,2,b,,4043KE,Opheusden,Neder-Betuwe,Gelderland,VBO,5.627654,51.934487
Swaenenstate,3,,,4043KE,Opheusden,Neder-Betuwe,Gelderland,VBO,5.627798,51.934500
Swaenenstate,4,,,4043KE,Opheusden,Neder-Betuwe,Gelderland,VBO,5.627418,51.934413
Swaenenstate,11,,,4043KE,Opheusden,Neder-Betuwe,Gelderland,VBO,5.627531,51.934425
Swaenenstate,12,,,4043KE,Opheusden,Neder-Betuwe,Gelderland,VBO,5.627654,51.934441
Swaenenstate,13,,,4043KE,Opheusden,Neder-Betuwe,Gelderland,VBO,5.627810,51.934452
Swaenenstate,14,,,4043KE,Opheusden,Neder-Betuwe,Gelderland,VBO,5.627430,51.934364
Swaenenstate,15,,,4043KE,Opheusden,Neder-Betuwe,Gelderland,VBO,5.627558,51.934389
Swaenenstate,16,,,4043KE,Opheusden,Neder-Betuwe,Gelderland,VBO,5.627687,51.934386
Swaenenstate,17,,,4043KE,Opheusden,Neder-Betuwe,Gelderland,VBO,5.627840,51.934403
Swaenenstate,18,,,4043KE,Opheusden,Neder-Betuwe,Gelderland,VBO,5.627436,51.934319
Swaenenstate,19,,,4043KE,Opheusden,Neder-Betuwe,Gelderland,VBO,5.627577,51.934347
Swaenenstate,20,,,4043KE,Opheusden,Neder-Betuwe,Gelderland,VBO,5.627717,51.934347
Swaenenstate,21,,,4043KE,Opheusden,Neder-Betuwe,Gelderland,VBO,5.627868,51.934363
Swaenenstate,22,,,4043KE,Opheusden,Neder-Betuwe,Gelderland,VBO,5.627469,51.934275
Swaenenstate,23,,,4043KE,Opheusden,Neder-Betuwe,Gelderland,VBO,5.627589,51.934301
Swaenenstate,24,,,4043KE,Opheusden,Neder-Betuwe,Gelderland,VBO,5.627720,51.934301
Swaenenstate,25,,,4043KE,Opheusden,Neder-Betuwe,Gelderland,VBO,5.627874,51.934320
Swaenenstate,26,,,4043KE,Opheusden,Neder-Betuwe,Gelderland,VBO,5.627487,51.934214
Swaenenstate,27,,,4043KE,Opheusden,Neder-Betuwe,Gelderland,VBO,5.627619,51.934246
Swaenenstate,28,,,4043KE,Opheusden,Neder-Betuwe,Gelderland,VBO,5.627754,51.934259
Swaenenstate,29,,,4043KE,Opheusden,Neder-Betuwe,Gelderland,VBO,5.627907,51.934272
Swaenenstate,30,,,4043KE,Opheusden,Neder-Betuwe,Gelderland,VBO,5.627521,51.934177
Swaenenstate,31,,,4043KE,Opheusden,Neder-Betuwe,Gelderland,VBO,5.627671,51.934201
Swaenenstate,32,,,4043KE,Opheusden,Neder-Betuwe,Gelderland,VBO,5.627796,51.934216
Parallelweg,1,,,4043KG,Opheusden,Neder-Betuwe,Gelderland,VBO,5.633593,51.926086
Parallelweg,3,,,4043KG,Opheusden,Neder-Betuwe,Gelderland,VBO,5.632402,51.926232
Parallelweg,5,,,4043KG,Opheusden,Neder-Betuwe,Gelderland,VBO,5.631821,51.926368
Parallelweg,7,,,4043KG,Opheusden,Neder-Betuwe,Gelderland,VBO,5.631196,51.926343
Parallelweg,9,,,4043KG,Opheusden,Neder-Betuwe,Gelderland,VBO,5.630905,51.926379
Parallelweg,11,a,,4043KG,Opheusden,Neder-Betuwe,Gelderland,VBO,5.630048,51.926471
Parallelweg,11,b,,4043KG,Opheusden,Neder-Betuwe,Gelderland,VBO,5.629423,51.926535
Parallelweg,11,d,,4043KG,Opheusden,Neder-Betuwe,Gelderland,VBO,5.627330,51.926584
Parallelweg,11,e,,4043KG,Opheusden,Neder-Betuwe,Gelderland,VBO,5.625672,51.926561
Parallelweg,11,,,4043KG,Opheusden,Neder-Betuwe,Gelderland,VBO,5.630847,51.926379
Parallelweg,13,,,4043KG,Opheusden,Neder-Betuwe,Gelderland,VBO,5.626881,51.926828
Parallelweg,15,a,,4043KG,Opheusden,Neder-Betuwe,Gelderland,VBO,5.623041,51.927042
Parallelweg,15,,,4043KG,Opheusden,Neder-Betuwe,Gelderland,VBO,5.624235,51.926959
Parallelweg,17,a,,4043KG,Opheusden,Neder-Betuwe,Gelderland,VBO,5.619077,51.927610
Parallelweg,17,b,,4043KG,Opheusden,Neder-Betuwe,Gelderland,VBO,5.620879,51.926652
Parallelweg,17,,,4043KG,Opheusden,Neder-Betuwe,Gelderland,VBO,5.621295,51.927369
Parallelweg,19,,,4043KG,Opheusden,Neder-Betuwe,Gelderland,VBO,5.618226,51.927746
Parallelweg,21,,,4043KG,Opheusden,Neder-Betuwe,Gelderland,VBO,5.617331,51.927850
Parallelweg,23,,,4043KG,Opheusden,Neder-Betuwe,Gelderland,VBO,5.617055,51.927861
Parallelweg,25,a,,4043KG,Opheusden,Neder-Betuwe,Gelderland,VBO,5.616413,51.927915
Parallelweg,25,,,4043KG,Opheusden,Neder-Betuwe,Gelderland,VBO,5.616747,51.927909
Parallelweg,27,,,4043KG,Opheusden,Neder-Betuwe,Gelderland,VBO,5.615858,51.927961
Parallelweg,29,,,4043KG,Opheusden,Neder-Betuwe,Gelderland,VBO,5.615366,51.927983
Parallelweg,31,,,4043KH,Opheusden,Neder-Betuwe,Gelderland,VBO,5.614602,51.928066
Parallelweg,33,,,4043KH,Opheusden,Neder-Betuwe,Gelderland,VBO,5.614065,51.928157
Parallelweg,35,,,4043KH,Opheusden,Neder-Betuwe,Gelderland,VBO,5.613771,51.928177
Parallelweg,37,,,4043KH,Opheusden,Neder-Betuwe,Gelderland,VBO,5.613466,51.928212
Parallelweg,39,,,4043KH,Opheusden,Neder-Betuwe,Gelderland,VBO,5.613309,51.928201
Parallelweg,41,,,4043KH,Opheusden,Neder-Betuwe,Gelderland,VBO,5.613292,51.928193
Parallelweg,43,,,4043KH,Opheusden,Neder-Betuwe,Gelderland,VBO,5.612943,51.928279
Parallelweg,45,,,4043KH,Opheusden,Neder-Betuwe,Gelderland,VBO,5.612463,51.928350
Parallelweg,47,a,,4043KH,Opheusden,Neder-Betuwe,Gelderland,VBO,5.611949,51.928346
Parallelweg,47,b,,4043KH,Opheusden,Neder-Betuwe,Gelderland,VBO,5.611051,51.928434
Parallelweg,47,c,,4043KH,Opheusden,Neder-Betuwe,Gelderland,VBO,5.610228,51.928461
Parallelweg,47,,,4043KH,Opheusden,Neder-Betuwe,Gelderland,VBO,5.612208,51.928365
Parallelweg,49,a,,4043KH,Opheusden,Neder-Betuwe,Gelderland,VBO,5.608235,51.928748
Parallelweg,49,b,,4043KH,Opheusden,Neder-Betuwe,Gelderland,VBO,5.607194,51.928869
Parallelweg,49,c,,4043KH,Opheusden,Neder-Betuwe,Gelderland,VBO,5.606139,51.928915
Parallelweg,49,d,,4043KH,Opheusden,Neder-Betuwe,Gelderland,VBO,5.608919,51.928408
Parallelweg,49,,,4043KH,Opheusden,Neder-Betuwe,Gelderland,VBO,5.609461,51.928608
Parallelweg,51,a,,4043KH,Opheusden,Neder-Betuwe,Gelderland,VBO,5.605381,51.929081
Parallelweg,51,,,4043KH,Opheusden,Neder-Betuwe,Gelderland,VBO,5.605326,51.929160
Parallelweg,53,a,,4043KH,Opheusden,Neder-Betuwe,Gelderland,VBO,5.605277,51.928277
Parallelweg,53,,,4043KH,Opheusden,Neder-Betuwe,Gelderland,VBO,5.605688,51.927642
Parallelweg,55,a,,4043KH,Opheusden,Neder-Betuwe,Gelderland,VBO,5.604245,51.929856
Parallelweg,55,b,,4043KH,Opheusden,Neder-Betuwe,Gelderland,VBO,5.604753,51.929113
Parallelweg,55,c,,4043KH,Opheusden,Neder-Betuwe,Gelderland,VBO,5.604648,51.929127
Parallelweg,55,,,4043KH,Opheusden,Neder-Betuwe,Gelderland,VBO,5.605600,51.927624
Parallelweg,57,,,4043KH,Opheusden,Neder-Betuwe,Gelderland,VBO,5.603779,51.929163
Parallelweg,59,,,4043KH,Opheusden,Neder-Betuwe,Gelderland,VBO,5.603323,51.929225
Parallelweg,61,a,,4043KH,Opheusden,Neder-Betuwe,Gelderland,VBO,5.602218,51.929290
Parallelweg,61,,,4043KH,Opheusden,Neder-Betuwe,Gelderland,VBO,5.602694,51.929111
Dorpsstraat,1,,,4043KK,Opheusden,Neder-Betuwe,Gelderland,VBO,5.628279,51.933728
Dorpsstraat,2,a,,4043KK,Opheusden,Neder-Betuwe,Gelderland,VBO,5.628795,51.933972
Dorpsstraat,2,b,,4043KK,Opheusden,Neder-Betuwe,Gelderland,VBO,5.628870,51.934143
Dorpsstraat,2,,,4043KK,Opheusden,Neder-Betuwe,Gelderland,VBO,5.628765,51.934067
Dorpsstraat,3,a,,4043KK,Opheusden,Neder-Betuwe,Gelderland,VBO,5.628089,51.933960
Dorpsstraat,3,b,,4043KK,Opheusden,Neder-Betuwe,Gelderland,VBO,5.627696,51.933858
Dorpsstraat,3,,,4043KK,Opheusden,Neder-Betuwe,Gelderland,VBO,5.628282,51.933898
Dorpsstraat,4,,,4043KK,Opheusden,Neder-Betuwe,Gelderland,VBO,5.628632,51.934253
Dorpsstraat,5,,,4043KK,Opheusden,Neder-Betuwe,Gelderland,VBO,5.627995,51.934088
Dorpsstraat,6,a,,4043KK,Opheusden,Neder-Betuwe,Gelderland,VBO,5.628744,51.934275
Dorpsstraat,6,b,,4043KK,Opheusden,Neder-Betuwe,Gelderland,VBO,5.628746,51.934321
Dorpsstraat,6,c,,4043KK,Opheusden,Neder-Betuwe,Gelderland,VBO,5.628760,51.934378
Dorpsstraat,6,d,,4043KK,Opheusden,Neder-Betuwe,Gelderland,VBO,5.628741,51.934440
Dorpsstraat,6,,,4043KK,Opheusden,Neder-Betuwe,Gelderland,VBO,5.628745,51.934223
Dorpsstraat,8,,,4043KK,Opheusden,Neder-Betuwe,Gelderland,VBO,5.628479,51.934878
Dorpsstraat,10,,,4043KK,Opheusden,Neder-Betuwe,Gelderland,VBO,5.628465,51.934986
Dorpsstraat,11,a,,4043KK,Opheusden,Neder-Betuwe,Gelderland,VBO,5.628025,51.934736
Dorpsstraat,11,,,4043KK,Opheusden,Neder-Betuwe,Gelderland,VBO,5.627911,51.934699
Dorpsstraat,12,,,4043KK,Opheusden,Neder-Betuwe,Gelderland,VBO,5.628451,51.935031
Dorpsstraat,13,,,4043KK,Opheusden,Neder-Betuwe,Gelderland,VBO,5.627912,51.934843
Dorpsstraat,14,,,4043KK,Opheusden,Neder-Betuwe,Gelderland,VBO,5.628466,51.935166
Dorpsstraat,15,,,4043KK,Opheusden,Neder-Betuwe,Gelderland,VBO,5.627855,51.934951
Dorpsstraat,16,,,4043KK,Opheusden,Neder-Betuwe,Gelderland,VBO,5.628511,51.935336
Dorpsstraat,17,,,4043KK,Opheusden,Neder-Betuwe,Gelderland,VBO,5.627914,51.935185
Dorpsstraat,18,,,4043KK,Opheusden,Neder-Betuwe,Gelderland,VBO,5.628497,51.935417
Dorpsstraat,19,a,,4043KK,Opheusden,Neder-Betuwe,Gelderland,VBO,5.627212,51.935366
Dorpsstraat,19,,,4043KK,Opheusden,Neder-Betuwe,Gelderland,VBO,5.627944,51.935338
Dorpsstraat,20,,,4043KK,Opheusden,Neder-Betuwe,Gelderland,VBO,5.629021,51.935515
Burgemeester Lodderstraat,1,,,4043KL,Opheusden,Neder-Betuwe,Gelderland,VBO,5.628857,51.933877
Burgemeester Lodderstraat,3,,,4043KL,Opheusden,Neder-Betuwe,Gelderland,VBO,5.629245,51.933843
Burgemeester Lodderstraat,5,,,4043KL,Opheusden,Neder-Betuwe,Gelderland,VBO,5.629535,51.933833
Burgemeester Lodderstraat,7,a,,4043KL,Opheusden,Neder-Betuwe,Gelderland,VBO,5.629755,51.934210
Burgemeester Lodderstraat,7,,,4043KL,Opheusden,Neder-Betuwe,Gelderland,VBO,5.629768,51.933869
Burgemeester Lodderstraat,9,,,4043KL,Opheusden,Neder-Betuwe,Gelderland,VBO,5.630030,51.933859
Burgemeester Lodderstraat,11,a,,4043KL,Opheusden,Neder-Betuwe,Gelderland,VBO,5.630312,51.933855
Burgemeester Lodderstraat,11,,,4043KL,Opheusden,Neder-Betuwe,Gelderland,VBO,5.630211,51.933945
Burgemeester Lodderstraat,13,a,,4043KL,Opheusden,Neder-Betuwe,Gelderland,VBO,5.630664,51.933924
Burgemeester Lodderstraat,15,,,4043KL,Opheusden,Neder-Betuwe,Gelderland,VBO,5.631089,51.933895
Burgemeester Lodderstraat,17,,,4043KL,Opheusden,Neder-Betuwe,Gelderland,VBO,5.631231,51.933892
Burgemeester Lodderstraat,19,,,4043KL,Opheusden,Neder-Betuwe,Gelderland,VBO,5.631440,51.933836
Burgemeester Lodderstraat,21,a,,4043KL,Opheusden,Neder-Betuwe,Gelderland,VBO,5.631753,51.933786
Burgemeester Lodderstraat,21,,,4043KL,Opheusden,Neder-Betuwe,Gelderland,VBO,5.631657,51.933791
Burgemeester Lodderstraat,23,a,,4043KL,Opheusden,Neder-Betuwe,Gelderland,VBO,5.632278,51.933779
Burgemeester Lodderstraat,23,,,4043KL,Opheusden,Neder-Betuwe,Gelderland,VBO,5.632109,51.933778
Burgemeester Lodderstraat,25,,,4043KL,Opheusden,Neder-Betuwe,Gelderland,VBO,5.632414,51.933764
Burgemeester Lodderstraat,41,,,4043KL,Opheusden,Neder-Betuwe,Gelderland,VBO,5.632966,51.933763
Burgemeester Lodderstraat,43,,,4043KL,Opheusden,Neder-Betuwe,Gelderland,VBO,5.633186,51.933978
Burgemeester Lodderstraat,2,,,4043KM,Opheusden,Neder-Betuwe,Gelderland,VBO,5.627671,51.933280
Burgemeester Lodderstraat,4,,,4043KM,Opheusden,Neder-Betuwe,Gelderland,VBO,5.627846,51.933315
Burgemeester Lodderstraat,6,,,4043KM,Opheusden,Neder-Betuwe,Gelderland,VBO,5.627962,51.933333
Burgemeester Lodderstraat,8,,,4043KM,Opheusden,Neder-Betuwe,Gelderland,VBO,5.628151,51.933369
Burgemeester Lodderstraat,10,,,4043KM,Opheusden,Neder-Betuwe,Gelderland,VBO,5.628282,51.933386
Burgemeester Lodderstraat,12,,,4043KM,Opheusden,Neder-Betuwe,Gelderland,VBO,5.628529,51.933341
Burgemeester Lodderstraat,20,,,4043KM,Opheusden,Neder-Betuwe,Gelderland,VBO,5.630161,51.933511
Burgemeester Lodderstraat,36,,,4043KM,Opheusden,Neder-Betuwe,Gelderland,VBO,5.630572,51.933572
Burgemeester Lodderstraat,38,a,,4043KM,Opheusden,Neder-Betuwe,Gelderland,VBO,5.630749,51.933577
Burgemeester Lodderstraat,38,,,4043KM,Opheusden,Neder-Betuwe,Gelderland,VBO,5.630787,51.933554
Burgemeester Lodderstraat,40,,,4043KM,Opheusden,Neder-Betuwe,Gelderland,VBO,5.630944,51.933561
Burgemeester Lodderstraat,46,,,4043KM,Opheusden,Neder-Betuwe,Gelderland,VBO,5.631467,51.933515
Burgemeester Lodderstraat,48,,,4043KM,Opheusden,Neder-Betuwe,Gelderland,VBO,5.631831,51.933469
Burgemeester Lodderstraat,50,a,,4043KM,Opheusden,Neder-Betuwe,Gelderland,VBO,5.632085,51.933420
Burgemeester Lodderstraat,50,,,4043KM,Opheusden,Neder-Betuwe,Gelderland,VBO,5.632235,51.933440
Burgemeester Lodderstraat,52,a,,4043KM,Opheusden,Neder-Betuwe,Gelderland,VBO,5.632885,51.933452
Burgemeester Lodderstraat,52,b,,4043KM,Opheusden,Neder-Betuwe,Gelderland,VBO,5.632818,51.933450
Burgemeester Lodderstraat,52,,,4043KM,Opheusden,Neder-Betuwe,Gelderland,VBO,5.632673,51.933425
Burgemeester Lodderstraat,54,,,4043KM,Opheusden,Neder-Betuwe,Gelderland,VBO,5.633110,51.933448
Burgemeester Lodderstraat,56,,,4043KM,Opheusden,Neder-Betuwe,Gelderland,VBO,5.633168,51.933430
Rozenstraat,1,a,,4043KN,Opheusden,Neder-Betuwe,Gelderland,VBO,5.632696,51.933254
Rozenstraat,1,,,4043KN,Opheusden,Neder-Betuwe,Gelderland,VBO,5.632687,51.933135
Rozenstraat,2,a,,4043KN,Opheusden,Neder-Betuwe,Gelderland,VBO,5.632235,51.933226
Rozenstraat,2,b,,4043KN,Opheusden,Neder-Betuwe,Gelderland,VBO,5.632265,51.933356
Rozenstraat,2,,,4043KN,Opheusden,Neder-Betuwe,Gelderland,VBO,5.632192,51.933046
Rozenstraat,3,,,4043KN,Opheusden,Neder-Betuwe,Gelderland,VBO,5.632672,51.933000
Rozenstraat,4,,,4043KN,Opheusden,Neder-Betuwe,Gelderland,VBO,5.632278,51.932902
Rozenstraat,5,,,4043KN,Opheusden,Neder-Betuwe,Gelderland,VBO,5.632700,51.932937
Rozenstraat,6,,,4043KN,Opheusden,Neder-Betuwe,Gelderland,VBO,5.632380,51.932803
Rozenstraat,7,,,4043KN,Opheusden,Neder-Betuwe,Gelderland,VBO,5.632772,51.932847
Rozenstraat,8,,,4043KN,Opheusden,Neder-Betuwe,Gelderland,VBO,5.632409,51.932767
Rozenstraat,9,,,4043KN,Opheusden,Neder-Betuwe,Gelderland,VBO,5.632801,51.932784
Rozenstraat,10,,,4043KN,Opheusden,Neder-Betuwe,Gelderland,VBO,5.632437,51.932704
Rozenstraat,11,,,4043KN,Opheusden,Neder-Betuwe,Gelderland,VBO,5.632859,51.932685
Rozenstraat,12,,,4043KN,Opheusden,Neder-Betuwe,Gelderland,VBO,5.632451,51.932641
Rozenstraat,13,,,4043KN,Opheusden,Neder-Betuwe,Gelderland,VBO,5.632888,51.932631
Rozenstraat,14,,,4043KN,Opheusden,Neder-Betuwe,Gelderland,VBO,5.632538,51.932542
Rozenstraat,15,,,4043KN,Opheusden,Neder-Betuwe,Gelderland,VBO,5.632945,51.932532
Rozenstraat,16,,,4043KN,Opheusden,Neder-Betuwe,Gelderland,VBO,5.632581,51.932488
Rozenstraat,17,,,4043KN,Opheusden,Neder-Betuwe,Gelderland,VBO,5.632974,51.932478
Rozenstraat,18,,,4043KN,Opheusden,Neder-Betuwe,Gelderland,VBO,5.632625,51.932452
Rozenstraat,19,,,4043KN,Opheusden,Neder-Betuwe,Gelderland,VBO,5.633075,51.932370
Rozenstraat,20,,,4043KN,Opheusden,Neder-Betuwe,Gelderland,VBO,5.632624,51.932380
Rozenstraat,21,,,4043KN,Opheusden,Neder-Betuwe,Gelderland,VBO,5.633090,51.932334
Rozenstraat,23,,,4043KN,Opheusden,Neder-Betuwe,Gelderland,VBO,5.633118,51.932280
Eikenlaan,1,,,4043KP,Opheusden,Neder-Betuwe,Gelderland,VBO,5.629608,51.932906
Eikenlaan,2,,,4043KP,Opheusden,Neder-Betuwe,Gelderland,VBO,5.628804,51.933107
Eikenlaan,3,,,4043KP,Opheusden,Neder-Betuwe,Gelderland,VBO,5.629284,51.933133
Eikenlaan,4,,,4043KP,Opheusden,Neder-Betuwe,Gelderland,VBO,5.629324,51.932342
Eikenlaan,5,,,4043KP,Opheusden,Neder-Betuwe,Gelderland,VBO,5.629357,51.933142
Eikenlaan,6,,,4043KP,Opheusden,Neder-Betuwe,Gelderland,VBO,5.629353,51.932297
Eikenlaan,7,,,4043KP,Opheusden,Neder-Betuwe,Gelderland,VBO,5.629430,51.933159
Eikenlaan,8,,,4043KP,Opheusden,Neder-Betuwe,Gelderland,VBO,5.629381,51.932252
Eikenlaan,9,,,4043KP,Opheusden,Neder-Betuwe,Gelderland,VBO,5.629503,51.933177
Eikenlaan,10,,,4043KP,Opheusden,Neder-Betuwe,Gelderland,VBO,5.629410,51.932207
Eikenlaan,11,,,4043KP,Opheusden,Neder-Betuwe,Gelderland,VBO,5.629328,51.933070
Eikenlaan,12,,,4043KP,Opheusden,Neder-Betuwe,Gelderland,VBO,5.629439,51.932153
Eikenlaan,13,,,4043KP,Opheusden,Neder-Betuwe,Gelderland,VBO,5.629415,51.933087
Eikenlaan,15,,,4043KP,Opheusden,Neder-Betuwe,Gelderland,VBO,5.629488,51.933105
Eikenlaan,17,,,4043KP,Opheusden,Neder-Betuwe,Gelderland,VBO,5.629575,51.933123
Eikenlaan,19,,,4043KP,Opheusden,Neder-Betuwe,Gelderland,VBO,5.629400,51.933034
Eikenlaan,21,,,4043KP,Opheusden,Neder-Betuwe,Gelderland,VBO,5.629487,51.933051
Eikenlaan,23,,,4043KP,Opheusden,Neder-Betuwe,Gelderland,VBO,5.629429,51.932998
Eikenlaan,25,,,4043KP,Opheusden,Neder-Betuwe,Gelderland,VBO,5.629516,51.933015
Eikenlaan,27,,,4043KP,Opheusden,Neder-Betuwe,Gelderland,VBO,5.629458,51.932962
Eikenlaan,29,,,4043KP,Opheusden,Neder-Betuwe,Gelderland,VBO,5.629531,51.932979
Eikenlaan,31,,,4043KP,Opheusden,Neder-Betuwe,Gelderland,VBO,5.629487,51.932926
Eikenlaan,33,,,4043KP,Opheusden,Neder-Betuwe,Gelderland,VBO,5.629574,51.932943
Eikenlaan,35,,,4043KP,Opheusden,Neder-Betuwe,Gelderland,VBO,5.629516,51.932881
Eikenlaan,37,,,4043KP,Opheusden,Neder-Betuwe,Gelderland,VBO,5.629640,51.932729
Beukenlaan,1,,,4043KR,Opheusden,Neder-Betuwe,Gelderland,VBO,5.629252,51.932522
Beukenlaan,2,,,4043KR,Opheusden,Neder-Betuwe,Gelderland,VBO,5.629035,51.932747
Beukenlaan,3,,,4043KR,Opheusden,Neder-Betuwe,Gelderland,VBO,5.629165,51.932513
Beukenlaan,4,,,4043KR,Opheusden,Neder-Betuwe,Gelderland,VBO,5.628962,51.932756
Beukenlaan,5,,,4043KR,Opheusden,Neder-Betuwe,Gelderland,VBO,5.629063,51.932486
Beukenlaan,6,,,4043KR,Opheusden,Neder-Betuwe,Gelderland,VBO,5.628817,51.932720
Beukenlaan,7,,,4043KR,Opheusden,Neder-Betuwe,Gelderland,VBO,5.628990,51.932477
Beukenlaan,8,,,4043KR,Opheusden,Neder-Betuwe,Gelderland,VBO,5.628715,51.932693
Beukenlaan,9,,,4043KR,Opheusden,Neder-Betuwe,Gelderland,VBO,5.628801,51.932415
Beukenlaan,10,,,4043KR,Opheusden,Neder-Betuwe,Gelderland,VBO,5.628569,51.932667
Beukenlaan,12,,,4043KR,Opheusden,Neder-Betuwe,Gelderland,VBO,5.628453,51.932649
Europaplein,1,,,4043KS,Opheusden,Neder-Betuwe,Gelderland,VBO,5.630384,51.932097
Europaplein,2,,,4043KS,Opheusden,Neder-Betuwe,Gelderland,VBO,5.629583,51.931901
Europaplein,3,,,4043KS,Opheusden,Neder-Betuwe,Gelderland,VBO,5.630398,51.932034
Europaplein,4,,,4043KS,Opheusden,Neder-Betuwe,Gelderland,VBO,5.629626,51.931811
Europaplein,5,,,4043KS,Opheusden,Neder-Betuwe,Gelderland,VBO,5.630441,51.931998
Europaplein,6,,,4043KS,Opheusden,Neder-Betuwe,Gelderland,VBO,5.629713,51.931766
Europaplein,7,,,4043KS,Opheusden,Neder-Betuwe,Gelderland,VBO,5.630485,51.931926
Europaplein,8,,,4043KS,Opheusden,Neder-Betuwe,Gelderland,VBO,5.629727,51.931703
Europaplein,9,,,4043KS,Opheusden,Neder-Betuwe,Gelderland,VBO,5.630499,51.931872
Europaplein,10,,,4043KS,Opheusden,Neder-Betuwe,Gelderland,VBO,5.629771,51.931640
Europaplein,11,,,4043KS,Opheusden,Neder-Betuwe,Gelderland,VBO,5.630545,51.931818
Europaplein,12,,,4043KS,Opheusden,Neder-Betuwe,Gelderland,VBO,5.629814,51.931577
Europaplein,13,,,4043KS,Opheusden,Neder-Betuwe,Gelderland,VBO,5.630629,51.931728
Reigerstraat,1,,,4043KT,Opheusden,Neder-Betuwe,Gelderland,VBO,5.628842,51.931965
Reigerstraat,2,,,4043KT,Opheusden,Neder-Betuwe,Gelderland,VBO,5.629005,51.931735
Reigerstraat,3,,,4043KT,Opheusden,Neder-Betuwe,Gelderland,VBO,5.628935,51.931994
Reigerstraat,4,,,4043KT,Opheusden,Neder-Betuwe,Gelderland,VBO,5.629080,51.931756
Reigerstraat,5,,,4043KT,Opheusden,Neder-Betuwe,Gelderland,VBO,5.629026,51.932018
Reigerstraat,6,,,4043KT,Opheusden,Neder-Betuwe,Gelderland,VBO,5.629167,51.931782
Reigerstraat,7,,,4043KT,Opheusden,Neder-Betuwe,Gelderland,VBO,5.629097,51.932032
Reigerstraat,8,,,4043KT,Opheusden,Neder-Betuwe,Gelderland,VBO,5.629253,51.931808
Reigerstraat,9,,,4043KT,Opheusden,Neder-Betuwe,Gelderland,VBO,5.629173,51.932055
Reigerstraat,10,,,4043KT,Opheusden,Neder-Betuwe,Gelderland,VBO,5.629332,51.931833
Reigerstraat,11,,,4043KT,Opheusden,Neder-Betuwe,Gelderland,VBO,5.629891,51.932340
Reigerstraat,12,,,4043KT,Opheusden,Neder-Betuwe,Gelderland,VBO,5.629412,51.931853
Reigerstraat,13,,,4043KT,Opheusden,Neder-Betuwe,Gelderland,VBO,5.630371,51.932384
Reigerstraat,14,,,4043KT,Opheusden,Neder-Betuwe,Gelderland,VBO,5.630569,51.932158
Reigerstraat,15,,,4043KT,Opheusden,Neder-Betuwe,Gelderland,VBO,5.630444,51.932411
Reigerstraat,16,,,4043KT,Opheusden,Neder-Betuwe,Gelderland,VBO,5.630655,51.932180
Reigerstraat,17,,,4043KT,Opheusden,Neder-Betuwe,Gelderland,VBO,5.630560,51.932438
Reigerstraat,18,,,4043KT,Opheusden,Neder-Betuwe,Gelderland,VBO,5.630738,51.932203
Reigerstraat,19,,,4043KT,Opheusden,Neder-Betuwe,Gelderland,VBO,5.630618,51.932456
Reigerstraat,20,,,4043KT,Opheusden,Neder-Betuwe,Gelderland,VBO,5.630826,51.932225
Reigerstraat,21,,,4043KT,Opheusden,Neder-Betuwe,Gelderland,VBO,5.630691,51.932474
Reigerstraat,22,,,4043KT,Opheusden,Neder-Betuwe,Gelderland,VBO,5.630903,51.932249
Reigerstraat,23,,,4043KT,Opheusden,Neder-Betuwe,Gelderland,VBO,5.630895,51.932545
Reigerstraat,24,,,4043KT,Opheusden,Neder-Betuwe,Gelderland,VBO,5.630986,51.932271
Reigerstraat,25,,,4043KT,Opheusden,Neder-Betuwe,Gelderland,VBO,5.630997,51.932572
Reigerstraat,26,a,,4043KT,Opheusden,Neder-Betuwe,Gelderland,VBO,5.631293,51.932100
Reigerstraat,26,,,4043KT,Opheusden,Neder-Betuwe,Gelderland,VBO,5.631057,51.932290
Ooievaarstraat,35,,,4043KV,Opheusden,Neder-Betuwe,Gelderland,VBO,5.628608,51.931651
Ooievaarstraat,37,,,4043KV,Opheusden,Neder-Betuwe,Gelderland,VBO,5.628651,51.931606
Ooievaarstraat,39,,,4043KV,Opheusden,Neder-Betuwe,Gelderland,VBO,5.628752,51.931462
Ooievaarstraat,41,,,4043KV,Opheusden,Neder-Betuwe,Gelderland,VBO,5.628752,51.931426
Ooievaarstraat,43,,,4043KV,Opheusden,Neder-Betuwe,Gelderland,VBO,5.628810,51.931363
Ooievaarstraat,45,,,4043KW,Opheusden,Neder-Betuwe,Gelderland,VBO,5.628983,51.931120
Ooievaarstraat,47,,,4043KW,Opheusden,Neder-Betuwe,Gelderland,VBO,5.629011,51.931057
Ooievaarstraat,49,,,4043KW,Opheusden,Neder-Betuwe,Gelderland,VBO,5.629051,51.931028
Ooievaarstraat,51,,,4043KW,Opheusden,Neder-Betuwe,Gelderland,VBO,5.629069,51.930967
Ooievaarstraat,53,,,4043KW,Opheusden,Neder-Betuwe,Gelderland,VBO,5.629098,51.930922
Ooievaarstraat,55,,,4043KW,Opheusden,Neder-Betuwe,Gelderland,VBO,5.629112,51.930877
Ooievaarstraat,57,,,4043KW,Opheusden,Neder-Betuwe,Gelderland,VBO,5.629324,51.930555
Ooievaarstraat,59,,,4043KW,Opheusden,Neder-Betuwe,Gelderland,VBO,5.629357,51.930507
Ooievaarstraat,61,,,4043KW,Opheusden,Neder-Betuwe,Gelderland,VBO,5.629394,51.930456
Ooievaarstraat,63,,,4043KW,Opheusden,Neder-Betuwe,Gelderland,VBO,5.629421,51.930401
Ooievaarstraat,65,,,4043KW,Opheusden,Neder-Betuwe,Gelderland,VBO,5.629452,51.930358
Ooievaarstraat,67,,,4043KW,Opheusden,Neder-Betuwe,Gelderland,VBO,5.629485,51.930302
Ooievaarstraat,69,,,4043KW,Opheusden,Neder-Betuwe,Gelderland,VBO,5.629602,51.930112
Ooievaarstraat,71,,,4043KW,Opheusden,Neder-Betuwe,Gelderland,VBO,5.629617,51.930031
Ooievaarstraat,73,,,4043KW,Opheusden,Neder-Betuwe,Gelderland,VBO,5.629660,51.929995
Ooievaarstraat,75,,,4043KW,Opheusden,Neder-Betuwe,Gelderland,VBO,5.629689,51.929950
Ooievaarstraat,77,,,4043KW,Opheusden,Neder-Betuwe,Gelderland,VBO,5.629732,51.929905
Ooievaarstraat,79,,,4043KW,Opheusden,Neder-Betuwe,Gelderland,VBO,5.629746,51.929833
Ooievaarstraat,2,,,4043KX,Opheusden,Neder-Betuwe,Gelderland,VBO,5.627434,51.932733
Ooievaarstraat,26,,,4043KX,Opheusden,Neder-Betuwe,Gelderland,VBO,5.628302,51.931580
Ooievaarstraat,28,,,4043KX,Opheusden,Neder-Betuwe,Gelderland,VBO,5.628360,51.931508
Ooievaarstraat,30,,,4043KX,Opheusden,Neder-Betuwe,Gelderland,VBO,5.628402,51.931373
Ooievaarstraat,32,,,4043KX,Opheusden,Neder-Betuwe,Gelderland,VBO,5.628431,51.931337
Ooievaarstraat,34,,,4043KX,Opheusden,Neder-Betuwe,Gelderland,VBO,5.628460,51.931283
Ooievaarstraat,36,,,4043KZ,Opheusden,Neder-Betuwe,Gelderland,VBO,5.628633,51.931040
Ooievaarstraat,38,,,4043KZ,Opheusden,Neder-Betuwe,Gelderland,VBO,5.628662,51.931004
Ooievaarstraat,40,,,4043KZ,Opheusden,Neder-Betuwe,Gelderland,VBO,5.628691,51.930941
Ooievaarstraat,42,,,4043KZ,Opheusden,Neder-Betuwe,Gelderland,VBO,5.628720,51.930896
Ooievaarstraat,44,,,4043KZ,Opheusden,Neder-Betuwe,Gelderland,VBO,5.628749,51.930851
Ooievaarstraat,46,,,4043KZ,Opheusden,Neder-Betuwe,Gelderland,VBO,5.628763,51.930788
Ooievaarstraat,48,,,4043KZ,Opheusden,Neder-Betuwe,Gelderland,VBO,5.628849,51.930662
Ooievaarstraat,50,,,4043KZ,Opheusden,Neder-Betuwe,Gelderland,VBO,5.628878,51.930626
Ooievaarstraat,52,,,4043KZ,Opheusden,Neder-Betuwe,Gelderland,VBO,5.628922,51.930563
Ooievaarstraat,54,,,4043KZ,Opheusden,Neder-Betuwe,Gelderland,VBO,5.628965,51.930527
Ooievaarstraat,56,,,4043KZ,Opheusden,Neder-Betuwe,Gelderland,VBO,5.628979,51.930473
Ooievaarstraat,58,,,4043KZ,Opheusden,Neder-Betuwe,Gelderland,VBO,5.628993,51.930428
Kievitstraat,1,,,4043LA,Opheusden,Neder-Betuwe,Gelderland,VBO,5.628774,51.930150
Kievitstraat,3,,,4043LA,Opheusden,Neder-Betuwe,Gelderland,VBO,5.628861,51.930167
Kievitstraat,5,,,4043LA,Opheusden,Neder-Betuwe,Gelderland,VBO,5.628949,51.930194
Kievitstraat,7,,,4043LA,Opheusden,Neder-Betuwe,Gelderland,VBO,5.629051,51.930221
Kievitstraat,9,,,4043LA,Opheusden,Neder-Betuwe,Gelderland,VBO,5.629123,51.930239
Kievitstraat,11,,,4043LA,Opheusden,Neder-Betuwe,Gelderland,VBO,5.629749,51.930345
Kievitstraat,13,,,4043LA,Opheusden,Neder-Betuwe,Gelderland,VBO,5.629849,51.930368
Kievitstraat,15,,,4043LA,Opheusden,Neder-Betuwe,Gelderland,VBO,5.629928,51.930383
Kievitstraat,17,,,4043LA,Opheusden,Neder-Betuwe,Gelderland,VBO,5.630011,51.930399
Kievitstraat,19,,,4043LA,Opheusden,Neder-Betuwe,Gelderland,VBO,5.630094,51.930415
Kievitstraat,21,,,4043LA,Opheusden,Neder-Betuwe,Gelderland,VBO,5.630186,51.930434
Kievitstraat,23,,,4043LA,Opheusden,Neder-Betuwe,Gelderland,VBO,5.630391,51.930468
Kievitstraat,25,,,4043LA,Opheusden,Neder-Betuwe,Gelderland,VBO,5.630472,51.930485
Kievitstraat,27,,,4043LA,Opheusden,Neder-Betuwe,Gelderland,VBO,5.630548,51.930497
Kievitstraat,2,,,4043LB,Opheusden,Neder-Betuwe,Gelderland,VBO,5.629981,51.930165
Kievitstraat,4,,,4043LB,Opheusden,Neder-Betuwe,Gelderland,VBO,5.630083,51.930174
Kievitstraat,6,,,4043LB,Opheusden,Neder-Betuwe,Gelderland,VBO,5.630184,51.930201
Kievitstraat,8,,,4043LB,Opheusden,Neder-Betuwe,Gelderland,VBO,5.630276,51.930211
Kievitstraat,10,,,4043LB,Opheusden,Neder-Betuwe,Gelderland,VBO,5.630345,51.930229
Kievitstraat,12,,,4043LB,Opheusden,Neder-Betuwe,Gelderland,VBO,5.630437,51.930243
Kievitstraat,14,,,4043LB,Opheusden,Neder-Betuwe,Gelderland,VBO,5.630522,51.930258
Kievitstraat,16,,,4043LB,Opheusden,Neder-Betuwe,Gelderland,VBO,5.630611,51.930274
Lijsterstraat,3,,,4043LC,Opheusden,Neder-Betuwe,Gelderland,VBO,5.627981,51.931419
Lijsterstraat,5,,,4043LC,Opheusden,Neder-Betuwe,Gelderland,VBO,5.628024,51.931338
Lijsterstraat,7,,,4043LC,Opheusden,Neder-Betuwe,Gelderland,VBO,5.628009,51.931257
Lijsterstraat,9,,,4043LC,Opheusden,Neder-Betuwe,Gelderland,VBO,5.628082,51.931194
Lijsterstraat,11,,,4043LC,Opheusden,Neder-Betuwe,Gelderland,VBO,5.628217,51.930959
Lijsterstraat,13,,,4043LC,Opheusden,Neder-Betuwe,Gelderland,VBO,5.628238,51.930916
Lijsterstraat,15,,,4043LC,Opheusden,Neder-Betuwe,Gelderland,VBO,5.628265,51.930872
Lijsterstraat,17,,,4043LC,Opheusden,Neder-Betuwe,Gelderland,VBO,5.628326,51.930762
Lijsterstraat,19,,,4043LC,Opheusden,Neder-Betuwe,Gelderland,VBO,5.628370,51.930708
Lijsterstraat,21,,,4043LC,Opheusden,Neder-Betuwe,Gelderland,VBO,5.628399,51.930663
Lijsterstraat,23,,,4043LC,Opheusden,Neder-Betuwe,Gelderland,VBO,5.628413,51.930609
Lijsterstraat,25,,,4043LC,Opheusden,Neder-Betuwe,Gelderland,VBO,5.628499,51.930492
Lijsterstraat,27,,,4043LC,Opheusden,Neder-Betuwe,Gelderland,VBO,5.628528,51.930447
Lijsterstraat,29,,,4043LC,Opheusden,Neder-Betuwe,Gelderland,VBO,5.628557,51.930375
Lijsterstraat,31,,,4043LC,Opheusden,Neder-Betuwe,Gelderland,VBO,5.628600,51.930312
Lijsterstraat,2,,,4043LD,Opheusden,Neder-Betuwe,Gelderland,VBO,5.627891,51.930879
Lijsterstraat,4,,,4043LD,Opheusden,Neder-Betuwe,Gelderland,VBO,5.627920,51.930834
Lijsterstraat,6,,,4043LD,Opheusden,Neder-Betuwe,Gelderland,VBO,5.627963,51.930780
Lijsterstraat,8,,,4043LD,Opheusden,Neder-Betuwe,Gelderland,VBO,5.627977,51.930735
Lijsterstraat,10,,,4043LD,Opheusden,Neder-Betuwe,Gelderland,VBO,5.628064,51.930627
Lijsterstraat,12,,,4043LD,Opheusden,Neder-Betuwe,Gelderland,VBO,5.628093,51.930573
Lijsterstraat,14,,,4043LD,Opheusden,Neder-Betuwe,Gelderland,VBO,5.628122,51.930519
Lijsterstraat,16,,,4043LD,Opheusden,Neder-Betuwe,Gelderland,VBO,5.628150,51.930474
Lijsterstraat,18,,,4043LD,Opheusden,Neder-Betuwe,Gelderland,VBO,5.628194,51.930429
Lijsterstraat,20,,,4043LD,Opheusden,Neder-Betuwe,Gelderland,VBO,5.628266,51.930303
Lijsterstraat,22,,,4043LD,Opheusden,Neder-Betuwe,Gelderland,VBO,5.628295,51.930249
Lijsterstraat,24,,,4043LD,Opheusden,Neder-Betuwe,Gelderland,VBO,5.628338,51.930195
Lijsterstraat,26,,,4043LD,Opheusden,Neder-Betuwe,Gelderland,VBO,5.628367,51.930141
Lijsterstraat,28,,,4043LD,Opheusden,Neder-Betuwe,Gelderland,VBO,5.628410,51.930096
Lijsterstraat,30,,,4043LD,Opheusden,Neder-Betuwe,Gelderland,VBO,5.628497,51.929988
Lijsterstraat,32,,,4043LD,Opheusden,Neder-Betuwe,Gelderland,VBO,5.628526,51.929943
Lijsterstraat,34,,,4043LD,Opheusden,Neder-Betuwe,Gelderland,VBO,5.628540,51.929898
Lijsterstraat,36,,,4043LD,Opheusden,Neder-Betuwe,Gelderland,VBO,5.628583,51.929844
Lijsterstraat,38,,,4043LD,Opheusden,Neder-Betuwe,Gelderland,VBO,5.628627,51.929781
Lijsterstraat,40,,,4043LD,Opheusden,Neder-Betuwe,Gelderland,VBO,5.628655,51.929736
Lijsterstraat,42,,,4043LD,Opheusden,Neder-Betuwe,Gelderland,VBO,5.628684,51.929682
Lijsterstraat,44,,,4043LD,Opheusden,Neder-Betuwe,Gelderland,VBO,5.628713,51.929646
Hamsestraat,1,,,4043LE,Opheusden,Neder-Betuwe,Gelderland,VBO,5.627326,51.933134
Hamsestraat,3,,,4043LE,Opheusden,Neder-Betuwe,Gelderland,VBO,5.627118,51.933110
Hamsestraat,5,a,,4043LE,Opheusden,Neder-Betuwe,Gelderland,VBO,5.626948,51.932986
Hamsestraat,5,b,,4043LE,Opheusden,Neder-Betuwe,Gelderland,VBO,5.627035,51.932908
Hamsestraat,5,,,4043LE,Opheusden,Neder-Betuwe,Gelderland,VBO,5.626854,51.933055
Hamsestraat,7,,,4043LE,Opheusden,Neder-Betuwe,Gelderland,VBO,5.626660,51.933046
Hamsestraat,9,a,,4043LE,Opheusden,Neder-Betuwe,Gelderland,VBO,5.625881,51.932933
Hamsestraat,9,b,,4043LE,Opheusden,Neder-Betuwe,Gelderland,VBO,5.625808,51.932915
Hamsestraat,9,c,,4043LE,Opheusden,Neder-Betuwe,Gelderland,VBO,5.625619,51.932862
Hamsestraat,9,,,4043LE,Opheusden,Neder-Betuwe,Gelderland,VBO,5.626172,51.932950
Hamsestraat,11,,,4043LE,Opheusden,Neder-Betuwe,Gelderland,VBO,5.625508,51.932796
Hamsestraat,13,,,4043LE,Opheusden,Neder-Betuwe,Gelderland,VBO,5.624833,51.932728
Hamsestraat,15,,,4043LE,Opheusden,Neder-Betuwe,Gelderland,VBO,5.624585,51.932576
Hamsestraat,17,,,4043LE,Opheusden,Neder-Betuwe,Gelderland,VBO,5.624091,51.932694
Hamsestraat,19,a,,4043LE,Opheusden,Neder-Betuwe,Gelderland,VBO,5.623620,51.932678
Hamsestraat,19,,,4043LE,Opheusden,Neder-Betuwe,Gelderland,VBO,5.623730,51.932556
Hamsestraat,21,,,4043LE,Opheusden,Neder-Betuwe,Gelderland,VBO,5.623523,51.932416
Hamsestraat,27,,,4043LE,Opheusden,Neder-Betuwe,Gelderland,VBO,5.623131,51.932516
Hamsestraat,29,,,4043LE,Opheusden,Neder-Betuwe,Gelderland,VBO,5.622941,51.932516
Hamsestraat,31,,,4043LE,Opheusden,Neder-Betuwe,Gelderland,VBO,5.622781,51.932499
Hamsestraat,39,,,4043LE,Opheusden,Neder-Betuwe,Gelderland,VBO,5.622432,51.932311
Hamsestraat,41,,,4043LG,Opheusden,Neder-Betuwe,Gelderland,VBO,5.622105,51.932293
Hamsestraat,43,,,4043LG,Opheusden,Neder-Betuwe,Gelderland,VBO,5.622114,51.932218
Hamsestraat,45,,,4043LG,Opheusden,Neder-Betuwe,Gelderland,VBO,5.621879,51.932321
Hamsestraat,47,,,4043LG,Opheusden,Neder-Betuwe,Gelderland,VBO,5.621763,51.932285
Hamsestraat,49,,,4043LG,Opheusden,Neder-Betuwe,Gelderland,VBO,5.621661,51.932276
Hamsestraat,51,,,4043LG,Opheusden,Neder-Betuwe,Gelderland,VBO,5.621370,51.932205
Hamsestraat,53,,,4043LG,Opheusden,Neder-Betuwe,Gelderland,VBO,5.621224,51.932187
Hamsestraat,55,,,4043LG,Opheusden,Neder-Betuwe,Gelderland,VBO,5.620918,51.932053
Hamsestraat,57,,,4043LG,Opheusden,Neder-Betuwe,Gelderland,VBO,5.620860,51.932026
Hamsestraat,59,,,4043LG,Opheusden,Neder-Betuwe,Gelderland,VBO,5.620482,51.932036
Hamsestraat,61,,,4043LG,Opheusden,Neder-Betuwe,Gelderland,VBO,5.620409,51.931955
Hamsestraat,63,,,4043LG,Opheusden,Neder-Betuwe,Gelderland,VBO,5.620191,51.931974
Hamsestraat,67,,,4043LG,Opheusden,Neder-Betuwe,Gelderland,VBO,5.620466,51.931748
Hamsestraat,69,,,4043LG,Opheusden,Neder-Betuwe,Gelderland,VBO,5.620161,51.931821
Hamsestraat,73,a,,4043LG,Opheusden,Neder-Betuwe,Gelderland,VBO,5.619958,51.931692
Hamsestraat,73,,,4043LG,Opheusden,Neder-Betuwe,Gelderland,VBO,5.619754,51.931659
Hamsestraat,75,,,4043LG,Opheusden,Neder-Betuwe,Gelderland,VBO,5.620599,51.929519
Hamsestraat,77,,,4043LG,Opheusden,Neder-Betuwe,Gelderland,VBO,5.619516,51.930869
Hamsestraat,79,,,4043LG,Opheusden,Neder-Betuwe,Gelderland,VBO,5.618977,51.930691
Hamsestraat,81,,,4043LG,Opheusden,Neder-Betuwe,Gelderland,VBO,5.618454,51.930701
Hamsestraat,83,,,4043LG,Opheusden,Neder-Betuwe,Gelderland,VBO,5.618738,51.929505
Hamsestraat,85,,,4043LG,Opheusden,Neder-Betuwe,Gelderland,VBO,5.618221,51.930665
Hamsestraat,87,,,4043LG,Opheusden,Neder-Betuwe,Gelderland,VBO,5.618003,51.930594
Hamsestraat,89,,,4043LG,Opheusden,Neder-Betuwe,Gelderland,VBO,5.617798,51.930432
Hamsestraat,2,a,,4043LH,Opheusden,Neder-Betuwe,Gelderland,VBO,5.627310,51.933793
Hamsestraat,2,b,,4043LH,Opheusden,Neder-Betuwe,Gelderland,VBO,5.626976,51.933932
Hamsestraat,2,,,4043LH,Opheusden,Neder-Betuwe,Gelderland,VBO,5.627140,51.933720
Hamsestraat,4,,,4043LH,Opheusden,Neder-Betuwe,Gelderland,VBO,5.626987,51.933469
Hamsestraat,6,,,4043LH,Opheusden,Neder-Betuwe,Gelderland,VBO,5.626304,51.933619
Hamsestraat,14,,,4043LH,Opheusden,Neder-Betuwe,Gelderland,VBO,5.626363,51.933372
Hamsestraat,16,,,4043LH,Opheusden,Neder-Betuwe,Gelderland,VBO,5.626000,51.933472
Hamsestraat,20,,,4043LH,Opheusden,Neder-Betuwe,Gelderland,VBO,5.625606,51.933284
Hamsestraat,24,,,4043LH,Opheusden,Neder-Betuwe,Gelderland,VBO,5.625185,51.933330
Hamsestraat,28,,,4043LH,Opheusden,Neder-Betuwe,Gelderland,VBO,5.624122,51.933080
Hamsestraat,30,,,4043LH,Opheusden,Neder-Betuwe,Gelderland,VBO,5.623729,51.933018
Hamsestraat,32,,,4043LH,Opheusden,Neder-Betuwe,Gelderland,VBO,5.623525,51.932957
Hamsestraat,34,a,,4043LH,Opheusden,Neder-Betuwe,Gelderland,VBO,5.623325,51.933045
Hamsestraat,34,b,,4043LH,Opheusden,Neder-Betuwe,Gelderland,VBO,5.622930,51.933737
Hamsestraat,34,,,4043LH,Opheusden,Neder-Betuwe,Gelderland,VBO,5.623394,51.932857
Hamsestraat,36,a,,4043LH,Opheusden,Neder-Betuwe,Gelderland,VBO,5.623186,51.932886
Hamsestraat,36,,,4043LH,Opheusden,Neder-Betuwe,Gelderland,VBO,5.623208,51.932836
Hamsestraat,40,a,,4043LJ,Opheusden,Neder-Betuwe,Gelderland,VBO,5.622042,51.932923
Hamsestraat,40,,,4043LJ,Opheusden,Neder-Betuwe,Gelderland,VBO,5.622653,51.932868
Hamsestraat,42,,,4043LJ,Opheusden,Neder-Betuwe,Gelderland,VBO,5.621823,51.932689
Hamsestraat,44,,,4043LJ,Opheusden,Neder-Betuwe,Gelderland,VBO,5.621531,51.932564
Hamsestraat,46,,,4043LJ,Opheusden,Neder-Betuwe,Gelderland,VBO,5.621051,51.932385
Hamsestraat,52,,,4043LJ,Opheusden,Neder-Betuwe,Gelderland,VBO,5.620472,51.932872
Hamsestraat,54,,,4043LJ,Opheusden,Neder-Betuwe,Gelderland,VBO,5.620558,51.932746
Hamsestraat,56,,,4043LJ,Opheusden,Neder-Betuwe,Gelderland,VBO,5.620602,51.932710
Hamsestraat,62,,,4043LJ,Opheusden,Neder-Betuwe,Gelderland,VBO,5.620659,51.932521
Hamsestraat,64,a,,4043LJ,Opheusden,Neder-Betuwe,Gelderland,VBO,5.619487,51.931986
Hamsestraat,64,,,4043LJ,Opheusden,Neder-Betuwe,Gelderland,VBO,5.620600,51.932386
Hamsestraat,66,,,4043LJ,Opheusden,Neder-Betuwe,Gelderland,VBO,5.619055,51.931598
Hamsestraat,68,,,4043LJ,Opheusden,Neder-Betuwe,Gelderland,VBO,5.618851,51.931581
Hamsestraat,70,a,,4043LK,Opheusden,Neder-Betuwe,Gelderland,VBO,5.618267,51.931216
Hamsestraat,70,b,,4043LK,Opheusden,Neder-Betuwe,Gelderland,VBO,5.617515,51.930860
Hamsestraat,70,c,,4043LK,Opheusden,Neder-Betuwe,Gelderland,VBO,5.617723,51.930875
Hamsestraat,70,,,4043LK,Opheusden,Neder-Betuwe,Gelderland,VBO,5.618137,51.931616
Hamsestraat,72,a,,4043LK,Opheusden,Neder-Betuwe,Gelderland,VBO,5.616786,51.930443
Hamsestraat,72,b,,4043LK,Opheusden,Neder-Betuwe,Gelderland,VBO,5.616489,51.930300
Hamsestraat,72,,,4043LK,Opheusden,Neder-Betuwe,Gelderland,VBO,5.616942,51.930758
Hamsestraat,74,,,4043LK,Opheusden,Neder-Betuwe,Gelderland,VBO,5.616197,51.930094
Hamsestraat,78,,,4043LK,Opheusden,Neder-Betuwe,Gelderland,VBO,5.615424,51.929646
Hamsestraat,80,,,4043LK,Opheusden,Neder-Betuwe,Gelderland,VBO,5.615364,51.929341
Hamsestraat,82,,,4043LK,Opheusden,Neder-Betuwe,Gelderland,VBO,5.615277,51.929206
Hamsestraat,84,,,4043LK,Opheusden,Neder-Betuwe,Gelderland,VBO,5.615203,51.929125
Hamsestraat,88,,,4043LK,Opheusden,Neder-Betuwe,Gelderland,VBO,5.615057,51.928883
Hamsestraat,90,,,4043LK,Opheusden,Neder-Betuwe,Gelderland,VBO,5.614693,51.928803
Hamsestraat,92,,,4043LK,Opheusden,Neder-Betuwe,Gelderland,VBO,5.614474,51.928686
Smachtkamp,1,a,,4043LL,Opheusden,Neder-Betuwe,Gelderland,VBO,5.625588,51.932637
Smachtkamp,1,b,,4043LL,Opheusden,Neder-Betuwe,Gelderland,VBO,5.625661,51.932583
Smachtkamp,1,c,,4043LL,Opheusden,Neder-Betuwe,Gelderland,VBO,5.625719,51.932520
Smachtkamp,1,d,,4043LL,Opheusden,Neder-Betuwe,Gelderland,VBO,5.625762,51.932448
Smachtkamp,1,e,,4043LL,Opheusden,Neder-Betuwe,Gelderland,VBO,5.625703,51.932286
Smachtkamp,3,,,4043LL,Opheusden,Neder-Betuwe,Gelderland,VBO,5.625717,51.932223
Smachtkamp,5,,,4043LL,Opheusden,Neder-Betuwe,Gelderland,VBO,5.625833,51.932115
Smachtkamp,7,,,4043LL,Opheusden,Neder-Betuwe,Gelderland,VBO,5.625847,51.932070
Smachtkamp,9,,,4043LL,Opheusden,Neder-Betuwe,Gelderland,VBO,5.625948,51.931962
Smachtkamp,11,,,4043LL,Opheusden,Neder-Betuwe,Gelderland,VBO,5.625962,51.931881
Smachtkamp,13,,,4043LL,Opheusden,Neder-Betuwe,Gelderland,VBO,5.626035,51.931773
Smachtkamp,15,,,4043LL,Opheusden,Neder-Betuwe,Gelderland,VBO,5.626049,51.931719
Smachtkamp,17,,,4043LL,Opheusden,Neder-Betuwe,Gelderland,VBO,5.626121,51.931611
Smachtkamp,19,,,4043LL,Opheusden,Neder-Betuwe,Gelderland,VBO,5.626193,51.931548
Smachtkamp,21,,,4043LL,Opheusden,Neder-Betuwe,Gelderland,VBO,5.626265,51.931440
Smachtkamp,23,,,4043LL,Opheusden,Neder-Betuwe,Gelderland,VBO,5.626294,51.931386
Smachtkamp,27,,,4043LL,Opheusden,Neder-Betuwe,Gelderland,VBO,5.626828,51.930630
Smachtkamp,29,,,4043LL,Opheusden,Neder-Betuwe,Gelderland,VBO,5.626828,51.930576
Smachtkamp,31,,,4043LM,Opheusden,Neder-Betuwe,Gelderland,VBO,5.626871,51.930531
Smachtkamp,33,,,4043LM,Opheusden,Neder-Betuwe,Gelderland,VBO,5.626944,51.930459
Smachtkamp,35,,,4043LM,Opheusden,Neder-Betuwe,Gelderland,VBO,5.626987,51.930396
Smachtkamp,37,,,4043LM,Opheusden,Neder-Betuwe,Gelderland,VBO,5.626987,51.930333
Smachtkamp,39,,,4043LM,Opheusden,Neder-Betuwe,Gelderland,VBO,5.627076,51.930214
Smachtkamp,41,,,4043LM,Opheusden,Neder-Betuwe,Gelderland,VBO,5.627096,51.930158
Smachtkamp,43,,,4043LM,Opheusden,Neder-Betuwe,Gelderland,VBO,5.627133,51.930106
Smachtkamp,45,,,4043LM,Opheusden,Neder-Betuwe,Gelderland,VBO,5.627176,51.930058
Smachtkamp,47,,,4043LM,Opheusden,Neder-Betuwe,Gelderland,VBO,5.627203,51.930000
Smachtkamp,49,,,4043LM,Opheusden,Neder-Betuwe,Gelderland,VBO,5.627232,51.929955
Smachtkamp,51,,,4043LM,Opheusden,Neder-Betuwe,Gelderland,VBO,5.627423,51.929908
Smachtkamp,53,,,4043LM,Opheusden,Neder-Betuwe,Gelderland,VBO,5.627309,51.929809
Smachtkamp,55,,,4043LM,Opheusden,Neder-Betuwe,Gelderland,VBO,5.627330,51.929749
Smachtkamp,57,,,4043LM,Opheusden,Neder-Betuwe,Gelderland,VBO,5.627390,51.929694
Smachtkamp,59,,,4043LM,Opheusden,Neder-Betuwe,Gelderland,VBO,5.627419,51.929649
Smachtkamp,61,,,4043LM,Opheusden,Neder-Betuwe,Gelderland,VBO,5.627458,51.929604
Smachtkamp,63,,,4043LM,Opheusden,Neder-Betuwe,Gelderland,VBO,5.627475,51.929555
Smachtkamp,69,,,4043LM,Opheusden,Neder-Betuwe,Gelderland,VBO,5.627823,51.929127
Smachtkamp,71,,,4043LM,Opheusden,Neder-Betuwe,Gelderland,VBO,5.627867,51.929082
Smachtkamp,73,,,4043LM,Opheusden,Neder-Betuwe,Gelderland,VBO,5.627939,51.928992
Smachtkamp,75,,,4043LM,Opheusden,Neder-Betuwe,Gelderland,VBO,5.627982,51.928947
Smachtkamp,77,,,4043LM,Opheusden,Neder-Betuwe,Gelderland,VBO,5.628025,51.928848
Smachtkamp,79,,,4043LM,Opheusden,Neder-Betuwe,Gelderland,VBO,5.628054,51.928794
Smachtkamp,81,,,4043LM,Opheusden,Neder-Betuwe,Gelderland,VBO,5.628372,51.928335
Smachtkamp,83,,,4043LM,Opheusden,Neder-Betuwe,Gelderland,VBO,5.628400,51.928290
Smachtkamp,85,,,4043LM,Opheusden,Neder-Betuwe,Gelderland,VBO,5.628443,51.928182
Smachtkamp,87,,,4043LM,Opheusden,Neder-Betuwe,Gelderland,VBO,5.628458,51.928146
Smachtkamp,89,,,4043LM,Opheusden,Neder-Betuwe,Gelderland,VBO,5.628767,51.927557
Smachtkamp,2,a,,4043LN,Opheusden,Neder-Betuwe,Gelderland,VBO,5.625209,51.932440
Smachtkamp,2,,,4043LN,Opheusden,Neder-Betuwe,Gelderland,VBO,5.625094,51.932611
Smachtkamp,4,,,4043LN,Opheusden,Neder-Betuwe,Gelderland,VBO,5.625253,51.932377
Smachtkamp,6,,,4043LN,Opheusden,Neder-Betuwe,Gelderland,VBO,5.625310,51.932287
Smachtkamp,8,,,4043LN,Opheusden,Neder-Betuwe,Gelderland,VBO,5.625354,51.932233
Smachtkamp,10,,,4043LN,Opheusden,Neder-Betuwe,Gelderland,VBO,5.625426,51.932134
Smachtkamp,12,,,4043LN,Opheusden,Neder-Betuwe,Gelderland,VBO,5.625455,51.932080
Smachtkamp,14,,,4043LN,Opheusden,Neder-Betuwe,Gelderland,VBO,5.625512,51.931990
Smachtkamp,16,,,4043LN,Opheusden,Neder-Betuwe,Gelderland,VBO,5.625541,51.931918
Smachtkamp,18,,,4043LN,Opheusden,Neder-Betuwe,Gelderland,VBO,5.625628,51.931810
Smachtkamp,20,,,4043LN,Opheusden,Neder-Betuwe,Gelderland,VBO,5.625642,51.931747
Smachtkamp,22,,,4043LN,Opheusden,Neder-Betuwe,Gelderland,VBO,5.625685,51.931648
Smachtkamp,24,,,4043LN,Opheusden,Neder-Betuwe,Gelderland,VBO,5.625743,51.931585
Smachtkamp,26,,,4043LN,Opheusden,Neder-Betuwe,Gelderland,VBO,5.625815,51.931495
Smachtkamp,28,,,4043LN,Opheusden,Neder-Betuwe,Gelderland,VBO,5.625844,51.931432
Smachtkamp,34,a,,4043LP,Opheusden,Neder-Betuwe,Gelderland,VBO,5.626291,51.930789
Smachtkamp,34,,,4043LP,Opheusden,Neder-Betuwe,Gelderland,VBO,5.626147,51.931081
Smachtkamp,36,a,,4043LP,Opheusden,Neder-Betuwe,Gelderland,VBO,5.626507,51.930424
Smachtkamp,36,,,4043LP,Opheusden,Neder-Betuwe,Gelderland,VBO,5.626319,51.930523
Smachtkamp,38,,,4043LP,Opheusden,Neder-Betuwe,Gelderland,VBO,5.626463,51.930361
Smachtkamp,40,a,,4043LP,Opheusden,Neder-Betuwe,Gelderland,VBO,5.626724,51.930118
Smachtkamp,40,,,4043LP,Opheusden,Neder-Betuwe,Gelderland,VBO,5.626550,51.930235
Smachtkamp,42,,,4043LP,Opheusden,Neder-Betuwe,Gelderland,VBO,5.626766,51.929884
Smachtkamp,44,,,4043LP,Opheusden,Neder-Betuwe,Gelderland,VBO,5.626968,51.929623
Smachtkamp,46,,,4043LP,Opheusden,Neder-Betuwe,Gelderland,VBO,5.627069,51.929380
Smachtkamp,48,,,4043LP,Opheusden,Neder-Betuwe,Gelderland,VBO,5.627097,51.929209
Smachtkamp,50,,,4043LP,Opheusden,Neder-Betuwe,Gelderland,VBO,5.627183,51.929047
Smachtkamp,56,,,4043LP,Opheusden,Neder-Betuwe,Gelderland,VBO,5.627919,51.928057
Smachtkamp,58,,,4043LP,Opheusden,Neder-Betuwe,Gelderland,VBO,5.627962,51.927850
Smachtkamp,60,,,4043LP,Opheusden,Neder-Betuwe,Gelderland,VBO,5.628090,51.927356
Spechtstraat,1,,,4043LR,Opheusden,Neder-Betuwe,Gelderland,VBO,5.627527,51.930799
Spechtstraat,3,,,4043LR,Opheusden,Neder-Betuwe,Gelderland,VBO,5.627556,51.930745
Spechtstraat,7,,,4043LR,Opheusden,Neder-Betuwe,Gelderland,VBO,5.627685,51.930511
Spechtstraat,9,,,4043LR,Opheusden,Neder-Betuwe,Gelderland,VBO,5.627757,51.930469
Spechtstraat,11,,,4043LR,Opheusden,Neder-Betuwe,Gelderland,VBO,5.627783,51.930420
Spechtstraat,13,,,4043LR,Opheusden,Neder-Betuwe,Gelderland,VBO,5.627816,51.930362
Spechtstraat,15,,,4043LR,Opheusden,Neder-Betuwe,Gelderland,VBO,5.627845,51.930315
Spechtstraat,17,,,4043LR,Opheusden,Neder-Betuwe,Gelderland,VBO,5.627884,51.930261
Spechtstraat,19,,,4043LR,Opheusden,Neder-Betuwe,Gelderland,VBO,5.627907,51.930210
Spechtstraat,21,,,4043LR,Opheusden,Neder-Betuwe,Gelderland,VBO,5.627938,51.930147
Spechtstraat,23,,,4043LR,Opheusden,Neder-Betuwe,Gelderland,VBO,5.627988,51.930061
Spechtstraat,25,,,4043LR,Opheusden,Neder-Betuwe,Gelderland,VBO,5.628017,51.930016
Spechtstraat,27,,,4043LR,Opheusden,Neder-Betuwe,Gelderland,VBO,5.628089,51.929881
Spechtstraat,29,,,4043LR,Opheusden,Neder-Betuwe,Gelderland,VBO,5.628118,51.929836
Spechtstraat,31,,,4043LR,Opheusden,Neder-Betuwe,Gelderland,VBO,5.628147,51.929800
Spechtstraat,33,,,4043LR,Opheusden,Neder-Betuwe,Gelderland,VBO,5.628176,51.929746
Spechtstraat,35,,,4043LR,Opheusden,Neder-Betuwe,Gelderland,VBO,5.628204,51.929692
Spechtstraat,37,,,4043LR,Opheusden,Neder-Betuwe,Gelderland,VBO,5.628233,51.929638
Spechtstraat,39,,,4043LR,Opheusden,Neder-Betuwe,Gelderland,VBO,5.628262,51.929593
Spechtstraat,41,,,4043LR,Opheusden,Neder-Betuwe,Gelderland,VBO,5.628305,51.929539
Spechtstraat,2,,,4043LS,Opheusden,Neder-Betuwe,Gelderland,VBO,5.627178,51.930737
Spechtstraat,4,,,4043LS,Opheusden,Neder-Betuwe,Gelderland,VBO,5.627235,51.930656
Spechtstraat,6,,,4043LS,Opheusden,Neder-Betuwe,Gelderland,VBO,5.627308,51.930557
Spechtstraat,8,,,4043LS,Opheusden,Neder-Betuwe,Gelderland,VBO,5.627351,51.930512
Spechtstraat,10,,,4043LS,Opheusden,Neder-Betuwe,Gelderland,VBO,5.627380,51.930458
Spechtstraat,12,,,4043LS,Opheusden,Neder-Betuwe,Gelderland,VBO,5.627409,51.930413
Spechtstraat,14,,,4043LS,Opheusden,Neder-Betuwe,Gelderland,VBO,5.627437,51.930341
Spechtstraat,16,,,4043LS,Opheusden,Neder-Betuwe,Gelderland,VBO,5.627466,51.930287
Spechtstraat,18,,,4043LS,Opheusden,Neder-Betuwe,Gelderland,VBO,5.627509,51.930188
Spechtstraat,20,,,4043LS,Opheusden,Neder-Betuwe,Gelderland,VBO,5.627567,51.930161
Spechtstraat,22,,,4043LS,Opheusden,Neder-Betuwe,Gelderland,VBO,5.627611,51.930107
Spechtstraat,24,,,4043LS,Opheusden,Neder-Betuwe,Gelderland,VBO,5.627639,51.930044
Spechtstraat,26,,,4043LS,Opheusden,Neder-Betuwe,Gelderland,VBO,5.627668,51.929990
Spechtstraat,28,,,4043LS,Opheusden,Neder-Betuwe,Gelderland,VBO,5.627697,51.929927
Spechtstraat,30,,,4043LS,Opheusden,Neder-Betuwe,Gelderland,VBO,5.627754,51.929837
Spechtstraat,32,,,4043LS,Opheusden,Neder-Betuwe,Gelderland,VBO,5.627783,51.929783
Spechtstraat,34,,,4043LS,Opheusden,Neder-Betuwe,Gelderland,VBO,5.627827,51.929729
Spechtstraat,36,,,4043LS,Opheusden,Neder-Betuwe,Gelderland,VBO,5.627870,51.929684
Spechtstraat,38,,,4043LS,Opheusden,Neder-Betuwe,Gelderland,VBO,5.627913,51.929612
Spechtstraat,40,,,4043LS,Opheusden,Neder-Betuwe,Gelderland,VBO,5.627942,51.929576
Kempkeslaan,1,a,,4043LT,Opheusden,Neder-Betuwe,Gelderland,VBO,5.626633,51.932843
Kempkeslaan,1,,,4043LT,Opheusden,Neder-Betuwe,Gelderland,VBO,5.626565,51.932975
Kempkeslaan,3,,,4043LT,Opheusden,Neder-Betuwe,Gelderland,VBO,5.626667,51.932782
Kempkeslaan,5,,,4043LT,Opheusden,Neder-Betuwe,Gelderland,VBO,5.626750,51.932677
Kempkeslaan,7,,,4043LT,Opheusden,Neder-Betuwe,Gelderland,VBO,5.626768,51.932624
Kempkeslaan,2,,,4043LV,Opheusden,Neder-Betuwe,Gelderland,VBO,5.626317,51.932717
Kempkeslaan,4,,,4043LV,Opheusden,Neder-Betuwe,Gelderland,VBO,5.626344,51.932655
Kempkeslaan,6,,,4043LV,Opheusden,Neder-Betuwe,Gelderland,VBO,5.626373,51.932545
Kempkeslaan,8,,,4043LV,Opheusden,Neder-Betuwe,Gelderland,VBO,5.626431,51.932473
Kempkeslaan,10,,,4043LV,Opheusden,Neder-Betuwe,Gelderland,VBO,5.626312,51.932240
Kempkeslaan,12,,,4043LV,Opheusden,Neder-Betuwe,Gelderland,VBO,5.626500,51.932354
Kempkeslaan,14,,,4043LV,Opheusden,Neder-Betuwe,Gelderland,VBO,5.626387,51.932200
Kempkeslaan,16,,,4043LV,Opheusden,Neder-Betuwe,Gelderland,VBO,5.626406,51.932158
Kempkeslaan,18,,,4043LV,Opheusden,Neder-Betuwe,Gelderland,VBO,5.626452,51.932095
Kempkeslaan,20,,,4043LV,Opheusden,Neder-Betuwe,Gelderland,VBO,5.626462,51.932058
Kempkeslaan,22,,,4043LV,Opheusden,Neder-Betuwe,Gelderland,VBO,5.626481,51.932017
Kempkeslaan,24,,,4043LV,Opheusden,Neder-Betuwe,Gelderland,VBO,5.626510,51.931985
Kempkeslaan,26,,,4043LV,Opheusden,Neder-Betuwe,Gelderland,VBO,5.626538,51.931947
Kempkeslaan,28,,,4043LV,Opheusden,Neder-Betuwe,Gelderland,VBO,5.626936,51.931681
Kempkeslaan,28,,,4043LV,Opheusden,Neder-Betuwe,Gelderland,VBO,5.626590,51.931896
Kempkeslaan,30,,,4043LV,Opheusden,Neder-Betuwe,Gelderland,VBO,5.626655,51.931846
Kempkeslaan,30,,,4043LV,Opheusden,Neder-Betuwe,Gelderland,VBO,5.627008,51.931582
Kempkeslaan,32,,,4043LV,Opheusden,Neder-Betuwe,Gelderland,VBO,5.627036,51.931519
Kempkeslaan,32,,,4043LV,Opheusden,Neder-Betuwe,Gelderland,VBO,5.626892,51.931785
Kempkeslaan,34,,,4043LV,Opheusden,Neder-Betuwe,Gelderland,VBO,5.626920,51.931736
Goudenregenstraat,1,,,4043LW,Opheusden,Neder-Betuwe,Gelderland,VBO,5.627833,51.928291
Goudenregenstraat,2,,,4043LW,Opheusden,Neder-Betuwe,Gelderland,VBO,5.627631,51.928552
Goudenregenstraat,3,,,4043LW,Opheusden,Neder-Betuwe,Gelderland,VBO,5.627775,51.928282
Goudenregenstraat,4,,,4043LW,Opheusden,Neder-Betuwe,Gelderland,VBO,5.627427,51.928499
Goudenregenstraat,5,,,4043LW,Opheusden,Neder-Betuwe,Gelderland,VBO,5.627688,51.928264
Goudenregenstraat,6,,,4043LW,Opheusden,Neder-Betuwe,Gelderland,VBO,5.627224,51.928454
Goudenregenstraat,7,,,4043LW,Opheusden,Neder-Betuwe,Gelderland,VBO,5.627615,51.928270
Goudenregenstraat,8,,,4043LW,Opheusden,Neder-Betuwe,Gelderland,VBO,5.627151,51.928445
Goudenregenstraat,9,,,4043LW,Opheusden,Neder-Betuwe,Gelderland,VBO,5.627542,51.928235
Goudenregenstraat,10,,,4043LW,Opheusden,Neder-Betuwe,Gelderland,VBO,5.626962,51.928392
Goudenregenstraat,11,,,4043LW,Opheusden,Neder-Betuwe,Gelderland,VBO,5.627370,51.928186
Goudenregenstraat,12,,,4043LW,Opheusden,Neder-Betuwe,Gelderland,VBO,5.626874,51.928374
Goudenregenstraat,13,,,4043LW,Opheusden,Neder-Betuwe,Gelderland,VBO,5.627299,51.928158
Goudenregenstraat,15,,,4043LW,Opheusden,Neder-Betuwe,Gelderland,VBO,5.627120,51.928113
Goudenregenstraat,17,,,4043LW,Opheusden,Neder-Betuwe,Gelderland,VBO,5.627033,51.928095
Jasmijnstraat,1,,,4043LX,Opheusden,Neder-Betuwe,Gelderland,VBO,5.627298,51.928795
Jasmijnstraat,2,,,4043LX,Opheusden,Neder-Betuwe,Gelderland,VBO,5.626936,51.929003
Jasmijnstraat,3,a,,4043LX,Opheusden,Neder-Betuwe,Gelderland,VBO,5.626920,51.928706
Jasmijnstraat,3,,,4043LX,Opheusden,Neder-Betuwe,Gelderland,VBO,5.627022,51.928724
Jasmijnstraat,4,,,4043LX,Opheusden,Neder-Betuwe,Gelderland,VBO,5.626878,51.928994
Jasmijnstraat,5,,,4043LX,Opheusden,Neder-Betuwe,Gelderland,VBO,5.626672,51.928662
Jasmijnstraat,6,,,4043LX,Opheusden,Neder-Betuwe,Gelderland,VBO,5.626790,51.928976
Jasmijnstraat,7,,,4043LX,Opheusden,Neder-Betuwe,Gelderland,VBO,5.626468,51.928599
Jasmijnstraat,8,,,4043LX,Opheusden,Neder-Betuwe,Gelderland,VBO,5.626717,51.928958
Jasmijnstraat,9,,,4043LX,Opheusden,Neder-Betuwe,Gelderland,VBO,5.626163,51.928546
Jasmijnstraat,10,,,4043LX,Opheusden,Neder-Betuwe,Gelderland,VBO,5.626631,51.929174
Jasmijnstraat,11,,,4043LX,Opheusden,Neder-Betuwe,Gelderland,VBO,5.625990,51.928780
Jasmijnstraat,12,,,4043LX,Opheusden,Neder-Betuwe,Gelderland,VBO,5.626617,51.929228
Jasmijnstraat,13,,,4043LX,Opheusden,Neder-Betuwe,Gelderland,VBO,5.626339,51.928905
Jasmijnstraat,14,,,4043LX,Opheusden,Neder-Betuwe,Gelderland,VBO,5.626588,51.929273
Jasmijnstraat,15,,,4043LX,Opheusden,Neder-Betuwe,Gelderland,VBO,5.626137,51.929085
Jasmijnstraat,16,,,4043LX,Opheusden,Neder-Betuwe,Gelderland,VBO,5.626574,51.929318
Jasmijnstraat,17,,,4043LX,Opheusden,Neder-Betuwe,Gelderland,VBO,5.626035,51.929059
Jasmijnstraat,18,,,4043LX,Opheusden,Neder-Betuwe,Gelderland,VBO,5.624769,51.928899
Jasmijnstraat,19,,,4043LX,Opheusden,Neder-Betuwe,Gelderland,VBO,5.625816,51.929023
Jasmijnstraat,20,,,4043LX,Opheusden,Neder-Betuwe,Gelderland,VBO,5.624783,51.928854
Jasmijnstraat,21,,,4043LX,Opheusden,Neder-Betuwe,Gelderland,VBO,5.625744,51.929005
Jasmijnstraat,22,,,4043LX,Opheusden,Neder-Betuwe,Gelderland,VBO,5.624870,51.928728
Jasmijnstraat,23,,,4043LX,Opheusden,Neder-Betuwe,Gelderland,VBO,5.625540,51.928970
Jasmijnstraat,24,,,4043LX,Opheusden,Neder-Betuwe,Gelderland,VBO,5.624913,51.928665
Jasmijnstraat,25,,,4043LX,Opheusden,Neder-Betuwe,Gelderland,VBO,5.625438,51.928952
Jasmijnstraat,26,,,4043LX,Opheusden,Neder-Betuwe,Gelderland,VBO,5.624971,51.928539
Jasmijnstraat,27,,,4043LX,Opheusden,Neder-Betuwe,Gelderland,VBO,5.625263,51.928898
Jasmijnstraat,28,,,4043LX,Opheusden,Neder-Betuwe,Gelderland,VBO,5.624985,51.928486
Jasmijnstraat,29,,,4043LX,Opheusden,Neder-Betuwe,Gelderland,VBO,5.625190,51.928881
Jasmijnstraat,30,,,4043LX,Opheusden,Neder-Betuwe,Gelderland,VBO,5.625304,51.928422
Jasmijnstraat,32,,,4043LX,Opheusden,Neder-Betuwe,Gelderland,VBO,5.625566,51.928484
Jasmijnstraat,34,,,4043LX,Opheusden,Neder-Betuwe,Gelderland,VBO,5.625887,51.928574
Jasmijnstraat,36,,,4043LX,Opheusden,Neder-Betuwe,Gelderland,VBO,5.625684,51.928709
Jasmijnstraat,38,,,4043LX,Opheusden,Neder-Betuwe,Gelderland,VBO,5.625655,51.928754
Dokter G van Empelstraat,1,a,,4043LZ,Opheusden,Neder-Betuwe,Gelderland,VBO,5.626616,51.931523
Dokter G van Empelstraat,1,,,4043LZ,Opheusden,Neder-Betuwe,Gelderland,VBO,5.626751,51.931501
Dokter G van Empelstraat,3,,,4043LZ,Opheusden,Neder-Betuwe,Gelderland,VBO,5.626848,51.931505
Dokter G van Empelstraat,5,,,4043LZ,Opheusden,Neder-Betuwe,Gelderland,VBO,5.626992,51.931544
Dokter G van Empelstraat,7,,,4043LZ,Opheusden,Neder-Betuwe,Gelderland,VBO,5.627081,51.931559
Dokter G van Empelstraat,9,,,4043LZ,Opheusden,Neder-Betuwe,Gelderland,VBO,5.627903,51.932034
Dokter G van Empelstraat,11,,,4043LZ,Opheusden,Neder-Betuwe,Gelderland,VBO,5.627806,51.931746
Dokter G van Empelstraat,13,,,4043LZ,Opheusden,Neder-Betuwe,Gelderland,VBO,5.627624,51.931725
Dokter G van Empelstraat,15,,,4043LZ,Opheusden,Neder-Betuwe,Gelderland,VBO,5.627671,51.931911
Dokter G van Empelstraat,17,,,4043LZ,Opheusden,Neder-Betuwe,Gelderland,VBO,5.627443,51.931866
Dokter G van Empelstraat,19,,,4043LZ,Opheusden,Neder-Betuwe,Gelderland,VBO,5.627688,51.931689
Dokter G van Empelstraat,21,,,4043LZ,Opheusden,Neder-Betuwe,Gelderland,VBO,5.627578,51.931836
Dokter G van Empelstraat,23,,,4043LZ,Opheusden,Neder-Betuwe,Gelderland,VBO,5.627434,51.931942
Dokter G van Empelstraat,25,,,4043LZ,Opheusden,Neder-Betuwe,Gelderland,VBO,5.627716,51.931817
Dokter G van Empelstraat,27,,,4043LZ,Opheusden,Neder-Betuwe,Gelderland,VBO,5.627966,51.931805
Dokter G van Empelstraat,29,,,4043LZ,Opheusden,Neder-Betuwe,Gelderland,VBO,5.627801,51.931872
Dokter G van Empelstraat,31,,,4043LZ,Opheusden,Neder-Betuwe,Gelderland,VBO,5.627756,51.931949
Dokter G van Empelstraat,33,,,4043LZ,Opheusden,Neder-Betuwe,Gelderland,VBO,5.627522,51.931942
Dokter G van Empelstraat,35,,,4043LZ,Opheusden,Neder-Betuwe,Gelderland,VBO,5.627927,51.931877
Dokter G van Empelstraat,37,,,4043LZ,Opheusden,Neder-Betuwe,Gelderland,VBO,5.627950,51.931936
Dokter G van Empelstraat,39,,,4043LZ,Opheusden,Neder-Betuwe,Gelderland,VBO,5.627842,51.931988
Dokter G van Empelstraat,41,,,4043LZ,Opheusden,Neder-Betuwe,Gelderland,VBO,5.628018,51.931834
Dokter G van Empelstraat,43,,,4043LZ,Opheusden,Neder-Betuwe,Gelderland,VBO,5.627935,51.931739
Dokter G van Empelstraat,45,,,4043LZ,Opheusden,Neder-Betuwe,Gelderland,VBO,5.627357,51.931919
Dokter G van Empelstraat,47,,,4043LZ,Opheusden,Neder-Betuwe,Gelderland,VBO,5.627533,51.931739
Dokter G van Empelstraat,49,,,4043LZ,Opheusden,Neder-Betuwe,Gelderland,VBO,5.627449,51.931687
Dokter G van Empelstraat,51,,,4043LZ,Opheusden,Neder-Betuwe,Gelderland,VBO,5.627825,51.931797
Dokter G van Empelstraat,53,,,4043LZ,Opheusden,Neder-Betuwe,Gelderland,VBO,5.627443,51.931795
Dokter G van Empelstraat,55,,,4043LZ,Opheusden,Neder-Betuwe,Gelderland,VBO,5.627490,51.931905
Dokter G van Empelstraat,57,,,4043LZ,Opheusden,Neder-Betuwe,Gelderland,VBO,5.627646,51.931869
Dokter G van Empelstraat,59,,,4043LZ,Opheusden,Neder-Betuwe,Gelderland,VBO,5.627619,51.931982
Dokter G van Empelstraat,61,,,4043LZ,Opheusden,Neder-Betuwe,Gelderland,VBO,5.627806,51.931907
Dokter G van Empelstraat,63,,,4043LZ,Opheusden,Neder-Betuwe,Gelderland,VBO,5.627875,51.931830
Dokter G van Empelstraat,65,,,4043LZ,Opheusden,Neder-Betuwe,Gelderland,VBO,5.627652,51.931770
Dokter G van Empelstraat,67,,,4043LZ,Opheusden,Neder-Betuwe,Gelderland,VBO,5.627845,51.931942
Dokter G van Empelstraat,69,,,4043LZ,Opheusden,Neder-Betuwe,Gelderland,VBO,5.627927,51.931990
Dokter G van Empelstraat,71,,,4043LZ,Opheusden,Neder-Betuwe,Gelderland,VBO,5.627660,51.931953
Dokter G van Empelstraat,73,,,4043LZ,Opheusden,Neder-Betuwe,Gelderland,VBO,5.627858,51.931907
Dokter G van Empelstraat,75,,,4043LZ,Opheusden,Neder-Betuwe,Gelderland,VBO,5.628001,51.931876
Dokter G van Empelstraat,77,,,4043LZ,Opheusden,Neder-Betuwe,Gelderland,VBO,5.627569,51.931912
Dokter G van Empelstraat,79,,,4043LZ,Opheusden,Neder-Betuwe,Gelderland,VBO,5.627708,51.931861
Dokter G van Empelstraat,81,,,4043LZ,Opheusden,Neder-Betuwe,Gelderland,VBO,5.628053,51.931784
Dokter G van Empelstraat,83,,,4043LZ,Opheusden,Neder-Betuwe,Gelderland,VBO,5.627720,51.931895
Dokter G van Empelstraat,85,,,4043LZ,Opheusden,Neder-Betuwe,Gelderland,VBO,5.628565,51.931876
Dokter G van Empelstraat,87,,,4043LZ,Opheusden,Neder-Betuwe,Gelderland,VBO,5.628611,51.931909
Lindelaan,1,a,,4043MA,Opheusden,Neder-Betuwe,Gelderland,VBO,5.629294,51.934957
Lindelaan,1,,,4043MA,Opheusden,Neder-Betuwe,Gelderland,VBO,5.629658,51.935001
Lindelaan,3,,,4043MA,Opheusden,Neder-Betuwe,Gelderland,VBO,5.630036,51.935037
Lindelaan,7,,,4043MA,Opheusden,Neder-Betuwe,Gelderland,VBO,5.630386,51.935171
Lindelaan,11,,,4043MA,Opheusden,Neder-Betuwe,Gelderland,VBO,5.631069,51.935061
Lindelaan,13,,,4043MA,Opheusden,Neder-Betuwe,Gelderland,VBO,5.631476,51.935034
Lindelaan,15,,,4043MA,Opheusden,Neder-Betuwe,Gelderland,VBO,5.632072,51.935104
Lindelaan,17,,,4043MA,Opheusden,Neder-Betuwe,Gelderland,VBO,5.632828,51.934977
Lindelaan,19,,,4043MA,Opheusden,Neder-Betuwe,Gelderland,VBO,5.632930,51.934977
Lindelaan,2,a,,4043MB,Opheusden,Neder-Betuwe,Gelderland,VBO,5.629423,51.934642
Lindelaan,2,,,4043MB,Opheusden,Neder-Betuwe,Gelderland,VBO,5.628798,51.934563
Lindelaan,4,,,4043MB,Opheusden,Neder-Betuwe,Gelderland,VBO,5.629642,51.934723
Lindelaan,6,,,4043MB,Opheusden,Neder-Betuwe,Gelderland,VBO,5.629860,51.934722
Lindelaan,8,,,4043MB,Opheusden,Neder-Betuwe,Gelderland,VBO,5.629991,51.934722
Lindelaan,10,,,4043MB,Opheusden,Neder-Betuwe,Gelderland,VBO,5.630184,51.934741
Lindelaan,12,,,4043MB,Opheusden,Neder-Betuwe,Gelderland,VBO,5.630505,51.934763
Lindelaan,14,,,4043MB,Opheusden,Neder-Betuwe,Gelderland,VBO,5.630627,51.934748
Lindelaan,16,,,4043MB,Opheusden,Neder-Betuwe,Gelderland,VBO,5.630994,51.934770
Lindelaan,20,a,,4043MB,Opheusden,Neder-Betuwe,Gelderland,VBO,5.631837,51.934655
Lindelaan,20,,,4043MB,Opheusden,Neder-Betuwe,Gelderland,VBO,5.631394,51.934777
Lindelaan,22,,,4043MB,Opheusden,Neder-Betuwe,Gelderland,VBO,5.632521,51.934708
Lindelaan,24,,,4043MB,Opheusden,Neder-Betuwe,Gelderland,VBO,5.632608,51.934699
Lindelaan,26,,,4043MB,Opheusden,Neder-Betuwe,Gelderland,VBO,5.632855,51.934716
Lindelaan,28,,,4043MB,Opheusden,Neder-Betuwe,Gelderland,VBO,5.632943,51.934716
Rosea Albastraat,1,a,,4043MC,Opheusden,Neder-Betuwe,Gelderland,VBO,5.631761,51.933911
Rosea Albastraat,1,,,4043MC,Opheusden,Neder-Betuwe,Gelderland,VBO,5.631780,51.934145
Rosea Albastraat,2,a,,4043MC,Opheusden,Neder-Betuwe,Gelderland,VBO,5.632212,51.934016
Rosea Albastraat,2,,,4043MC,Opheusden,Neder-Betuwe,Gelderland,VBO,5.632212,51.934124
Rosea Albastraat,6,,,4043MC,Opheusden,Neder-Betuwe,Gelderland,VBO,5.632271,51.934304
Rosea Albastraat,8,,,4043MC,Opheusden,Neder-Betuwe,Gelderland,VBO,5.632272,51.934421
Rosea Albastraat,10,,,4043MC,Opheusden,Neder-Betuwe,Gelderland,VBO,5.632302,51.934556
Rosea Albastraat,12,,,4043MC,Opheusden,Neder-Betuwe,Gelderland,VBO,5.632317,51.934618
Middenweg,1,,,4043MD,Opheusden,Neder-Betuwe,Gelderland,VBO,5.630569,51.934137
Middenweg,2,,,4043MD,Opheusden,Neder-Betuwe,Gelderland,VBO,5.631078,51.934001
Middenweg,3,,,4043MD,Opheusden,Neder-Betuwe,Gelderland,VBO,5.630570,51.934307
Middenweg,4,,,4043MD,Opheusden,Neder-Betuwe,Gelderland,VBO,5.631078,51.934118
Middenweg,5,,,4043MD,Opheusden,Neder-Betuwe,Gelderland,VBO,5.630644,51.934442
Middenweg,6,,,4043MD,Opheusden,Neder-Betuwe,Gelderland,VBO,5.631050,51.934253
Middenweg,7,,,4043MD,Opheusden,Neder-Betuwe,Gelderland,VBO,5.630547,51.934593
Middenweg,8,,,4043MD,Opheusden,Neder-Betuwe,Gelderland,VBO,5.631050,51.934378
Middenweg,10,,,4043MD,Opheusden,Neder-Betuwe,Gelderland,VBO,5.631041,51.934513
Middenweg,12,,,4043MD,Opheusden,Neder-Betuwe,Gelderland,VBO,5.631052,51.934613
Kerklaan,1,,,4043ME,Opheusden,Neder-Betuwe,Gelderland,VBO,5.633444,51.934217
Kerklaan,2,,,4043ME,Opheusden,Neder-Betuwe,Gelderland,VBO,5.634275,51.933805
Kerklaan,3,a,,4043ME,Opheusden,Neder-Betuwe,Gelderland,VBO,5.633360,51.934348
Kerklaan,3,,,4043ME,Opheusden,Neder-Betuwe,Gelderland,VBO,5.633479,51.934355
Kerklaan,4,a,,4043ME,Opheusden,Neder-Betuwe,Gelderland,VBO,5.633884,51.934259
Kerklaan,4,,,4043ME,Opheusden,Neder-Betuwe,Gelderland,VBO,5.633827,51.934166
Kerklaan,5,,,4043ME,Opheusden,Neder-Betuwe,Gelderland,VBO,5.633465,51.934526
Kerklaan,6,a,,4043ME,Opheusden,Neder-Betuwe,Gelderland,VBO,5.633887,51.934489
Kerklaan,6,,,4043ME,Opheusden,Neder-Betuwe,Gelderland,VBO,5.633886,51.934408
Kerklaan,8,,,4043ME,Opheusden,Neder-Betuwe,Gelderland,VBO,5.633887,51.934624
Kerklaan,9,,,4043ME,Opheusden,Neder-Betuwe,Gelderland,VBO,5.633480,51.934699
Kerklaan,10,,,4043ME,Opheusden,Neder-Betuwe,Gelderland,VBO,5.633903,51.934786
Kerklaan,11,,,4043ME,Opheusden,Neder-Betuwe,Gelderland,VBO,5.633468,51.934985
Kerklaan,12,,,4043ME,Opheusden,Neder-Betuwe,Gelderland,VBO,5.633903,51.934885
Kerklaan,13,,,4043ME,Opheusden,Neder-Betuwe,Gelderland,VBO,5.633410,51.935111
Kerklaan,14,a,,4043ME,Opheusden,Neder-Betuwe,Gelderland,VBO,5.633817,51.935126
Kerklaan,14,,,4043ME,Opheusden,Neder-Betuwe,Gelderland,VBO,5.633875,51.935128
Kerklaan,15,,,4043ME,Opheusden,Neder-Betuwe,Gelderland,VBO,5.633353,51.935254
Kerklaan,16,,,4043ME,Opheusden,Neder-Betuwe,Gelderland,VBO,5.633862,51.935226
Kerklaan,17,,,4043ME,Opheusden,Neder-Betuwe,Gelderland,VBO,5.633382,51.935380
Kerklaan,18,a,,4043ME,Opheusden,Neder-Betuwe,Gelderland,VBO,5.633849,51.935577
Kerklaan,18,,,4043ME,Opheusden,Neder-Betuwe,Gelderland,VBO,5.633906,51.935451
Kerklaan,19,,,4043ME,Opheusden,Neder-Betuwe,Gelderland,VBO,5.633470,51.935515
Kerklaan,20,,,4043ME,Opheusden,Neder-Betuwe,Gelderland,VBO,5.633864,51.935721
Kerklaan,21,,,4043ME,Opheusden,Neder-Betuwe,Gelderland,VBO,5.633457,51.935704
Kerklaan,22,,,4043ME,Opheusden,Neder-Betuwe,Gelderland,VBO,5.633923,51.935837
Kerklaan,23,,,4043ME,Opheusden,Neder-Betuwe,Gelderland,VBO,5.633458,51.935838
Esdoornstraat,1,,,4043MG,Opheusden,Neder-Betuwe,Gelderland,VBO,5.634210,51.935109
Esdoornstraat,2,a,,4043MG,Opheusden,Neder-Betuwe,Gelderland,VBO,5.634252,51.934911
Esdoornstraat,2,,,4043MG,Opheusden,Neder-Betuwe,Gelderland,VBO,5.634165,51.934911
Esdoornstraat,3,,,4043MG,Opheusden,Neder-Betuwe,Gelderland,VBO,5.634297,51.935109
Esdoornstraat,4,,,4043MG,Opheusden,Neder-Betuwe,Gelderland,VBO,5.634499,51.934875
Esdoornstraat,5,,,4043MG,Opheusden,Neder-Betuwe,Gelderland,VBO,5.634530,51.935126
Esdoornstraat,6,,,4043MG,Opheusden,Neder-Betuwe,Gelderland,VBO,5.634688,51.934874
Esdoornstraat,7,,,4043MG,Opheusden,Neder-Betuwe,Gelderland,VBO,5.634675,51.935126
Esdoornstraat,8,,,4043MG,Opheusden,Neder-Betuwe,Gelderland,VBO,5.634848,51.934883
Esdoornstraat,9,,,4043MG,Opheusden,Neder-Betuwe,Gelderland,VBO,5.634864,51.935134
Esdoornstraat,10,,,4043MG,Opheusden,Neder-Betuwe,Gelderland,VBO,5.634965,51.934909
Esdoornstraat,11,,,4043MG,Opheusden,Neder-Betuwe,Gelderland,VBO,5.634995,51.935143
Esdoornstraat,13,,,4043MG,Opheusden,Neder-Betuwe,Gelderland,VBO,5.635242,51.935152
Esdoornstraat,15,,,4043MG,Opheusden,Neder-Betuwe,Gelderland,VBO,5.635373,51.935160
Esdoornstraat,17,,,4043MG,Opheusden,Neder-Betuwe,Gelderland,VBO,5.635577,51.935169
Esdoornstraat,19,,,4043MG,Opheusden,Neder-Betuwe,Gelderland,VBO,5.635708,51.935169
Esdoornstraat,21,,,4043MG,Opheusden,Neder-Betuwe,Gelderland,VBO,5.635941,51.935177
Meidoornstraat,2,a,,4043MH,Opheusden,Neder-Betuwe,Gelderland,VBO,5.635369,51.934297
Meidoornstraat,2,,,4043MH,Opheusden,Neder-Betuwe,Gelderland,VBO,5.635484,51.934064
Meidoornstraat,3,a,,4043MH,Opheusden,Neder-Betuwe,Gelderland,VBO,5.634829,51.933786
Meidoornstraat,3,,,4043MH,Opheusden,Neder-Betuwe,Gelderland,VBO,5.635090,51.933831
Meidoornstraat,4,,,4043MH,Opheusden,Neder-Betuwe,Gelderland,VBO,5.635369,51.934369
Meidoornstraat,5,,,4043MH,Opheusden,Neder-Betuwe,Gelderland,VBO,5.635018,51.934020
Meidoornstraat,6,,,4043MH,Opheusden,Neder-Betuwe,Gelderland,VBO,5.635355,51.934495
Meidoornstraat,8,,,4043MH,Opheusden,Neder-Betuwe,Gelderland,VBO,5.635356,51.934567
Meidoornstraat,9,,,4043MH,Opheusden,Neder-Betuwe,Gelderland,VBO,5.635034,51.934253
Meidoornstraat,10,,,4043MH,Opheusden,Neder-Betuwe,Gelderland,VBO,5.635356,51.934684
Meidoornstraat,11,,,4043MH,Opheusden,Neder-Betuwe,Gelderland,VBO,5.635049,51.934343
Meidoornstraat,12,,,4043MH,Opheusden,Neder-Betuwe,Gelderland,VBO,5.635342,51.934747
Meidoornstraat,13,,,4043MH,Opheusden,Neder-Betuwe,Gelderland,VBO,5.635050,51.934451
Meidoornstraat,14,,,4043MH,Opheusden,Neder-Betuwe,Gelderland,VBO,5.635343,51.934864
Meidoornstraat,15,,,4043MH,Opheusden,Neder-Betuwe,Gelderland,VBO,5.635021,51.934541
Meidoornstraat,16,,,4043MH,Opheusden,Neder-Betuwe,Gelderland,VBO,5.635329,51.934954
Meidoornstraat,17,,,4043MH,Opheusden,Neder-Betuwe,Gelderland,VBO,5.635022,51.934649
Meidoornstraat,18,,,4043MH,Opheusden,Neder-Betuwe,Gelderland,VBO,5.635227,51.935364
Meidoornstraat,19,,,4043MH,Opheusden,Neder-Betuwe,Gelderland,VBO,5.635007,51.934721
Meidoornstraat,20,,,4043MH,Opheusden,Neder-Betuwe,Gelderland,VBO,5.635218,51.935451
Meidoornstraat,21,,,4043MH,Opheusden,Neder-Betuwe,Gelderland,VBO,5.634836,51.935350
Meidoornstraat,22,,,4043MH,Opheusden,Neder-Betuwe,Gelderland,VBO,5.635207,51.935581
Achter 't Klooster,2,,,4043MJ,Opheusden,Neder-Betuwe,Gelderland,VBO,5.636044,51.932885
Achter 't Klooster,3,,,4043MJ,Opheusden,Neder-Betuwe,Gelderland,VBO,5.638979,51.932393
Achter 't Klooster,4,,,4043MJ,Opheusden,Neder-Betuwe,Gelderland,VBO,5.637990,51.932377
Acaciastraat,1,a,,4043MK,Opheusden,Neder-Betuwe,Gelderland,VBO,5.634653,51.933706
Acaciastraat,1,,,4043MK,Opheusden,Neder-Betuwe,Gelderland,VBO,5.635555,51.933803
Acaciastraat,2,a,,4043MK,Opheusden,Neder-Betuwe,Gelderland,VBO,5.634913,51.933436
Acaciastraat,2,b,,4043MK,Opheusden,Neder-Betuwe,Gelderland,VBO,5.634193,51.933328
Acaciastraat,2,,,4043MK,Opheusden,Neder-Betuwe,Gelderland,VBO,5.635349,51.933523
Acaciastraat,2,,,4043MK,Opheusden,Neder-Betuwe,Gelderland,VBO,5.635321,51.933516
Acaciastraat,3,,,4043MK,Opheusden,Neder-Betuwe,Gelderland,VBO,5.635671,51.933811
Acaciastraat,7,,,4043MK,Opheusden,Neder-Betuwe,Gelderland,VBO,5.635992,51.933874
Acaciastraat,9,,,4043MK,Opheusden,Neder-Betuwe,Gelderland,VBO,5.636166,51.933882
Acaciastraat,11,,,4043MK,Opheusden,Neder-Betuwe,Gelderland,VBO,5.636326,51.933918
Kastanjelaan,3,,,4043ML,Opheusden,Neder-Betuwe,Gelderland,VBO,5.636321,51.935608
Kastanjelaan,5,,,4043ML,Opheusden,Neder-Betuwe,Gelderland,VBO,5.636364,51.935437
Kastanjelaan,7,,,4043ML,Opheusden,Neder-Betuwe,Gelderland,VBO,5.636377,51.935275
Kastanjelaan,9,,,4043ML,Opheusden,Neder-Betuwe,Gelderland,VBO,5.636350,51.935111
Kastanjelaan,11,,,4043ML,Opheusden,Neder-Betuwe,Gelderland,VBO,5.636371,51.934945
Kastanjelaan,13,,,4043ML,Opheusden,Neder-Betuwe,Gelderland,VBO,5.636382,51.934788
Kastanjelaan,19,,,4043ML,Opheusden,Neder-Betuwe,Gelderland,VBO,5.636447,51.934637
Kastanjelaan,21,,,4043ML,Opheusden,Neder-Betuwe,Gelderland,VBO,5.636460,51.934493
Kastanjelaan,23,a,,4043ML,Opheusden,Neder-Betuwe,Gelderland,VBO,5.636615,51.934162
Kastanjelaan,23,,,4043ML,Opheusden,Neder-Betuwe,Gelderland,VBO,5.636546,51.934242
Kastanjelaan,25,,,4043ML,Opheusden,Neder-Betuwe,Gelderland,VBO,5.637273,51.934248
Kastanjelaan,27,,,4043ML,Opheusden,Neder-Betuwe,Gelderland,VBO,5.636758,51.933902
Kastanjelaan,29,,,4043ML,Opheusden,Neder-Betuwe,Gelderland,VBO,5.636849,51.933710
Kastanjelaan,31,,,4043ML,Opheusden,Neder-Betuwe,Gelderland,VBO,5.636877,51.933647
Kastanjelaan,33,,,4043ML,Opheusden,Neder-Betuwe,Gelderland,VBO,5.637212,51.933682
Kastanjelaan,2,a,,4043MN,Opheusden,Neder-Betuwe,Gelderland,VBO,5.635942,51.935411
Kastanjelaan,2,b,,4043MN,Opheusden,Neder-Betuwe,Gelderland,VBO,5.635983,51.934961
Kastanjelaan,2,,,4043MN,Opheusden,Neder-Betuwe,Gelderland,VBO,5.635899,51.935537
Kastanjelaan,4,,,4043MN,Opheusden,Neder-Betuwe,Gelderland,VBO,5.635968,51.934889
Kastanjelaan,6,,,4043MN,Opheusden,Neder-Betuwe,Gelderland,VBO,5.635997,51.934772
Kastanjelaan,8,,,4043MN,Opheusden,Neder-Betuwe,Gelderland,VBO,5.636011,51.934683
Kastanjelaan,10,,,4043MN,Opheusden,Neder-Betuwe,Gelderland,VBO,5.636025,51.934575
Kastanjelaan,12,,,4043MN,Opheusden,Neder-Betuwe,Gelderland,VBO,5.636053,51.934503
Kastanjelaan,14,,,4043MN,Opheusden,Neder-Betuwe,Gelderland,VBO,5.636053,51.934395
Kastanjelaan,16,,,4043MN,Opheusden,Neder-Betuwe,Gelderland,VBO,5.636168,51.934215
Kastanjelaan,18,,,4043MN,Opheusden,Neder-Betuwe,Gelderland,VBO,5.636197,51.934152
Patrijsstraat,1,a,,4043MP,Opheusden,Neder-Betuwe,Gelderland,VBO,5.627107,51.931142
Patrijsstraat,1,,,4043MP,Opheusden,Neder-Betuwe,Gelderland,VBO,5.629144,51.931416
Patrijsstraat,3,,,4043MP,Opheusden,Neder-Betuwe,Gelderland,VBO,5.629217,51.931434
Patrijsstraat,5,,,4043MP,Opheusden,Neder-Betuwe,Gelderland,VBO,5.629304,51.931461
Patrijsstraat,7,,,4043MP,Opheusden,Neder-Betuwe,Gelderland,VBO,5.629389,51.931482
Patrijsstraat,9,,,4043MP,Opheusden,Neder-Betuwe,Gelderland,VBO,5.629491,51.931509
Patrijsstraat,11,,,4043MP,Opheusden,Neder-Betuwe,Gelderland,VBO,5.629551,51.931523
Patrijsstraat,15,,,4043MP,Opheusden,Neder-Betuwe,Gelderland,VBO,5.630901,51.931804
Patrijsstraat,17,,,4043MP,Opheusden,Neder-Betuwe,Gelderland,VBO,5.630985,51.931820
Patrijsstraat,19,,,4043MP,Opheusden,Neder-Betuwe,Gelderland,VBO,5.631059,51.931838
Patrijsstraat,21,,,4043MP,Opheusden,Neder-Betuwe,Gelderland,VBO,5.631124,51.931853
Patrijsstraat,23,,,4043MP,Opheusden,Neder-Betuwe,Gelderland,VBO,5.631197,51.931870
Patrijsstraat,25,,,4043MP,Opheusden,Neder-Betuwe,Gelderland,VBO,5.631284,51.931888
Patrijsstraat,27,,,4043MP,Opheusden,Neder-Betuwe,Gelderland,VBO,5.631502,51.931924
Patrijsstraat,29,,,4043MP,Opheusden,Neder-Betuwe,Gelderland,VBO,5.631590,51.931950
Patrijsstraat,31,,,4043MP,Opheusden,Neder-Betuwe,Gelderland,VBO,5.631648,51.931968
Patrijsstraat,33,,,4043MP,Opheusden,Neder-Betuwe,Gelderland,VBO,5.631735,51.931986
Patrijsstraat,35,,,4043MP,Opheusden,Neder-Betuwe,Gelderland,VBO,5.632099,51.932057
Patrijsstraat,37,,,4043MP,Opheusden,Neder-Betuwe,Gelderland,VBO,5.632201,51.932084
Patrijsstraat,39,,,4043MP,Opheusden,Neder-Betuwe,Gelderland,VBO,5.632259,51.932102
Patrijsstraat,41,,,4043MP,Opheusden,Neder-Betuwe,Gelderland,VBO,5.632318,51.932120
Patrijsstraat,43,,,4043MP,Opheusden,Neder-Betuwe,Gelderland,VBO,5.632391,51.932138
Patrijsstraat,45,,,4043MP,Opheusden,Neder-Betuwe,Gelderland,VBO,5.632536,51.932173
Patrijsstraat,47,,,4043MP,Opheusden,Neder-Betuwe,Gelderland,VBO,5.632653,51.932191
Patrijsstraat,49,,,4043MP,Opheusden,Neder-Betuwe,Gelderland,VBO,5.632711,51.932209
Patrijsstraat,2,a,,4043MR,Opheusden,Neder-Betuwe,Gelderland,VBO,5.630992,51.931556
Patrijsstraat,2,,,4043MR,Opheusden,Neder-Betuwe,Gelderland,VBO,5.629885,51.931226
Patrijsstraat,4,,,4043MR,Opheusden,Neder-Betuwe,Gelderland,VBO,5.631086,51.931577
Patrijsstraat,6,,,4043MR,Opheusden,Neder-Betuwe,Gelderland,VBO,5.631155,51.931598
Patrijsstraat,8,,,4043MR,Opheusden,Neder-Betuwe,Gelderland,VBO,5.631385,51.931654
Patrijsstraat,10,,,4043MR,Opheusden,Neder-Betuwe,Gelderland,VBO,5.631454,51.931674
Patrijsstraat,12,,,4043MR,Opheusden,Neder-Betuwe,Gelderland,VBO,5.631537,51.931691
Patrijsstraat,14,,,4043MR,Opheusden,Neder-Betuwe,Gelderland,VBO,5.631623,51.931709
Patrijsstraat,16,,,4043MR,Opheusden,Neder-Betuwe,Gelderland,VBO,5.631693,51.931727
Patrijsstraat,18,,,4043MR,Opheusden,Neder-Betuwe,Gelderland,VBO,5.631773,51.931745
Patrijsstraat,20,,,4043MR,Opheusden,Neder-Betuwe,Gelderland,VBO,5.631867,51.931763
Patrijsstraat,22,,,4043MR,Opheusden,Neder-Betuwe,Gelderland,VBO,5.632544,51.931910
Patrijsstraat,24,,,4043MR,Opheusden,Neder-Betuwe,Gelderland,VBO,5.632586,51.931923
Patrijsstraat,26,,,4043MR,Opheusden,Neder-Betuwe,Gelderland,VBO,5.632633,51.931935
Patrijsstraat,28,,,4043MR,Opheusden,Neder-Betuwe,Gelderland,VBO,5.632680,51.931950
Patrijsstraat,30,,,4043MR,Opheusden,Neder-Betuwe,Gelderland,VBO,5.632725,51.931956
Patrijsstraat,32,,,4043MR,Opheusden,Neder-Betuwe,Gelderland,VBO,5.632766,51.931964
Patrijsstraat,34,,,4043MR,Opheusden,Neder-Betuwe,Gelderland,VBO,5.632811,51.931986
Patrijsstraat,36,,,4043MR,Opheusden,Neder-Betuwe,Gelderland,VBO,5.632870,51.931984
Dalwagenseweg,3,,,4043MS,Opheusden,Neder-Betuwe,Gelderland,VBO,5.633830,51.933309
Dalwagenseweg,5,a,,4043MS,Opheusden,Neder-Betuwe,Gelderland,VBO,5.633831,51.933196
Dalwagenseweg,5,b,,4043MS,Opheusden,Neder-Betuwe,Gelderland,VBO,5.634074,51.933211
Dalwagenseweg,5,,,4043MS,Opheusden,Neder-Betuwe,Gelderland,VBO,5.633805,51.933243
Dalwagenseweg,11,,,4043MS,Opheusden,Neder-Betuwe,Gelderland,VBO,5.634082,51.932997
Dalwagenseweg,13,,,4043MS,Opheusden,Neder-Betuwe,Gelderland,VBO,5.634038,51.932925
Dalwagenseweg,15,,,4043MS,Opheusden,Neder-Betuwe,Gelderland,VBO,5.634270,51.932790
Dalwagenseweg,17,,,4043MS,Opheusden,Neder-Betuwe,Gelderland,VBO,5.634662,51.932636
Dalwagenseweg,19,a,,4043MS,Opheusden,Neder-Betuwe,Gelderland,VBO,5.634652,51.932464
Dalwagenseweg,19,b,,4043MS,Opheusden,Neder-Betuwe,Gelderland,VBO,5.634936,51.932507
Dalwagenseweg,19,,,4043MS,Opheusden,Neder-Betuwe,Gelderland,VBO,5.634389,51.932422
Dalwagenseweg,21,,,4043MS,Opheusden,Neder-Betuwe,Gelderland,VBO,5.634560,51.932343
Dalwagenseweg,23,a,,4043MS,Opheusden,Neder-Betuwe,Gelderland,VBO,5.634621,51.932166
Dalwagenseweg,23,b,,4043MS,Opheusden,Neder-Betuwe,Gelderland,VBO,5.634623,51.932225
Dalwagenseweg,23,c,,4043MS,Opheusden,Neder-Betuwe,Gelderland,VBO,5.634665,51.932174
Dalwagenseweg,23,,,4043MS,Opheusden,Neder-Betuwe,Gelderland,VBO,5.634505,51.932133
Dalwagenseweg,25,a,,4043MS,Opheusden,Neder-Betuwe,Gelderland,VBO,5.635189,51.932069
Dalwagenseweg,25,,,4043MS,Opheusden,Neder-Betuwe,Gelderland,VBO,5.634745,51.932034
Dalwagenseweg,29,,,4043MS,Opheusden,Neder-Betuwe,Gelderland,VBO,5.634736,51.931827
Dalwagenseweg,31,,,4043MT,Opheusden,Neder-Betuwe,Gelderland,VBO,5.634874,51.931629
Dalwagenseweg,33,,,4043MT,Opheusden,Neder-Betuwe,Gelderland,VBO,5.634903,51.931566
Dalwagenseweg,35,,,4043MT,Opheusden,Neder-Betuwe,Gelderland,VBO,5.635033,51.931413
Dalwagenseweg,39,,,4043MT,Opheusden,Neder-Betuwe,Gelderland,VBO,5.635106,51.931300
Dalwagenseweg,41,a,,4043MT,Opheusden,Neder-Betuwe,Gelderland,VBO,5.635321,51.930927
Dalwagenseweg,41,,,4043MT,Opheusden,Neder-Betuwe,Gelderland,VBO,5.635497,51.931142
Dalwagenseweg,43,,,4043MT,Opheusden,Neder-Betuwe,Gelderland,VBO,5.635422,51.930801
Dalwagenseweg,47,,,4043MT,Opheusden,Neder-Betuwe,Gelderland,VBO,5.635624,51.930459
Dalwagenseweg,49,,,4043MT,Opheusden,Neder-Betuwe,Gelderland,VBO,5.635754,51.930288
Dalwagenseweg,51,a,,4043MT,Opheusden,Neder-Betuwe,Gelderland,VBO,5.636085,51.929820
Dalwagenseweg,51,,,4043MT,Opheusden,Neder-Betuwe,Gelderland,VBO,5.636552,51.930097
Dalwagenseweg,53,a,,4043MV,Opheusden,Neder-Betuwe,Gelderland,VBO,5.636548,51.929306
Dalwagenseweg,53,,,4043MV,Opheusden,Neder-Betuwe,Gelderland,VBO,5.636432,51.929334
Dalwagenseweg,55,,,4043MV,Opheusden,Neder-Betuwe,Gelderland,VBO,5.636590,51.929046
Dalwagenseweg,57,,,4043MV,Opheusden,Neder-Betuwe,Gelderland,VBO,5.636560,51.928965
Dalwagenseweg,59,,,4043MV,Opheusden,Neder-Betuwe,Gelderland,VBO,5.636633,51.928929
Dalwagenseweg,61,,,4043MV,Opheusden,Neder-Betuwe,Gelderland,VBO,5.636646,51.928740
Dalwagenseweg,63,,,4043MV,Opheusden,Neder-Betuwe,Gelderland,VBO,5.637118,51.928703
Dalwagenseweg,65,,,4043MV,Opheusden,Neder-Betuwe,Gelderland,VBO,5.636791,51.928533
Dalwagenseweg,67,,,4043MV,Opheusden,Neder-Betuwe,Gelderland,VBO,5.636863,51.928407
Dalwagenseweg,69,,,4043MV,Opheusden,Neder-Betuwe,Gelderland,VBO,5.636920,51.928290
Dalwagenseweg,75,,,4043MV,Opheusden,Neder-Betuwe,Gelderland,VBO,5.636992,51.928110
Dalwagenseweg,77,,,4043MV,Opheusden,Neder-Betuwe,Gelderland,VBO,5.637122,51.927975
Dalwagenseweg,79,,,4043MV,Opheusden,Neder-Betuwe,Gelderland,VBO,5.637354,51.927939
Dalwagenseweg,81,,,4043MV,Opheusden,Neder-Betuwe,Gelderland,VBO,5.637280,51.927696
Dalwagenseweg,85,,,4043MV,Opheusden,Neder-Betuwe,Gelderland,VBO,5.637396,51.927534
Dalwagenseweg,89,,,4043MV,Opheusden,Neder-Betuwe,Gelderland,VBO,5.637439,51.927426
Dalwagenseweg,91,,,4043MV,Opheusden,Neder-Betuwe,Gelderland,VBO,5.637540,51.927300
Dalwagenseweg,93,,,4043MV,Opheusden,Neder-Betuwe,Gelderland,VBO,5.637554,51.927237
Dalwagenseweg,95,,,4043MV,Opheusden,Neder-Betuwe,Gelderland,VBO,5.637641,51.927165
Dalwagenseweg,97,a,,4043MV,Opheusden,Neder-Betuwe,Gelderland,VBO,5.638664,51.927108
Dalwagenseweg,97,,,4043MV,Opheusden,Neder-Betuwe,Gelderland,VBO,5.638732,51.926950
Dalwagenseweg,99,a,,4043MV,Opheusden,Neder-Betuwe,Gelderland,VBO,5.637780,51.926919
Dalwagenseweg,99,b,,4043MV,Opheusden,Neder-Betuwe,Gelderland,VBO,5.637767,51.926999
Dalwagenseweg,99,c,,4043MV,Opheusden,Neder-Betuwe,Gelderland,VBO,5.637725,51.926906
Dalwagenseweg,99,,,4043MV,Opheusden,Neder-Betuwe,Gelderland,VBO,5.637716,51.926940
Dalwagenseweg,101,,,4043MV,Opheusden,Neder-Betuwe,Gelderland,VBO,5.637884,51.926765
Dalwagenseweg,103,a,,4043MV,Opheusden,Neder-Betuwe,Gelderland,VBO,5.638727,51.926426
Dalwagenseweg,103,,,4043MV,Opheusden,Neder-Betuwe,Gelderland,VBO,5.637943,51.926598
Dalwagenseweg,105,,,4043MV,Opheusden,Neder-Betuwe,Gelderland,VBO,5.639818,51.926504
Dalwagenseweg,2,a,,4043MX,Opheusden,Neder-Betuwe,Gelderland,VBO,5.633196,51.933193
Dalwagenseweg,2,,,4043MX,Opheusden,Neder-Betuwe,Gelderland,VBO,5.633385,51.933232
Dalwagenseweg,4,,,4043MX,Opheusden,Neder-Betuwe,Gelderland,VBO,5.633443,51.933160
Dalwagenseweg,6,,,4043MX,Opheusden,Neder-Betuwe,Gelderland,VBO,5.633544,51.932998
Dalwagenseweg,8,,,4043MX,Opheusden,Neder-Betuwe,Gelderland,VBO,5.633630,51.932854
Dalwagenseweg,10,,,4043MX,Opheusden,Neder-Betuwe,Gelderland,VBO,5.633645,51.932791
Dalwagenseweg,12,,,4043MX,Opheusden,Neder-Betuwe,Gelderland,VBO,5.633731,51.932647
Dalwagenseweg,14,,,4043MX,Opheusden,Neder-Betuwe,Gelderland,VBO,5.633803,51.932503
Dalwagenseweg,16,a,,4043MX,Opheusden,Neder-Betuwe,Gelderland,VBO,5.633962,51.931620
Dalwagenseweg,16,,,4043MX,Opheusden,Neder-Betuwe,Gelderland,VBO,5.633851,51.932458
Dalwagenseweg,18,a,,4043MX,Opheusden,Neder-Betuwe,Gelderland,VBO,5.634623,51.930973
Dalwagenseweg,18,,,4043MX,Opheusden,Neder-Betuwe,Gelderland,VBO,5.634610,51.931117
Dalwagenseweg,20,,,4043MX,Opheusden,Neder-Betuwe,Gelderland,VBO,5.634754,51.930865
Dalwagenseweg,22,,,4043MX,Opheusden,Neder-Betuwe,Gelderland,VBO,5.634811,51.930676
Dalwagenseweg,24,a,,4043MX,Opheusden,Neder-Betuwe,Gelderland,VBO,5.634798,51.930500
Dalwagenseweg,24,,,4043MX,Opheusden,Neder-Betuwe,Gelderland,VBO,5.634970,51.930550
Dalwagenseweg,26,,,4043MX,Opheusden,Neder-Betuwe,Gelderland,VBO,5.635027,51.930370
Dalwagenseweg,30,,,4043MX,Opheusden,Neder-Betuwe,Gelderland,VBO,5.635301,51.929992
Dalwagenseweg,32,,,4043MX,Opheusden,Neder-Betuwe,Gelderland,VBO,5.635387,51.929740
Dalwagenseweg,34,,,4043MX,Opheusden,Neder-Betuwe,Gelderland,VBO,5.635633,51.929452
Dalwagenseweg,36,a,,4043MX,Opheusden,Neder-Betuwe,Gelderland,VBO,5.635733,51.929227
Dalwagenseweg,36,,,4043MX,Opheusden,Neder-Betuwe,Gelderland,VBO,5.635675,51.929263
Dalwagenseweg,38,a,,4043MX,Opheusden,Neder-Betuwe,Gelderland,VBO,5.635703,51.929071
Dalwagenseweg,38,,,4043MX,Opheusden,Neder-Betuwe,Gelderland,VBO,5.635840,51.928979
Dalwagenseweg,40,,,4043MZ,Opheusden,Neder-Betuwe,Gelderland,VBO,5.635993,51.928867
Dalwagenseweg,42,,,4043MZ,Opheusden,Neder-Betuwe,Gelderland,VBO,5.636036,51.928759
Dalwagenseweg,44,,,4043MZ,Opheusden,Neder-Betuwe,Gelderland,VBO,5.636093,51.928660
Dalwagenseweg,46,,,4043MZ,Opheusden,Neder-Betuwe,Gelderland,VBO,5.636151,51.928570
Dalwagenseweg,48,,,4043MZ,Opheusden,Neder-Betuwe,Gelderland,VBO,5.636180,51.928480
Dalwagenseweg,50,,,4043MZ,Opheusden,Neder-Betuwe,Gelderland,VBO,5.635830,51.928310
Dalwagenseweg,52,,,4043MZ,Opheusden,Neder-Betuwe,Gelderland,VBO,5.636309,51.928264
Dalwagenseweg,54,,,4043MZ,Opheusden,Neder-Betuwe,Gelderland,VBO,5.636440,51.928165
Dalwagenseweg,56,,,4043MZ,Opheusden,Neder-Betuwe,Gelderland,VBO,5.636454,51.928057
Dalwagenseweg,58,,,4043MZ,Opheusden,Neder-Betuwe,Gelderland,VBO,5.636497,51.927976
Dalwagenseweg,60,a,,4043MZ,Opheusden,Neder-Betuwe,Gelderland,VBO,5.636626,51.927742
Dalwagenseweg,60,,,4043MZ,Opheusden,Neder-Betuwe,Gelderland,VBO,5.636540,51.927904
Dalwagenseweg,62,,,4043MZ,Opheusden,Neder-Betuwe,Gelderland,VBO,5.636582,51.927555
Dalwagenseweg,64,a,,4043MZ,Opheusden,Neder-Betuwe,Gelderland,VBO,5.636184,51.927459
Dalwagenseweg,64,,,4043MZ,Opheusden,Neder-Betuwe,Gelderland,VBO,5.636814,51.927526
Dalwagenseweg,66,,,4043MZ,Opheusden,Neder-Betuwe,Gelderland,VBO,5.636924,51.927389
Dalwagenseweg,68,,,4043MZ,Opheusden,Neder-Betuwe,Gelderland,VBO,5.636942,51.927353
Dalwagenseweg,70,,,4043MZ,Opheusden,Neder-Betuwe,Gelderland,VBO,5.636608,51.927071
Dalwagenseweg,72,,,4043MZ,Opheusden,Neder-Betuwe,Gelderland,VBO,5.636715,51.927095
Dalwagenseweg,74,,,4043MZ,Opheusden,Neder-Betuwe,Gelderland,VBO,5.636794,51.927116
Dalwagenseweg,76,,,4043MZ,Opheusden,Neder-Betuwe,Gelderland,VBO,5.636986,51.927103
Dalwagenseweg,78,,,4043MZ,Opheusden,Neder-Betuwe,Gelderland,VBO,5.637015,51.927130
Dalwagenseweg,80,,,4043MZ,Opheusden,Neder-Betuwe,Gelderland,VBO,5.637044,51.927121
Dalwagenseweg,82,,,4043MZ,Opheusden,Neder-Betuwe,Gelderland,VBO,5.637059,51.927103
Dalwagenseweg,84,,,4043MZ,Opheusden,Neder-Betuwe,Gelderland,VBO,5.637016,51.927061
Dalwagenseweg,86,,,4043MZ,Opheusden,Neder-Betuwe,Gelderland,VBO,5.636772,51.926952
Dalwagenseweg,88,,,4043MZ,Opheusden,Neder-Betuwe,Gelderland,VBO,5.636986,51.927085
Dalwagenseweg,90,,,4043MZ,Opheusden,Neder-Betuwe,Gelderland,VBO,5.636972,51.927103
Dalwagenseweg,92,,,4043MZ,Opheusden,Neder-Betuwe,Gelderland,VBO,5.636986,51.927121
Dalwagenseweg,94,,,4043MZ,Opheusden,Neder-Betuwe,Gelderland,VBO,5.637016,51.927148
Dalwagenseweg,96,,,4043MZ,Opheusden,Neder-Betuwe,Gelderland,VBO,5.637045,51.927139
Dalwagenseweg,98,,,4043MZ,Opheusden,Neder-Betuwe,Gelderland,VBO,5.637074,51.927121
Dalwagenseweg,100,,,4043MZ,Opheusden,Neder-Betuwe,Gelderland,VBO,5.637088,51.927103
Dalwagenseweg,102,,,4043MZ,Opheusden,Neder-Betuwe,Gelderland,VBO,5.637073,51.927085
Dalwagenseweg,104,,,4043MZ,Opheusden,Neder-Betuwe,Gelderland,VBO,5.636897,51.926988
Dalwagenseweg,106,,,4043MZ,Opheusden,Neder-Betuwe,Gelderland,VBO,5.637011,51.927003
Dalwagenseweg,108,,,4043MZ,Opheusden,Neder-Betuwe,Gelderland,VBO,5.636986,51.927067
Dalwagenseweg,110,,,4043MZ,Opheusden,Neder-Betuwe,Gelderland,VBO,5.636230,51.927024
Dalwagenseweg,112,,,4043MZ,Opheusden,Neder-Betuwe,Gelderland,VBO,5.636259,51.926988
Dalwagenseweg,114,,,4043MZ,Opheusden,Neder-Betuwe,Gelderland,VBO,5.636273,51.926934
Dalwagenseweg,116,,,4043MZ,Opheusden,Neder-Betuwe,Gelderland,VBO,5.636302,51.926889
Dalwagenseweg,118,,,4043MZ,Opheusden,Neder-Betuwe,Gelderland,VBO,5.636345,51.926835
Dalwagenseweg,120,,,4043MZ,Opheusden,Neder-Betuwe,Gelderland,VBO,5.636374,51.926790
Dalwagenseweg,122,a,,4043MZ,Opheusden,Neder-Betuwe,Gelderland,VBO,5.635869,51.927119
Dalwagenseweg,122,,,4043MZ,Opheusden,Neder-Betuwe,Gelderland,VBO,5.635736,51.927034
Dalwagenseweg,124,,,4043MZ,Opheusden,Neder-Betuwe,Gelderland,VBO,5.635663,51.927016
Dalwagenseweg,126,,,4043MZ,Opheusden,Neder-Betuwe,Gelderland,VBO,5.635561,51.926999
Dalwagenseweg,128,,,4043MZ,Opheusden,Neder-Betuwe,Gelderland,VBO,5.635488,51.926981
Dalwagenseweg,130,,,4043MZ,Opheusden,Neder-Betuwe,Gelderland,VBO,5.635372,51.926954
Dalwagenseweg,132,,,4043MZ,Opheusden,Neder-Betuwe,Gelderland,VBO,5.635299,51.926936
Dalwagenseweg,134,,,4043MZ,Opheusden,Neder-Betuwe,Gelderland,VBO,5.635212,51.926918
Dalwagenseweg,136,,,4043MZ,Opheusden,Neder-Betuwe,Gelderland,VBO,5.635124,51.926892
Dalwagenseweg,138,,,4043MZ,Opheusden,Neder-Betuwe,Gelderland,VBO,5.635300,51.926649
Dalwagenseweg,140,a,,4043MZ,Opheusden,Neder-Betuwe,Gelderland,VBO,5.635759,51.926736
Dalwagenseweg,140,,,4043MZ,Opheusden,Neder-Betuwe,Gelderland,VBO,5.635567,51.926705
Dalwagenseweg,142,,,4043MZ,Opheusden,Neder-Betuwe,Gelderland,VBO,5.637300,51.926778
Dalwagenseweg,144,,,4043MZ,Opheusden,Neder-Betuwe,Gelderland,VBO,5.637190,51.926760
Dalwagenseweg,146,,,4043MZ,Opheusden,Neder-Betuwe,Gelderland,VBO,5.637013,51.926663
Dalwagenseweg,148,,,4043MZ,Opheusden,Neder-Betuwe,Gelderland,VBO,5.636882,51.926627
Dalwagenseweg,150,,,4043MZ,Opheusden,Neder-Betuwe,Gelderland,VBO,5.636662,51.926659
Dalwagenseweg,152,a,,4043MZ,Opheusden,Neder-Betuwe,Gelderland,VBO,5.636125,51.926584
Dalwagenseweg,152,,,4043MZ,Opheusden,Neder-Betuwe,Gelderland,VBO,5.636493,51.926613
Lijsterbesstraat,1,,,4043NA,Opheusden,Neder-Betuwe,Gelderland,VBO,5.631480,51.933209
Lijsterbesstraat,3,,,4043NA,Opheusden,Neder-Betuwe,Gelderland,VBO,5.631538,51.933083
Lijsterbesstraat,5,,,4043NA,Opheusden,Neder-Betuwe,Gelderland,VBO,5.631697,51.932930
Lijsterbesstraat,7,,,4043NA,Opheusden,Neder-Betuwe,Gelderland,VBO,5.631711,51.932768
Lijsterbesstraat,9,,,4043NA,Opheusden,Neder-Betuwe,Gelderland,VBO,5.631696,51.932723
Lijsterbesstraat,11,,,4043NA,Opheusden,Neder-Betuwe,Gelderland,VBO,5.631768,51.932678
Lijsterbesstraat,13,,,4043NA,Opheusden,Neder-Betuwe,Gelderland,VBO,5.631811,51.932561
Lijsterbesstraat,15,,,4043NA,Opheusden,Neder-Betuwe,Gelderland,VBO,5.631840,51.932516
Lijsterbesstraat,17,,,4043NA,Opheusden,Neder-Betuwe,Gelderland,VBO,5.631854,51.932462
Lijsterbesstraat,19,,,4043NA,Opheusden,Neder-Betuwe,Gelderland,VBO,5.631926,51.932363
Lijsterbesstraat,21,,,4043NA,Opheusden,Neder-Betuwe,Gelderland,VBO,5.631970,51.932318
Lijsterbesstraat,23,,,4043NA,Opheusden,Neder-Betuwe,Gelderland,VBO,5.631984,51.932255
Lijsterbesstraat,33,,,4043NA,Opheusden,Neder-Betuwe,Gelderland,VBO,5.632244,51.931850
Lijsterbesstraat,35,,,4043NA,Opheusden,Neder-Betuwe,Gelderland,VBO,5.632258,51.931796
Lijsterbesstraat,37,,,4043NA,Opheusden,Neder-Betuwe,Gelderland,VBO,5.632272,51.931751
Lijsterbesstraat,39,,,4043NA,Opheusden,Neder-Betuwe,Gelderland,VBO,5.632286,51.931706
Lijsterbesstraat,41,,,4043NB,Opheusden,Neder-Betuwe,Gelderland,VBO,5.632344,51.931634
Lijsterbesstraat,43,,,4043NB,Opheusden,Neder-Betuwe,Gelderland,VBO,5.632416,51.931526
Lijsterbesstraat,45,,,4043NB,Opheusden,Neder-Betuwe,Gelderland,VBO,5.632445,51.931490
Lijsterbesstraat,47,,,4043NB,Opheusden,Neder-Betuwe,Gelderland,VBO,5.632518,51.931436
Lijsterbesstraat,49,,,4043NB,Opheusden,Neder-Betuwe,Gelderland,VBO,5.632532,51.931391
Lijsterbesstraat,51,,,4043NB,Opheusden,Neder-Betuwe,Gelderland,VBO,5.632561,51.931346
Lijsterbesstraat,53,,,4043NB,Opheusden,Neder-Betuwe,Gelderland,VBO,5.632589,51.931292
Lijsterbesstraat,55,,,4043NB,Opheusden,Neder-Betuwe,Gelderland,VBO,5.632618,51.931238
Lijsterbesstraat,57,,,4043NB,Opheusden,Neder-Betuwe,Gelderland,VBO,5.632663,51.931123
Lijsterbesstraat,59,,,4043NB,Opheusden,Neder-Betuwe,Gelderland,VBO,5.632696,51.931072
Lijsterbesstraat,61,,,4043NB,Opheusden,Neder-Betuwe,Gelderland,VBO,5.632718,51.931024
Lijsterbesstraat,63,,,4043NB,Opheusden,Neder-Betuwe,Gelderland,VBO,5.632747,51.930975
Lijsterbesstraat,65,,,4043NB,Opheusden,Neder-Betuwe,Gelderland,VBO,5.632781,51.930928
Lijsterbesstraat,67,,,4043NB,Opheusden,Neder-Betuwe,Gelderland,VBO,5.632892,51.930743
Lijsterbesstraat,69,,,4043NB,Opheusden,Neder-Betuwe,Gelderland,VBO,5.632906,51.930698
Lijsterbesstraat,71,,,4043NB,Opheusden,Neder-Betuwe,Gelderland,VBO,5.632935,51.930653
Lijsterbesstraat,73,,,4043NB,Opheusden,Neder-Betuwe,Gelderland,VBO,5.632964,51.930590
Lijsterbesstraat,75,,,4043NB,Opheusden,Neder-Betuwe,Gelderland,VBO,5.632993,51.930554
Lijsterbesstraat,77,,,4043NB,Opheusden,Neder-Betuwe,Gelderland,VBO,5.633064,51.930410
Lijsterbesstraat,79,,,4043NB,Opheusden,Neder-Betuwe,Gelderland,VBO,5.633079,51.930365
Lijsterbesstraat,81,,,4043NB,Opheusden,Neder-Betuwe,Gelderland,VBO,5.633122,51.930320
Lijsterbesstraat,83,,,4043NB,Opheusden,Neder-Betuwe,Gelderland,VBO,5.633136,51.930284
Lijsterbesstraat,85,,,4043NB,Opheusden,Neder-Betuwe,Gelderland,VBO,5.633194,51.930230
Lijsterbesstraat,2,,,4043NC,Opheusden,Neder-Betuwe,Gelderland,VBO,5.631074,51.933444
Lijsterbesstraat,4,a,,4043NC,Opheusden,Neder-Betuwe,Gelderland,VBO,5.631072,51.932967
Lijsterbesstraat,4,b,,4043NC,Opheusden,Neder-Betuwe,Gelderland,VBO,5.631115,51.932922
Lijsterbesstraat,4,c,,4043NC,Opheusden,Neder-Betuwe,Gelderland,VBO,5.630778,51.932881
Lijsterbesstraat,4,,,4043NC,Opheusden,Neder-Betuwe,Gelderland,VBO,5.630986,51.933165
Lijsterbesstraat,6,,,4043NC,Opheusden,Neder-Betuwe,Gelderland,VBO,5.631094,51.932749
Lijsterbesstraat,8,,,4043NC,Opheusden,Neder-Betuwe,Gelderland,VBO,5.631259,51.932625
Lijsterbesstraat,14,,,4043NC,Opheusden,Neder-Betuwe,Gelderland,VBO,5.631418,51.932400
Lijsterbesstraat,16,,,4043NC,Opheusden,Neder-Betuwe,Gelderland,VBO,5.631519,51.932310
Lijsterbesstraat,18,,,4043NC,Opheusden,Neder-Betuwe,Gelderland,VBO,5.631562,51.932166
Lijsterbesstraat,20,,,4043NC,Opheusden,Neder-Betuwe,Gelderland,VBO,5.632273,51.931112
Lijsterbesstraat,22,,,4043NC,Opheusden,Neder-Betuwe,Gelderland,VBO,5.632283,51.931050
Lijsterbesstraat,24,,,4043NC,Opheusden,Neder-Betuwe,Gelderland,VBO,5.632312,51.931005
Lijsterbesstraat,26,,,4043NC,Opheusden,Neder-Betuwe,Gelderland,VBO,5.632340,51.930951
Lijsterbesstraat,28,,,4043NC,Opheusden,Neder-Betuwe,Gelderland,VBO,5.632369,51.930906
Lijsterbesstraat,30,,,4043NC,Opheusden,Neder-Betuwe,Gelderland,VBO,5.632398,51.930861
Lijsterbesstraat,32,,,4043NC,Opheusden,Neder-Betuwe,Gelderland,VBO,5.632586,51.930636
Lijsterbesstraat,34,,,4043NC,Opheusden,Neder-Betuwe,Gelderland,VBO,5.632586,51.930582
Lijsterbesstraat,36,,,4043NC,Opheusden,Neder-Betuwe,Gelderland,VBO,5.632614,51.930528
Lijsterbesstraat,38,,,4043NC,Opheusden,Neder-Betuwe,Gelderland,VBO,5.632662,51.930486
Lijsterbesstraat,40,,,4043NC,Opheusden,Neder-Betuwe,Gelderland,VBO,5.632703,51.930443
Lijsterbesstraat,42,,,4043NC,Opheusden,Neder-Betuwe,Gelderland,VBO,5.632732,51.930390
Lijsterbesstraat,44,,,4043NC,Opheusden,Neder-Betuwe,Gelderland,VBO,5.632761,51.930334
Lijsterbesstraat,46,,,4043NC,Opheusden,Neder-Betuwe,Gelderland,VBO,5.632787,51.930276
Molukkenstraat,1,,,4043ND,Opheusden,Neder-Betuwe,Gelderland,VBO,5.631919,51.931033
Molukkenstraat,3,,,4043ND,Opheusden,Neder-Betuwe,Gelderland,VBO,5.631938,51.930995
Molukkenstraat,5,,,4043ND,Opheusden,Neder-Betuwe,Gelderland,VBO,5.631964,51.930937
Molukkenstraat,7,,,4043ND,Opheusden,Neder-Betuwe,Gelderland,VBO,5.631997,51.930877
Molukkenstraat,9,,,4043ND,Opheusden,Neder-Betuwe,Gelderland,VBO,5.632020,51.930835
Molukkenstraat,11,,,4043ND,Opheusden,Neder-Betuwe,Gelderland,VBO,5.632049,51.930781
Molukkenstraat,13,,,4043ND,Opheusden,Neder-Betuwe,Gelderland,VBO,5.632185,51.930567
Molukkenstraat,15,,,4043ND,Opheusden,Neder-Betuwe,Gelderland,VBO,5.632215,51.930514
Molukkenstraat,17,,,4043ND,Opheusden,Neder-Betuwe,Gelderland,VBO,5.632238,51.930463
Molukkenstraat,19,,,4043ND,Opheusden,Neder-Betuwe,Gelderland,VBO,5.632279,51.930402
Molukkenstraat,21,,,4043ND,Opheusden,Neder-Betuwe,Gelderland,VBO,5.632305,51.930354
Molukkenstraat,23,,,4043ND,Opheusden,Neder-Betuwe,Gelderland,VBO,5.632344,51.930304
Molukkenstraat,25,,,4043ND,Opheusden,Neder-Betuwe,Gelderland,VBO,5.632360,51.930253
Molukkenstraat,27,,,4043ND,Opheusden,Neder-Betuwe,Gelderland,VBO,5.632400,51.930189
Molukkenstraat,2,,,4043NE,Opheusden,Neder-Betuwe,Gelderland,VBO,5.631555,51.930926
Molukkenstraat,4,,,4043NE,Opheusden,Neder-Betuwe,Gelderland,VBO,5.631555,51.930881
Molukkenstraat,6,,,4043NE,Opheusden,Neder-Betuwe,Gelderland,VBO,5.631598,51.930836
Molukkenstraat,8,,,4043NE,Opheusden,Neder-Betuwe,Gelderland,VBO,5.631642,51.930773
Molukkenstraat,10,,,4043NE,Opheusden,Neder-Betuwe,Gelderland,VBO,5.631670,51.930719
Molukkenstraat,12,,,4043NE,Opheusden,Neder-Betuwe,Gelderland,VBO,5.631714,51.930692
Molukkenstraat,14,,,4043NE,Opheusden,Neder-Betuwe,Gelderland,VBO,5.631815,51.930512
Molukkenstraat,16,,,4043NE,Opheusden,Neder-Betuwe,Gelderland,VBO,5.631829,51.930458
Molukkenstraat,18,,,4043NE,Opheusden,Neder-Betuwe,Gelderland,VBO,5.631858,51.930413
Molukkenstraat,20,,,4043NE,Opheusden,Neder-Betuwe,Gelderland,VBO,5.631872,51.930359
Molukkenstraat,22,,,4043NE,Opheusden,Neder-Betuwe,Gelderland,VBO,5.631930,51.930296
Molukkenstraat,24,,,4043NE,Opheusden,Neder-Betuwe,Gelderland,VBO,5.631944,51.930251
Molukkenstraat,26,,,4043NE,Opheusden,Neder-Betuwe,Gelderland,VBO,5.631988,51.930224
Molukkenstraat,28,,,4043NE,Opheusden,Neder-Betuwe,Gelderland,VBO,5.632002,51.930179
Ribesstraat,1,,,4043NG,Opheusden,Neder-Betuwe,Gelderland,VBO,5.630941,51.931046
Ribesstraat,2,,,4043NG,Opheusden,Neder-Betuwe,Gelderland,VBO,5.629634,51.930588
Ribesstraat,3,,,4043NG,Opheusden,Neder-Betuwe,Gelderland,VBO,5.631046,51.931075
Ribesstraat,4,,,4043NG,Opheusden,Neder-Betuwe,Gelderland,VBO,5.629726,51.930607
Ribesstraat,5,,,4043NG,Opheusden,Neder-Betuwe,Gelderland,VBO,5.631137,51.931099
Ribesstraat,6,,,4043NG,Opheusden,Neder-Betuwe,Gelderland,VBO,5.629838,51.930627
Ribesstraat,7,,,4043NG,Opheusden,Neder-Betuwe,Gelderland,VBO,5.631280,51.931133
Ribesstraat,8,,,4043NG,Opheusden,Neder-Betuwe,Gelderland,VBO,5.629927,51.930651
Ribesstraat,9,a,,4043NG,Opheusden,Neder-Betuwe,Gelderland,VBO,5.631450,51.931171
Ribesstraat,9,,,4043NG,Opheusden,Neder-Betuwe,Gelderland,VBO,5.631368,51.931157
Ribesstraat,10,,,4043NG,Opheusden,Neder-Betuwe,Gelderland,VBO,5.629996,51.930664
Ribesstraat,11,,,4043NG,Opheusden,Neder-Betuwe,Gelderland,VBO,5.631644,51.931204
Ribesstraat,12,,,4043NG,Opheusden,Neder-Betuwe,Gelderland,VBO,5.630079,51.930683
Ribesstraat,13,,,4043NG,Opheusden,Neder-Betuwe,Gelderland,VBO,5.631775,51.931231
Ribesstraat,14,,,4043NG,Opheusden,Neder-Betuwe,Gelderland,VBO,5.630260,51.930704
Ribesstraat,15,,,4043NG,Opheusden,Neder-Betuwe,Gelderland,VBO,5.631833,51.931258
Ribesstraat,16,,,4043NG,Opheusden,Neder-Betuwe,Gelderland,VBO,5.630362,51.930722
Ribesstraat,17,,,4043NG,Opheusden,Neder-Betuwe,Gelderland,VBO,5.631877,51.931267
Ribesstraat,18,,,4043NG,Opheusden,Neder-Betuwe,Gelderland,VBO,5.630435,51.930739
Ribesstraat,19,,,4043NG,Opheusden,Neder-Betuwe,Gelderland,VBO,5.631979,51.931293
Ribesstraat,21,,,4043NG,Opheusden,Neder-Betuwe,Gelderland,VBO,5.632081,51.931311
Ribesstraat,23,,,4043NG,Opheusden,Neder-Betuwe,Gelderland,VBO,5.632139,51.931338
Iepenlaan,13,,,4043NH,Opheusden,Neder-Betuwe,Gelderland,VBO,5.630715,51.931512
Iepenlaan,15,,,4043NH,Opheusden,Neder-Betuwe,Gelderland,VBO,5.630729,51.931467
Iepenlaan,17,,,4043NH,Opheusden,Neder-Betuwe,Gelderland,VBO,5.630729,51.931422
Iepenlaan,19,,,4043NH,Opheusden,Neder-Betuwe,Gelderland,VBO,5.630772,51.931377
Iepenlaan,21,,,4043NH,Opheusden,Neder-Betuwe,Gelderland,VBO,5.630817,51.931326
Iepenlaan,23,,,4043NH,Opheusden,Neder-Betuwe,Gelderland,VBO,5.630850,51.931267
Iepenlaan,25,,,4043NH,Opheusden,Neder-Betuwe,Gelderland,VBO,5.631104,51.930837
Iepenlaan,27,,,4043NH,Opheusden,Neder-Betuwe,Gelderland,VBO,5.631118,51.930783
Iepenlaan,29,,,4043NH,Opheusden,Neder-Betuwe,Gelderland,VBO,5.631132,51.930720
Iepenlaan,31,,,4043NH,Opheusden,Neder-Betuwe,Gelderland,VBO,5.631176,51.930675
Iepenlaan,33,,,4043NH,Opheusden,Neder-Betuwe,Gelderland,VBO,5.631205,51.930630
Iepenlaan,35,,,4043NH,Opheusden,Neder-Betuwe,Gelderland,VBO,5.631248,51.930585
Iepenlaan,37,,,4043NH,Opheusden,Neder-Betuwe,Gelderland,VBO,5.631320,51.930450
Iepenlaan,39,,,4043NH,Opheusden,Neder-Betuwe,Gelderland,VBO,5.631334,51.930414
Iepenlaan,41,,,4043NH,Opheusden,Neder-Betuwe,Gelderland,VBO,5.631363,51.930369
Iepenlaan,43,,,4043NH,Opheusden,Neder-Betuwe,Gelderland,VBO,5.631406,51.930306
Iepenlaan,45,,,4043NH,Opheusden,Neder-Betuwe,Gelderland,VBO,5.631435,51.930252
Iepenlaan,47,,,4043NH,Opheusden,Neder-Betuwe,Gelderland,VBO,5.631464,51.930216
Iepenlaan,49,,,4043NH,Opheusden,Neder-Betuwe,Gelderland,VBO,5.631493,51.930171
Iepenlaan,51,,,4043NH,Opheusden,Neder-Betuwe,Gelderland,VBO,5.631522,51.930135
Iepenlaan,2,,,4043NJ,Opheusden,Neder-Betuwe,Gelderland,VBO,5.630668,51.930759
Iepenlaan,4,,,4043NJ,Opheusden,Neder-Betuwe,Gelderland,VBO,5.630713,51.930693
Iepenlaan,6,,,4043NJ,Opheusden,Neder-Betuwe,Gelderland,VBO,5.630758,51.930623
Iepenlaan,8,,,4043NJ,Opheusden,Neder-Betuwe,Gelderland,VBO,5.630805,51.930551
Iepenlaan,10,,,4043NJ,Opheusden,Neder-Betuwe,Gelderland,VBO,5.630927,51.930325
Iepenlaan,12,,,4043NJ,Opheusden,Neder-Betuwe,Gelderland,VBO,5.630970,51.930253
Iepenlaan,14,,,4043NJ,Opheusden,Neder-Betuwe,Gelderland,VBO,5.630999,51.930199
Iepenlaan,16,,,4043NJ,Opheusden,Neder-Betuwe,Gelderland,VBO,5.631027,51.930145
Iepenlaan,18,,,4043NJ,Opheusden,Neder-Betuwe,Gelderland,VBO,5.631099,51.930001
Iepenlaan,20,,,4043NJ,Opheusden,Neder-Betuwe,Gelderland,VBO,5.631113,51.929920
Iepenlaan,22,,,4043NJ,Opheusden,Neder-Betuwe,Gelderland,VBO,5.631142,51.929866
Fazantstraat,1,,,4043NK,Opheusden,Neder-Betuwe,Gelderland,VBO,5.627549,51.929451
Fazantstraat,17,,,4043NK,Opheusden,Neder-Betuwe,Gelderland,VBO,5.630197,51.929841
Fazantstraat,19,,,4043NK,Opheusden,Neder-Betuwe,Gelderland,VBO,5.630307,51.929850
Fazantstraat,21,,,4043NK,Opheusden,Neder-Betuwe,Gelderland,VBO,5.630388,51.929853
Fazantstraat,23,,,4043NK,Opheusden,Neder-Betuwe,Gelderland,VBO,5.630476,51.929860
Fazantstraat,25,,,4043NK,Opheusden,Neder-Betuwe,Gelderland,VBO,5.630571,51.929870
Fazantstraat,27,,,4043NK,Opheusden,Neder-Betuwe,Gelderland,VBO,5.630645,51.929882
Fazantstraat,29,,,4043NK,Opheusden,Neder-Betuwe,Gelderland,VBO,5.630731,51.929881
Fazantstraat,31,,,4043NK,Opheusden,Neder-Betuwe,Gelderland,VBO,5.630823,51.929883
Fazantstraat,33,,,4043NK,Opheusden,Neder-Betuwe,Gelderland,VBO,5.631637,51.929910
Fazantstraat,35,,,4043NK,Opheusden,Neder-Betuwe,Gelderland,VBO,5.631710,51.929910
Fazantstraat,37,,,4043NK,Opheusden,Neder-Betuwe,Gelderland,VBO,5.631782,51.929919
Fazantstraat,39,,,4043NK,Opheusden,Neder-Betuwe,Gelderland,VBO,5.631884,51.929918
Fazantstraat,41,,,4043NK,Opheusden,Neder-Betuwe,Gelderland,VBO,5.631957,51.929927
Fazantstraat,43,,,4043NK,Opheusden,Neder-Betuwe,Gelderland,VBO,5.632073,51.929927
Fazantstraat,45,,,4043NK,Opheusden,Neder-Betuwe,Gelderland,VBO,5.632175,51.929945
Fazantstraat,47,,,4043NL,Opheusden,Neder-Betuwe,Gelderland,VBO,5.632495,51.929989
Fazantstraat,49,,,4043NL,Opheusden,Neder-Betuwe,Gelderland,VBO,5.632568,51.929998
Fazantstraat,51,,,4043NL,Opheusden,Neder-Betuwe,Gelderland,VBO,5.632679,51.930003
Fazantstraat,53,,,4043NL,Opheusden,Neder-Betuwe,Gelderland,VBO,5.632772,51.930009
Fazantstraat,55,,,4043NL,Opheusden,Neder-Betuwe,Gelderland,VBO,5.632830,51.930015
Fazantstraat,57,,,4043NL,Opheusden,Neder-Betuwe,Gelderland,VBO,5.632931,51.930015
Fazantstraat,59,,,4043NL,Opheusden,Neder-Betuwe,Gelderland,VBO,5.633353,51.930032
Fazantstraat,61,,,4043NL,Opheusden,Neder-Betuwe,Gelderland,VBO,5.633455,51.930050
Fazantstraat,63,,,4043NL,Opheusden,Neder-Betuwe,Gelderland,VBO,5.633542,51.930059
Fazantstraat,65,,,4043NL,Opheusden,Neder-Betuwe,Gelderland,VBO,5.633615,51.930068
Fazantstraat,67,,,4043NL,Opheusden,Neder-Betuwe,Gelderland,VBO,5.633819,51.930094
Fazantstraat,69,,,4043NL,Opheusden,Neder-Betuwe,Gelderland,VBO,5.633921,51.930094
Fazantstraat,71,,,4043NL,Opheusden,Neder-Betuwe,Gelderland,VBO,5.634037,51.930112
Fazantstraat,73,,,4043NL,Opheusden,Neder-Betuwe,Gelderland,VBO,5.634328,51.930120
Fazantstraat,75,,,4043NL,Opheusden,Neder-Betuwe,Gelderland,VBO,5.634415,51.930138
Fazantstraat,77,,,4043NL,Opheusden,Neder-Betuwe,Gelderland,VBO,5.634605,51.930227
Fazantstraat,79,,,4043NL,Opheusden,Neder-Betuwe,Gelderland,VBO,5.634707,51.930254
Fazantstraat,12,,,4043NM,Opheusden,Neder-Betuwe,Gelderland,VBO,5.628828,51.929359
Fazantstraat,14,,,4043NM,Opheusden,Neder-Betuwe,Gelderland,VBO,5.628901,51.929385
Fazantstraat,16,,,4043NM,Opheusden,Neder-Betuwe,Gelderland,VBO,5.628973,51.929412
Fazantstraat,18,,,4043NM,Opheusden,Neder-Betuwe,Gelderland,VBO,5.629046,51.929430
Fazantstraat,20,,,4043NM,Opheusden,Neder-Betuwe,Gelderland,VBO,5.629119,51.929439
Fazantstraat,24,,,4043NM,Opheusden,Neder-Betuwe,Gelderland,VBO,5.629293,51.929438
Fazantstraat,26,a,,4043NM,Opheusden,Neder-Betuwe,Gelderland,VBO,5.629719,51.929348
Fazantstraat,26,,,4043NM,Opheusden,Neder-Betuwe,Gelderland,VBO,5.629903,51.929275
Fazantstraat,30,,,4043NM,Opheusden,Neder-Betuwe,Gelderland,VBO,5.630462,51.929179
Fazantstraat,32,a,,4043NM,Opheusden,Neder-Betuwe,Gelderland,VBO,5.632500,51.929694
Fazantstraat,32,,,4043NM,Opheusden,Neder-Betuwe,Gelderland,VBO,5.632592,51.929704
Fazantstraat,34,,,4043NM,Opheusden,Neder-Betuwe,Gelderland,VBO,5.632511,51.929624
Fazantstraat,36,,,4043NM,Opheusden,Neder-Betuwe,Gelderland,VBO,5.632521,51.929589
Fazantstraat,38,,,4043NM,Opheusden,Neder-Betuwe,Gelderland,VBO,5.632534,51.929559
Fazantstraat,40,a,,4043NM,Opheusden,Neder-Betuwe,Gelderland,VBO,5.633007,51.929740
Fazantstraat,40,,,4043NM,Opheusden,Neder-Betuwe,Gelderland,VBO,5.632918,51.929727
Fazantstraat,42,,,4043NM,Opheusden,Neder-Betuwe,Gelderland,VBO,5.632988,51.929673
Fazantstraat,44,,,4043NM,Opheusden,Neder-Betuwe,Gelderland,VBO,5.633002,51.929646
Fazantstraat,46,,,4043NM,Opheusden,Neder-Betuwe,Gelderland,VBO,5.633002,51.929602
Fazantstraat,48,,,4043NM,Opheusden,Neder-Betuwe,Gelderland,VBO,5.633351,51.929547
Fazantstraat,50,,,4043NM,Opheusden,Neder-Betuwe,Gelderland,VBO,5.633350,51.929511
Fazantstraat,52,,,4043NM,Opheusden,Neder-Betuwe,Gelderland,VBO,5.633379,51.929448
Fazantstraat,54,,,4043NM,Opheusden,Neder-Betuwe,Gelderland,VBO,5.633381,51.929772
Fazantstraat,56,,,4043NM,Opheusden,Neder-Betuwe,Gelderland,VBO,5.633439,51.929780
Fazantstraat,58,,,4043NM,Opheusden,Neder-Betuwe,Gelderland,VBO,5.633526,51.929789
Fazantstraat,60,,,4043NM,Opheusden,Neder-Betuwe,Gelderland,VBO,5.633643,51.929798
Fazantstraat,62,,,4043NM,Opheusden,Neder-Betuwe,Gelderland,VBO,5.633715,51.929807
Fazantstraat,64,,,4043NM,Opheusden,Neder-Betuwe,Gelderland,VBO,5.633788,51.929807
Mahoniastraat,1,,,4043NN,Opheusden,Neder-Betuwe,Gelderland,VBO,5.632472,51.928452
Mahoniastraat,3,,,4043NN,Opheusden,Neder-Betuwe,Gelderland,VBO,5.632458,51.928488
Mahoniastraat,5,,,4043NN,Opheusden,Neder-Betuwe,Gelderland,VBO,5.632444,51.928542
Mahoniastraat,7,,,4043NN,Opheusden,Neder-Betuwe,Gelderland,VBO,5.632429,51.928587
Mahoniastraat,9,,,4043NN,Opheusden,Neder-Betuwe,Gelderland,VBO,5.632401,51.928641
Mahoniastraat,13,,,4043NN,Opheusden,Neder-Betuwe,Gelderland,VBO,5.632357,51.928713
Mahoniastraat,15,,,4043NN,Opheusden,Neder-Betuwe,Gelderland,VBO,5.632708,51.929126
Mahoniastraat,17,,,4043NN,Opheusden,Neder-Betuwe,Gelderland,VBO,5.632680,51.929198
Mahoniastraat,19,,,4043NN,Opheusden,Neder-Betuwe,Gelderland,VBO,5.632672,51.929250
Mahoniastraat,21,,,4043NN,Opheusden,Neder-Betuwe,Gelderland,VBO,5.632658,51.929299
Mahoniastraat,23,,,4043NN,Opheusden,Neder-Betuwe,Gelderland,VBO,5.632637,51.929351
Mahoniastraat,25,,,4043NN,Opheusden,Neder-Betuwe,Gelderland,VBO,5.632623,51.929414
Mahoniastraat,27,,,4043NN,Opheusden,Neder-Betuwe,Gelderland,VBO,5.633130,51.929179
Mahoniastraat,29,,,4043NN,Opheusden,Neder-Betuwe,Gelderland,VBO,5.633116,51.929233
Mahoniastraat,31,,,4043NN,Opheusden,Neder-Betuwe,Gelderland,VBO,5.633116,51.929278
Mahoniastraat,33,,,4043NN,Opheusden,Neder-Betuwe,Gelderland,VBO,5.633111,51.929346
Mahoniastraat,35,,,4043NN,Opheusden,Neder-Betuwe,Gelderland,VBO,5.633088,51.929395
Mahoniastraat,37,,,4043NN,Opheusden,Neder-Betuwe,Gelderland,VBO,5.633074,51.929449
Mahoniastraat,39,,,4043NN,Opheusden,Neder-Betuwe,Gelderland,VBO,5.633465,51.929241
Mahoniastraat,41,,,4043NN,Opheusden,Neder-Betuwe,Gelderland,VBO,5.633581,51.929250
Mahoniastraat,43,,,4043NN,Opheusden,Neder-Betuwe,Gelderland,VBO,5.633654,51.929259
Mahoniastraat,45,,,4043NN,Opheusden,Neder-Betuwe,Gelderland,VBO,5.633742,51.929267
Mahoniastraat,47,,,4043NN,Opheusden,Neder-Betuwe,Gelderland,VBO,5.633872,51.929285
Mahoniastraat,49,,,4043NN,Opheusden,Neder-Betuwe,Gelderland,VBO,5.633974,51.929294
Mahoniastraat,2,,,4043NP,Opheusden,Neder-Betuwe,Gelderland,VBO,5.632839,51.928668
Mahoniastraat,4,,,4043NP,Opheusden,Neder-Betuwe,Gelderland,VBO,5.632825,51.928723
Mahoniastraat,6,,,4043NP,Opheusden,Neder-Betuwe,Gelderland,VBO,5.632819,51.928787
Mahoniastraat,8,,,4043NP,Opheusden,Neder-Betuwe,Gelderland,VBO,5.632803,51.928830
Mahoniastraat,10,a,,4043NP,Opheusden,Neder-Betuwe,Gelderland,VBO,5.633064,51.928918
Mahoniastraat,10,,,4043NP,Opheusden,Neder-Betuwe,Gelderland,VBO,5.633260,51.928882
Mahoniastraat,12,,,4043NP,Opheusden,Neder-Betuwe,Gelderland,VBO,5.633245,51.928828
Mahoniastraat,14,,,4043NP,Opheusden,Neder-Betuwe,Gelderland,VBO,5.633273,51.928756
Mahoniastraat,16,,,4043NP,Opheusden,Neder-Betuwe,Gelderland,VBO,5.633259,51.928702
Mahoniastraat,18,,,4043NP,Opheusden,Neder-Betuwe,Gelderland,VBO,5.633609,51.928953
Mahoniastraat,20,,,4043NP,Opheusden,Neder-Betuwe,Gelderland,VBO,5.633711,51.928962
Mahoniastraat,22,,,4043NP,Opheusden,Neder-Betuwe,Gelderland,VBO,5.633827,51.928971
Mahoniastraat,24,,,4043NP,Opheusden,Neder-Betuwe,Gelderland,VBO,5.633914,51.928979
Mahoniastraat,26,,,4043NP,Opheusden,Neder-Betuwe,Gelderland,VBO,5.633958,51.928988
Mahoniastraat,28,,,4043NP,Opheusden,Neder-Betuwe,Gelderland,VBO,5.634045,51.928997
Vuurdoornstraat,1,a,,4043NR,Opheusden,Neder-Betuwe,Gelderland,VBO,5.631795,51.929640
Vuurdoornstraat,1,b,,4043NR,Opheusden,Neder-Betuwe,Gelderland,VBO,5.631810,51.929604
Vuurdoornstraat,1,c,,4043NR,Opheusden,Neder-Betuwe,Gelderland,VBO,5.631838,51.929532
Vuurdoornstraat,1,,,4043NR,Opheusden,Neder-Betuwe,Gelderland,VBO,5.631765,51.929326
Vuurdoornstraat,3,,,4043NR,Opheusden,Neder-Betuwe,Gelderland,VBO,5.631881,51.929343
Vuurdoornstraat,5,,,4043NR,Opheusden,Neder-Betuwe,Gelderland,VBO,5.631997,51.929352
Vuurdoornstraat,7,,,4043NR,Opheusden,Neder-Betuwe,Gelderland,VBO,5.632128,51.929361
Vuurdoornstraat,9,,,4043NR,Opheusden,Neder-Betuwe,Gelderland,VBO,5.632230,51.929369
Vuurdoornstraat,11,,,4043NR,Opheusden,Neder-Betuwe,Gelderland,VBO,5.631836,51.929092
Vuurdoornstraat,13,,,4043NR,Opheusden,Neder-Betuwe,Gelderland,VBO,5.631949,51.929105
Vuurdoornstraat,15,,,4043NR,Opheusden,Neder-Betuwe,Gelderland,VBO,5.632090,51.929119
Vuurdoornstraat,17,,,4043NR,Opheusden,Neder-Betuwe,Gelderland,VBO,5.632205,51.929130
Vuurdoornstraat,19,,,4043NR,Opheusden,Neder-Betuwe,Gelderland,VBO,5.632288,51.929139
Vuurdoornstraat,21,,,4043NR,Opheusden,Neder-Betuwe,Gelderland,VBO,5.631878,51.928858
Vuurdoornstraat,23,,,4043NR,Opheusden,Neder-Betuwe,Gelderland,VBO,5.631958,51.928865
Vuurdoornstraat,25,,,4043NR,Opheusden,Neder-Betuwe,Gelderland,VBO,5.632042,51.928873
Vuurdoornstraat,27,,,4043NR,Opheusden,Neder-Betuwe,Gelderland,VBO,5.632127,51.928887
Vuurdoornstraat,29,,,4043NR,Opheusden,Neder-Betuwe,Gelderland,VBO,5.632211,51.928894
Vuurdoornstraat,31,,,4043NR,Opheusden,Neder-Betuwe,Gelderland,VBO,5.632286,51.928902
Vuurdoornstraat,33,,,4043NR,Opheusden,Neder-Betuwe,Gelderland,VBO,5.632344,51.928902
Vuurdoornstraat,35,,,4043NR,Opheusden,Neder-Betuwe,Gelderland,VBO,5.631979,51.928669
Vuurdoornstraat,37,,,4043NR,Opheusden,Neder-Betuwe,Gelderland,VBO,5.632022,51.928633
Vuurdoornstraat,39,,,4043NR,Opheusden,Neder-Betuwe,Gelderland,VBO,5.631978,51.928561
Vuurdoornstraat,41,,,4043NR,Opheusden,Neder-Betuwe,Gelderland,VBO,5.632007,51.928525
Vuurdoornstraat,43,,,4043NR,Opheusden,Neder-Betuwe,Gelderland,VBO,5.632036,51.928489
Vuurdoornstraat,45,,,4043NR,Opheusden,Neder-Betuwe,Gelderland,VBO,5.632051,51.928444
Vuurdoornstraat,47,,,4043NR,Opheusden,Neder-Betuwe,Gelderland,VBO,5.632050,51.928399
Vuurdoornstraat,49,,,4043NR,Opheusden,Neder-Betuwe,Gelderland,VBO,5.632121,51.928120
Vuurdoornstraat,51,,,4043NR,Opheusden,Neder-Betuwe,Gelderland,VBO,5.632150,51.928075
Vuurdoornstraat,53,,,4043NR,Opheusden,Neder-Betuwe,Gelderland,VBO,5.632164,51.927976
Vuurdoornstraat,55,,,4043NR,Opheusden,Neder-Betuwe,Gelderland,VBO,5.632179,51.927931
Vuurdoornstraat,57,,,4043NR,Opheusden,Neder-Betuwe,Gelderland,VBO,5.632321,51.927745
Vuurdoornstraat,59,,,4043NR,Opheusden,Neder-Betuwe,Gelderland,VBO,5.632413,51.927760
Vuurdoornstraat,61,,,4043NR,Opheusden,Neder-Betuwe,Gelderland,VBO,5.632526,51.927766
Vuurdoornstraat,63,,,4043NR,Opheusden,Neder-Betuwe,Gelderland,VBO,5.632628,51.927775
Vuurdoornstraat,65,,,4043NR,Opheusden,Neder-Betuwe,Gelderland,VBO,5.632714,51.927787
Vuurdoornstraat,67,,,4043NR,Opheusden,Neder-Betuwe,Gelderland,VBO,5.632990,51.927466
Vuurdoornstraat,69,,,4043NR,Opheusden,Neder-Betuwe,Gelderland,VBO,5.632976,51.927521
Vuurdoornstraat,71,,,4043NR,Opheusden,Neder-Betuwe,Gelderland,VBO,5.632946,51.927576
Vuurdoornstraat,73,,,4043NR,Opheusden,Neder-Betuwe,Gelderland,VBO,5.633035,51.927705
Vuurdoornstraat,75,,,4043NR,Opheusden,Neder-Betuwe,Gelderland,VBO,5.633036,51.927786
Vuurdoornstraat,85,,,4043NR,Opheusden,Neder-Betuwe,Gelderland,VBO,5.633577,51.927739
Vuurdoornstraat,87,,,4043NR,Opheusden,Neder-Betuwe,Gelderland,VBO,5.633660,51.927735
Vuurdoornstraat,89,,,4043NR,Opheusden,Neder-Betuwe,Gelderland,VBO,5.633736,51.927729
Vuurdoornstraat,91,,,4043NR,Opheusden,Neder-Betuwe,Gelderland,VBO,5.633837,51.927723
Vuurdoornstraat,93,,,4043NR,Opheusden,Neder-Betuwe,Gelderland,VBO,5.633920,51.927711
Vuurdoornstraat,95,,,4043NR,Opheusden,Neder-Betuwe,Gelderland,VBO,5.633484,51.927443
Vuurdoornstraat,97,,,4043NR,Opheusden,Neder-Betuwe,Gelderland,VBO,5.633586,51.927434
Vuurdoornstraat,99,,,4043NR,Opheusden,Neder-Betuwe,Gelderland,VBO,5.633668,51.927431
Vuurdoornstraat,101,,,4043NR,Opheusden,Neder-Betuwe,Gelderland,VBO,5.633755,51.927419
Vuurdoornstraat,103,,,4043NR,Opheusden,Neder-Betuwe,Gelderland,VBO,5.633842,51.927413
Vuurdoornstraat,105,,,4043NR,Opheusden,Neder-Betuwe,Gelderland,VBO,5.633935,51.927406
Vuurdoornstraat,107,,,4043NR,Opheusden,Neder-Betuwe,Gelderland,VBO,5.634410,51.927474
Vuurdoornstraat,109,,,4043NR,Opheusden,Neder-Betuwe,Gelderland,VBO,5.634394,51.927519
Vuurdoornstraat,111,,,4043NR,Opheusden,Neder-Betuwe,Gelderland,VBO,5.634406,51.927563
Vuurdoornstraat,113,,,4043NR,Opheusden,Neder-Betuwe,Gelderland,VBO,5.634388,51.927609
Vuurdoornstraat,115,,,4043NR,Opheusden,Neder-Betuwe,Gelderland,VBO,5.634376,51.927660
Vuurdoornstraat,117,,,4043NR,Opheusden,Neder-Betuwe,Gelderland,VBO,5.634358,51.927702
Vuurdoornstraat,119,,,4043NR,Opheusden,Neder-Betuwe,Gelderland,VBO,5.634349,51.927751
Vuurdoornstraat,121,,,4043NR,Opheusden,Neder-Betuwe,Gelderland,VBO,5.634721,51.927513
Vuurdoornstraat,123,,,4043NR,Opheusden,Neder-Betuwe,Gelderland,VBO,5.634808,51.927521
Vuurdoornstraat,125,,,4043NR,Opheusden,Neder-Betuwe,Gelderland,VBO,5.634895,51.927530
Vuurdoornstraat,127,,,4043NR,Opheusden,Neder-Betuwe,Gelderland,VBO,5.634982,51.927530
Vuurdoornstraat,129,,,4043NR,Opheusden,Neder-Betuwe,Gelderland,VBO,5.635055,51.927557
Vuurdoornstraat,131,,,4043NR,Opheusden,Neder-Betuwe,Gelderland,VBO,5.635142,51.927566
Vuurdoornstraat,4,,,4043NS,Opheusden,Neder-Betuwe,Gelderland,VBO,5.631473,51.928850
Vuurdoornstraat,6,,,4043NS,Opheusden,Neder-Betuwe,Gelderland,VBO,5.631481,51.928806
Vuurdoornstraat,8,,,4043NS,Opheusden,Neder-Betuwe,Gelderland,VBO,5.631498,51.928754
Vuurdoornstraat,10,,,4043NS,Opheusden,Neder-Betuwe,Gelderland,VBO,5.631504,51.928707
Vuurdoornstraat,12,,,4043NS,Opheusden,Neder-Betuwe,Gelderland,VBO,5.631514,51.928658
Vuurdoornstraat,14,,,4043NS,Opheusden,Neder-Betuwe,Gelderland,VBO,5.631440,51.928517
Vuurdoornstraat,16,,,4043NS,Opheusden,Neder-Betuwe,Gelderland,VBO,5.631455,51.928481
Vuurdoornstraat,18,,,4043NS,Opheusden,Neder-Betuwe,Gelderland,VBO,5.631483,51.928427
Vuurdoornstraat,20,,,4043NS,Opheusden,Neder-Betuwe,Gelderland,VBO,5.631469,51.928373
Vuurdoornstraat,30,,,4043NS,Opheusden,Neder-Betuwe,Gelderland,VBO,5.632204,51.927320
Vuurdoornstraat,32,,,4043NS,Opheusden,Neder-Betuwe,Gelderland,VBO,5.632292,51.927320
Vuurdoornstraat,34,,,4043NS,Opheusden,Neder-Betuwe,Gelderland,VBO,5.632379,51.927311
Vuurdoornstraat,36,,,4043NS,Opheusden,Neder-Betuwe,Gelderland,VBO,5.632843,51.927202
Vuurdoornstraat,38,,,4043NS,Opheusden,Neder-Betuwe,Gelderland,VBO,5.632839,51.927160
Vuurdoornstraat,40,,,4043NS,Opheusden,Neder-Betuwe,Gelderland,VBO,5.632818,51.927115
Vuurdoornstraat,42,,,4043NS,Opheusden,Neder-Betuwe,Gelderland,VBO,5.632801,51.927068
Vuurdoornstraat,44,,,4043NS,Opheusden,Neder-Betuwe,Gelderland,VBO,5.632785,51.927035
Vuurdoornstraat,46,,,4043NS,Opheusden,Neder-Betuwe,Gelderland,VBO,5.632776,51.926990
Vuurdoornstraat,48,,,4043NS,Opheusden,Neder-Betuwe,Gelderland,VBO,5.632847,51.926908
Vuurdoornstraat,50,,,4043NS,Opheusden,Neder-Betuwe,Gelderland,VBO,5.632762,51.926925
Vuurdoornstraat,52,,,4043NS,Opheusden,Neder-Betuwe,Gelderland,VBO,5.633359,51.927096
Vuurdoornstraat,54,,,4043NS,Opheusden,Neder-Betuwe,Gelderland,VBO,5.633286,51.927122
Vuurdoornstraat,56,,,4043NS,Opheusden,Neder-Betuwe,Gelderland,VBO,5.633367,51.927048
Vuurdoornstraat,58,,,4043NS,Opheusden,Neder-Betuwe,Gelderland,VBO,5.633351,51.927011
Vuurdoornstraat,60,,,4043NS,Opheusden,Neder-Betuwe,Gelderland,VBO,5.633348,51.926967
Vuurdoornstraat,62,,,4043NS,Opheusden,Neder-Betuwe,Gelderland,VBO,5.633333,51.926921
Vuurdoornstraat,64,,,4043NS,Opheusden,Neder-Betuwe,Gelderland,VBO,5.633311,51.926875
Vuurdoornstraat,66,,,4043NS,Opheusden,Neder-Betuwe,Gelderland,VBO,5.633292,51.926833
Vuurdoornstraat,68,,,4043NS,Opheusden,Neder-Betuwe,Gelderland,VBO,5.634374,51.926752
Vuurdoornstraat,70,,,4043NS,Opheusden,Neder-Betuwe,Gelderland,VBO,5.634332,51.926803
Vuurdoornstraat,72,,,4043NS,Opheusden,Neder-Betuwe,Gelderland,VBO,5.634437,51.926758
Vuurdoornstraat,74,,,4043NS,Opheusden,Neder-Betuwe,Gelderland,VBO,5.634506,51.926769
Vuurdoornstraat,76,,,4043NS,Opheusden,Neder-Betuwe,Gelderland,VBO,5.634587,51.926778
Vuurdoornstraat,78,,,4043NS,Opheusden,Neder-Betuwe,Gelderland,VBO,5.634678,51.926790
Vuurdoornstraat,80,,,4043NS,Opheusden,Neder-Betuwe,Gelderland,VBO,5.634760,51.926796
Vuurdoornstraat,82,,,4043NS,Opheusden,Neder-Betuwe,Gelderland,VBO,5.634822,51.926854
Vuurdoornstraat,84,,,4043NS,Opheusden,Neder-Betuwe,Gelderland,VBO,5.634837,51.926810
Vuurdoornstraat,86,,,4043NS,Opheusden,Neder-Betuwe,Gelderland,VBO,5.633822,51.926869
Vuurdoornstraat,88,,,4043NS,Opheusden,Neder-Betuwe,Gelderland,VBO,5.633732,51.926887
Vuurdoornstraat,90,,,4043NS,Opheusden,Neder-Betuwe,Gelderland,VBO,5.633754,51.926942
Vuurdoornstraat,92,,,4043NS,Opheusden,Neder-Betuwe,Gelderland,VBO,5.633762,51.926983
Vuurdoornstraat,94,,,4043NS,Opheusden,Neder-Betuwe,Gelderland,VBO,5.633784,51.927023
Vuurdoornstraat,96,,,4043NS,Opheusden,Neder-Betuwe,Gelderland,VBO,5.633790,51.927070
Vuurdoornstraat,98,,,4043NS,Opheusden,Neder-Betuwe,Gelderland,VBO,5.633814,51.927122
Vuurdoornstraat,100,,,4043NS,Opheusden,Neder-Betuwe,Gelderland,VBO,5.633890,51.927119
Vuurdoornstraat,102,,,4043NS,Opheusden,Neder-Betuwe,Gelderland,VBO,5.634274,51.927037
Vuurdoornstraat,104,,,4043NS,Opheusden,Neder-Betuwe,Gelderland,VBO,5.634262,51.927088
Vuurdoornstraat,106,,,4043NS,Opheusden,Neder-Betuwe,Gelderland,VBO,5.634360,51.927095
Vuurdoornstraat,108,,,4043NS,Opheusden,Neder-Betuwe,Gelderland,VBO,5.634433,51.927103
Vuurdoornstraat,110,,,4043NS,Opheusden,Neder-Betuwe,Gelderland,VBO,5.634509,51.927114
Vuurdoornstraat,112,,,4043NS,Opheusden,Neder-Betuwe,Gelderland,VBO,5.634590,51.927124
Vuurdoornstraat,116,,,4043NS,Opheusden,Neder-Betuwe,Gelderland,VBO,5.634729,51.927136
Vuurdoornstraat,118,,,4043NS,Opheusden,Neder-Betuwe,Gelderland,VBO,5.634951,51.927171
Vuurdoornstraat,120,,,4043NS,Opheusden,Neder-Betuwe,Gelderland,VBO,5.635068,51.927188
Vuurdoornstraat,122,,,4043NS,Opheusden,Neder-Betuwe,Gelderland,VBO,5.635184,51.927224
Vuurdoornstraat,124,,,4043NS,Opheusden,Neder-Betuwe,Gelderland,VBO,5.635315,51.927242
Vuurdoornstraat,126,,,4043NS,Opheusden,Neder-Betuwe,Gelderland,VBO,5.635446,51.927322
Vuurdoornstraat,128,,,4043NS,Opheusden,Neder-Betuwe,Gelderland,VBO,5.635563,51.927331
Prunusstraat,1,a,,4043NT,Opheusden,Neder-Betuwe,Gelderland,VBO,5.632495,51.928383
Prunusstraat,1,b,,4043NT,Opheusden,Neder-Betuwe,Gelderland,VBO,5.632454,51.928382
Prunusstraat,1,c,,4043NT,Opheusden,Neder-Betuwe,Gelderland,VBO,5.632408,51.928386
Prunusstraat,1,d,,4043NT,Opheusden,Neder-Betuwe,Gelderland,VBO,5.632371,51.928377
Prunusstraat,1,e,,4043NT,Opheusden,Neder-Betuwe,Gelderland,VBO,5.632323,51.928378
Prunusstraat,1,f,,4043NT,Opheusden,Neder-Betuwe,Gelderland,VBO,5.632284,51.928370
Prunusstraat,1,,,4043NT,Opheusden,Neder-Betuwe,Gelderland,VBO,5.632879,51.928478
Prunusstraat,3,,,4043NT,Opheusden,Neder-Betuwe,Gelderland,VBO,5.632981,51.928487
Prunusstraat,5,,,4043NT,Opheusden,Neder-Betuwe,Gelderland,VBO,5.633083,51.928496
Prunusstraat,7,,,4043NT,Opheusden,Neder-Betuwe,Gelderland,VBO,5.633170,51.928505
Prunusstraat,9,,,4043NT,Opheusden,Neder-Betuwe,Gelderland,VBO,5.633258,51.928513
Prunusstraat,11,,,4043NT,Opheusden,Neder-Betuwe,Gelderland,VBO,5.633330,51.928522
Prunusstraat,13,,,4043NT,Opheusden,Neder-Betuwe,Gelderland,VBO,5.633737,51.928530
Prunusstraat,15,,,4043NT,Opheusden,Neder-Betuwe,Gelderland,VBO,5.633709,51.928602
Prunusstraat,17,,,4043NT,Opheusden,Neder-Betuwe,Gelderland,VBO,5.633709,51.928656
Prunusstraat,19,,,4043NT,Opheusden,Neder-Betuwe,Gelderland,VBO,5.633709,51.928719
Prunusstraat,21,,,4043NT,Opheusden,Neder-Betuwe,Gelderland,VBO,5.633681,51.928764
Prunusstraat,23,,,4043NT,Opheusden,Neder-Betuwe,Gelderland,VBO,5.634014,51.928611
Prunusstraat,25,,,4043NT,Opheusden,Neder-Betuwe,Gelderland,VBO,5.634116,51.928602
Prunusstraat,27,,,4043NT,Opheusden,Neder-Betuwe,Gelderland,VBO,5.634232,51.928610
Prunusstraat,29,,,4043NT,Opheusden,Neder-Betuwe,Gelderland,VBO,5.634319,51.928601
Prunusstraat,31,,,4043NT,Opheusden,Neder-Betuwe,Gelderland,VBO,5.634378,51.928610
Prunusstraat,33,,,4043NT,Opheusden,Neder-Betuwe,Gelderland,VBO,5.634436,51.928610
Prunusstraat,35,,,4043NT,Opheusden,Neder-Betuwe,Gelderland,VBO,5.634901,51.928573
Prunusstraat,37,,,4043NT,Opheusden,Neder-Betuwe,Gelderland,VBO,5.634944,51.928483
Prunusstraat,39,,,4043NT,Opheusden,Neder-Betuwe,Gelderland,VBO,5.634958,51.928393
Prunusstraat,41,,,4043NT,Opheusden,Neder-Betuwe,Gelderland,VBO,5.634986,51.928240
Prunusstraat,43,,,4043NT,Opheusden,Neder-Betuwe,Gelderland,VBO,5.635088,51.928276
Prunusstraat,45,,,4043NT,Opheusden,Neder-Betuwe,Gelderland,VBO,5.635248,51.928285
Prunusstraat,47,,,4043NT,Opheusden,Neder-Betuwe,Gelderland,VBO,5.635335,51.928284
Prunusstraat,49,,,4043NT,Opheusden,Neder-Betuwe,Gelderland,VBO,5.635553,51.928158
Prunusstraat,51,a,,4043NT,Opheusden,Neder-Betuwe,Gelderland,VBO,5.635667,51.927995
Prunusstraat,51,,,4043NT,Opheusden,Neder-Betuwe,Gelderland,VBO,5.635581,51.928086
Prunusstraat,53,,,4043NT,Opheusden,Neder-Betuwe,Gelderland,VBO,5.635696,51.927798
Prunusstraat,55,,,4043NT,Opheusden,Neder-Betuwe,Gelderland,VBO,5.635987,51.927834
Prunusstraat,57,,,4043NT,Opheusden,Neder-Betuwe,Gelderland,VBO,5.635855,51.927537
Prunusstraat,2,,,4043NV,Opheusden,Neder-Betuwe,Gelderland,VBO,5.632471,51.928156
Prunusstraat,4,,,4043NV,Opheusden,Neder-Betuwe,Gelderland,VBO,5.632470,51.928102
Prunusstraat,6,,,4043NV,Opheusden,Neder-Betuwe,Gelderland,VBO,5.632499,51.928012
Prunusstraat,8,,,4043NV,Opheusden,Neder-Betuwe,Gelderland,VBO,5.632513,51.927958
Prunusstraat,10,a,,4043NV,Opheusden,Neder-Betuwe,Gelderland,VBO,5.633065,51.927939
Prunusstraat,10,b,,4043NV,Opheusden,Neder-Betuwe,Gelderland,VBO,5.633066,51.927993
Prunusstraat,10,,,4043NV,Opheusden,Neder-Betuwe,Gelderland,VBO,5.633094,51.927885
Prunusstraat,12,a,,4043NV,Opheusden,Neder-Betuwe,Gelderland,VBO,5.632965,51.928146
Prunusstraat,12,b,,4043NV,Opheusden,Neder-Betuwe,Gelderland,VBO,5.632951,51.928191
Prunusstraat,12,,,4043NV,Opheusden,Neder-Betuwe,Gelderland,VBO,5.632979,51.928074
Prunusstraat,14,a,,4043NV,Opheusden,Neder-Betuwe,Gelderland,VBO,5.633343,51.928199
Prunusstraat,14,b,,4043NV,Opheusden,Neder-Betuwe,Gelderland,VBO,5.633503,51.928225
Prunusstraat,14,c,,4043NV,Opheusden,Neder-Betuwe,Gelderland,VBO,5.633590,51.928225
Prunusstraat,14,,,4043NV,Opheusden,Neder-Betuwe,Gelderland,VBO,5.633241,51.928172
Prunusstraat,16,,,4043NV,Opheusden,Neder-Betuwe,Gelderland,VBO,5.633939,51.928224
Prunusstraat,18,,,4043NV,Opheusden,Neder-Betuwe,Gelderland,VBO,5.634056,51.928242
Prunusstraat,20,,,4043NV,Opheusden,Neder-Betuwe,Gelderland,VBO,5.634274,51.928260
Prunusstraat,22,,,4043NV,Opheusden,Neder-Betuwe,Gelderland,VBO,5.634376,51.928268
Prunusstraat,24,,,4043NV,Opheusden,Neder-Betuwe,Gelderland,VBO,5.634534,51.928025
Prunusstraat,26,,,4043NV,Opheusden,Neder-Betuwe,Gelderland,VBO,5.634491,51.928016
Prunusstraat,28,,,4043NV,Opheusden,Neder-Betuwe,Gelderland,VBO,5.634403,51.928008
Prunusstraat,30,,,4043NV,Opheusden,Neder-Betuwe,Gelderland,VBO,5.634302,51.927999
Prunusstraat,32,,,4043NV,Opheusden,Neder-Betuwe,Gelderland,VBO,5.634214,51.927990
Prunusstraat,34,,,4043NV,Opheusden,Neder-Betuwe,Gelderland,VBO,5.634112,51.927981
Prunusstraat,36,,,4043NV,Opheusden,Neder-Betuwe,Gelderland,VBO,5.634011,51.927973
Prunusstraat,40,,,4043NV,Opheusden,Neder-Betuwe,Gelderland,VBO,5.634649,51.927791
Prunusstraat,42,,,4043NV,Opheusden,Neder-Betuwe,Gelderland,VBO,5.634737,51.927800
Prunusstraat,44,,,4043NV,Opheusden,Neder-Betuwe,Gelderland,VBO,5.634809,51.927800
Prunusstraat,46,,,4043NV,Opheusden,Neder-Betuwe,Gelderland,VBO,5.634868,51.927818
Prunusstraat,48,,,4043NV,Opheusden,Neder-Betuwe,Gelderland,VBO,5.634955,51.927836
Prunusstraat,50,,,4043NV,Opheusden,Neder-Betuwe,Gelderland,VBO,5.635013,51.927836
Acerstraat,1,,,4043NW,Opheusden,Neder-Betuwe,Gelderland,VBO,5.634437,51.928790
Acerstraat,3,,,4043NW,Opheusden,Neder-Betuwe,Gelderland,VBO,5.634437,51.928862
Acerstraat,5,,,4043NW,Opheusden,Neder-Betuwe,Gelderland,VBO,5.634423,51.928897
Acerstraat,7,,,4043NW,Opheusden,Neder-Betuwe,Gelderland,VBO,5.634423,51.928951
Acerstraat,9,,,4043NW,Opheusden,Neder-Betuwe,Gelderland,VBO,5.634380,51.929014
Acerstraat,11,,,4043NW,Opheusden,Neder-Betuwe,Gelderland,VBO,5.634285,51.929313
Acerstraat,13,,,4043NW,Opheusden,Neder-Betuwe,Gelderland,VBO,5.634207,51.929383
Acerstraat,15,,,4043NW,Opheusden,Neder-Betuwe,Gelderland,VBO,5.634208,51.929428
Acerstraat,17,,,4043NW,Opheusden,Neder-Betuwe,Gelderland,VBO,5.634179,51.929572
Acerstraat,19,,,4043NW,Opheusden,Neder-Betuwe,Gelderland,VBO,5.634200,51.929620
Acerstraat,21,,,4043NW,Opheusden,Neder-Betuwe,Gelderland,VBO,5.634185,51.929669
Acerstraat,23,,,4043NW,Opheusden,Neder-Betuwe,Gelderland,VBO,5.634151,51.929707
Acerstraat,25,,,4043NW,Opheusden,Neder-Betuwe,Gelderland,VBO,5.634165,51.929768
Acerstraat,27,,,4043NW,Opheusden,Neder-Betuwe,Gelderland,VBO,5.634137,51.929815
Acerstraat,2,,,4043NX,Opheusden,Neder-Betuwe,Gelderland,VBO,5.635033,51.928833
Acerstraat,4,,,4043NX,Opheusden,Neder-Betuwe,Gelderland,VBO,5.635033,51.928896
Acerstraat,6,,,4043NX,Opheusden,Neder-Betuwe,Gelderland,VBO,5.634976,51.929022
Acerstraat,8,,,4043NX,Opheusden,Neder-Betuwe,Gelderland,VBO,5.634933,51.929085
Acerstraat,10,,,4043NX,Opheusden,Neder-Betuwe,Gelderland,VBO,5.634890,51.929184
Acerstraat,12,,,4043NX,Opheusden,Neder-Betuwe,Gelderland,VBO,5.634861,51.929238
Acerstraat,14,,,4043NX,Opheusden,Neder-Betuwe,Gelderland,VBO,5.634818,51.929337
Acerstraat,16,,,4043NX,Opheusden,Neder-Betuwe,Gelderland,VBO,5.634760,51.929400
Acerstraat,18,,,4043NX,Opheusden,Neder-Betuwe,Gelderland,VBO,5.634731,51.929499
Acerstraat,20,,,4043NX,Opheusden,Neder-Betuwe,Gelderland,VBO,5.634717,51.929544
Acerstraat,22,,,4043NX,Opheusden,Neder-Betuwe,Gelderland,VBO,5.634689,51.929652
Acerstraat,24,,,4043NX,Opheusden,Neder-Betuwe,Gelderland,VBO,5.634674,51.929697
Acerstraat,26,,,4043NX,Opheusden,Neder-Betuwe,Gelderland,VBO,5.634719,51.929895
Jabbok,1,,,4043NZ,Opheusden,Neder-Betuwe,Gelderland,VBO,5.633569,51.930683
Jabbok,2,,,4043NZ,Opheusden,Neder-Betuwe,Gelderland,VBO,5.633204,51.931012
Elzenstraat,1,,,4043PA,Opheusden,Neder-Betuwe,Gelderland,VBO,5.631742,51.927842
Elzenstraat,3,,,4043PA,Opheusden,Neder-Betuwe,Gelderland,VBO,5.631655,51.927861
Elzenstraat,5,,,4043PA,Opheusden,Neder-Betuwe,Gelderland,VBO,5.631567,51.927852
Elzenstraat,7,,,4043PA,Opheusden,Neder-Betuwe,Gelderland,VBO,5.631466,51.927825
Elzenstraat,9,,,4043PA,Opheusden,Neder-Betuwe,Gelderland,VBO,5.631291,51.927852
Elzenstraat,11,,,4043PA,Opheusden,Neder-Betuwe,Gelderland,VBO,5.631204,51.927853
Elzenstraat,13,,,4043PA,Opheusden,Neder-Betuwe,Gelderland,VBO,5.631102,51.927835
Elzenstraat,15,,,4043PA,Opheusden,Neder-Betuwe,Gelderland,VBO,5.630826,51.927898
Elzenstraat,17,,,4043PA,Opheusden,Neder-Betuwe,Gelderland,VBO,5.630783,51.927961
Elzenstraat,19,,,4043PA,Opheusden,Neder-Betuwe,Gelderland,VBO,5.630725,51.928015
Elzenstraat,2,,,4043PB,Opheusden,Neder-Betuwe,Gelderland,VBO,5.631598,51.928175
Elzenstraat,4,,,4043PB,Opheusden,Neder-Betuwe,Gelderland,VBO,5.631482,51.928158
Elzenstraat,6,,,4043PB,Opheusden,Neder-Betuwe,Gelderland,VBO,5.631409,51.928140
Elzenstraat,8,,,4043PB,Opheusden,Neder-Betuwe,Gelderland,VBO,5.631336,51.928131
Elzenstraat,10,,,4043PB,Opheusden,Neder-Betuwe,Gelderland,VBO,5.631235,51.928122
Elzenstraat,12,,,4043PB,Opheusden,Neder-Betuwe,Gelderland,VBO,5.631003,51.928311
Elzenstraat,14,,,4043PB,Opheusden,Neder-Betuwe,Gelderland,VBO,5.630974,51.928365
Elzenstraat,16,,,4043PB,Opheusden,Neder-Betuwe,Gelderland,VBO,5.630989,51.928419
Elzenstraat,18,,,4043PB,Opheusden,Neder-Betuwe,Gelderland,VBO,5.630975,51.928464
Elzenstraat,20,,,4043PB,Opheusden,Neder-Betuwe,Gelderland,VBO,5.630960,51.928509
Elzenstraat,22,,,4043PB,Opheusden,Neder-Betuwe,Gelderland,VBO,5.630976,51.928635
Elzenstraat,24,,,4043PB,Opheusden,Neder-Betuwe,Gelderland,VBO,5.630976,51.928689
Elzenstraat,26,,,4043PB,Opheusden,Neder-Betuwe,Gelderland,VBO,5.630976,51.928743
Elzenstraat,28,,,4043PB,Opheusden,Neder-Betuwe,Gelderland,VBO,5.630962,51.928788
Elzenstraat,30,,,4043PC,Opheusden,Neder-Betuwe,Gelderland,VBO,5.630322,51.928735
Elzenstraat,32,,,4043PC,Opheusden,Neder-Betuwe,Gelderland,VBO,5.630322,51.928690
Elzenstraat,34,,,4043PC,Opheusden,Neder-Betuwe,Gelderland,VBO,5.630336,51.928636
Elzenstraat,36,,,4043PC,Opheusden,Neder-Betuwe,Gelderland,VBO,5.630336,51.928573
Elzenstraat,38,,,4043PC,Opheusden,Neder-Betuwe,Gelderland,VBO,5.630321,51.928502
Elzenstraat,40,,,4043PC,Opheusden,Neder-Betuwe,Gelderland,VBO,5.630581,51.928312
Elzenstraat,42,,,4043PC,Opheusden,Neder-Betuwe,Gelderland,VBO,5.630530,51.928299
Elzenstraat,44,,,4043PC,Opheusden,Neder-Betuwe,Gelderland,VBO,5.630458,51.928265
Elzenstraat,46,,,4043PC,Opheusden,Neder-Betuwe,Gelderland,VBO,5.630386,51.928241
Elzenstraat,48,,,4043PC,Opheusden,Neder-Betuwe,Gelderland,VBO,5.630261,51.928232
Elzenstraat,50,,,4043PC,Opheusden,Neder-Betuwe,Gelderland,VBO,5.630188,51.928214
Berkenstraat,1,,,4043PD,Opheusden,Neder-Betuwe,Gelderland,VBO,5.632015,51.927294
Berkenstraat,3,,,4043PD,Opheusden,Neder-Betuwe,Gelderland,VBO,5.631928,51.927312
Berkenstraat,5,,,4043PD,Opheusden,Neder-Betuwe,Gelderland,VBO,5.631841,51.927294
Berkenstraat,7,,,4043PD,Opheusden,Neder-Betuwe,Gelderland,VBO,5.631753,51.927276
Berkenstraat,9,,,4043PD,Opheusden,Neder-Betuwe,Gelderland,VBO,5.631665,51.927034
Berkenstraat,11,,,4043PD,Opheusden,Neder-Betuwe,Gelderland,VBO,5.631767,51.927024
Berkenstraat,13,,,4043PD,Opheusden,Neder-Betuwe,Gelderland,VBO,5.631912,51.927006
Berkenstraat,15,,,4043PD,Opheusden,Neder-Betuwe,Gelderland,VBO,5.631999,51.926997
Berkenstraat,17,,,4043PD,Opheusden,Neder-Betuwe,Gelderland,VBO,5.632188,51.927051
Berkenstraat,19,,,4043PD,Opheusden,Neder-Betuwe,Gelderland,VBO,5.632261,51.927032
Berkenstraat,21,,,4043PD,Opheusden,Neder-Betuwe,Gelderland,VBO,5.632348,51.927014
Berkenstraat,2,,,4043PE,Opheusden,Neder-Betuwe,Gelderland,VBO,5.631813,51.927582
Berkenstraat,4,,,4043PE,Opheusden,Neder-Betuwe,Gelderland,VBO,5.631740,51.927564
Berkenstraat,6,,,4043PE,Opheusden,Neder-Betuwe,Gelderland,VBO,5.631653,51.927564
Berkenstraat,8,,,4043PE,Opheusden,Neder-Betuwe,Gelderland,VBO,5.631508,51.927555
Berkenstraat,10,,,4043PE,Opheusden,Neder-Betuwe,Gelderland,VBO,5.631435,51.927538
Berkenstraat,12,,,4043PE,Opheusden,Neder-Betuwe,Gelderland,VBO,5.631333,51.927538
Berkenstraat,14,,,4043PE,Opheusden,Neder-Betuwe,Gelderland,VBO,5.631188,51.927538
Berkenstraat,16,,,4043PE,Opheusden,Neder-Betuwe,Gelderland,VBO,5.631086,51.927529
Berkenstraat,18,,,4043PE,Opheusden,Neder-Betuwe,Gelderland,VBO,5.631134,51.927341
Berkenstraat,20,,,4043PE,Opheusden,Neder-Betuwe,Gelderland,VBO,5.631208,51.927328
Berkenstraat,22,,,4043PE,Opheusden,Neder-Betuwe,Gelderland,VBO,5.631165,51.927287
Berkenstraat,24,,,4043PE,Opheusden,Neder-Betuwe,Gelderland,VBO,5.631157,51.927242
Berkenstraat,26,,,4043PE,Opheusden,Neder-Betuwe,Gelderland,VBO,5.631181,51.927184
Berkenstraat,28,,,4043PE,Opheusden,Neder-Betuwe,Gelderland,VBO,5.631152,51.927128
Berkenstraat,30,,,4043PE,Opheusden,Neder-Betuwe,Gelderland,VBO,5.631127,51.927080
Berkenstraat,32,,,4043PE,Opheusden,Neder-Betuwe,Gelderland,VBO,5.631112,51.927044
Hazelaarstraat,1,,,4043PG,Opheusden,Neder-Betuwe,Gelderland,VBO,5.629781,51.928242
Hazelaarstraat,3,,,4043PG,Opheusden,Neder-Betuwe,Gelderland,VBO,5.629810,51.928188
Hazelaarstraat,5,,,4043PG,Opheusden,Neder-Betuwe,Gelderland,VBO,5.629854,51.928143
Hazelaarstraat,7,,,4043PG,Opheusden,Neder-Betuwe,Gelderland,VBO,5.629897,51.928089
Hazelaarstraat,9,,,4043PG,Opheusden,Neder-Betuwe,Gelderland,VBO,5.630288,51.927890
Hazelaarstraat,11,,,4043PG,Opheusden,Neder-Betuwe,Gelderland,VBO,5.630317,51.927845
Hazelaarstraat,13,,,4043PG,Opheusden,Neder-Betuwe,Gelderland,VBO,5.630331,51.927791
Hazelaarstraat,15,,,4043PG,Opheusden,Neder-Betuwe,Gelderland,VBO,5.630404,51.927746
Hazelaarstraat,17,,,4043PG,Opheusden,Neder-Betuwe,Gelderland,VBO,5.630693,51.927377
Hazelaarstraat,19,,,4043PG,Opheusden,Neder-Betuwe,Gelderland,VBO,5.630692,51.927335
Hazelaarstraat,21,,,4043PG,Opheusden,Neder-Betuwe,Gelderland,VBO,5.630692,51.927293
Hazelaarstraat,23,,,4043PG,Opheusden,Neder-Betuwe,Gelderland,VBO,5.630677,51.927248
Hazelaarstraat,25,,,4043PG,Opheusden,Neder-Betuwe,Gelderland,VBO,5.630715,51.927191
Hazelaarstraat,27,,,4043PG,Opheusden,Neder-Betuwe,Gelderland,VBO,5.630695,51.927144
Hazelaarstraat,29,,,4043PG,Opheusden,Neder-Betuwe,Gelderland,VBO,5.630648,51.927100
Hazelaarstraat,31,,,4043PG,Opheusden,Neder-Betuwe,Gelderland,VBO,5.630709,51.927077
Hazelaarstraat,2,,,4043PH,Opheusden,Neder-Betuwe,Gelderland,VBO,5.629388,51.928009
Hazelaarstraat,4,,,4043PH,Opheusden,Neder-Betuwe,Gelderland,VBO,5.629503,51.927892
Hazelaarstraat,6,,,4043PH,Opheusden,Neder-Betuwe,Gelderland,VBO,5.629604,51.927766
Hazelaarstraat,8,,,4043PH,Opheusden,Neder-Betuwe,Gelderland,VBO,5.630083,51.927612
Hazelaarstraat,10,,,4043PH,Opheusden,Neder-Betuwe,Gelderland,VBO,5.630025,51.927612
Hazelaarstraat,12,,,4043PH,Opheusden,Neder-Betuwe,Gelderland,VBO,5.629952,51.927577
Hazelaarstraat,14,,,4043PH,Opheusden,Neder-Betuwe,Gelderland,VBO,5.629807,51.927532
Hazelaarstraat,16,,,4043PH,Opheusden,Neder-Betuwe,Gelderland,VBO,5.629763,51.927523
Hazelaarstraat,18,,,4043PH,Opheusden,Neder-Betuwe,Gelderland,VBO,5.629676,51.927496
Hazelaarstraat,20,,,4043PH,Opheusden,Neder-Betuwe,Gelderland,VBO,5.630242,51.927378
Hazelaarstraat,22,,,4043PH,Opheusden,Neder-Betuwe,Gelderland,VBO,5.630213,51.927360
Hazelaarstraat,24,,,4043PH,Opheusden,Neder-Betuwe,Gelderland,VBO,5.630111,51.927343
Hazelaarstraat,26,,,4043PH,Opheusden,Neder-Betuwe,Gelderland,VBO,5.629965,51.927271
Hazelaarstraat,28,,,4043PH,Opheusden,Neder-Betuwe,Gelderland,VBO,5.629936,51.927253
Hazelaarstraat,30,,,4043PH,Opheusden,Neder-Betuwe,Gelderland,VBO,5.629849,51.927235
Seringenstraat,1,,,4043PJ,Opheusden,Neder-Betuwe,Gelderland,VBO,5.628749,51.928217
Seringenstraat,3,,,4043PJ,Opheusden,Neder-Betuwe,Gelderland,VBO,5.628822,51.928235
Seringenstraat,5,,,4043PJ,Opheusden,Neder-Betuwe,Gelderland,VBO,5.628997,51.928289
Seringenstraat,7,,,4043PJ,Opheusden,Neder-Betuwe,Gelderland,VBO,5.629084,51.928315
Seringenstraat,9,,,4043PJ,Opheusden,Neder-Betuwe,Gelderland,VBO,5.629230,51.928378
Seringenstraat,11,,,4043PJ,Opheusden,Neder-Betuwe,Gelderland,VBO,5.629317,51.928405
Seringenstraat,13,,,4043PJ,Opheusden,Neder-Betuwe,Gelderland,VBO,5.629391,51.928566
Seringenstraat,15,,,4043PJ,Opheusden,Neder-Betuwe,Gelderland,VBO,5.629362,51.928629
Seringenstraat,17,,,4043PJ,Opheusden,Neder-Betuwe,Gelderland,VBO,5.629305,51.928827
Seringenstraat,19,,,4043PJ,Opheusden,Neder-Betuwe,Gelderland,VBO,5.629218,51.928845
Seringenstraat,21,,,4043PJ,Opheusden,Neder-Betuwe,Gelderland,VBO,5.629159,51.928846
Seringenstraat,23,,,4043PJ,Opheusden,Neder-Betuwe,Gelderland,VBO,5.629072,51.928837
Seringenstraat,25,,,4043PJ,Opheusden,Neder-Betuwe,Gelderland,VBO,5.628999,51.928819
Seringenstraat,27,,,4043PJ,Opheusden,Neder-Betuwe,Gelderland,VBO,5.628912,51.928792
Seringenstraat,2,,,4043PK,Opheusden,Neder-Betuwe,Gelderland,VBO,5.628603,51.927809
Seringenstraat,4,,,4043PK,Opheusden,Neder-Betuwe,Gelderland,VBO,5.628855,51.927854
Seringenstraat,6,,,4043PK,Opheusden,Neder-Betuwe,Gelderland,VBO,5.629079,51.927937
Seringenstraat,8,,,4043PK,Opheusden,Neder-Betuwe,Gelderland,VBO,5.629956,51.928359
Seringenstraat,10,,,4043PK,Opheusden,Neder-Betuwe,Gelderland,VBO,5.629928,51.928413
Seringenstraat,12,,,4043PK,Opheusden,Neder-Betuwe,Gelderland,VBO,5.629899,51.928511
Seringenstraat,14,,,4043PK,Opheusden,Neder-Betuwe,Gelderland,VBO,5.629885,51.928556
Seringenstraat,16,,,4043PK,Opheusden,Neder-Betuwe,Gelderland,VBO,5.629856,51.928655
Seringenstraat,18,,,4043PK,Opheusden,Neder-Betuwe,Gelderland,VBO,5.629857,51.928709
Seringenstraat,22,,,4043PK,Opheusden,Neder-Betuwe,Gelderland,VBO,5.629392,51.929138
Seringenstraat,24,,,4043PK,Opheusden,Neder-Betuwe,Gelderland,VBO,5.629302,51.929132
Seringenstraat,26,,,4043PK,Opheusden,Neder-Betuwe,Gelderland,VBO,5.629190,51.929124
Seringenstraat,28,,,4043PK,Opheusden,Neder-Betuwe,Gelderland,VBO,5.629088,51.929115
Seringenstraat,30,,,4043PK,Opheusden,Neder-Betuwe,Gelderland,VBO,5.628986,51.929080
Seringenstraat,32,,,4043PK,Opheusden,Neder-Betuwe,Gelderland,VBO,5.628884,51.929062
Seringenstraat,34,,,4043PK,Opheusden,Neder-Betuwe,Gelderland,VBO,5.628783,51.929062
Clematisstraat,1,,,4043PL,Opheusden,Neder-Betuwe,Gelderland,VBO,5.628213,51.928659
Clematisstraat,2,,,4043PL,Opheusden,Neder-Betuwe,Gelderland,VBO,5.628590,51.928460
Clematisstraat,3,,,4043PL,Opheusden,Neder-Betuwe,Gelderland,VBO,5.628301,51.928677
Clematisstraat,4,,,4043PL,Opheusden,Neder-Betuwe,Gelderland,VBO,5.628692,51.928487
Clematisstraat,5,,,4043PL,Opheusden,Neder-Betuwe,Gelderland,VBO,5.628446,51.928721
Clematisstraat,6,,,4043PL,Opheusden,Neder-Betuwe,Gelderland,VBO,5.628838,51.928532
Clematisstraat,7,,,4043PL,Opheusden,Neder-Betuwe,Gelderland,VBO,5.628548,51.928757
Clematisstraat,8,,,4043PL,Opheusden,Neder-Betuwe,Gelderland,VBO,5.628940,51.928567
Clematisstraat,9,,,4043PL,Opheusden,Neder-Betuwe,Gelderland,VBO,5.628389,51.928910
Clematisstraat,11,,,4043PL,Opheusden,Neder-Betuwe,Gelderland,VBO,5.628360,51.928955
Clematisstraat,13,,,4043PL,Opheusden,Neder-Betuwe,Gelderland,VBO,5.628303,51.929054
Clematisstraat,15,,,4043PL,Opheusden,Neder-Betuwe,Gelderland,VBO,5.628274,51.929090
Clematisstraat,17,,,4043PL,Opheusden,Neder-Betuwe,Gelderland,VBO,5.628202,51.929189
Clematisstraat,19,,,4043PL,Opheusden,Neder-Betuwe,Gelderland,VBO,5.628173,51.929225
Maringaerde,1,,,4043RA,Opheusden,Neder-Betuwe,Gelderland,VBO,5.633849,51.933529
Maringaerde,2,,,4043RA,Opheusden,Neder-Betuwe,Gelderland,VBO,5.633800,51.933560
Maringaerde,3,,,4043RA,Opheusden,Neder-Betuwe,Gelderland,VBO,5.633948,51.933519
Maringaerde,4,,,4043RA,Opheusden,Neder-Betuwe,Gelderland,VBO,5.633863,51.933493
Maringaerde,5,,,4043RA,Opheusden,Neder-Betuwe,Gelderland,VBO,5.633780,51.933605
Maringaerde,6,,,4043RA,Opheusden,Neder-Betuwe,Gelderland,VBO,5.633857,51.933602
Maringaerde,7,,,4043RA,Opheusden,Neder-Betuwe,Gelderland,VBO,5.633888,51.933546
Maringaerde,8,,,4043RA,Opheusden,Neder-Betuwe,Gelderland,VBO,5.633907,51.933610
Maringaerde,9,,,4043RA,Opheusden,Neder-Betuwe,Gelderland,VBO,5.633854,51.933572
Maringaerde,10,,,4043RA,Opheusden,Neder-Betuwe,Gelderland,VBO,5.633927,51.933548
