openbareruimtenaam,huisnummer,huisletter,huisnummertoevoeging,postcode,woonplaatsnaam,gemeentenaam,provincienaam,typeadresseerbaarobject,longitude,latitude
Burgemeester Nahonstraat,1,,,6255AA,Noorbeek,Eijsden-Margraten,Limburg,VBO,5.807485,50.769224
Burgemeester Nahonstraat,3,,,6255AA,Noorbeek,Eijsden-Margraten,Limburg,VBO,5.807552,50.769258
Burgemeester Nahonstraat,5,,,6255AA,Noorbeek,Eijsden-Margraten,Limburg,VBO,5.807729,50.769279
Burgemeester Nahonstraat,7,,,6255AA,Noorbeek,Eijsden-Margraten,Limburg,VBO,5.807802,50.769319
Burgemeester Nahonstraat,9,,,6255AA,Noorbeek,Eijsden-Margraten,Limburg,VBO,5.808013,50.769341
Burgemeester Nahonstraat,11,,,6255AA,Noorbeek,Eijsden-Margraten,Limburg,VBO,5.808155,50.769412
Burgemeester Nahonstraat,13,,,6255AA,Noorbeek,Eijsden-Margraten,Limburg,VBO,5.808485,50.769571
Martelehöfke,1,,,6255AB,Noorbeek,Eijsden-Margraten,Limburg,VBO,5.807236,50.769189
Kempestraat,1,,,6255AC,Noorbeek,Eijsden-Margraten,Limburg,VBO,5.807924,50.768892
Kempestraat,2,A,,6255AC,Noorbeek,Eijsden-Margraten,Limburg,VBO,5.807460,50.769049
Kempestraat,2,B,,6255AC,Noorbeek,Eijsden-Margraten,Limburg,VBO,5.807461,50.769065
Kempestraat,2,C,,6255AC,Noorbeek,Eijsden-Margraten,Limburg,VBO,5.807445,50.769084
Kempestraat,2,D,,6255AC,Noorbeek,Eijsden-Margraten,Limburg,VBO,5.807216,50.768972
Kempestraat,2,E,,6255AC,Noorbeek,Eijsden-Margraten,Limburg,VBO,5.807213,50.768996
Kempestraat,2,F,,6255AC,Noorbeek,Eijsden-Margraten,Limburg,VBO,5.807226,50.769021
Kempestraat,2,G,,6255AC,Noorbeek,Eijsden-Margraten,Limburg,VBO,5.807406,50.769081
Kempestraat,2,,,6255AC,Noorbeek,Eijsden-Margraten,Limburg,VBO,5.807136,50.768810
Kempestraat,3,,,6255AC,Noorbeek,Eijsden-Margraten,Limburg,VBO,5.807979,50.768766
Kempestraat,4,,,6255AC,Noorbeek,Eijsden-Margraten,Limburg,VBO,5.807593,50.768844
Kempestraat,5,,,6255AC,Noorbeek,Eijsden-Margraten,Limburg,VBO,5.808078,50.768666
Kempestraat,6,,,6255AC,Noorbeek,Eijsden-Margraten,Limburg,VBO,5.807568,50.768695
Kempestraat,7,,,6255AC,Noorbeek,Eijsden-Margraten,Limburg,VBO,5.808190,50.768531
Kempestraat,8,,,6255AC,Noorbeek,Eijsden-Margraten,Limburg,VBO,5.807921,50.768532
Kempestraat,10,,,6255AC,Noorbeek,Eijsden-Margraten,Limburg,VBO,5.808035,50.768363
Kempestraat,11,,,6255AC,Noorbeek,Eijsden-Margraten,Limburg,VBO,5.808428,50.768297
Kempestraat,12,,,6255AC,Noorbeek,Eijsden-Margraten,Limburg,VBO,5.807970,50.768345
Boyeweg,1,A,,6255AD,Noorbeek,Eijsden-Margraten,Limburg,VBO,5.809084,50.767731
Boyeweg,1,,,6255AD,Noorbeek,Eijsden-Margraten,Limburg,VBO,5.808864,50.767872
Boyeweg,2,A,,6255AD,Noorbeek,Eijsden-Margraten,Limburg,VBO,5.808552,50.767793
Boyeweg,2,B,,6255AD,Noorbeek,Eijsden-Margraten,Limburg,VBO,5.808423,50.767890
Boyeweg,2,,,6255AD,Noorbeek,Eijsden-Margraten,Limburg,VBO,5.808789,50.767405
Boyeweg,3,,,6255AD,Noorbeek,Eijsden-Margraten,Limburg,VBO,5.809271,50.767413
Boyeweg,4,,,6255AD,Noorbeek,Eijsden-Margraten,Limburg,VBO,5.808758,50.767118
Klompestraat,1,A,,6255AE,Noorbeek,Eijsden-Margraten,Limburg,VBO,5.808877,50.769456
Klompestraat,1,B,,6255AE,Noorbeek,Eijsden-Margraten,Limburg,VBO,5.808918,50.769482
Klompestraat,1,C,,6255AE,Noorbeek,Eijsden-Margraten,Limburg,VBO,5.808813,50.769446
Klompestraat,1,D,,6255AE,Noorbeek,Eijsden-Margraten,Limburg,VBO,5.808836,50.769428
Klompestraat,1,E,,6255AE,Noorbeek,Eijsden-Margraten,Limburg,VBO,5.808925,50.769501
Klompestraat,1,F,,6255AE,Noorbeek,Eijsden-Margraten,Limburg,VBO,5.808765,50.769410
Klompestraat,2,,,6255AE,Noorbeek,Eijsden-Margraten,Limburg,VBO,5.808565,50.769276
Klompestraat,3,,,6255AE,Noorbeek,Eijsden-Margraten,Limburg,VBO,5.808835,50.769302
Klompestraat,5,,,6255AE,Noorbeek,Eijsden-Margraten,Limburg,VBO,5.808888,50.769258
Klompestraat,6,,,6255AE,Noorbeek,Eijsden-Margraten,Limburg,VBO,5.808861,50.769050
Klompestraat,7,,,6255AE,Noorbeek,Eijsden-Margraten,Limburg,VBO,5.808961,50.769166
Klompestraat,8,,,6255AE,Noorbeek,Eijsden-Margraten,Limburg,VBO,5.808891,50.768924
Klompestraat,9,,,6255AE,Noorbeek,Eijsden-Margraten,Limburg,VBO,5.809158,50.768950
Klompestraat,10,,,6255AE,Noorbeek,Eijsden-Margraten,Limburg,VBO,5.809044,50.768879
Pley,1,A,,6255AG,Noorbeek,Eijsden-Margraten,Limburg,VBO,5.809665,50.768769
Pley,1,,,6255AG,Noorbeek,Eijsden-Margraten,Limburg,VBO,5.809453,50.768724
Pley,2,,,6255AG,Noorbeek,Eijsden-Margraten,Limburg,VBO,5.809747,50.768796
Pley,3,A,,6255AG,Noorbeek,Eijsden-Margraten,Limburg,VBO,5.810049,50.768859
Pley,3,,,6255AG,Noorbeek,Eijsden-Margraten,Limburg,VBO,5.810033,50.768878
Pley,4,,,6255AG,Noorbeek,Eijsden-Margraten,Limburg,VBO,5.810232,50.768616
Pley,5,,,6255AG,Noorbeek,Eijsden-Margraten,Limburg,VBO,5.810116,50.768534
Pley,6,,,6255AG,Noorbeek,Eijsden-Margraten,Limburg,VBO,5.810105,50.768555
Pley,7,A,,6255AG,Noorbeek,Eijsden-Margraten,Limburg,VBO,5.809534,50.768409
Pley,7,,,6255AG,Noorbeek,Eijsden-Margraten,Limburg,VBO,5.809677,50.768445
Pley,8,,,6255AG,Noorbeek,Eijsden-Margraten,Limburg,VBO,5.809085,50.768652
Pley,9,,,6255AG,Noorbeek,Eijsden-Margraten,Limburg,VBO,5.809381,50.768620
Paviljoenstraat,1,,,6255AH,Noorbeek,Eijsden-Margraten,Limburg,VBO,5.810382,50.768011
Paviljoenstraat,2,,,6255AH,Noorbeek,Eijsden-Margraten,Limburg,VBO,5.810912,50.767124
Paviljoenstraat,3,,,6255AH,Noorbeek,Eijsden-Margraten,Limburg,VBO,5.810593,50.767839
Paviljoenstraat,4,,,6255AH,Noorbeek,Eijsden-Margraten,Limburg,VBO,5.810802,50.767272
Paviljoenstraat,5,,,6255AH,Noorbeek,Eijsden-Margraten,Limburg,VBO,5.810650,50.767794
Paviljoenstraat,7,,,6255AH,Noorbeek,Eijsden-Margraten,Limburg,VBO,5.810734,50.767704
Paviljoenstraat,9,,,6255AH,Noorbeek,Eijsden-Margraten,Limburg,VBO,5.810776,50.767659
Paviljoenstraat,11,,,6255AH,Noorbeek,Eijsden-Margraten,Limburg,VBO,5.810860,50.767577
Paviljoenstraat,13,,,6255AH,Noorbeek,Eijsden-Margraten,Limburg,VBO,5.810917,50.767532
Paviljoenstraat,15,,,6255AH,Noorbeek,Eijsden-Margraten,Limburg,VBO,5.811001,50.767451
Paviljoenstraat,17,,,6255AH,Noorbeek,Eijsden-Margraten,Limburg,VBO,5.811043,50.767397
Klein Heugdeweg,2,,,6255AJ,Noorbeek,Eijsden-Margraten,Limburg,VBO,5.811092,50.766961
Klein Heugdeweg,4,A,,6255AJ,Noorbeek,Eijsden-Margraten,Limburg,VBO,5.812280,50.765976
Klein Heugdeweg,4,,,6255AJ,Noorbeek,Eijsden-Margraten,Limburg,VBO,5.811953,50.766282
Klein Heugdeweg,6,,,6255AJ,Noorbeek,Eijsden-Margraten,Limburg,VBO,5.813672,50.764693
Schoolstraat,1,,,6255AK,Noorbeek,Eijsden-Margraten,Limburg,VBO,5.811411,50.767369
Schoolstraat,2,,,6255AK,Noorbeek,Eijsden-Margraten,Limburg,VBO,5.811508,50.767117
Schoolstraat,3,,,6255AK,Noorbeek,Eijsden-Margraten,Limburg,VBO,5.811454,50.767405
Schoolstraat,4,,,6255AK,Noorbeek,Eijsden-Margraten,Limburg,VBO,5.811593,50.767152
Schoolstraat,5,,,6255AK,Noorbeek,Eijsden-Margraten,Limburg,VBO,5.811639,50.767458
Schoolstraat,6,,,6255AK,Noorbeek,Eijsden-Margraten,Limburg,VBO,5.811722,50.767215
Schoolstraat,8,,,6255AK,Noorbeek,Eijsden-Margraten,Limburg,VBO,5.811793,50.767250
Schoolstraat,9,,,6255AK,Noorbeek,Eijsden-Margraten,Limburg,VBO,5.812151,50.767681
Schoolstraat,10,,,6255AK,Noorbeek,Eijsden-Margraten,Limburg,VBO,5.811921,50.767322
Schoolstraat,11,,,6255AK,Noorbeek,Eijsden-Margraten,Limburg,VBO,5.812307,50.767743
Schoolstraat,12,,,6255AK,Noorbeek,Eijsden-Margraten,Limburg,VBO,5.811992,50.767358
Schoolstraat,13,,,6255AK,Noorbeek,Eijsden-Margraten,Limburg,VBO,5.812393,50.767779
Schoolstraat,14,,,6255AK,Noorbeek,Eijsden-Margraten,Limburg,VBO,5.812689,50.767643
Schoolstraat,15,,,6255AK,Noorbeek,Eijsden-Margraten,Limburg,VBO,5.812535,50.767832
Schoolstraat,16,,,6255AK,Noorbeek,Eijsden-Margraten,Limburg,VBO,5.812917,50.767714
Schoolstraat,17,,,6255AK,Noorbeek,Eijsden-Margraten,Limburg,VBO,5.812635,50.767868
Schoolstraat,18,,,6255AK,Noorbeek,Eijsden-Margraten,Limburg,VBO,5.813187,50.767821
Vroelenstraat,2,,,6255AL,Noorbeek,Eijsden-Margraten,Limburg,VBO,5.813325,50.769350
Vroelenstraat,3,A,,6255AL,Noorbeek,Eijsden-Margraten,Limburg,VBO,5.813839,50.769373
Vroelenstraat,3,,,6255AL,Noorbeek,Eijsden-Margraten,Limburg,VBO,5.813669,50.769320
Vroelenstraat,4,,,6255AL,Noorbeek,Eijsden-Margraten,Limburg,VBO,5.813694,50.769059
Vroelenstraat,5,,,6255AL,Noorbeek,Eijsden-Margraten,Limburg,VBO,5.813880,50.769157
Vroelenstraat,6,A,,6255AL,Noorbeek,Eijsden-Margraten,Limburg,VBO,5.813891,50.768870
Vroelenstraat,6,,,6255AL,Noorbeek,Eijsden-Margraten,Limburg,VBO,5.813751,50.768996
Vroelenstraat,7,,,6255AL,Noorbeek,Eijsden-Margraten,Limburg,VBO,5.814091,50.769031
Vroelenstraat,8,,,6255AL,Noorbeek,Eijsden-Margraten,Limburg,VBO,5.814088,50.768743
Vroelenstraat,9,,,6255AL,Noorbeek,Eijsden-Margraten,Limburg,VBO,5.814712,50.768714
Vroelenstraat,10,,,6255AL,Noorbeek,Eijsden-Margraten,Limburg,VBO,5.814399,50.768634
Vroelenstraat,11,,,6255AL,Noorbeek,Eijsden-Margraten,Limburg,VBO,5.815235,50.768532
Vroelenstraat,13,A,,6255AL,Noorbeek,Eijsden-Margraten,Limburg,VBO,5.815829,50.768449
Vroelenstraat,13,,,6255AL,Noorbeek,Eijsden-Margraten,Limburg,VBO,5.815589,50.768495
Vroelenstraat,14,A,,6255AL,Noorbeek,Eijsden-Margraten,Limburg,VBO,5.814526,50.768517
Vroelenstraat,14,B,,6255AL,Noorbeek,Eijsden-Margraten,Limburg,VBO,5.814426,50.768454
Vroelenstraat,14,,,6255AL,Noorbeek,Eijsden-Margraten,Limburg,VBO,5.814512,50.768580
Vroelenstraat,15,,,6255AL,Noorbeek,Eijsden-Margraten,Limburg,VBO,5.816084,50.768421
Vroelenstraat,16,,,6255AL,Noorbeek,Eijsden-Margraten,Limburg,VBO,5.814709,50.768408
Vroelenstraat,18,A,,6255AL,Noorbeek,Eijsden-Margraten,Limburg,VBO,5.817152,50.767645
Vroelenstraat,18,B,,6255AL,Noorbeek,Eijsden-Margraten,Limburg,VBO,5.817163,50.767662
Vroelenstraat,18,C,,6255AL,Noorbeek,Eijsden-Margraten,Limburg,VBO,5.817103,50.767745
Vroelenstraat,18,D,,6255AL,Noorbeek,Eijsden-Margraten,Limburg,VBO,5.817175,50.767680
Vroelenstraat,18,E,,6255AL,Noorbeek,Eijsden-Margraten,Limburg,VBO,5.817173,50.767696
Vroelenstraat,18,F,,6255AL,Noorbeek,Eijsden-Margraten,Limburg,VBO,5.817180,50.767716
Vroelenstraat,18,G,,6255AL,Noorbeek,Eijsden-Margraten,Limburg,VBO,5.817080,50.767761
Vroelenstraat,18,H,,6255AL,Noorbeek,Eijsden-Margraten,Limburg,VBO,5.817032,50.767776
Vroelenstraat,18,J,,6255AL,Noorbeek,Eijsden-Margraten,Limburg,VBO,5.817135,50.767731
Vroelenstraat,18,K,,6255AL,Noorbeek,Eijsden-Margraten,Limburg,VBO,5.816404,50.767484
Vroelenstraat,18,L,,6255AL,Noorbeek,Eijsden-Margraten,Limburg,VBO,5.816021,50.767329
Vroelenstraat,18,M,,6255AL,Noorbeek,Eijsden-Margraten,Limburg,VBO,5.816440,50.767243
Vroelenstraat,18,N,,6255AL,Noorbeek,Eijsden-Margraten,Limburg,VBO,5.816849,50.767526
Vroelenstraat,18,P,,6255AL,Noorbeek,Eijsden-Margraten,Limburg,VBO,5.817320,50.767086
Vroelenstraat,18,R,,6255AL,Noorbeek,Eijsden-Margraten,Limburg,VBO,5.817050,50.767100
Vroelenstraat,18,S,,6255AL,Noorbeek,Eijsden-Margraten,Limburg,VBO,5.816808,50.767320
Vroelenstraat,18,T,,6255AL,Noorbeek,Eijsden-Margraten,Limburg,VBO,5.816154,50.767179
Vroelenstraat,18,U,,6255AL,Noorbeek,Eijsden-Margraten,Limburg,VBO,5.816457,50.767065
Vroelenstraat,18,V,,6255AL,Noorbeek,Eijsden-Margraten,Limburg,VBO,5.816730,50.767114
Vroelenstraat,18,W,,6255AL,Noorbeek,Eijsden-Margraten,Limburg,VBO,5.817506,50.767002
Vroelenstraat,18,X,,6255AL,Noorbeek,Eijsden-Margraten,Limburg,VBO,5.817086,50.767363
Vroelenstraat,18,,,6255AL,Noorbeek,Eijsden-Margraten,Limburg,VBO,5.816906,50.767832
Vroelenstraat,20,,,6255AL,Noorbeek,Eijsden-Margraten,Limburg,VBO,5.817663,50.767516
Vroelenstraat,22,,,6255AL,Noorbeek,Eijsden-Margraten,Limburg,VBO,5.817734,50.767489
Dorpstraat,1,,,6255AM,Noorbeek,Eijsden-Margraten,Limburg,VBO,5.810263,50.768804
Dorpstraat,3,,,6255AM,Noorbeek,Eijsden-Margraten,Limburg,VBO,5.810351,50.768861
Dorpstraat,5,,,6255AM,Noorbeek,Eijsden-Margraten,Limburg,VBO,5.810660,50.768962
Dorpstraat,7,,,6255AM,Noorbeek,Eijsden-Margraten,Limburg,VBO,5.810930,50.768962
Dorpstraat,9,,,6255AM,Noorbeek,Eijsden-Margraten,Limburg,VBO,5.811115,50.769051
Dorpstraat,11,,,6255AM,Noorbeek,Eijsden-Margraten,Limburg,VBO,5.811356,50.769131
Dorpstraat,15,,,6255AM,Noorbeek,Eijsden-Margraten,Limburg,VBO,5.811640,50.769193
Dorpstraat,17,A,,6255AM,Noorbeek,Eijsden-Margraten,Limburg,VBO,5.811937,50.769283
Dorpstraat,17,B,,6255AM,Noorbeek,Eijsden-Margraten,Limburg,VBO,5.811916,50.769242
Dorpstraat,17,C,,6255AM,Noorbeek,Eijsden-Margraten,Limburg,VBO,5.811914,50.769224
Dorpstraat,17,D,,6255AM,Noorbeek,Eijsden-Margraten,Limburg,VBO,5.811918,50.769336
Dorpstraat,17,E,,6255AM,Noorbeek,Eijsden-Margraten,Limburg,VBO,5.811937,50.769301
Dorpstraat,17,F,,6255AM,Noorbeek,Eijsden-Margraten,Limburg,VBO,5.811916,50.769263
Dorpstraat,19,,,6255AM,Noorbeek,Eijsden-Margraten,Limburg,VBO,5.812138,50.769317
Dorpstraat,21,,,6255AM,Noorbeek,Eijsden-Margraten,Limburg,VBO,5.812157,50.769358
Dorpstraat,25,A,,6255AM,Noorbeek,Eijsden-Margraten,Limburg,VBO,5.812192,50.769456
Dorpstraat,25,,,6255AM,Noorbeek,Eijsden-Margraten,Limburg,VBO,5.812294,50.769343
Dorpstraat,27,,,6255AM,Noorbeek,Eijsden-Margraten,Limburg,VBO,5.812525,50.769424
Dorpstraat,29,A,,6255AM,Noorbeek,Eijsden-Margraten,Limburg,VBO,5.812638,50.769519
Dorpstraat,29,,,6255AM,Noorbeek,Eijsden-Margraten,Limburg,VBO,5.812678,50.769481
Dorpstraat,31,,,6255AM,Noorbeek,Eijsden-Margraten,Limburg,VBO,5.812862,50.769530
Dorpstraat,35,,,6255AM,Noorbeek,Eijsden-Margraten,Limburg,VBO,5.812976,50.769592
Dorpstraat,37,,,6255AM,Noorbeek,Eijsden-Margraten,Limburg,VBO,5.813076,50.769628
Dorpstraat,2,,,6255AN,Noorbeek,Eijsden-Margraten,Limburg,VBO,5.810360,50.768574
Dorpstraat,4,,,6255AN,Noorbeek,Eijsden-Margraten,Limburg,VBO,5.810509,50.768692
Dorpstraat,6,,,6255AN,Noorbeek,Eijsden-Margraten,Limburg,VBO,5.810587,50.768750
Dorpstraat,8,,,6255AN,Noorbeek,Eijsden-Margraten,Limburg,VBO,5.810707,50.768547
Dorpstraat,10,,,6255AN,Noorbeek,Eijsden-Margraten,Limburg,VBO,5.811095,50.768817
Dorpstraat,12,,,6255AN,Noorbeek,Eijsden-Margraten,Limburg,VBO,5.811297,50.768879
Dorpstraat,14,,,6255AN,Noorbeek,Eijsden-Margraten,Limburg,VBO,5.811426,50.768951
Dorpstraat,16,,,6255AN,Noorbeek,Eijsden-Margraten,Limburg,VBO,5.811568,50.768977
Dorpstraat,18,,,6255AN,Noorbeek,Eijsden-Margraten,Limburg,VBO,5.811667,50.768995
Dorpstraat,20,,,6255AN,Noorbeek,Eijsden-Margraten,Limburg,VBO,5.811766,50.769021
Dorpstraat,22,,,6255AN,Noorbeek,Eijsden-Margraten,Limburg,VBO,5.812022,50.769083
Dorpstraat,24,,,6255AN,Noorbeek,Eijsden-Margraten,Limburg,VBO,5.812448,50.769118
Dorpstraat,28,,,6255AN,Noorbeek,Eijsden-Margraten,Limburg,VBO,5.812616,50.769240
Dorpstraat,30,,,6255AN,Noorbeek,Eijsden-Margraten,Limburg,VBO,5.812790,50.769332
Dorpstraat,32,,,6255AN,Noorbeek,Eijsden-Margraten,Limburg,VBO,5.812960,50.769368
Dorpstraat,34,,,6255AN,Noorbeek,Eijsden-Margraten,Limburg,VBO,5.813088,50.769412
Dorpstraat,36,,,6255AN,Noorbeek,Eijsden-Margraten,Limburg,VBO,5.813216,50.769447
Sint Maartensweg,1,A,,6255AP,Noorbeek,Eijsden-Margraten,Limburg,VBO,5.812974,50.769154
Sint Maartensweg,1,B,,6255AP,Noorbeek,Eijsden-Margraten,Limburg,VBO,5.813025,50.769063
Sint Maartensweg,1,C,,6255AP,Noorbeek,Eijsden-Margraten,Limburg,VBO,5.813087,50.768995
Sint Maartensweg,1,D,,6255AP,Noorbeek,Eijsden-Margraten,Limburg,VBO,5.812616,50.768937
Sint Maartensweg,1,E,,6255AP,Noorbeek,Eijsden-Margraten,Limburg,VBO,5.812728,50.768820
Sint Maartensweg,1,,,6255AP,Noorbeek,Eijsden-Margraten,Limburg,VBO,5.812906,50.769194
Sint Maartensweg,2,A,,6255AP,Noorbeek,Eijsden-Margraten,Limburg,VBO,5.812261,50.768979
Sint Maartensweg,2,,,6255AP,Noorbeek,Eijsden-Margraten,Limburg,VBO,5.812626,50.768497
Sint Maartensweg,3,,,6255AP,Noorbeek,Eijsden-Margraten,Limburg,VBO,5.812897,50.768685
Sint Maartensweg,4,,,6255AP,Noorbeek,Eijsden-Margraten,Limburg,VBO,5.812752,50.768344
Sint Maartensweg,5,,,6255AP,Noorbeek,Eijsden-Margraten,Limburg,VBO,5.813065,50.768450
Sint Maartensweg,6,,,6255AP,Noorbeek,Eijsden-Margraten,Limburg,VBO,5.812851,50.768226
Sint Maartensweg,7,,,6255AP,Noorbeek,Eijsden-Margraten,Limburg,VBO,5.813219,50.768225
Sint Maartensweg,8,,,6255AP,Noorbeek,Eijsden-Margraten,Limburg,VBO,5.812906,50.768136
Sint Maartensweg,9,,,6255AP,Noorbeek,Eijsden-Margraten,Limburg,VBO,5.813429,50.767946
Sint Maartensweg,10,A,,6255AP,Noorbeek,Eijsden-Margraten,Limburg,VBO,5.813327,50.767667
Sint Maartensweg,10,,,6255AP,Noorbeek,Eijsden-Margraten,Limburg,VBO,5.812991,50.768037
Sint Maartensweg,12,,,6255AP,Noorbeek,Eijsden-Margraten,Limburg,VBO,5.813412,50.767595
Sint Maartensweg,14,,,6255AP,Noorbeek,Eijsden-Margraten,Limburg,VBO,5.813468,50.767541
Sint Maartensweg,16,,,6255AP,Noorbeek,Eijsden-Margraten,Limburg,VBO,5.813580,50.767442
Sint Maartensweg,18,,,6255AP,Noorbeek,Eijsden-Margraten,Limburg,VBO,5.813637,50.767396
Sint Maartensweg,20,,,6255AP,Noorbeek,Eijsden-Margraten,Limburg,VBO,5.813777,50.767270
Sint Maartensweg,22,,,6255AP,Noorbeek,Eijsden-Margraten,Limburg,VBO,5.814003,50.767170
Sint Maartensweg,24,,,6255AP,Noorbeek,Eijsden-Margraten,Limburg,VBO,5.814172,50.767071
Sint Maartensweg,26,A,,6255AP,Noorbeek,Eijsden-Margraten,Limburg,VBO,5.814270,50.766927
Sint Maartensweg,26,,,6255AP,Noorbeek,Eijsden-Margraten,Limburg,VBO,5.814271,50.767008
Sint Maartensweg,28,,,6255AP,Noorbeek,Eijsden-Margraten,Limburg,VBO,5.814412,50.766935
Sint Maartensweg,30,,,6255AP,Noorbeek,Eijsden-Margraten,Limburg,VBO,5.814511,50.766881
Rubdelstraat,1,,,6255AR,Noorbeek,Eijsden-Margraten,Limburg,VBO,5.814489,50.769191
Rubdelstraat,2,,,6255AR,Noorbeek,Eijsden-Margraten,Limburg,VBO,5.814430,50.768886
Rubdelstraat,3,,,6255AR,Noorbeek,Eijsden-Margraten,Limburg,VBO,5.814589,50.769236
Rubdelstraat,4,,,6255AR,Noorbeek,Eijsden-Margraten,Limburg,VBO,5.814743,50.769019
Rubdelstraat,5,,,6255AR,Noorbeek,Eijsden-Margraten,Limburg,VBO,5.814717,50.769307
Rubdelstraat,6,,,6255AR,Noorbeek,Eijsden-Margraten,Limburg,VBO,5.814956,50.769081
Rubdelstraat,7,,,6255AR,Noorbeek,Eijsden-Margraten,Limburg,VBO,5.814817,50.769343
Rubdelstraat,8,,,6255AR,Noorbeek,Eijsden-Margraten,Limburg,VBO,5.815042,50.769117
Rubdelstraat,9,,,6255AR,Noorbeek,Eijsden-Margraten,Limburg,VBO,5.814945,50.769405
Rubdelstraat,10,,,6255AR,Noorbeek,Eijsden-Margraten,Limburg,VBO,5.815184,50.769206
Rubdelstraat,11,,,6255AR,Noorbeek,Eijsden-Margraten,Limburg,VBO,5.815030,50.769441
Rubdelstraat,12,,,6255AR,Noorbeek,Eijsden-Margraten,Limburg,VBO,5.815270,50.769242
Rubdelstraat,13,,,6255AR,Noorbeek,Eijsden-Margraten,Limburg,VBO,5.815173,50.769494
Rubdelstraat,14,,,6255AR,Noorbeek,Eijsden-Margraten,Limburg,VBO,5.815454,50.769304
Rubdelstraat,15,,,6255AR,Noorbeek,Eijsden-Margraten,Limburg,VBO,5.815258,50.769539
Rubdelstraat,16,,,6255AR,Noorbeek,Eijsden-Margraten,Limburg,VBO,5.815540,50.769349
Rubdelstraat,17,,,6255AR,Noorbeek,Eijsden-Margraten,Limburg,VBO,5.815457,50.769637
Rubdelstraat,19,,,6255AR,Noorbeek,Eijsden-Margraten,Limburg,VBO,5.815543,50.769673
Rubdelstraat,21,,,6255AR,Noorbeek,Eijsden-Margraten,Limburg,VBO,5.815699,50.769744
Rubdelstraat,23,,,6255AR,Noorbeek,Eijsden-Margraten,Limburg,VBO,5.815771,50.769780
Rubdelstraat,25,,,6255AR,Noorbeek,Eijsden-Margraten,Limburg,VBO,5.815913,50.769851
Rubdelstraat,27,,,6255AR,Noorbeek,Eijsden-Margraten,Limburg,VBO,5.815998,50.769887
Rubdelstraat,29,,,6255AR,Noorbeek,Eijsden-Margraten,Limburg,VBO,5.816155,50.769958
Rubgaard,1,,,6255AS,Noorbeek,Eijsden-Margraten,Limburg,VBO,5.816415,50.769772
Rubgaard,2,,,6255AS,Noorbeek,Eijsden-Margraten,Limburg,VBO,5.816493,50.769696
Rubgaard,3,,,6255AS,Noorbeek,Eijsden-Margraten,Limburg,VBO,5.816747,50.769569
Rubgaard,4,,,6255AS,Noorbeek,Eijsden-Margraten,Limburg,VBO,5.816676,50.769534
Rubgaard,5,,,6255AS,Noorbeek,Eijsden-Margraten,Limburg,VBO,5.816576,50.769489
Rubgaard,6,,,6255AS,Noorbeek,Eijsden-Margraten,Limburg,VBO,5.816319,50.769337
Rubgaard,7,,,6255AS,Noorbeek,Eijsden-Margraten,Limburg,VBO,5.816390,50.769274
Rubgaard,8,,,6255AS,Noorbeek,Eijsden-Margraten,Limburg,VBO,5.816232,50.769122
Rubgaard,9,,,6255AS,Noorbeek,Eijsden-Margraten,Limburg,VBO,5.816133,50.769077
Rubgaard,10,,,6255AS,Noorbeek,Eijsden-Margraten,Limburg,VBO,5.815851,50.769312
Rubgaard,11,,,6255AS,Noorbeek,Eijsden-Margraten,Limburg,VBO,5.815937,50.769357
Rubgaard,12,,,6255AS,Noorbeek,Eijsden-Margraten,Limburg,VBO,5.815910,50.769554
Rubgaard,13,,,6255AS,Noorbeek,Eijsden-Margraten,Limburg,VBO,5.816003,50.769589
Rubgaard,14,,,6255AS,Noorbeek,Eijsden-Margraten,Limburg,VBO,5.816103,50.769635
Rubgaard,15,,,6255AS,Noorbeek,Eijsden-Margraten,Limburg,VBO,5.816181,50.769688
Bovenstraat,3,,,6255AT,Noorbeek,Eijsden-Margraten,Limburg,VBO,5.813418,50.769779
Bovenstraat,5,,,6255AT,Noorbeek,Eijsden-Margraten,Limburg,VBO,5.813503,50.769815
Bovenstraat,7,,,6255AT,Noorbeek,Eijsden-Margraten,Limburg,VBO,5.813730,50.769841
Bovenstraat,9,A,,6255AT,Noorbeek,Eijsden-Margraten,Limburg,VBO,5.813805,50.769903
Bovenstraat,9,,,6255AT,Noorbeek,Eijsden-Margraten,Limburg,VBO,5.813869,50.769865
Bovenstraat,11,A,,6255AT,Noorbeek,Eijsden-Margraten,Limburg,VBO,5.813986,50.769935
Bovenstraat,11,B,,6255AT,Noorbeek,Eijsden-Margraten,Limburg,VBO,5.814021,50.769913
Bovenstraat,11,C,,6255AT,Noorbeek,Eijsden-Margraten,Limburg,VBO,5.814028,50.769894
Bovenstraat,11,D,,6255AT,Noorbeek,Eijsden-Margraten,Limburg,VBO,5.813914,50.770010
Bovenstraat,11,E,,6255AT,Noorbeek,Eijsden-Margraten,Limburg,VBO,5.813873,50.770083
Bovenstraat,11,F,,6255AT,Noorbeek,Eijsden-Margraten,Limburg,VBO,5.813877,50.770039
Bovenstraat,11,G,,6255AT,Noorbeek,Eijsden-Margraten,Limburg,VBO,5.813913,50.769961
Bovenstraat,13,,,6255AT,Noorbeek,Eijsden-Margraten,Limburg,VBO,5.814074,50.770147
Bovenstraat,15,,,6255AT,Noorbeek,Eijsden-Margraten,Limburg,VBO,5.814426,50.770009
Bovenstraat,17,,,6255AT,Noorbeek,Eijsden-Margraten,Limburg,VBO,5.814554,50.770063
Bovenstraat,21,,,6255AT,Noorbeek,Eijsden-Margraten,Limburg,VBO,5.815329,50.770482
Bovenstraat,25,,,6255AT,Noorbeek,Eijsden-Margraten,Limburg,VBO,5.815750,50.770670
Bovenstraat,2,,,6255AV,Noorbeek,Eijsden-Margraten,Limburg,VBO,5.813444,50.769581
Bovenstraat,4,,,6255AV,Noorbeek,Eijsden-Margraten,Limburg,VBO,5.813827,50.769643
Bovenstraat,6,A,,6255AV,Noorbeek,Eijsden-Margraten,Limburg,VBO,5.814304,50.769752
Bovenstraat,6,,,6255AV,Noorbeek,Eijsden-Margraten,Limburg,VBO,5.814026,50.769660
Bovenstraat,8,,,6255AV,Noorbeek,Eijsden-Margraten,Limburg,VBO,5.814325,50.769803
Bovenstraat,10,,,6255AV,Noorbeek,Eijsden-Margraten,Limburg,VBO,5.814425,50.769839
Bovenstraat,12,,,6255AV,Noorbeek,Eijsden-Margraten,Limburg,VBO,5.814623,50.769865
Bovenstraat,14,,,6255AV,Noorbeek,Eijsden-Margraten,Limburg,VBO,5.814865,50.769954
Bovenstraat,16,,,6255AV,Noorbeek,Eijsden-Margraten,Limburg,VBO,5.815107,50.770061
Bovenstraat,18,,,6255AV,Noorbeek,Eijsden-Margraten,Limburg,VBO,5.815335,50.770159
Bovenstraat,20,,,6255AV,Noorbeek,Eijsden-Margraten,Limburg,VBO,5.815647,50.770256
Bovenstraat,26,,,6255AV,Noorbeek,Eijsden-Margraten,Limburg,VBO,5.815862,50.770417
Bovenstraat,28,,,6255AV,Noorbeek,Eijsden-Margraten,Limburg,VBO,5.816246,50.770569
Bovenstraat,30,,,6255AV,Noorbeek,Eijsden-Margraten,Limburg,VBO,5.816417,50.770712
Bovenstraat,32,,,6255AV,Noorbeek,Eijsden-Margraten,Limburg,VBO,5.816546,50.770801
Bovenstraat,34,A,,6255AV,Noorbeek,Eijsden-Margraten,Limburg,VBO,5.816755,50.770992
Bovenstraat,34,,,6255AV,Noorbeek,Eijsden-Margraten,Limburg,VBO,5.816646,50.770900
Bovenstraat,36,,,6255AV,Noorbeek,Eijsden-Margraten,Limburg,VBO,5.816846,50.771133
Brigidastraat,2,,,6255AW,Noorbeek,Eijsden-Margraten,Limburg,VBO,5.816214,50.770209
Brigidastraat,3,,,6255AW,Noorbeek,Eijsden-Margraten,Limburg,VBO,5.816583,50.770262
Brigidastraat,4,,,6255AW,Noorbeek,Eijsden-Margraten,Limburg,VBO,5.816341,50.770092
Brigidastraat,5,,,6255AW,Noorbeek,Eijsden-Margraten,Limburg,VBO,5.816880,50.770135
Brigidastraat,6,,,6255AW,Noorbeek,Eijsden-Margraten,Limburg,VBO,5.817439,50.769270
Brigidastraat,7,,,6255AW,Noorbeek,Eijsden-Margraten,Limburg,VBO,5.817181,50.769924
Brigidastraat,8,,,6255AW,Noorbeek,Eijsden-Margraten,Limburg,VBO,5.817692,50.769053
Brigidastraat,9,,,6255AW,Noorbeek,Eijsden-Margraten,Limburg,VBO,5.817386,50.769765
Brigidastraat,10,,,6255AW,Noorbeek,Eijsden-Margraten,Limburg,VBO,5.817606,50.768991
Brigidastraat,11,,,6255AW,Noorbeek,Eijsden-Margraten,Limburg,VBO,5.817569,50.769620
Brigidastraat,12,,,6255AW,Noorbeek,Eijsden-Margraten,Limburg,VBO,5.817464,50.768928
Brigidastraat,13,,,6255AW,Noorbeek,Eijsden-Margraten,Limburg,VBO,5.817696,50.769530
Brigidastraat,14,,,6255AW,Noorbeek,Eijsden-Margraten,Limburg,VBO,5.817435,50.768848
Brigidastraat,15,,,6255AW,Noorbeek,Eijsden-Margraten,Limburg,VBO,5.818111,50.768701
Brigidastraat,16,,,6255AW,Noorbeek,Eijsden-Margraten,Limburg,VBO,5.817278,50.768785
Brigidastraat,17,,,6255AW,Noorbeek,Eijsden-Margraten,Limburg,VBO,5.818094,50.768950
Brigidastraat,18,,,6255AW,Noorbeek,Eijsden-Margraten,Limburg,VBO,5.817235,50.768713
Brigidastraat,20,,,6255AW,Noorbeek,Eijsden-Margraten,Limburg,VBO,5.817093,50.768642
Brigidastraat,22,,,6255AW,Noorbeek,Eijsden-Margraten,Limburg,VBO,5.817049,50.768570
Brigidastraat,24,,,6255AW,Noorbeek,Eijsden-Margraten,Limburg,VBO,5.816949,50.768472
Kleineweg,1,,,6255AX,Noorbeek,Eijsden-Margraten,Limburg,VBO,5.816791,50.768275
Kleineweg,2,A,,6255AX,Noorbeek,Eijsden-Margraten,Limburg,VBO,5.816498,50.768743
Kleineweg,2,,,6255AX,Noorbeek,Eijsden-Margraten,Limburg,VBO,5.816791,50.768504
Kleineweg,3,,,6255AX,Noorbeek,Eijsden-Margraten,Limburg,VBO,5.816650,50.768347
Kleineweg,4,,,6255AX,Noorbeek,Eijsden-Margraten,Limburg,VBO,5.816598,50.768797
Kleineweg,5,,,6255AX,Noorbeek,Eijsden-Margraten,Limburg,VBO,5.816495,50.768420
Kleineweg,6,,,6255AX,Noorbeek,Eijsden-Margraten,Limburg,VBO,5.816669,50.768868
Kleineweg,7,,,6255AX,Noorbeek,Eijsden-Margraten,Limburg,VBO,5.816228,50.768663
Kleineweg,8,,,6255AX,Noorbeek,Eijsden-Margraten,Limburg,VBO,5.816726,50.768913
Kleineweg,9,,,6255AX,Noorbeek,Eijsden-Margraten,Limburg,VBO,5.816173,50.768807
Kleineweg,10,,,6255AX,Noorbeek,Eijsden-Margraten,Limburg,VBO,5.816770,50.768994
Kleineweg,11,,,6255AX,Noorbeek,Eijsden-Margraten,Limburg,VBO,5.816363,50.769019
Kleineweg,12,,,6255AX,Noorbeek,Eijsden-Margraten,Limburg,VBO,5.816799,50.769039
Kleineweg,14,,,6255AX,Noorbeek,Eijsden-Margraten,Limburg,VBO,5.816927,50.769092
Kleineweg,16,,,6255AX,Noorbeek,Eijsden-Margraten,Limburg,VBO,5.816998,50.769110
Kleineweg,18,,,6255AX,Noorbeek,Eijsden-Margraten,Limburg,VBO,5.817133,50.769156
Kleineweg,20,,,6255AX,Noorbeek,Eijsden-Margraten,Limburg,VBO,5.817183,50.769190
Kleineweg,21,,,6255AX,Noorbeek,Eijsden-Margraten,Limburg,VBO,5.816615,50.769147
Kleineweg,23,,,6255AX,Noorbeek,Eijsden-Margraten,Limburg,VBO,5.816687,50.769192
Kleineweg,25,,,6255AX,Noorbeek,Eijsden-Margraten,Limburg,VBO,5.816829,50.769281
Kleineweg,27,,,6255AX,Noorbeek,Eijsden-Margraten,Limburg,VBO,5.816917,50.769321
Kleineweg,29,,,6255AX,Noorbeek,Eijsden-Margraten,Limburg,VBO,5.817001,50.769357
Kleineweg,31,,,6255AX,Noorbeek,Eijsden-Margraten,Limburg,VBO,5.817101,50.769434
Kleineweg,33,,,6255AX,Noorbeek,Eijsden-Margraten,Limburg,VBO,5.817123,50.769424
Schimmelliggerweg,1,,,6255AZ,Noorbeek,Eijsden-Margraten,Limburg,VBO,5.817923,50.768008
12e Septemberlaan,1,,,6255BA,Noorbeek,Eijsden-Margraten,Limburg,VBO,5.813626,50.767792
12e Septemberlaan,2,,,6255BA,Noorbeek,Eijsden-Margraten,Limburg,VBO,5.814260,50.767412
12e Septemberlaan,3,,,6255BA,Noorbeek,Eijsden-Margraten,Limburg,VBO,5.813923,50.767701
12e Septemberlaan,5,,,6255BA,Noorbeek,Eijsden-Margraten,Limburg,VBO,5.815353,50.767819
12e Septemberlaan,7,,,6255BA,Noorbeek,Eijsden-Margraten,Limburg,VBO,5.815555,50.767866
12e Septemberlaan,9,,,6255BA,Noorbeek,Eijsden-Margraten,Limburg,VBO,5.815683,50.767946
12e Septemberlaan,11,,,6255BA,Noorbeek,Eijsden-Margraten,Limburg,VBO,5.815811,50.768054
12e Septemberlaan,13,,,6255BA,Noorbeek,Eijsden-Margraten,Limburg,VBO,5.815926,50.768143
12e Septemberlaan,14,,,6255BA,Noorbeek,Eijsden-Margraten,Limburg,VBO,5.815822,50.767667
12e Septemberlaan,16,,,6255BA,Noorbeek,Eijsden-Margraten,Limburg,VBO,5.816065,50.767855
Adrianus van Duynstraat,1,,,6255BB,Noorbeek,Eijsden-Margraten,Limburg,VBO,5.815261,50.768361
Adrianus van Duynstraat,2,,,6255BB,Noorbeek,Eijsden-Margraten,Limburg,VBO,5.814522,50.768121
Adrianus van Duynstraat,3,,,6255BB,Noorbeek,Eijsden-Margraten,Limburg,VBO,5.815190,50.768299
Adrianus van Duynstraat,4,,,6255BB,Noorbeek,Eijsden-Margraten,Limburg,VBO,5.814394,50.768059
Adrianus van Duynstraat,5,,,6255BB,Noorbeek,Eijsden-Margraten,Limburg,VBO,5.815135,50.768215
Adrianus van Duynstraat,6,,,6255BB,Noorbeek,Eijsden-Margraten,Limburg,VBO,5.814336,50.767951
Adrianus van Duynstraat,7,,,6255BB,Noorbeek,Eijsden-Margraten,Limburg,VBO,5.815046,50.768141
Adrianus van Duynstraat,8,,,6255BB,Noorbeek,Eijsden-Margraten,Limburg,VBO,5.814364,50.767870
Adrianus van Duynstraat,9,,,6255BB,Noorbeek,Eijsden-Margraten,Limburg,VBO,5.814875,50.768003
Adrianus van Duynstraat,10,,,6255BB,Noorbeek,Eijsden-Margraten,Limburg,VBO,5.814377,50.767789
Adrianus van Duynstraat,11,,,6255BB,Noorbeek,Eijsden-Margraten,Limburg,VBO,5.814903,50.767913
Adrianus van Duynstraat,12,,,6255BB,Noorbeek,Eijsden-Margraten,Limburg,VBO,5.814391,50.767699
Adrianus van Duynstraat,13,,,6255BB,Noorbeek,Eijsden-Margraten,Limburg,VBO,5.814916,50.767832
Adrianus van Duynstraat,15,,,6255BB,Noorbeek,Eijsden-Margraten,Limburg,VBO,5.814944,50.767742
Ulvend,1,A,,6255NA,Noorbeek,Eijsden-Margraten,Limburg,VBO,5.829938,50.758639
Ulvend,1,B,,6255NA,Noorbeek,Eijsden-Margraten,Limburg,VBO,5.830070,50.758803
Ulvend,1,C,,6255NA,Noorbeek,Eijsden-Margraten,Limburg,VBO,5.829786,50.759002
Ulvend,1,D,,6255NA,Noorbeek,Eijsden-Margraten,Limburg,VBO,5.830155,50.759045
Ulvend,1,E,,6255NA,Noorbeek,Eijsden-Margraten,Limburg,VBO,5.829098,50.758816
Ulvend,1,,,6255NA,Noorbeek,Eijsden-Margraten,Limburg,VBO,5.830137,50.758642
Ulvend,3,,,6255NA,Noorbeek,Eijsden-Margraten,Limburg,VBO,5.831175,50.759034
Vroelen,23,,,6255NC,Noorbeek,Eijsden-Margraten,Limburg,VBO,5.819268,50.766333
Vroelen,24,A,,6255NC,Noorbeek,Eijsden-Margraten,Limburg,VBO,5.819848,50.766205
Vroelen,24,B,,6255NC,Noorbeek,Eijsden-Margraten,Limburg,VBO,5.819891,50.766250
Vroelen,24,,,6255NC,Noorbeek,Eijsden-Margraten,Limburg,VBO,5.819819,50.766169
Vroelen,25,A,,6255NC,Noorbeek,Eijsden-Margraten,Limburg,VBO,5.819686,50.765545
Vroelen,25,B,,6255NC,Noorbeek,Eijsden-Margraten,Limburg,VBO,5.819675,50.765533
Vroelen,25,C,,6255NC,Noorbeek,Eijsden-Margraten,Limburg,VBO,5.819671,50.765518
Vroelen,25,D,,6255NC,Noorbeek,Eijsden-Margraten,Limburg,VBO,5.819669,50.765503
Vroelen,25,E,,6255NC,Noorbeek,Eijsden-Margraten,Limburg,VBO,5.819670,50.765489
Vroelen,25,,,6255NC,Noorbeek,Eijsden-Margraten,Limburg,VBO,5.819912,50.765458
Vroelen,26,,,6255NC,Noorbeek,Eijsden-Margraten,Limburg,VBO,5.819896,50.765383
Vroelen,27,A,,6255NC,Noorbeek,Eijsden-Margraten,Limburg,VBO,5.820693,50.764898
Vroelen,27,,,6255NC,Noorbeek,Eijsden-Margraten,Limburg,VBO,5.819931,50.765170
Vroelen,28,,,6255NC,Noorbeek,Eijsden-Margraten,Limburg,VBO,5.821293,50.764563
Vroelen,29,A,,6255NC,Noorbeek,Eijsden-Margraten,Limburg,VBO,5.823034,50.764684
Vroelen,29,,,6255NC,Noorbeek,Eijsden-Margraten,Limburg,VBO,5.823091,50.764395
Vroelen,30,A,,6255NC,Noorbeek,Eijsden-Margraten,Limburg,VBO,5.823392,50.764572
Vroelen,30,,,6255NC,Noorbeek,Eijsden-Margraten,Limburg,VBO,5.823354,50.764342
Vroelen,31,A,,6255NC,Noorbeek,Eijsden-Margraten,Limburg,VBO,5.819159,50.764615
Vroelen,31,,,6255NC,Noorbeek,Eijsden-Margraten,Limburg,VBO,5.819181,50.764643
Vroelen,32,A,,6255NC,Noorbeek,Eijsden-Margraten,Limburg,VBO,5.818681,50.764689
Vroelen,32,,,6255NC,Noorbeek,Eijsden-Margraten,Limburg,VBO,5.818961,50.764743
Vroelen,33,,,6255NC,Noorbeek,Eijsden-Margraten,Limburg,VBO,5.818673,50.764807
Vroelen,34,,,6255NC,Noorbeek,Eijsden-Margraten,Limburg,VBO,5.818602,50.764789
Vroelen,35,A,,6255NC,Noorbeek,Eijsden-Margraten,Limburg,VBO,5.817485,50.763377
Vroelen,35,B,,6255NC,Noorbeek,Eijsden-Margraten,Limburg,VBO,5.817542,50.763405
Vroelen,36,,,6255NC,Noorbeek,Eijsden-Margraten,Limburg,VBO,5.817760,50.763653
Vroelen,38,,,6255NC,Noorbeek,Eijsden-Margraten,Limburg,VBO,5.817865,50.763246
Vroelen,40,A,,6255NC,Noorbeek,Eijsden-Margraten,Limburg,VBO,5.817892,50.763102
Vroelen,40,B,,6255NC,Noorbeek,Eijsden-Margraten,Limburg,VBO,5.817807,50.763091
Vroelen,40,C,,6255NC,Noorbeek,Eijsden-Margraten,Limburg,VBO,5.817673,50.763082
Vroelen,40,,,6255NC,Noorbeek,Eijsden-Margraten,Limburg,VBO,5.817878,50.763129
Onderstraat,1,A,,6255ND,Noorbeek,Eijsden-Margraten,Limburg,VBO,5.808001,50.767974
Onderstraat,1,B,,6255ND,Noorbeek,Eijsden-Margraten,Limburg,VBO,5.807991,50.768230
Onderstraat,1,,,6255ND,Noorbeek,Eijsden-Margraten,Limburg,VBO,5.808024,50.768182
Onderstraat,2,,,6255ND,Noorbeek,Eijsden-Margraten,Limburg,VBO,5.808156,50.767902
Onderstraat,3,,,6255ND,Noorbeek,Eijsden-Margraten,Limburg,VBO,5.808328,50.768108
Onderstraat,4,,,6255ND,Noorbeek,Eijsden-Margraten,Limburg,VBO,5.808355,50.767982
Onderstraat,5,,,6255ND,Noorbeek,Eijsden-Margraten,Limburg,VBO,5.808413,50.768144
Onderstraat,6,A,,6255ND,Noorbeek,Eijsden-Margraten,Limburg,VBO,5.808640,50.768107
Onderstraat,6,,,6255ND,Noorbeek,Eijsden-Margraten,Limburg,VBO,5.808682,50.768134
Onderstraat,7,,,6255ND,Noorbeek,Eijsden-Margraten,Limburg,VBO,5.808556,50.768251
Onderstraat,8,,,6255ND,Noorbeek,Eijsden-Margraten,Limburg,VBO,5.808810,50.768178
Onderstraat,9,,,6255ND,Noorbeek,Eijsden-Margraten,Limburg,VBO,5.808641,50.768305
Onderstraat,10,,,6255ND,Noorbeek,Eijsden-Margraten,Limburg,VBO,5.808924,50.768241
Onderstraat,11,A,,6255ND,Noorbeek,Eijsden-Margraten,Limburg,VBO,5.808743,50.768538
Onderstraat,11,,,6255ND,Noorbeek,Eijsden-Margraten,Limburg,VBO,5.808869,50.768385
Onderstraat,12,,,6255ND,Noorbeek,Eijsden-Margraten,Limburg,VBO,5.809422,50.768383
Stashaag,1,,,6255NE,Noorbeek,Eijsden-Margraten,Limburg,VBO,5.796982,50.770768
Mheerelindje,2,A,,6255NG,Noorbeek,Eijsden-Margraten,Limburg,VBO,5.802412,50.772930
Mheerelindje,2,,,6255NG,Noorbeek,Eijsden-Margraten,Limburg,VBO,5.802516,50.773145
Mheerelindje,4,,,6255NG,Noorbeek,Eijsden-Margraten,Limburg,VBO,5.802536,50.773047
Mheerelindje,6,A,,6255NG,Noorbeek,Eijsden-Margraten,Limburg,VBO,5.803013,50.772246
Mheerelindje,8,A,,6255NG,Noorbeek,Eijsden-Margraten,Limburg,VBO,5.803213,50.772160
Mheerelindje,8,,,6255NG,Noorbeek,Eijsden-Margraten,Limburg,VBO,5.802934,50.772053
Wesch,1,,,6255NH,Noorbeek,Eijsden-Margraten,Limburg,VBO,5.806973,50.771272
Wesch,2,,,6255NH,Noorbeek,Eijsden-Margraten,Limburg,VBO,5.806294,50.771281
Wesch,3,A,,6255NH,Noorbeek,Eijsden-Margraten,Limburg,VBO,5.807299,50.771248
Wesch,3,,,6255NH,Noorbeek,Eijsden-Margraten,Limburg,VBO,5.807218,50.771328
Wesch,4,,,6255NH,Noorbeek,Eijsden-Margraten,Limburg,VBO,5.806555,50.771142
Wesch,5,,,6255NH,Noorbeek,Eijsden-Margraten,Limburg,VBO,5.807861,50.771337
Wesch,6,,,6255NH,Noorbeek,Eijsden-Margraten,Limburg,VBO,5.807967,50.770518
Wesch,7,,,6255NH,Noorbeek,Eijsden-Margraten,Limburg,VBO,5.807984,50.771487
Wesch,8,,,6255NH,Noorbeek,Eijsden-Margraten,Limburg,VBO,5.808249,50.770338
Wesch,9,,,6255NH,Noorbeek,Eijsden-Margraten,Limburg,VBO,5.807789,50.771824
Wesch,10,,,6255NH,Noorbeek,Eijsden-Margraten,Limburg,VBO,5.808294,50.770189
Wesch,11,,,6255NH,Noorbeek,Eijsden-Margraten,Limburg,VBO,5.808328,50.771236
Wesch,12,,,6255NH,Noorbeek,Eijsden-Margraten,Limburg,VBO,5.808444,50.770004
Wesch,13,A,,6255NH,Noorbeek,Eijsden-Margraten,Limburg,VBO,5.808589,50.770986
Wesch,13,B,,6255NH,Noorbeek,Eijsden-Margraten,Limburg,VBO,5.808918,50.770421
Wesch,14,,,6255NH,Noorbeek,Eijsden-Margraten,Limburg,VBO,5.808422,50.769814
Wesch,15,,,6255NH,Noorbeek,Eijsden-Margraten,Limburg,VBO,5.808988,50.770210
Wesch,17,,,6255NH,Noorbeek,Eijsden-Margraten,Limburg,VBO,5.809152,50.769930
Wesch,19,,,6255NH,Noorbeek,Eijsden-Margraten,Limburg,VBO,5.809065,50.769723
Bergenhuizen,1,,,6255NJ,Noorbeek,Eijsden-Margraten,Limburg,VBO,5.809762,50.773110
Bergenhuizen,3,,,6255NJ,Noorbeek,Eijsden-Margraten,Limburg,VBO,5.810075,50.773216
Bergenhuizen,5,,,6255NJ,Noorbeek,Eijsden-Margraten,Limburg,VBO,5.810276,50.773379
Bergenhuizen,7,,,6255NJ,Noorbeek,Eijsden-Margraten,Limburg,VBO,5.810474,50.773611
Bergenhuizen,9,,,6255NJ,Noorbeek,Eijsden-Margraten,Limburg,VBO,5.810761,50.773789
Bergenhuizen,13,A,,6255NJ,Noorbeek,Eijsden-Margraten,Limburg,VBO,5.811109,50.774224
Bergenhuizen,13,B,,6255NJ,Noorbeek,Eijsden-Margraten,Limburg,VBO,5.811063,50.774163
Bergenhuizen,13,C,,6255NJ,Noorbeek,Eijsden-Margraten,Limburg,VBO,5.811077,50.774250
Bergenhuizen,13,D,,6255NJ,Noorbeek,Eijsden-Margraten,Limburg,VBO,5.811105,50.774201
Bergenhuizen,13,E,,6255NJ,Noorbeek,Eijsden-Margraten,Limburg,VBO,5.811091,50.774273
Bergenhuizen,13,F,,6255NJ,Noorbeek,Eijsden-Margraten,Limburg,VBO,5.810993,50.774310
Bergenhuizen,13,,,6255NJ,Noorbeek,Eijsden-Margraten,Limburg,VBO,5.811085,50.774138
Bergenhuizen,15,,,6255NJ,Noorbeek,Eijsden-Margraten,Limburg,VBO,5.810632,50.774199
Bergenhuizen,17,,,6255NJ,Noorbeek,Eijsden-Margraten,Limburg,VBO,5.810882,50.774607
Bergenhuizen,19,A,,6255NJ,Noorbeek,Eijsden-Margraten,Limburg,VBO,5.811999,50.774637
Bergenhuizen,19,B,,6255NJ,Noorbeek,Eijsden-Margraten,Limburg,VBO,5.812108,50.774650
Bergenhuizen,19,C,,6255NJ,Noorbeek,Eijsden-Margraten,Limburg,VBO,5.811939,50.774803
Bergenhuizen,19,,,6255NJ,Noorbeek,Eijsden-Margraten,Limburg,VBO,5.812142,50.774707
Bergenhuizen,21,,,6255NJ,Noorbeek,Eijsden-Margraten,Limburg,VBO,5.812501,50.774686
Bergenhuizen,23,A,,6255NJ,Noorbeek,Eijsden-Margraten,Limburg,VBO,5.813568,50.775142
Bergenhuizen,23,B,,6255NJ,Noorbeek,Eijsden-Margraten,Limburg,VBO,5.813666,50.775017
Bergenhuizen,23,C,,6255NJ,Noorbeek,Eijsden-Margraten,Limburg,VBO,5.813037,50.774978
Bergenhuizen,23,,,6255NJ,Noorbeek,Eijsden-Margraten,Limburg,VBO,5.813138,50.774859
Bergenhuizen,25,,,6255NJ,Noorbeek,Eijsden-Margraten,Limburg,VBO,5.813564,50.774947
Bergenhuizen,27,B,,6255NJ,Noorbeek,Eijsden-Margraten,Limburg,VBO,5.815386,50.775510
Bergenhuizen,27,,,6255NJ,Noorbeek,Eijsden-Margraten,Limburg,VBO,5.814530,50.775178
Bergenhuizen,29,,,6255NJ,Noorbeek,Eijsden-Margraten,Limburg,VBO,5.815484,50.775543
Bergenhuizen,2,,,6255NK,Noorbeek,Eijsden-Margraten,Limburg,VBO,5.810500,50.773197
Bergenhuizen,4,,,6255NK,Noorbeek,Eijsden-Margraten,Limburg,VBO,5.811015,50.773617
Bergenhuizen,6,,,6255NK,Noorbeek,Eijsden-Margraten,Limburg,VBO,5.812341,50.774520
Bergenhuizen,8,,,6255NK,Noorbeek,Eijsden-Margraten,Limburg,VBO,5.812610,50.774411
Bergenhuizen,10,,,6255NK,Noorbeek,Eijsden-Margraten,Limburg,VBO,5.812682,50.774550
Bergenhuizen,12,,,6255NK,Noorbeek,Eijsden-Margraten,Limburg,VBO,5.812959,50.774599
Bergenhuizen,14,A,,6255NK,Noorbeek,Eijsden-Margraten,Limburg,VBO,5.814066,50.774905
Bergenhuizen,14,,,6255NK,Noorbeek,Eijsden-Margraten,Limburg,VBO,5.813222,50.774733
Bergenhuizen,16,,,6255NK,Noorbeek,Eijsden-Margraten,Limburg,VBO,5.814289,50.774992
Bergenhuizen,18,A,,6255NK,Noorbeek,Eijsden-Margraten,Limburg,VBO,5.814450,50.775024
Bergenhuizen,18,,,6255NK,Noorbeek,Eijsden-Margraten,Limburg,VBO,5.814598,50.775041
Bergenhuizen,20,,,6255NK,Noorbeek,Eijsden-Margraten,Limburg,VBO,5.815069,50.775176
Bergenhuizen,22,,,6255NK,Noorbeek,Eijsden-Margraten,Limburg,VBO,5.815429,50.775273
Schey,1,,,6255NL,Noorbeek,Eijsden-Margraten,Limburg,VBO,5.823649,50.772510
Schey,2,,,6255NL,Noorbeek,Eijsden-Margraten,Limburg,VBO,5.824808,50.772192
Schey,3,,,6255NL,Noorbeek,Eijsden-Margraten,Limburg,VBO,5.823691,50.772420
Schey,4,A,,6255NL,Noorbeek,Eijsden-Margraten,Limburg,VBO,5.824978,50.772091
Schey,4,B,,6255NL,Noorbeek,Eijsden-Margraten,Limburg,VBO,5.825020,50.772073
Schey,4,C,,6255NL,Noorbeek,Eijsden-Margraten,Limburg,VBO,5.825062,50.772046
Schey,4,,,6255NL,Noorbeek,Eijsden-Margraten,Limburg,VBO,5.824960,50.772117
Schey,5,,,6255NL,Noorbeek,Eijsden-Margraten,Limburg,VBO,5.823804,50.772401
Schey,6,,,6255NL,Noorbeek,Eijsden-Margraten,Limburg,VBO,5.826251,50.771799
Schey,7,,,6255NL,Noorbeek,Eijsden-Margraten,Limburg,VBO,5.823932,50.772392
Schey,8,,,6255NL,Noorbeek,Eijsden-Margraten,Limburg,VBO,5.829642,50.770626
Schey,9,A,,6255NL,Noorbeek,Eijsden-Margraten,Limburg,VBO,5.824368,50.772475
Schey,9,B,,6255NL,Noorbeek,Eijsden-Margraten,Limburg,VBO,5.824353,50.772502
Schey,9,C,,6255NL,Noorbeek,Eijsden-Margraten,Limburg,VBO,5.824570,50.772443
Schey,9,,,6255NL,Noorbeek,Eijsden-Margraten,Limburg,VBO,5.824385,50.772399
Schey,10,,,6255NL,Noorbeek,Eijsden-Margraten,Limburg,VBO,5.829867,50.770437
Schey,11,,,6255NL,Noorbeek,Eijsden-Margraten,Limburg,VBO,5.825516,50.772049
Schey,12,A,,6255NL,Noorbeek,Eijsden-Margraten,Limburg,VBO,5.832394,50.768172
Schey,12,,,6255NL,Noorbeek,Eijsden-Margraten,Limburg,VBO,5.832580,50.768228
Schey,13,,,6255NL,Noorbeek,Eijsden-Margraten,Limburg,VBO,5.826809,50.771944
Schey,15,,,6255NL,Noorbeek,Eijsden-Margraten,Limburg,VBO,5.826827,50.771961
Schey,17,,,6255NL,Noorbeek,Eijsden-Margraten,Limburg,VBO,5.827090,50.771918
Schey,19,,,6255NL,Noorbeek,Eijsden-Margraten,Limburg,VBO,5.826811,50.771986
Schey,21,,,6255NL,Noorbeek,Eijsden-Margraten,Limburg,VBO,5.826820,50.772012
Schey,23,,,6255NL,Noorbeek,Eijsden-Margraten,Limburg,VBO,5.826809,50.772033
Schey,25,,,6255NL,Noorbeek,Eijsden-Margraten,Limburg,VBO,5.826757,50.772047
Schey,27,,,6255NL,Noorbeek,Eijsden-Margraten,Limburg,VBO,5.827091,50.771940
Schey,29,,,6255NL,Noorbeek,Eijsden-Margraten,Limburg,VBO,5.827095,50.771967
Schey,31,,,6255NL,Noorbeek,Eijsden-Margraten,Limburg,VBO,5.827080,50.771988
Onderschey,1,A,,6255NM,Noorbeek,Eijsden-Margraten,Limburg,VBO,5.824314,50.774564
Onderschey,1,,,6255NM,Noorbeek,Eijsden-Margraten,Limburg,VBO,5.824446,50.774367
Onderschey,3,,,6255NM,Noorbeek,Eijsden-Margraten,Limburg,VBO,5.824674,50.774438
Terlinden,2,,,6255NN,Noorbeek,Eijsden-Margraten,Limburg,VBO,5.829203,50.787082
Terlinden,3,,,6255NN,Noorbeek,Eijsden-Margraten,Limburg,VBO,5.830515,50.786385
Terlinden,5,,,6255NN,Noorbeek,Eijsden-Margraten,Limburg,VBO,5.831387,50.785685
Terlinden,6,,,6255NN,Noorbeek,Eijsden-Margraten,Limburg,VBO,5.829480,50.786900
Terlinden,7,,,6255NN,Noorbeek,Eijsden-Margraten,Limburg,VBO,5.832078,50.785069
Terlinden,8,,,6255NN,Noorbeek,Eijsden-Margraten,Limburg,VBO,5.829513,50.786842
Terlinden,9,,,6255NN,Noorbeek,Eijsden-Margraten,Limburg,VBO,5.832363,50.784875
Terlinden,10,,,6255NN,Noorbeek,Eijsden-Margraten,Limburg,VBO,5.829587,50.786762
Terlinden,11,,,6255NN,Noorbeek,Eijsden-Margraten,Limburg,VBO,5.834194,50.783137
Terlinden,12,,,6255NN,Noorbeek,Eijsden-Margraten,Limburg,VBO,5.829690,50.786641
Terlinden,13,,,6255NN,Noorbeek,Eijsden-Margraten,Limburg,VBO,5.834110,50.783064
Terlinden,14,,,6255NN,Noorbeek,Eijsden-Margraten,Limburg,VBO,5.829877,50.786426
Terlinden,16,A,,6255NP,Noorbeek,Eijsden-Margraten,Limburg,VBO,5.829991,50.786319
Terlinden,16,,,6255NP,Noorbeek,Eijsden-Margraten,Limburg,VBO,5.829934,50.786387
Terlinden,18,,,6255NP,Noorbeek,Eijsden-Margraten,Limburg,VBO,5.830103,50.786274
Terlinden,20,,,6255NP,Noorbeek,Eijsden-Margraten,Limburg,VBO,5.830173,50.786211
Terlinden,22,,,6255NP,Noorbeek,Eijsden-Margraten,Limburg,VBO,5.830391,50.786046
Terlinden,24,,,6255NP,Noorbeek,Eijsden-Margraten,Limburg,VBO,5.830529,50.785972
Terlinden,26,,,6255NP,Noorbeek,Eijsden-Margraten,Limburg,VBO,5.830691,50.785889
Terlinden,32,,,6255NP,Noorbeek,Eijsden-Margraten,Limburg,VBO,5.832788,50.783900
Terlinden,34,A,,6255NP,Noorbeek,Eijsden-Margraten,Limburg,VBO,5.833827,50.782817
Terlinden,34,,,6255NP,Noorbeek,Eijsden-Margraten,Limburg,VBO,5.833154,50.783548
Terlinden,36,,,6255NP,Noorbeek,Eijsden-Margraten,Limburg,VBO,5.834066,50.782841
Terlinden,38,,,6255NP,Noorbeek,Eijsden-Margraten,Limburg,VBO,5.834124,50.782771
Terlinden,40,,,6255NP,Noorbeek,Eijsden-Margraten,Limburg,VBO,5.834181,50.782708
Schilberg,15,A,,6255NR,Noorbeek,Eijsden-Margraten,Limburg,VBO,5.842379,50.771485
Schilberg,15,,,6255NR,Noorbeek,Eijsden-Margraten,Limburg,VBO,5.842456,50.771364
Schilberg,17,A,,6255NR,Noorbeek,Eijsden-Margraten,Limburg,VBO,5.843178,50.770592
Schilberg,17,B,,6255NR,Noorbeek,Eijsden-Margraten,Limburg,VBO,5.843381,50.770354
Schilberg,17,C,,6255NR,Noorbeek,Eijsden-Margraten,Limburg,VBO,5.843376,50.770318
Schilberg,17,,,6255NR,Noorbeek,Eijsden-Margraten,Limburg,VBO,5.843132,50.770530
Schilberg,19,,,6255NR,Noorbeek,Eijsden-Margraten,Limburg,VBO,5.844532,50.766982
Schilberg,22,,,6255NR,Noorbeek,Eijsden-Margraten,Limburg,VBO,5.842923,50.769127
Schilberg,24,,,6255NR,Noorbeek,Eijsden-Margraten,Limburg,VBO,5.843090,50.768830
Schilberg,26,,,6255NR,Noorbeek,Eijsden-Margraten,Limburg,VBO,5.844080,50.767091
Schilberg,28,A,,6255NR,Noorbeek,Eijsden-Margraten,Limburg,VBO,5.844119,50.766973
Schilberg,28,,,6255NR,Noorbeek,Eijsden-Margraten,Limburg,VBO,5.844105,50.767022
Schilberg,30,,,6255NR,Noorbeek,Eijsden-Margraten,Limburg,VBO,5.844203,50.766695
Schilberg,32,,,6255NR,Noorbeek,Eijsden-Margraten,Limburg,VBO,5.844217,50.766641
Schilberg,34,,,6255NR,Noorbeek,Eijsden-Margraten,Limburg,VBO,5.844649,50.765867
Schilberg,36,,,6255NR,Noorbeek,Eijsden-Margraten,Limburg,VBO,5.844773,50.765488
Schilberg,38,,,6255NR,Noorbeek,Eijsden-Margraten,Limburg,VBO,5.844298,50.765247
Hoogcruts,2,,,6255NS,Noorbeek,Eijsden-Margraten,Limburg,VBO,5.839452,50.776602
Hoogcruts,3,,,6255NS,Noorbeek,Eijsden-Margraten,Limburg,VBO,5.839709,50.776771
Hoogcruts,4,,,6255NS,Noorbeek,Eijsden-Margraten,Limburg,VBO,5.839565,50.776484
Hoogcruts,5,,,6255NS,Noorbeek,Eijsden-Margraten,Limburg,VBO,5.839849,50.776582
Hoogcruts,6,A,,6255NS,Noorbeek,Eijsden-Margraten,Limburg,VBO,5.839299,50.776154
Hoogcruts,6,B,,6255NS,Noorbeek,Eijsden-Margraten,Limburg,VBO,5.839292,50.776119
Hoogcruts,6,C,,6255NS,Noorbeek,Eijsden-Margraten,Limburg,VBO,5.839331,50.776086
Hoogcruts,6,D,,6255NS,Noorbeek,Eijsden-Margraten,Limburg,VBO,5.839381,50.776048
Hoogcruts,6,E,,6255NS,Noorbeek,Eijsden-Margraten,Limburg,VBO,5.839443,50.776003
Hoogcruts,6,F,,6255NS,Noorbeek,Eijsden-Margraten,Limburg,VBO,5.839674,50.776058
Hoogcruts,6,G,,6255NS,Noorbeek,Eijsden-Margraten,Limburg,VBO,5.839715,50.776079
Hoogcruts,6,H,,6255NS,Noorbeek,Eijsden-Margraten,Limburg,VBO,5.839781,50.776102
Hoogcruts,6,J,,6255NS,Noorbeek,Eijsden-Margraten,Limburg,VBO,5.839839,50.776130
Hoogcruts,6,K,,6255NS,Noorbeek,Eijsden-Margraten,Limburg,VBO,5.839889,50.776149
Hoogcruts,6,,,6255NS,Noorbeek,Eijsden-Margraten,Limburg,VBO,5.839876,50.776222
Hoogcruts,7,A,,6255NS,Noorbeek,Eijsden-Margraten,Limburg,VBO,5.840504,50.776449
Hoogcruts,7,,,6255NS,Noorbeek,Eijsden-Margraten,Limburg,VBO,5.840060,50.776366
Hoogcruts,8,A,,6255NS,Noorbeek,Eijsden-Margraten,Limburg,VBO,5.840813,50.775149
Hoogcruts,8,,,6255NS,Noorbeek,Eijsden-Margraten,Limburg,VBO,5.840238,50.775718
Hoogcruts,9,,,6255NS,Noorbeek,Eijsden-Margraten,Limburg,VBO,5.842306,50.774340
Hoogcruts,10,,,6255NS,Noorbeek,Eijsden-Margraten,Limburg,VBO,5.840939,50.774978
Hoogcruts,11,,,6255NS,Noorbeek,Eijsden-Margraten,Limburg,VBO,5.841815,50.773204
Hoogcruts,12,,,6255NS,Noorbeek,Eijsden-Margraten,Limburg,VBO,5.840853,50.774834
Hoogcruts,14,A,MW,6255NS,Noorbeek,Eijsden-Margraten,Limburg,VBO,5.835995,50.776248
Hoogcruts,14,A,,6255NS,Noorbeek,Eijsden-Margraten,Limburg,VBO,5.838450,50.775493
Hoogcruts,14,,,6255NS,Noorbeek,Eijsden-Margraten,Limburg,VBO,5.839123,50.774832
Hoogcruts,16,,,6255NS,Noorbeek,Eijsden-Margraten,Limburg,VBO,5.839434,50.774723
Hoogcruts,18,,,6255NS,Noorbeek,Eijsden-Margraten,Limburg,VBO,5.841070,50.773680
Hoogcruts,20,,,6255NS,Noorbeek,Eijsden-Margraten,Limburg,VBO,5.841132,50.773525
Hoogcruts,47,,,6255NS,Noorbeek,Eijsden-Margraten,Limburg,VBO,5.842623,50.774171
Karsvelderweg,2,,,6255NT,Noorbeek,Eijsden-Margraten,Limburg,VBO,5.832175,50.785463
Karsvelderweg,4,,,6255NT,Noorbeek,Eijsden-Margraten,Limburg,VBO,5.832024,50.785378
Provincialeweg,5,A,,6255NV,Noorbeek,Eijsden-Margraten,Limburg,VBO,5.833096,50.786424
Provincialeweg,5,B,,6255NV,Noorbeek,Eijsden-Margraten,Limburg,VBO,5.834127,50.786429
Provincialeweg,5,,,6255NV,Noorbeek,Eijsden-Margraten,Limburg,VBO,5.833027,50.786550
Provincialeweg,7,,,6255NV,Noorbeek,Eijsden-Margraten,Limburg,VBO,5.833791,50.784956
Provincialeweg,9,,,6255NV,Noorbeek,Eijsden-Margraten,Limburg,VBO,5.833888,50.784713
Provincialeweg,26,,,6255NV,Noorbeek,Eijsden-Margraten,Limburg,VBO,5.832289,50.787991
Provincialeweg,28,,,6255NV,Noorbeek,Eijsden-Margraten,Limburg,VBO,5.832244,50.787767
Provincialeweg,30,,,6255NV,Noorbeek,Eijsden-Margraten,Limburg,VBO,5.832325,50.787335
Provincialeweg,32,A,,6255NV,Noorbeek,Eijsden-Margraten,Limburg,VBO,5.834479,50.781834
Provincialeweg,32,,,6255NV,Noorbeek,Eijsden-Margraten,Limburg,VBO,5.834712,50.781878
Provincialeweg,34,,,6255NV,Noorbeek,Eijsden-Margraten,Limburg,VBO,5.834753,50.781798
Provincialeweg,36,,,6255NV,Noorbeek,Eijsden-Margraten,Limburg,VBO,5.835206,50.781114
Provincialeweg,38,,,6255NV,Noorbeek,Eijsden-Margraten,Limburg,VBO,5.836238,50.779913
Gulperstraat,1,,,6255NX,Noorbeek,Eijsden-Margraten,Limburg,VBO,5.829825,50.786859
Gulperstraat,2,,,6255NX,Noorbeek,Eijsden-Margraten,Limburg,VBO,5.832216,50.788293
Gulperstraat,3,A,,6255NX,Noorbeek,Eijsden-Margraten,Limburg,VBO,5.829985,50.786988
Gulperstraat,3,,,6255NX,Noorbeek,Eijsden-Margraten,Limburg,VBO,5.829981,50.786895
Gulperstraat,4,,,6255NX,Noorbeek,Eijsden-Margraten,Limburg,VBO,5.832193,50.788225
Gulperstraat,5,,,6255NX,Noorbeek,Eijsden-Margraten,Limburg,VBO,5.830493,50.787082
Gulperstraat,7,,,6255NX,Noorbeek,Eijsden-Margraten,Limburg,VBO,5.830242,50.787166
Gulperstraat,9,,,6255NX,Noorbeek,Eijsden-Margraten,Limburg,VBO,5.830248,50.787203
Gulperstraat,11,,,6255NX,Noorbeek,Eijsden-Margraten,Limburg,VBO,5.830302,50.787237
Gulperstraat,13,,,6255NX,Noorbeek,Eijsden-Margraten,Limburg,VBO,5.830379,50.787264
Gulperstraat,15,,,6255NX,Noorbeek,Eijsden-Margraten,Limburg,VBO,5.830480,50.787377
Gulperstraat,17,,,6255NX,Noorbeek,Eijsden-Margraten,Limburg,VBO,5.830500,50.787350
Gulperstraat,19,,,6255NX,Noorbeek,Eijsden-Margraten,Limburg,VBO,5.830521,50.787325
Gulperstraat,21,,,6255NX,Noorbeek,Eijsden-Margraten,Limburg,VBO,5.830613,50.787298
Gulperstraat,23,,,6255NX,Noorbeek,Eijsden-Margraten,Limburg,VBO,5.830675,50.787243
Gulperstraat,25,,,6255NX,Noorbeek,Eijsden-Margraten,Limburg,VBO,5.830701,50.787206
Gulperstraat,27,,,6255NX,Noorbeek,Eijsden-Margraten,Limburg,VBO,5.830696,50.787557
Gulperstraat,29,,,6255NX,Noorbeek,Eijsden-Margraten,Limburg,VBO,5.830753,50.787584
Gulperstraat,31,,,6255NX,Noorbeek,Eijsden-Margraten,Limburg,VBO,5.830810,50.787611
Gulperstraat,33,,,6255NX,Noorbeek,Eijsden-Margraten,Limburg,VBO,5.830853,50.787637
Gulperstraat,35,,,6255NX,Noorbeek,Eijsden-Margraten,Limburg,VBO,5.831151,50.787772
Voerenstraat,1,,,6255PB,Noorbeek,Eijsden-Margraten,Limburg,VBO,5.828708,50.785731
Voerenstraat,11,,,6255PB,Noorbeek,Eijsden-Margraten,Limburg,VBO,5.802374,50.772795
Kütersteenweg,2,,,6255PC,Noorbeek,Eijsden-Margraten,Limburg,VBO,5.831792,50.785009
Kütersteenweg,4,,,6255PC,Noorbeek,Eijsden-Margraten,Limburg,VBO,5.831650,50.784920
Kütersteenweg,6,A,,6255PC,Noorbeek,Eijsden-Margraten,Limburg,VBO,5.831072,50.784590
Kütersteenweg,6,,,6255PC,Noorbeek,Eijsden-Margraten,Limburg,VBO,5.831013,50.784538
Kütersteenweg,8,A,,6255PC,Noorbeek,Eijsden-Margraten,Limburg,VBO,5.830793,50.784449
Kütersteenweg,8,,,6255PC,Noorbeek,Eijsden-Margraten,Limburg,VBO,5.830862,50.784494
Kütersteenweg,10,,,6255PC,Noorbeek,Eijsden-Margraten,Limburg,VBO,5.830387,50.784430
Kütersteenweg,12,,,6255PC,Noorbeek,Eijsden-Margraten,Limburg,VBO,5.830480,50.784241
