openbareruimtenaam,huisnummer,huisletter,huisnummertoevoeging,postcode,woonplaatsnaam,gemeentenaam,provincienaam,typeadresseerbaarobject,longitude,latitude
Leonard Springerlaan,183,,,7424AA,Deventer,Deventer,Overijssel,VBO,6.222598,52.263335
Leonard Springerlaan,185,,,7424AA,Deventer,Deventer,Overijssel,VBO,6.222515,52.263361
Leonard Springerlaan,187,,,7424AA,Deventer,Deventer,Overijssel,VBO,6.222437,52.263381
Leonard Springerlaan,189,,,7424AA,Deventer,Deventer,Overijssel,VBO,6.222350,52.263399
Leonard Springerlaan,191,,,7424AA,Deventer,Deventer,Overijssel,VBO,6.222219,52.263463
Leonard Springerlaan,193,,,7424AA,Deventer,Deventer,Overijssel,VBO,6.222117,52.263464
Leonard Springerlaan,195,,,7424AA,Deventer,Deventer,Overijssel,VBO,6.222059,52.263491
Leonard Springerlaan,197,,,7424AA,Deventer,Deventer,Overijssel,VBO,6.221971,52.263510
Leonard Springerlaan,199,,,7424AA,Deventer,Deventer,Overijssel,VBO,6.221811,52.263556
Leonard Springerlaan,201,,,7424AA,Deventer,Deventer,Overijssel,VBO,6.221723,52.263566
Leonard Springerlaan,203,,,7424AA,Deventer,Deventer,Overijssel,VBO,6.221621,52.263584
Leonard Springerlaan,205,,,7424AA,Deventer,Deventer,Overijssel,VBO,6.221548,52.263603
Leonard Springerlaan,207,,,7424AA,Deventer,Deventer,Overijssel,VBO,6.221388,52.263640
Leonard Springerlaan,209,,,7424AA,Deventer,Deventer,Overijssel,VBO,6.221300,52.263650
Leonard Springerlaan,211,,,7424AA,Deventer,Deventer,Overijssel,VBO,6.221227,52.263659
Leonard Springerlaan,213,,,7424AA,Deventer,Deventer,Overijssel,VBO,6.221125,52.263678
Leonard Springerlaan,215,,,7424AA,Deventer,Deventer,Overijssel,VBO,6.220964,52.263715
Leonard Springerlaan,217,,,7424AA,Deventer,Deventer,Overijssel,VBO,6.220876,52.263724
Leonard Springerlaan,219,,,7424AA,Deventer,Deventer,Overijssel,VBO,6.220774,52.263725
Leonard Springerlaan,221,,,7424AA,Deventer,Deventer,Overijssel,VBO,6.220701,52.263744
Leonard Springerlaan,223,,,7424AA,Deventer,Deventer,Overijssel,VBO,6.220526,52.263763
Leonard Springerlaan,225,,,7424AA,Deventer,Deventer,Overijssel,VBO,6.220438,52.263763
Leonard Springerlaan,227,,,7424AA,Deventer,Deventer,Overijssel,VBO,6.220350,52.263773
Leonard Springerlaan,229,,,7424AA,Deventer,Deventer,Overijssel,VBO,6.220277,52.263774
Leonard Springerlaan,231,,,7424AA,Deventer,Deventer,Overijssel,VBO,6.220101,52.263793
Leonard Springerlaan,233,,,7424AA,Deventer,Deventer,Overijssel,VBO,6.220028,52.263793
Leonard Springerlaan,235,,,7424AA,Deventer,Deventer,Overijssel,VBO,6.219940,52.263794
Leonard Springerlaan,237,,,7424AB,Deventer,Deventer,Overijssel,VBO,6.218239,52.263662
Leonard Springerlaan,239,,,7424AB,Deventer,Deventer,Overijssel,VBO,6.218136,52.263645
Leonard Springerlaan,241,,,7424AB,Deventer,Deventer,Overijssel,VBO,6.218032,52.263601
Leonard Springerlaan,243,,,7424AB,Deventer,Deventer,Overijssel,VBO,6.217915,52.263574
Leonard Springerlaan,245,,,7424AB,Deventer,Deventer,Overijssel,VBO,6.217841,52.263539
Leonard Springerlaan,247,,,7424AB,Deventer,Deventer,Overijssel,VBO,6.217723,52.263513
Leonard Springerlaan,249,,,7424AB,Deventer,Deventer,Overijssel,VBO,6.217590,52.263469
Leonard Springerlaan,251,,,7424AB,Deventer,Deventer,Overijssel,VBO,6.217473,52.263452
Leonard Springerlaan,253,,,7424AB,Deventer,Deventer,Overijssel,VBO,6.217384,52.263407
Leonard Springerlaan,255,,,7424AB,Deventer,Deventer,Overijssel,VBO,6.217251,52.263345
Leonard Springerlaan,257,,,7424AB,Deventer,Deventer,Overijssel,VBO,6.217163,52.263328
Leonard Springerlaan,259,,,7424AB,Deventer,Deventer,Overijssel,VBO,6.217060,52.263284
Leonard Springerlaan,261,,,7424AB,Deventer,Deventer,Overijssel,VBO,6.216927,52.263222
Leonard Springerlaan,263,,,7424AB,Deventer,Deventer,Overijssel,VBO,6.216838,52.263187
Leonard Springerlaan,265,,,7424AB,Deventer,Deventer,Overijssel,VBO,6.216750,52.263169
Leonard Springerlaan,267,,,7424AB,Deventer,Deventer,Overijssel,VBO,6.216646,52.263080
Leonard Springerlaan,269,,,7424AB,Deventer,Deventer,Overijssel,VBO,6.216557,52.263045
Leonard Springerlaan,271,,,7424AB,Deventer,Deventer,Overijssel,VBO,6.216468,52.263009
Leonard Springerlaan,273,,,7424AB,Deventer,Deventer,Overijssel,VBO,6.216350,52.262938
Leonard Springerlaan,275,,,7424AB,Deventer,Deventer,Overijssel,VBO,6.216276,52.262894
Leonard Springerlaan,277,,,7424AB,Deventer,Deventer,Overijssel,VBO,6.216188,52.262868
Leonard Springerlaan,279,,,7424AB,Deventer,Deventer,Overijssel,VBO,6.216098,52.262796
Leonard Springerlaan,281,,,7424AB,Deventer,Deventer,Overijssel,VBO,6.215994,52.262725
Leonard Springerlaan,283,,,7424AB,Deventer,Deventer,Overijssel,VBO,6.215921,52.262690
Leonard Springerlaan,285,,,7424AB,Deventer,Deventer,Overijssel,VBO,6.215860,52.262609
Leonard Springerlaan,287,,,7424AB,Deventer,Deventer,Overijssel,VBO,6.215757,52.262574
Leonard Springerlaan,289,,,7424AB,Deventer,Deventer,Overijssel,VBO,6.215683,52.262521
Leonard Springerlaan,291,,,7424AB,Deventer,Deventer,Overijssel,VBO,6.215593,52.262413
Leonard Springerlaan,293,,,7424AB,Deventer,Deventer,Overijssel,VBO,6.215519,52.262378
Leonard Springerlaan,295,,,7424AB,Deventer,Deventer,Overijssel,VBO,6.215459,52.262315
Leonard Springerlaan,297,,,7424AB,Deventer,Deventer,Overijssel,VBO,6.215400,52.262244
Leeghwaterlaan,1,,,7424AC,Deventer,Deventer,Overijssel,VBO,6.219560,52.263806
Leeghwaterlaan,3,,,7424AC,Deventer,Deventer,Overijssel,VBO,6.219398,52.263789
Leeghwaterlaan,5,,,7424AC,Deventer,Deventer,Overijssel,VBO,6.219397,52.263735
Leeghwaterlaan,7,,,7424AC,Deventer,Deventer,Overijssel,VBO,6.219411,52.263699
Leeghwaterlaan,9,,,7424AC,Deventer,Deventer,Overijssel,VBO,6.219425,52.263645
Leeghwaterlaan,11,,,7424AC,Deventer,Deventer,Overijssel,VBO,6.219424,52.263600
Leeghwaterlaan,13,,,7424AC,Deventer,Deventer,Overijssel,VBO,6.219423,52.263564
Leeghwaterlaan,15,,,7424AC,Deventer,Deventer,Overijssel,VBO,6.219437,52.263519
Leeghwaterlaan,17,,,7424AC,Deventer,Deventer,Overijssel,VBO,6.219451,52.263465
Leeghwaterlaan,19,,,7424AC,Deventer,Deventer,Overijssel,VBO,6.219464,52.263420
Leeghwaterlaan,21,,,7424AC,Deventer,Deventer,Overijssel,VBO,6.219464,52.263384
Leeghwaterlaan,23,,,7424AC,Deventer,Deventer,Overijssel,VBO,6.219477,52.263330
Leeghwaterlaan,25,,,7424AC,Deventer,Deventer,Overijssel,VBO,6.219462,52.263285
Leeghwaterlaan,27,,,7424AC,Deventer,Deventer,Overijssel,VBO,6.219461,52.263213
Leeghwaterlaan,29,,,7424AC,Deventer,Deventer,Overijssel,VBO,6.219547,52.263150
Leeghwaterlaan,31,,,7424AC,Deventer,Deventer,Overijssel,VBO,6.219664,52.263122
Leeghwaterlaan,33,,,7424AC,Deventer,Deventer,Overijssel,VBO,6.219737,52.263094
Leeghwaterlaan,35,,,7424AC,Deventer,Deventer,Overijssel,VBO,6.219809,52.263049
Leeghwaterlaan,37,,,7424AC,Deventer,Deventer,Overijssel,VBO,6.219897,52.263021
Leeghwaterlaan,39,,,7424AC,Deventer,Deventer,Overijssel,VBO,6.219955,52.262994
Leeghwaterlaan,41,,,7424AC,Deventer,Deventer,Overijssel,VBO,6.220027,52.262975
Leeghwaterlaan,43,,,7424AC,Deventer,Deventer,Overijssel,VBO,6.220071,52.262939
Leeghwaterlaan,45,,,7424AC,Deventer,Deventer,Overijssel,VBO,6.220173,52.262902
Leeghwaterlaan,47,,,7424AC,Deventer,Deventer,Overijssel,VBO,6.220260,52.262875
Leeghwaterlaan,49,,,7424AC,Deventer,Deventer,Overijssel,VBO,6.220332,52.262829
Leeghwaterlaan,2,,,7424AD,Deventer,Deventer,Overijssel,VBO,6.218548,52.263741
Leeghwaterlaan,4,,,7424AD,Deventer,Deventer,Overijssel,VBO,6.218709,52.263749
Leeghwaterlaan,6,,,7424AD,Deventer,Deventer,Overijssel,VBO,6.218737,52.263704
Leeghwaterlaan,8,,,7424AD,Deventer,Deventer,Overijssel,VBO,6.218736,52.263650
Leeghwaterlaan,10,,,7424AD,Deventer,Deventer,Overijssel,VBO,6.218750,52.263596
Leeghwaterlaan,12,,,7424AD,Deventer,Deventer,Overijssel,VBO,6.218764,52.263551
Leeghwaterlaan,14,,,7424AD,Deventer,Deventer,Overijssel,VBO,6.218777,52.263497
Leeghwaterlaan,16,,,7424AD,Deventer,Deventer,Overijssel,VBO,6.218791,52.263442
Leeghwaterlaan,18,,,7424AD,Deventer,Deventer,Overijssel,VBO,6.218790,52.263389
Leeghwaterlaan,20,,,7424AD,Deventer,Deventer,Overijssel,VBO,6.218804,52.263344
Leeghwaterlaan,22,,,7424AD,Deventer,Deventer,Overijssel,VBO,6.218818,52.263289
Leeghwaterlaan,24,,,7424AD,Deventer,Deventer,Overijssel,VBO,6.218817,52.263245
Leeghwaterlaan,26,,,7424AD,Deventer,Deventer,Overijssel,VBO,6.218830,52.263191
Leeghwaterlaan,28,,,7424AD,Deventer,Deventer,Overijssel,VBO,6.218844,52.263137
Leeghwaterlaan,30,,,7424AD,Deventer,Deventer,Overijssel,VBO,6.218827,52.263038
Leeghwaterlaan,32,,,7424AD,Deventer,Deventer,Overijssel,VBO,6.218783,52.262993
Leeghwaterlaan,34,,,7424AD,Deventer,Deventer,Overijssel,VBO,6.218767,52.262939
Leeghwaterlaan,36,,,7424AD,Deventer,Deventer,Overijssel,VBO,6.218737,52.262895
Leeghwaterlaan,38,,,7424AD,Deventer,Deventer,Overijssel,VBO,6.218721,52.262841
Leeghwaterlaan,40,,,7424AD,Deventer,Deventer,Overijssel,VBO,6.218691,52.262796
Leeghwaterlaan,42,,,7424AD,Deventer,Deventer,Overijssel,VBO,6.218661,52.262751
Leeghwaterlaan,44,,,7424AD,Deventer,Deventer,Overijssel,VBO,6.218645,52.262697
Leeghwaterlaan,46,,,7424AD,Deventer,Deventer,Overijssel,VBO,6.218615,52.262653
Leeghwaterlaan,48,,,7424AD,Deventer,Deventer,Overijssel,VBO,6.218585,52.262599
Leeghwaterlaan,50,,,7424AD,Deventer,Deventer,Overijssel,VBO,6.218569,52.262554
Leeghwaterlaan,52,,,7424AD,Deventer,Deventer,Overijssel,VBO,6.218554,52.262500
Leeghwaterlaan,54,,,7424AE,Deventer,Deventer,Overijssel,VBO,6.219133,52.262164
Leeghwaterlaan,56,,,7424AE,Deventer,Deventer,Overijssel,VBO,6.219236,52.262172
Leeghwaterlaan,58,,,7424AE,Deventer,Deventer,Overijssel,VBO,6.219324,52.262180
Leeghwaterlaan,60,,,7424AE,Deventer,Deventer,Overijssel,VBO,6.219427,52.262189
Leeghwaterlaan,62,,,7424AE,Deventer,Deventer,Overijssel,VBO,6.219471,52.262215
Leeghwaterlaan,64,,,7424AE,Deventer,Deventer,Overijssel,VBO,6.219559,52.262224
Leeghwaterlaan,66,,,7424AE,Deventer,Deventer,Overijssel,VBO,6.219633,52.262241
Leeghwaterlaan,68,,,7424AE,Deventer,Deventer,Overijssel,VBO,6.219706,52.262250
Leeghwaterlaan,70,,,7424AE,Deventer,Deventer,Overijssel,VBO,6.219780,52.262267
Leeghwaterlaan,72,,,7424AE,Deventer,Deventer,Overijssel,VBO,6.219869,52.262320
Leeghwaterlaan,74,,,7424AE,Deventer,Deventer,Overijssel,VBO,6.219942,52.262338
Leeghwaterlaan,76,,,7424AE,Deventer,Deventer,Overijssel,VBO,6.220030,52.262346
Leeghwaterlaan,78,,,7424AE,Deventer,Deventer,Overijssel,VBO,6.220104,52.262364
Leeghwaterlaan,80,,,7424AE,Deventer,Deventer,Overijssel,VBO,6.220192,52.262372
Leeghwaterlaan,82,,,7424AE,Deventer,Deventer,Overijssel,VBO,6.220251,52.262399
Leeghwaterlaan,84,,,7424AE,Deventer,Deventer,Overijssel,VBO,6.220339,52.262416
Stevinhof,1,,,7424AG,Deventer,Deventer,Overijssel,VBO,6.220125,52.263487
Stevinhof,3,,,7424AG,Deventer,Deventer,Overijssel,VBO,6.220213,52.263486
Stevinhof,5,,,7424AG,Deventer,Deventer,Overijssel,VBO,6.220461,52.263467
Stevinhof,7,,,7424AG,Deventer,Deventer,Overijssel,VBO,6.220549,52.263448
Stevinhof,9,,,7424AG,Deventer,Deventer,Overijssel,VBO,6.220783,52.263428
Stevinhof,11,,,7424AG,Deventer,Deventer,Overijssel,VBO,6.220856,52.263410
Stevinhof,13,,,7424AG,Deventer,Deventer,Overijssel,VBO,6.221090,52.263381
Stevinhof,15,,,7424AG,Deventer,Deventer,Overijssel,VBO,6.221177,52.263363
Stevinhof,17,,,7424AG,Deventer,Deventer,Overijssel,VBO,6.221396,52.263316
Stevinhof,19,,,7424AG,Deventer,Deventer,Overijssel,VBO,6.221498,52.263298
Stevinhof,21,,,7424AG,Deventer,Deventer,Overijssel,VBO,6.221703,52.263251
Stevinhof,23,,,7424AG,Deventer,Deventer,Overijssel,VBO,6.221790,52.263233
Stevinhof,25,,,7424AG,Deventer,Deventer,Overijssel,VBO,6.222009,52.263168
Stevinhof,27,,,7424AG,Deventer,Deventer,Overijssel,VBO,6.222111,52.263140
Stevinhof,2,,,7424AH,Deventer,Deventer,Overijssel,VBO,6.220033,52.263263
Stevinhof,4,,,7424AH,Deventer,Deventer,Overijssel,VBO,6.220106,52.263244
Stevinhof,6,,,7424AH,Deventer,Deventer,Overijssel,VBO,6.220309,52.263171
Stevinhof,8,,,7424AH,Deventer,Deventer,Overijssel,VBO,6.220411,52.263143
Stevinhof,10,,,7424AH,Deventer,Deventer,Overijssel,VBO,6.220878,52.263032
Stevinhof,12,,,7424AH,Deventer,Deventer,Overijssel,VBO,6.220966,52.263032
Stevinhof,14,,,7424AH,Deventer,Deventer,Overijssel,VBO,6.221185,52.263003
Stevinhof,16,,,7424AH,Deventer,Deventer,Overijssel,VBO,6.221273,52.263003
Stevinhof,18,,,7424AH,Deventer,Deventer,Overijssel,VBO,6.221551,52.262983
Stevinhof,20,,,7424AH,Deventer,Deventer,Overijssel,VBO,6.221639,52.262973
Stevinhof,22,,,7424AH,Deventer,Deventer,Overijssel,VBO,6.221858,52.262944
Stevinhof,24,,,7424AH,Deventer,Deventer,Overijssel,VBO,6.221946,52.262944
Stevinhof,26,,,7424AH,Deventer,Deventer,Overijssel,VBO,6.222165,52.262924
Stevinhof,28,,,7424AH,Deventer,Deventer,Overijssel,VBO,6.222268,52.262924
Stevinhof,30,,,7424AH,Deventer,Deventer,Overijssel,VBO,6.222918,52.263216
Stevinhof,34,,,7424AH,Deventer,Deventer,Overijssel,VBO,6.222976,52.263188
Stevinhof,36,,,7424AH,Deventer,Deventer,Overijssel,VBO,6.223032,52.263170
Stevinhof,38,,,7424AH,Deventer,Deventer,Overijssel,VBO,6.223063,52.263134
Stevinhof,40,,,7424AH,Deventer,Deventer,Overijssel,VBO,6.223106,52.263106
Stevinhof,42,,,7424AH,Deventer,Deventer,Overijssel,VBO,6.223061,52.263053
Stevinhof,44,,,7424AH,Deventer,Deventer,Overijssel,VBO,6.222958,52.263000
Stevinhof,46,,,7424AH,Deventer,Deventer,Overijssel,VBO,6.222869,52.262955
Stevinhof,48,,,7424AH,Deventer,Deventer,Overijssel,VBO,6.222780,52.262902
Stevinhof,50,,,7424AH,Deventer,Deventer,Overijssel,VBO,6.223122,52.263151
Stevinhof,52,,,7424AH,Deventer,Deventer,Overijssel,VBO,6.223165,52.263133
Stevinhof,54,,,7424AH,Deventer,Deventer,Overijssel,VBO,6.223090,52.263017
Stevinhof,56,,,7424AH,Deventer,Deventer,Overijssel,VBO,6.222986,52.262963
Stevinhof,58,,,7424AH,Deventer,Deventer,Overijssel,VBO,6.222912,52.262928
Stevinhof,60,,,7424AH,Deventer,Deventer,Overijssel,VBO,6.222809,52.262875
Stevinhof,62,,,7424AH,Deventer,Deventer,Overijssel,VBO,6.223209,52.263106
Stevinhof,64,,,7424AH,Deventer,Deventer,Overijssel,VBO,6.223119,52.262989
Stevinhof,66,,,7424AH,Deventer,Deventer,Overijssel,VBO,6.222956,52.262901
Stevinhof,68,,,7424AH,Deventer,Deventer,Overijssel,VBO,6.223030,52.262945
Stevinhof,70,,,7424AH,Deventer,Deventer,Overijssel,VBO,6.222852,52.262848
Stevinhof,72,,,7424AH,Deventer,Deventer,Overijssel,VBO,6.223150,52.263088
Stevinhof,74,,,7424AH,Deventer,Deventer,Overijssel,VBO,6.223193,52.263061
Stevinhof,76,,,7424AH,Deventer,Deventer,Overijssel,VBO,6.223267,52.263087
Veerispad,1,,,7424AJ,Deventer,Deventer,Overijssel,VBO,6.220595,52.262756
Veerispad,3,,,7424AJ,Deventer,Deventer,Overijssel,VBO,6.220697,52.262764
Veerispad,5,,,7424AJ,Deventer,Deventer,Overijssel,VBO,6.220770,52.262754
Veerispad,7,,,7424AJ,Deventer,Deventer,Overijssel,VBO,6.220844,52.262754
Veerispad,9,,,7424AJ,Deventer,Deventer,Overijssel,VBO,6.220917,52.262744
Veerispad,11,,,7424AJ,Deventer,Deventer,Overijssel,VBO,6.220990,52.262744
Veerispad,13,,,7424AJ,Deventer,Deventer,Overijssel,VBO,6.221063,52.262743
Veerispad,15,,,7424AJ,Deventer,Deventer,Overijssel,VBO,6.221136,52.262734
Veerispad,17,,,7424AJ,Deventer,Deventer,Overijssel,VBO,6.221209,52.262733
Veerispad,19,,,7424AJ,Deventer,Deventer,Overijssel,VBO,6.221297,52.262733
Veerispad,21,,,7424AJ,Deventer,Deventer,Overijssel,VBO,6.221444,52.262723
Veerispad,23,,,7424AJ,Deventer,Deventer,Overijssel,VBO,6.221546,52.262713
Veerispad,25,,,7424AJ,Deventer,Deventer,Overijssel,VBO,6.221648,52.262703
Veerispad,27,,,7424AJ,Deventer,Deventer,Overijssel,VBO,6.221736,52.262703
Veerispad,29,,,7424AJ,Deventer,Deventer,Overijssel,VBO,6.221824,52.262702
Veerispad,31,,,7424AJ,Deventer,Deventer,Overijssel,VBO,6.221912,52.262683
Veerispad,33,,,7424AJ,Deventer,Deventer,Overijssel,VBO,6.222014,52.262683
Veerispad,35,,,7424AJ,Deventer,Deventer,Overijssel,VBO,6.222117,52.262673
Veerispad,37,,,7424AJ,Deventer,Deventer,Overijssel,VBO,6.222219,52.262663
Veerispad,39,,,7424AJ,Deventer,Deventer,Overijssel,VBO,6.222292,52.262654
Veerispad,41,,,7424AJ,Deventer,Deventer,Overijssel,VBO,6.222424,52.262653
Veerispad,43,A,,7424AJ,Deventer,Deventer,Overijssel,VBO,6.222679,52.262790
Veerispad,43,B,,7424AJ,Deventer,Deventer,Overijssel,VBO,6.222718,52.262769
Veerispad,2,,,7424AK,Deventer,Deventer,Overijssel,VBO,6.220617,52.262405
Veerispad,4,,,7424AK,Deventer,Deventer,Overijssel,VBO,6.220720,52.262395
Veerispad,6,,,7424AK,Deventer,Deventer,Overijssel,VBO,6.220808,52.262395
Veerispad,8,,,7424AK,Deventer,Deventer,Overijssel,VBO,6.220881,52.262385
Veerispad,10,,,7424AK,Deventer,Deventer,Overijssel,VBO,6.220954,52.262385
Veerispad,12,,,7424AK,Deventer,Deventer,Overijssel,VBO,6.221042,52.262384
Veerispad,14,,,7424AK,Deventer,Deventer,Overijssel,VBO,6.221115,52.262383
Veerispad,16,,,7424AK,Deventer,Deventer,Overijssel,VBO,6.221188,52.262365
Veerispad,18,,,7424AK,Deventer,Deventer,Overijssel,VBO,6.221290,52.262355
Andries Vierlingweg,1,,,7424AL,Deventer,Deventer,Overijssel,VBO,6.220833,52.262188
Andries Vierlingweg,2,,,7424AL,Deventer,Deventer,Overijssel,VBO,6.220510,52.262127
Andries Vierlingweg,3,,,7424AL,Deventer,Deventer,Overijssel,VBO,6.220861,52.262134
Andries Vierlingweg,4,,,7424AL,Deventer,Deventer,Overijssel,VBO,6.220422,52.262119
Andries Vierlingweg,5,,,7424AL,Deventer,Deventer,Overijssel,VBO,6.220890,52.262088
Andries Vierlingweg,6,,,7424AL,Deventer,Deventer,Overijssel,VBO,6.220348,52.262101
Andries Vierlingweg,7,,,7424AL,Deventer,Deventer,Overijssel,VBO,6.220933,52.262043
Andries Vierlingweg,8,,,7424AL,Deventer,Deventer,Overijssel,VBO,6.220274,52.262084
Andries Vierlingweg,9,,,7424AL,Deventer,Deventer,Overijssel,VBO,6.220637,52.261884
Andries Vierlingweg,10,,,7424AL,Deventer,Deventer,Overijssel,VBO,6.219922,52.262023
Andries Vierlingweg,11,,,7424AL,Deventer,Deventer,Overijssel,VBO,6.220608,52.261929
Andries Vierlingweg,12,,,7424AL,Deventer,Deventer,Overijssel,VBO,6.219834,52.262006
Andries Vierlingweg,13,,,7424AL,Deventer,Deventer,Overijssel,VBO,6.220050,52.261825
Andries Vierlingweg,14,,,7424AL,Deventer,Deventer,Overijssel,VBO,6.219775,52.261988
Andries Vierlingweg,15,,,7424AL,Deventer,Deventer,Overijssel,VBO,6.220078,52.261771
Andries Vierlingweg,16,,,7424AL,Deventer,Deventer,Overijssel,VBO,6.219701,52.261971
Andries Vierlingweg,17,,,7424AL,Deventer,Deventer,Overijssel,VBO,6.220107,52.261725
Andries Vierlingweg,18,,,7424AL,Deventer,Deventer,Overijssel,VBO,6.219627,52.261954
Andries Vierlingweg,19,,,7424AL,Deventer,Deventer,Overijssel,VBO,6.220135,52.261680
Andries Vierlingweg,20,T,,7424AL,Deventer,Deventer,Overijssel,VBO,6.219365,52.262027
Andries Vierlingweg,20,,,7424AL,Deventer,Deventer,Overijssel,VBO,6.219539,52.261936
Andries Vierlingweg,21,,,7424AL,Deventer,Deventer,Overijssel,VBO,6.220163,52.261626
Joost Beeldsnijderweg,1,,,7424AM,Deventer,Deventer,Overijssel,VBO,6.221388,52.262085
Joost Beeldsnijderweg,3,,,7424AM,Deventer,Deventer,Overijssel,VBO,6.221299,52.262050
Joost Beeldsnijderweg,5,,,7424AM,Deventer,Deventer,Overijssel,VBO,6.221077,52.261925
Joost Beeldsnijderweg,7,,,7424AM,Deventer,Deventer,Overijssel,VBO,6.221003,52.261881
Joost Beeldsnijderweg,9,,,7424AM,Deventer,Deventer,Overijssel,VBO,6.220722,52.261721
Joost Beeldsnijderweg,11,,,7424AM,Deventer,Deventer,Overijssel,VBO,6.220648,52.261677
Joost Beeldsnijderweg,13,,,7424AM,Deventer,Deventer,Overijssel,VBO,6.220367,52.261526
Joost Beeldsnijderweg,15,,,7424AM,Deventer,Deventer,Overijssel,VBO,6.220278,52.261482
Joost Beeldsnijderweg,17,,,7424AM,Deventer,Deventer,Overijssel,VBO,6.220026,52.261331
Joost Beeldsnijderweg,19,,,7424AM,Deventer,Deventer,Overijssel,VBO,6.219952,52.261277
Joost Beeldsnijderweg,21,,,7424AM,Deventer,Deventer,Overijssel,VBO,6.219715,52.261153
Joost Beeldsnijderweg,23,,,7424AM,Deventer,Deventer,Overijssel,VBO,6.219641,52.261109
Adriaan Antoniszoonstraat,1,,,7424AN,Deventer,Deventer,Overijssel,VBO,6.219284,52.261578
Adriaan Antoniszoonstraat,3,,,7424AN,Deventer,Deventer,Overijssel,VBO,6.219386,52.261551
Adriaan Antoniszoonstraat,5,,,7424AN,Deventer,Deventer,Overijssel,VBO,6.219444,52.261523
Adriaan Antoniszoonstraat,7,,,7424AN,Deventer,Deventer,Overijssel,VBO,6.219517,52.261505
Adriaan Antoniszoonstraat,9,,,7424AN,Deventer,Deventer,Overijssel,VBO,6.219575,52.261478
Adriaan Antoniszoonstraat,11,,,7424AN,Deventer,Deventer,Overijssel,VBO,6.219647,52.261450
Adriaan Antoniszoonstraat,13,,,7424AN,Deventer,Deventer,Overijssel,VBO,6.219691,52.261423
Adriaan Antoniszoonstraat,15,,,7424AN,Deventer,Deventer,Overijssel,VBO,6.219793,52.261386
Adriaan Antoniszoonstraat,17,,,7424AN,Deventer,Deventer,Overijssel,VBO,6.218928,52.261347
Adriaan Antoniszoonstraat,19,,,7424AN,Deventer,Deventer,Overijssel,VBO,6.219000,52.261320
Adriaan Antoniszoonstraat,21,,,7424AN,Deventer,Deventer,Overijssel,VBO,6.219073,52.261292
Adriaan Antoniszoonstraat,23,,,7424AN,Deventer,Deventer,Overijssel,VBO,6.219131,52.261265
Adriaan Antoniszoonstraat,25,,,7424AN,Deventer,Deventer,Overijssel,VBO,6.219189,52.261247
Adriaan Antoniszoonstraat,27,,,7424AN,Deventer,Deventer,Overijssel,VBO,6.219262,52.261219
Adriaan Antoniszoonstraat,29,,,7424AN,Deventer,Deventer,Overijssel,VBO,6.219320,52.261201
Adriaan Antoniszoonstraat,31,,,7424AN,Deventer,Deventer,Overijssel,VBO,6.219379,52.261173
Adriaan Antoniszoonstraat,2,,,7424AP,Deventer,Deventer,Overijssel,VBO,6.219259,52.261830
Adriaan Antoniszoonstraat,4,,,7424AP,Deventer,Deventer,Overijssel,VBO,6.219200,52.261786
Adriaan Antoniszoonstraat,6,,,7424AP,Deventer,Deventer,Overijssel,VBO,6.219140,52.261759
Adriaan Antoniszoonstraat,8,,,7424AP,Deventer,Deventer,Overijssel,VBO,6.219081,52.261724
Adriaan Antoniszoonstraat,10,,,7424AP,Deventer,Deventer,Overijssel,VBO,6.218785,52.261573
Adriaan Antoniszoonstraat,12,,,7424AP,Deventer,Deventer,Overijssel,VBO,6.218711,52.261529
Adriaan Antoniszoonstraat,14,,,7424AP,Deventer,Deventer,Overijssel,VBO,6.218667,52.261493
Adriaan Antoniszoonstraat,16,,,7424AP,Deventer,Deventer,Overijssel,VBO,6.218607,52.261457
Simon Meeuwspad,1,,,7424AR,Deventer,Deventer,Overijssel,VBO,6.218912,52.262084
Simon Meeuwspad,3,,,7424AR,Deventer,Deventer,Overijssel,VBO,6.218853,52.262049
Simon Meeuwspad,5,,,7424AR,Deventer,Deventer,Overijssel,VBO,6.218808,52.262022
Simon Meeuwspad,7,,,7424AR,Deventer,Deventer,Overijssel,VBO,6.218749,52.261978
Simon Meeuwspad,9,,,7424AR,Deventer,Deventer,Overijssel,VBO,6.218705,52.261951
Simon Meeuwspad,11,,,7424AR,Deventer,Deventer,Overijssel,VBO,6.218645,52.261907
Simon Meeuwspad,13,,,7424AR,Deventer,Deventer,Overijssel,VBO,6.218513,52.261881
Simon Meeuwspad,15,,,7424AR,Deventer,Deventer,Overijssel,VBO,6.218454,52.261854
Simon Meeuwspad,17,,,7424AR,Deventer,Deventer,Overijssel,VBO,6.218395,52.261827
Simon Meeuwspad,19,,,7424AR,Deventer,Deventer,Overijssel,VBO,6.218335,52.261792
Simon Meeuwspad,21,,,7424AR,Deventer,Deventer,Overijssel,VBO,6.218276,52.261756
Simon Meeuwspad,23,,,7424AR,Deventer,Deventer,Overijssel,VBO,6.218217,52.261730
Simon Meeuwspad,25,,,7424AR,Deventer,Deventer,Overijssel,VBO,6.218128,52.261685
Simon Meeuwspad,2,,,7424AS,Deventer,Deventer,Overijssel,VBO,6.218433,52.262330
Simon Meeuwspad,4,,,7424AS,Deventer,Deventer,Overijssel,VBO,6.218389,52.262304
Simon Meeuwspad,6,,,7424AS,Deventer,Deventer,Overijssel,VBO,6.218300,52.262259
Simon Meeuwspad,8,,,7424AS,Deventer,Deventer,Overijssel,VBO,6.218256,52.262233
Simon Meeuwspad,10,,,7424AS,Deventer,Deventer,Overijssel,VBO,6.218182,52.262188
Simon Meeuwspad,12,,,7424AS,Deventer,Deventer,Overijssel,VBO,6.218108,52.262153
Simon Meeuwspad,14,,,7424AS,Deventer,Deventer,Overijssel,VBO,6.218049,52.262117
Simon Meeuwspad,16,,,7424AS,Deventer,Deventer,Overijssel,VBO,6.217989,52.262082
Simon Meeuwspad,18,,,7424AS,Deventer,Deventer,Overijssel,VBO,6.217930,52.262046
Simon Meeuwspad,20,,,7424AS,Deventer,Deventer,Overijssel,VBO,6.217856,52.262011
Simon Meeuwspad,22,,,7424AS,Deventer,Deventer,Overijssel,VBO,6.217826,52.261975
Simon Meeuwspad,24,,,7424AS,Deventer,Deventer,Overijssel,VBO,6.217723,52.261940
Simon Meeuwspad,26,,,7424AS,Deventer,Deventer,Overijssel,VBO,6.217693,52.261904
Simon Meeuwspad,28,,,7424AS,Deventer,Deventer,Overijssel,VBO,6.217634,52.261869
Cruquiushof,1,,,7424AT,Deventer,Deventer,Overijssel,VBO,6.216826,52.262548
Cruquiushof,3,,,7424AT,Deventer,Deventer,Overijssel,VBO,6.216927,52.262485
Cruquiushof,5,,,7424AT,Deventer,Deventer,Overijssel,VBO,6.217014,52.262421
Cruquiushof,7,,,7424AT,Deventer,Deventer,Overijssel,VBO,6.217101,52.262349
Cruquiushof,46,,,7424AT,Deventer,Deventer,Overijssel,VBO,6.215853,52.262232
Cruquiushof,48,,,7424AT,Deventer,Deventer,Overijssel,VBO,6.215999,52.262195
Cruquiushof,50,,,7424AT,Deventer,Deventer,Overijssel,VBO,6.216131,52.262167
Cruquiushof,52,,,7424AT,Deventer,Deventer,Overijssel,VBO,6.216291,52.262148
Cruquiushof,54,,,7424AT,Deventer,Deventer,Overijssel,VBO,6.216437,52.262111
Cruquiushof,56,,,7424AT,Deventer,Deventer,Overijssel,VBO,6.216583,52.262092
Cruquiushof,58,,,7424AT,Deventer,Deventer,Overijssel,VBO,6.216744,52.262064
Cruquiushof,60,,,7424AT,Deventer,Deventer,Overijssel,VBO,6.216890,52.262045
Cruquiushof,62,,,7424AT,Deventer,Deventer,Overijssel,VBO,6.217051,52.262017
Cruquiushof,64,,,7424AT,Deventer,Deventer,Overijssel,VBO,6.217197,52.262007
Cruquiushof,66,,,7424AT,Deventer,Deventer,Overijssel,VBO,6.217421,52.262221
Cruquiushof,68,,,7424AT,Deventer,Deventer,Overijssel,VBO,6.217509,52.262265
Cruquiushof,70,,,7424AT,Deventer,Deventer,Overijssel,VBO,6.217613,52.262327
Cruquiushof,72,,,7424AT,Deventer,Deventer,Overijssel,VBO,6.217717,52.262389
Cruquiushof,74,,,7424AT,Deventer,Deventer,Overijssel,VBO,6.217806,52.262461
Cruquiushof,76,,,7424AT,Deventer,Deventer,Overijssel,VBO,6.217895,52.262514
Cruquiushof,2,,,7424AV,Deventer,Deventer,Overijssel,VBO,6.218104,52.262710
Cruquiushof,4,,,7424AV,Deventer,Deventer,Overijssel,VBO,6.218163,52.262764
Cruquiushof,6,,,7424AV,Deventer,Deventer,Overijssel,VBO,6.218223,52.262844
Cruquiushof,8,,,7424AV,Deventer,Deventer,Overijssel,VBO,6.218254,52.262916
Cruquiushof,10,,,7424AV,Deventer,Deventer,Overijssel,VBO,6.218314,52.262996
Cruquiushof,12,,,7424AV,Deventer,Deventer,Overijssel,VBO,6.218330,52.263095
Cruquiushof,14,,,7424AV,Deventer,Deventer,Overijssel,VBO,6.218204,52.263366
Cruquiushof,16,,,7424AV,Deventer,Deventer,Overijssel,VBO,6.218115,52.263339
Cruquiushof,18,,,7424AV,Deventer,Deventer,Overijssel,VBO,6.217894,52.263260
Cruquiushof,20,,,7424AV,Deventer,Deventer,Overijssel,VBO,6.217806,52.263234
Cruquiushof,22,,,7424AV,Deventer,Deventer,Overijssel,VBO,6.217570,52.263163
Cruquiushof,24,,,7424AV,Deventer,Deventer,Overijssel,VBO,6.217481,52.263128
Cruquiushof,26,,,7424AV,Deventer,Deventer,Overijssel,VBO,6.217290,52.263049
Cruquiushof,28,,,7424AV,Deventer,Deventer,Overijssel,VBO,6.217201,52.263013
Cruquiushof,30,,,7424AV,Deventer,Deventer,Overijssel,VBO,6.216994,52.262925
Cruquiushof,32,,,7424AV,Deventer,Deventer,Overijssel,VBO,6.216906,52.262889
Cruquiushof,34,,,7424AV,Deventer,Deventer,Overijssel,VBO,6.216728,52.262792
Cruquiushof,36,,,7424AV,Deventer,Deventer,Overijssel,VBO,6.216639,52.262748
Cruquiushof,38,,,7424AV,Deventer,Deventer,Overijssel,VBO,6.216447,52.262650
Cruquiushof,40,,,7424AV,Deventer,Deventer,Overijssel,VBO,6.216388,52.262597
Cruquiushof,42,,,7424AV,Deventer,Deventer,Overijssel,VBO,6.216225,52.262499
Cruquiushof,44,,,7424AV,Deventer,Deventer,Overijssel,VBO,6.216150,52.262436
Leonard Springerlaan,299,,,7424BA,Deventer,Deventer,Overijssel,VBO,6.214967,52.261807
Leonard Springerlaan,301,,,7424BA,Deventer,Deventer,Overijssel,VBO,6.214833,52.261736
Leonard Springerlaan,303,,,7424BA,Deventer,Deventer,Overijssel,VBO,6.214817,52.261664
Leonard Springerlaan,305,,,7424BA,Deventer,Deventer,Overijssel,VBO,6.214728,52.261583
Leonard Springerlaan,307,,,7424BA,Deventer,Deventer,Overijssel,VBO,6.214654,52.261530
Leonard Springerlaan,309,,,7424BA,Deventer,Deventer,Overijssel,VBO,6.214564,52.261432
Leonard Springerlaan,311,,,7424BA,Deventer,Deventer,Overijssel,VBO,6.214505,52.261387
Leonard Springerlaan,313,,,7424BA,Deventer,Deventer,Overijssel,VBO,6.214415,52.261289
Leonard Springerlaan,315,,,7424BA,Deventer,Deventer,Overijssel,VBO,6.214355,52.261236
Leonard Springerlaan,317,,,7424BA,Deventer,Deventer,Overijssel,VBO,6.214266,52.261146
Leonard Springerlaan,319,,,7424BA,Deventer,Deventer,Overijssel,VBO,6.214236,52.261093
Leonard Springerlaan,321,,,7424BA,Deventer,Deventer,Overijssel,VBO,6.214146,52.260994
Leonard Springerlaan,323,,,7424BA,Deventer,Deventer,Overijssel,VBO,6.214101,52.260941
Leonard Springerlaan,325,,,7424BA,Deventer,Deventer,Overijssel,VBO,6.214011,52.260843
Leonard Springerlaan,327,,,7424BA,Deventer,Deventer,Overijssel,VBO,6.213952,52.260798
Leonard Springerlaan,329,,,7424BA,Deventer,Deventer,Overijssel,VBO,6.213848,52.260709
Beyerinckstraat,1,,,7424BB,Deventer,Deventer,Overijssel,VBO,6.216272,52.261114
Beyerinckstraat,3,,,7424BB,Deventer,Deventer,Overijssel,VBO,6.216141,52.261169
Beyerinckstraat,5,,,7424BB,Deventer,Deventer,Overijssel,VBO,6.216024,52.261188
Beyerinckstraat,7,,,7424BB,Deventer,Deventer,Overijssel,VBO,6.215878,52.261216
Beyerinckstraat,9,,,7424BB,Deventer,Deventer,Overijssel,VBO,6.215776,52.261235
Beyerinckstraat,11,,,7424BB,Deventer,Deventer,Overijssel,VBO,6.215645,52.261289
Beyerinckstraat,13,,,7424BB,Deventer,Deventer,Overijssel,VBO,6.215529,52.261308
Beyerinckstraat,15,,,7424BB,Deventer,Deventer,Overijssel,VBO,6.215398,52.261354
Beyerinckstraat,17,,,7424BB,Deventer,Deventer,Overijssel,VBO,6.215143,52.261077
Beyerinckstraat,19,,,7424BB,Deventer,Deventer,Overijssel,VBO,6.215245,52.261014
Beyerinckstraat,21,,,7424BB,Deventer,Deventer,Overijssel,VBO,6.215331,52.260950
Beyerinckstraat,23,,,7424BB,Deventer,Deventer,Overijssel,VBO,6.215448,52.260922
Beyerinckstraat,25,,,7424BB,Deventer,Deventer,Overijssel,VBO,6.215565,52.260886
Beyerinckstraat,27,,,7424BB,Deventer,Deventer,Overijssel,VBO,6.215681,52.260822
Beyerinckstraat,29,,,7424BB,Deventer,Deventer,Overijssel,VBO,6.215783,52.260785
Beyerinckstraat,31,,,7424BB,Deventer,Deventer,Overijssel,VBO,6.215869,52.260731
Beyerinckstraat,33,,,7424BB,Deventer,Deventer,Overijssel,VBO,6.214679,52.260505
Beyerinckstraat,35,,,7424BB,Deventer,Deventer,Overijssel,VBO,6.214722,52.260478
Beyerinckstraat,37,,,7424BB,Deventer,Deventer,Overijssel,VBO,6.214901,52.260412
Beyerinckstraat,39,,,7424BB,Deventer,Deventer,Overijssel,VBO,6.214940,52.260396
Beyerinckstraat,41,,,7424BB,Deventer,Deventer,Overijssel,VBO,6.215119,52.260333
Beyerinckstraat,43,,,7424BB,Deventer,Deventer,Overijssel,VBO,6.215173,52.260304
Beyerinckstraat,45,,,7424BB,Deventer,Deventer,Overijssel,VBO,6.215348,52.260245
Beyerinckstraat,2,,,7424BC,Deventer,Deventer,Overijssel,VBO,6.216188,52.260549
Beyerinckstraat,4,,,7424BC,Deventer,Deventer,Overijssel,VBO,6.216610,52.261184
Beyerinckstraat,6,,,7424BC,Deventer,Deventer,Overijssel,VBO,6.216656,52.261255
Beyerinckstraat,8,,,7424BC,Deventer,Deventer,Overijssel,VBO,6.216791,52.261443
Beyerinckstraat,10,,,7424BC,Deventer,Deventer,Overijssel,VBO,6.216513,52.261472
Beyerinckstraat,12,,,7424BC,Deventer,Deventer,Overijssel,VBO,6.216367,52.261509
Beyerinckstraat,14,,,7424BC,Deventer,Deventer,Overijssel,VBO,6.216192,52.261528
Beyerinckstraat,16,,,7424BC,Deventer,Deventer,Overijssel,VBO,6.215987,52.261548
Beyerinckstraat,18,,,7424BC,Deventer,Deventer,Overijssel,VBO,6.215841,52.261585
Beyerinckstraat,20,,,7424BC,Deventer,Deventer,Overijssel,VBO,6.215651,52.261604
Beyerinckstraat,22,,,7424BC,Deventer,Deventer,Overijssel,VBO,6.215520,52.261641
Beyerinckstraat,24,,,7424BC,Deventer,Deventer,Overijssel,VBO,6.215301,52.261651
Beyerinckstraat,26,,,7424BC,Deventer,Deventer,Overijssel,VBO,6.215141,52.261706
Beyerinckstraat,28,,,7424BD,Deventer,Deventer,Overijssel,VBO,6.215122,52.261482
Beyerinckstraat,30,,,7424BD,Deventer,Deventer,Overijssel,VBO,6.215077,52.261428
Beyerinckstraat,32,,,7424BD,Deventer,Deventer,Overijssel,VBO,6.215002,52.261348
Beyerinckstraat,34,,,7424BD,Deventer,Deventer,Overijssel,VBO,6.214957,52.261294
Beyerinckstraat,36,,,7424BD,Deventer,Deventer,Overijssel,VBO,6.214868,52.261205
Beyerinckstraat,38,,,7424BD,Deventer,Deventer,Overijssel,VBO,6.214823,52.261151
Beyerinckstraat,40,,,7424BD,Deventer,Deventer,Overijssel,VBO,6.214733,52.261071
Beyerinckstraat,42,,,7424BD,Deventer,Deventer,Overijssel,VBO,6.214688,52.261018
Beyerinckstraat,44,,,7424BD,Deventer,Deventer,Overijssel,VBO,6.214613,52.260919
Beyerinckstraat,46,,,7424BD,Deventer,Deventer,Overijssel,VBO,6.214554,52.260875
Beyerinckstraat,48,,,7424BD,Deventer,Deventer,Overijssel,VBO,6.214464,52.260794
Beyerinckstraat,50,,,7424BD,Deventer,Deventer,Overijssel,VBO,6.214419,52.260741
Beyerinckstraat,52,,,7424BD,Deventer,Deventer,Overijssel,VBO,6.214344,52.260642
Beyerinckstraat,54,,,7424BD,Deventer,Deventer,Overijssel,VBO,6.214270,52.260598
Beyerinckstraat,56,,,7424BD,Deventer,Deventer,Overijssel,VBO,6.213771,52.260548
Beyerinckstraat,58,A,,7424BD,Deventer,Deventer,Overijssel,VBO,6.214150,52.260428
Beyerinckstraat,58,B,,7424BD,Deventer,Deventer,Overijssel,VBO,6.214193,52.260401
Beyerinckstraat,60,A,,7424BD,Deventer,Deventer,Overijssel,VBO,6.214281,52.260382
Beyerinckstraat,60,B,,7424BD,Deventer,Deventer,Overijssel,VBO,6.214339,52.260355
Beyerinckstraat,62,,,7424BD,Deventer,Deventer,Overijssel,VBO,6.214455,52.260300
Beyerinckstraat,64,,,7424BD,Deventer,Deventer,Overijssel,VBO,6.214979,52.260108
Beyerinckstraat,66,,,7424BD,Deventer,Deventer,Overijssel,VBO,6.215168,52.260043
Beyerinckstraat,68,,,7424BD,Deventer,Deventer,Overijssel,VBO,6.216009,52.260370
Goudriaanpad,1,,,7424BE,Deventer,Deventer,Overijssel,VBO,6.216435,52.260430
Goudriaanpad,3,,,7424BE,Deventer,Deventer,Overijssel,VBO,6.216466,52.260502
Goudriaanpad,5,,,7424BE,Deventer,Deventer,Overijssel,VBO,6.216510,52.260546
Goudriaanpad,7,,,7424BE,Deventer,Deventer,Overijssel,VBO,6.216526,52.260591
Goudriaanpad,9,,,7424BE,Deventer,Deventer,Overijssel,VBO,6.216556,52.260636
Goudriaanpad,11,,,7424BE,Deventer,Deventer,Overijssel,VBO,6.216601,52.260690
Goudriaanpad,13,,,7424BE,Deventer,Deventer,Overijssel,VBO,6.216616,52.260734
Goudriaanpad,15,,,7424BE,Deventer,Deventer,Overijssel,VBO,6.216647,52.260779
Goudriaanpad,17,,,7424BE,Deventer,Deventer,Overijssel,VBO,6.216677,52.260824
Goudriaanpad,19,,,7424BE,Deventer,Deventer,Overijssel,VBO,6.216721,52.260859
Goudriaanpad,21,,,7424BE,Deventer,Deventer,Overijssel,VBO,6.216751,52.260904
Goudriaanpad,23,,,7424BE,Deventer,Deventer,Overijssel,VBO,6.216767,52.260949
Goudriaanpad,25,,,7424BE,Deventer,Deventer,Overijssel,VBO,6.216812,52.260994
Goudriaanpad,27,,,7424BE,Deventer,Deventer,Overijssel,VBO,6.216842,52.261038
Goudriaanpad,29,,,7424BE,Deventer,Deventer,Overijssel,VBO,6.216916,52.261101
Goudriaanpad,31,,,7424BE,Deventer,Deventer,Overijssel,VBO,6.216977,52.261190
Goudriaanpad,33,,,7424BE,Deventer,Deventer,Overijssel,VBO,6.217008,52.261289
Goudriaanpad,35,,,7424BE,Deventer,Deventer,Overijssel,VBO,6.217038,52.261334
Goudriaanpad,37,,,7424BE,Deventer,Deventer,Overijssel,VBO,6.217097,52.261387
Goudriaanpad,2,,,7424BG,Deventer,Deventer,Overijssel,VBO,6.216974,52.260255
Goudriaanpad,4,,,7424BG,Deventer,Deventer,Overijssel,VBO,6.217019,52.260309
Goudriaanpad,6,,,7424BG,Deventer,Deventer,Overijssel,VBO,6.217063,52.260354
Goudriaanpad,8,,,7424BG,Deventer,Deventer,Overijssel,VBO,6.217108,52.260407
Goudriaanpad,10,,,7424BG,Deventer,Deventer,Overijssel,VBO,6.217139,52.260452
Goudriaanpad,12,,,7424BG,Deventer,Deventer,Overijssel,VBO,6.217169,52.260506
Goudriaanpad,14,,,7424BG,Deventer,Deventer,Overijssel,VBO,6.217199,52.260551
Goudriaanpad,16,,,7424BG,Deventer,Deventer,Overijssel,VBO,6.217229,52.260595
Goudriaanpad,18,,,7424BG,Deventer,Deventer,Overijssel,VBO,6.217259,52.260649
Goudriaanpad,20,,,7424BG,Deventer,Deventer,Overijssel,VBO,6.217304,52.260694
Goudriaanpad,22,,,7424BG,Deventer,Deventer,Overijssel,VBO,6.217334,52.260747
Goudriaanpad,24,,,7424BG,Deventer,Deventer,Overijssel,VBO,6.217365,52.260792
Goudriaanpad,26,,,7424BG,Deventer,Deventer,Overijssel,VBO,6.217410,52.260846
Goudriaanpad,28,,,7424BG,Deventer,Deventer,Overijssel,VBO,6.217441,52.260935
Goudriaanpad,30,,,7424BG,Deventer,Deventer,Overijssel,VBO,6.217485,52.260980
Goudriaanpad,32,,,7424BG,Deventer,Deventer,Overijssel,VBO,6.217530,52.261025
Goudriaanpad,34,,,7424BG,Deventer,Deventer,Overijssel,VBO,6.217531,52.261087
Goudriaanpad,36,,,7424BG,Deventer,Deventer,Overijssel,VBO,6.217576,52.261132
Goudriaanpad,38,,,7424BG,Deventer,Deventer,Overijssel,VBO,6.217621,52.261177
Goudriaanpad,40,,,7424BG,Deventer,Deventer,Overijssel,VBO,6.217651,52.261239
Goudriaanpad,42,,,7424BG,Deventer,Deventer,Overijssel,VBO,6.217681,52.261275
Christiaan Bruningsstraat,1,,,7424BH,Deventer,Deventer,Overijssel,VBO,6.217560,52.260260
Christiaan Bruningsstraat,3,,,7424BH,Deventer,Deventer,Overijssel,VBO,6.217575,52.260314
Christiaan Bruningsstraat,5,,,7424BH,Deventer,Deventer,Overijssel,VBO,6.217606,52.260368
Christiaan Bruningsstraat,7,,,7424BH,Deventer,Deventer,Overijssel,VBO,6.217636,52.260413
Christiaan Bruningsstraat,9,,,7424BH,Deventer,Deventer,Overijssel,VBO,6.217666,52.260457
Christiaan Bruningsstraat,11,,,7424BH,Deventer,Deventer,Overijssel,VBO,6.217711,52.260511
Christiaan Bruningsstraat,13,,,7424BH,Deventer,Deventer,Overijssel,VBO,6.217741,52.260556
Christiaan Bruningsstraat,15,,,7424BH,Deventer,Deventer,Overijssel,VBO,6.217771,52.260600
Christiaan Bruningsstraat,17,,,7424BH,Deventer,Deventer,Overijssel,VBO,6.217801,52.260645
Christiaan Bruningsstraat,19,,,7424BH,Deventer,Deventer,Overijssel,VBO,6.217832,52.260699
Christiaan Bruningsstraat,21,,,7424BH,Deventer,Deventer,Overijssel,VBO,6.217982,52.260905
Christiaan Bruningsstraat,23,,,7424BH,Deventer,Deventer,Overijssel,VBO,6.218012,52.260949
Christiaan Bruningsstraat,25,,,7424BH,Deventer,Deventer,Overijssel,VBO,6.218043,52.261012
Christiaan Bruningsstraat,27,,,7424BH,Deventer,Deventer,Overijssel,VBO,6.218072,52.261048
Christiaan Bruningsstraat,29,,,7424BH,Deventer,Deventer,Overijssel,VBO,6.218103,52.261110
Christiaan Bruningsstraat,31,,,7424BJ,Deventer,Deventer,Overijssel,VBO,6.218393,52.260965
Christiaan Bruningsstraat,33,,,7424BJ,Deventer,Deventer,Overijssel,VBO,6.218466,52.260937
Christiaan Bruningsstraat,35,,,7424BJ,Deventer,Deventer,Overijssel,VBO,6.218539,52.260910
Christiaan Bruningsstraat,37,,,7424BJ,Deventer,Deventer,Overijssel,VBO,6.218611,52.260873
Christiaan Bruningsstraat,39,,,7424BJ,Deventer,Deventer,Overijssel,VBO,6.218699,52.260846
Christiaan Bruningsstraat,41,,,7424BJ,Deventer,Deventer,Overijssel,VBO,6.218786,52.260809
Christiaan Bruningsstraat,43,,,7424BJ,Deventer,Deventer,Overijssel,VBO,6.218844,52.260782
Christiaan Bruningsstraat,45,,,7424BJ,Deventer,Deventer,Overijssel,VBO,6.218902,52.260763
Christiaan Bruningsstraat,47,,,7424BJ,Deventer,Deventer,Overijssel,VBO,6.218975,52.260718
Christiaan Bruningsstraat,49,,,7424BJ,Deventer,Deventer,Overijssel,VBO,6.219062,52.260699
Christiaan Bruningsstraat,2,,,7424BK,Deventer,Deventer,Overijssel,VBO,6.217557,52.260117
Christiaan Bruningsstraat,4,,,7424BK,Deventer,Deventer,Overijssel,VBO,6.217586,52.260071
Christiaan Bruningsstraat,6,,,7424BK,Deventer,Deventer,Overijssel,VBO,6.217614,52.260017
Christiaan Bruningsstraat,8,,,7424BK,Deventer,Deventer,Overijssel,VBO,6.217657,52.259963
Christiaan Bruningsstraat,10,,,7424BK,Deventer,Deventer,Overijssel,VBO,6.217685,52.259918
Christiaan Bruningsstraat,12,,,7424BK,Deventer,Deventer,Overijssel,VBO,6.217728,52.259864
Christiaan Bruningsstraat,14,,,7424BK,Deventer,Deventer,Overijssel,VBO,6.217826,52.259629
Christiaan Bruningsstraat,16,,,7424BK,Deventer,Deventer,Overijssel,VBO,6.217855,52.259584
Christiaan Bruningsstraat,18,,,7424BK,Deventer,Deventer,Overijssel,VBO,6.217854,52.259530
Christiaan Bruningsstraat,20,,,7424BK,Deventer,Deventer,Overijssel,VBO,6.217911,52.259476
Christiaan Bruningsstraat,22,,,7424BL,Deventer,Deventer,Overijssel,VBO,6.218112,52.259268
Christiaan Bruningsstraat,24,,,7424BL,Deventer,Deventer,Overijssel,VBO,6.218170,52.259222
Christiaan Bruningsstraat,26,,,7424BL,Deventer,Deventer,Overijssel,VBO,6.218213,52.259177
Christiaan Bruningsstraat,28,,,7424BL,Deventer,Deventer,Overijssel,VBO,6.218271,52.259132
Christiaan Bruningsstraat,30,,,7424BL,Deventer,Deventer,Overijssel,VBO,6.218314,52.259087
Christiaan Bruningsstraat,32,,,7424BL,Deventer,Deventer,Overijssel,VBO,6.218372,52.259050
Christiaan Bruningsstraat,34,,,7424BL,Deventer,Deventer,Overijssel,VBO,6.218415,52.259005
Christiaan Bruningsstraat,36,,,7424BL,Deventer,Deventer,Overijssel,VBO,6.218473,52.258951
Christiaan Bruningsstraat,38,,,7424BL,Deventer,Deventer,Overijssel,VBO,6.218501,52.258914
Christiaan Bruningsstraat,40,,,7424BL,Deventer,Deventer,Overijssel,VBO,6.218703,52.258751
Christiaan Bruningsstraat,42,,,7424BL,Deventer,Deventer,Overijssel,VBO,6.218761,52.258706
Christiaan Bruningsstraat,44,,,7424BL,Deventer,Deventer,Overijssel,VBO,6.218804,52.258661
Christiaan Bruningsstraat,46,,,7424BL,Deventer,Deventer,Overijssel,VBO,6.218948,52.258507
Christiaan Bruningsstraat,48,,,7424BL,Deventer,Deventer,Overijssel,VBO,6.218874,52.258480
Calandhof,1,,,7424BM,Deventer,Deventer,Overijssel,VBO,6.218212,52.260678
Calandhof,3,,,7424BM,Deventer,Deventer,Overijssel,VBO,6.218285,52.260642
Calandhof,5,,,7424BM,Deventer,Deventer,Overijssel,VBO,6.218357,52.260605
Calandhof,7,,,7424BM,Deventer,Deventer,Overijssel,VBO,6.218430,52.260578
Calandhof,9,,,7424BM,Deventer,Deventer,Overijssel,VBO,6.218503,52.260550
Calandhof,11,,,7424BM,Deventer,Deventer,Overijssel,VBO,6.218575,52.260523
Calandhof,13,,,7424BM,Deventer,Deventer,Overijssel,VBO,6.218648,52.260495
Calandhof,15,,,7424BM,Deventer,Deventer,Overijssel,VBO,6.218735,52.260459
Calandhof,17,,,7424BM,Deventer,Deventer,Overijssel,VBO,6.218793,52.260431
Calandhof,19,,,7424BM,Deventer,Deventer,Overijssel,VBO,6.218881,52.260395
Calandhof,2,,,7424BN,Deventer,Deventer,Overijssel,VBO,6.218065,52.259861
Calandhof,4,,,7424BN,Deventer,Deventer,Overijssel,VBO,6.218153,52.259879
Calandhof,6,,,7424BN,Deventer,Deventer,Overijssel,VBO,6.218256,52.259896
Calandhof,8,,,7424BN,Deventer,Deventer,Overijssel,VBO,6.218315,52.259904
Calandhof,10,,,7424BN,Deventer,Deventer,Overijssel,VBO,6.218418,52.259922
Calandhof,12,,,7424BN,Deventer,Deventer,Overijssel,VBO,6.218506,52.259948
Calandhof,14,,,7424BN,Deventer,Deventer,Overijssel,VBO,6.218594,52.259956
Calandhof,16,,,7424BN,Deventer,Deventer,Overijssel,VBO,6.218667,52.259965
Calandhof,18,,,7424BN,Deventer,Deventer,Overijssel,VBO,6.218770,52.259991
Calandhof,20,,,7424BN,Deventer,Deventer,Overijssel,VBO,6.218844,52.259991
Frogerweg,1,,,7424BP,Deventer,Deventer,Overijssel,VBO,6.218250,52.259563
Frogerweg,3,,,7424BP,Deventer,Deventer,Overijssel,VBO,6.218338,52.259581
Frogerweg,5,,,7424BP,Deventer,Deventer,Overijssel,VBO,6.218426,52.259598
Frogerweg,7,,,7424BP,Deventer,Deventer,Overijssel,VBO,6.218500,52.259607
Frogerweg,9,,,7424BP,Deventer,Deventer,Overijssel,VBO,6.218573,52.259624
Frogerweg,11,,,7424BP,Deventer,Deventer,Overijssel,VBO,6.218661,52.259632
Frogerweg,13,,,7424BP,Deventer,Deventer,Overijssel,VBO,6.218735,52.259650
Frogerweg,15,,,7424BP,Deventer,Deventer,Overijssel,VBO,6.218823,52.259667
Frogerweg,17,,,7424BP,Deventer,Deventer,Overijssel,VBO,6.218911,52.259676
Frogerweg,2,,,7424BR,Deventer,Deventer,Overijssel,VBO,6.218465,52.259328
Frogerweg,4,,,7424BR,Deventer,Deventer,Overijssel,VBO,6.218553,52.259346
Frogerweg,6,,,7424BR,Deventer,Deventer,Overijssel,VBO,6.218642,52.259363
Frogerweg,8,,,7424BR,Deventer,Deventer,Overijssel,VBO,6.218730,52.259380
Frogerweg,10,,,7424BR,Deventer,Deventer,Overijssel,VBO,6.218818,52.259398
Frogerweg,12,,,7424BR,Deventer,Deventer,Overijssel,VBO,6.218906,52.259415
Conradstraat,1,,,7424BS,Deventer,Deventer,Overijssel,VBO,6.219295,52.260608
Conradstraat,3,,,7424BS,Deventer,Deventer,Overijssel,VBO,6.219294,52.260545
Conradstraat,5,,,7424BS,Deventer,Deventer,Overijssel,VBO,6.219260,52.260338
Conradstraat,7,,,7424BS,Deventer,Deventer,Overijssel,VBO,6.219259,52.260275
Conradstraat,9,,,7424BS,Deventer,Deventer,Overijssel,VBO,6.219226,52.260078
Conradstraat,11,,,7424BS,Deventer,Deventer,Overijssel,VBO,6.219225,52.260015
Conradstraat,13,,,7424BS,Deventer,Deventer,Overijssel,VBO,6.219207,52.259808
Conradstraat,15,,,7424BS,Deventer,Deventer,Overijssel,VBO,6.219191,52.259746
Conradstraat,17,,,7424BS,Deventer,Deventer,Overijssel,VBO,6.219170,52.259449
Conradstraat,19,,,7424BS,Deventer,Deventer,Overijssel,VBO,6.219169,52.259386
Conradstraat,21,,,7424BS,Deventer,Deventer,Overijssel,VBO,6.219152,52.259233
Conradstraat,23,,,7424BS,Deventer,Deventer,Overijssel,VBO,6.219122,52.259180
Conradstraat,25,,,7424BS,Deventer,Deventer,Overijssel,VBO,6.219118,52.259009
Conradstraat,27,,,7424BS,Deventer,Deventer,Overijssel,VBO,6.219103,52.258955
Conradstraat,29,,,7424BS,Deventer,Deventer,Overijssel,VBO,6.219084,52.258792
Conradstraat,31,,,7424BS,Deventer,Deventer,Overijssel,VBO,6.219084,52.258740
Conradstraat,2,,,7424BT,Deventer,Deventer,Overijssel,VBO,6.218858,52.259173
Conradstraat,4,,,7424BT,Deventer,Deventer,Overijssel,VBO,6.218784,52.259146
Conradstraat,6,,,7424BT,Deventer,Deventer,Overijssel,VBO,6.218710,52.259120
Cornelis Lelylaan,1,,,7424CA,Deventer,Deventer,Overijssel,VBO,6.213622,52.260378
Cornelis Lelylaan,3,,,7424CA,Deventer,Deventer,Overijssel,VBO,6.213709,52.260350
Cornelis Lelylaan,5,,,7424CA,Deventer,Deventer,Overijssel,VBO,6.213767,52.260332
Cornelis Lelylaan,7,,,7424CA,Deventer,Deventer,Overijssel,VBO,6.213840,52.260304
Cornelis Lelylaan,9,,,7424CA,Deventer,Deventer,Overijssel,VBO,6.213898,52.260268
Cornelis Lelylaan,11,A,,7424CA,Deventer,Deventer,Overijssel,VBO,6.213971,52.260241
Cornelis Lelylaan,11,B,,7424CA,Deventer,Deventer,Overijssel,VBO,6.214014,52.260222
Cornelis Lelylaan,13,A,,7424CA,Deventer,Deventer,Overijssel,VBO,6.214116,52.260186
Cornelis Lelylaan,13,B,,7424CA,Deventer,Deventer,Overijssel,VBO,6.214160,52.260176
Cornelis Lelylaan,15,A,,7424CA,Deventer,Deventer,Overijssel,VBO,6.214262,52.260131
Cornelis Lelylaan,15,B,,7424CA,Deventer,Deventer,Overijssel,VBO,6.214320,52.260112
Cornelis Lelylaan,17,,,7424CA,Deventer,Deventer,Overijssel,VBO,6.214393,52.260085
Cornelis Lelylaan,19,,,7424CA,Deventer,Deventer,Overijssel,VBO,6.214465,52.260057
Cornelis Lelylaan,21,,,7424CA,Deventer,Deventer,Overijssel,VBO,6.214524,52.260048
Cornelis Lelylaan,23,,,7424CA,Deventer,Deventer,Overijssel,VBO,6.214611,52.260020
Cornelis Lelylaan,25,,,7424CA,Deventer,Deventer,Overijssel,VBO,6.214684,52.260002
Cornelis Lelylaan,27,,,7424CA,Deventer,Deventer,Overijssel,VBO,6.214757,52.259974
Cornelis Lelylaan,29,,,7424CA,Deventer,Deventer,Overijssel,VBO,6.214844,52.259920
Cornelis Lelylaan,31,,,7424CA,Deventer,Deventer,Overijssel,VBO,6.214974,52.259865
Cornelis Lelylaan,33,,,7424CB,Deventer,Deventer,Overijssel,VBO,6.215106,52.259828
Cornelis Lelylaan,35,,,7424CB,Deventer,Deventer,Overijssel,VBO,6.215237,52.259800
Cornelis Lelylaan,37,,,7424CB,Deventer,Deventer,Overijssel,VBO,6.215310,52.259800
Cornelis Lelylaan,39,,,7424CB,Deventer,Deventer,Overijssel,VBO,6.215413,52.259844
Cornelis Lelylaan,41,,,7424CB,Deventer,Deventer,Overijssel,VBO,6.215487,52.259879
Cornelis Lelylaan,43,,,7424CB,Deventer,Deventer,Overijssel,VBO,6.215547,52.259915
Cornelis Lelylaan,45,,,7424CB,Deventer,Deventer,Overijssel,VBO,6.215621,52.259959
Cornelis Lelylaan,47,,,7424CB,Deventer,Deventer,Overijssel,VBO,6.215680,52.259986
Cornelis Lelylaan,49,,,7424CB,Deventer,Deventer,Overijssel,VBO,6.215814,52.260021
Cornelis Lelylaan,51,,,7424CB,Deventer,Deventer,Overijssel,VBO,6.215881,52.260062
Cornelis Lelylaan,53,,,7424CB,Deventer,Deventer,Overijssel,VBO,6.215953,52.260093
Cornelis Lelylaan,55,,,7424CB,Deventer,Deventer,Overijssel,VBO,6.216020,52.260127
Cornelis Lelylaan,57,,,7424CB,Deventer,Deventer,Overijssel,VBO,6.216088,52.260163
Cornelis Lelylaan,59,,,7424CB,Deventer,Deventer,Overijssel,VBO,6.216154,52.260195
Cornelis Lelylaan,61,,,7424CB,Deventer,Deventer,Overijssel,VBO,6.216227,52.260252
Cornelis Lelylaan,63,,,7424CC,Deventer,Deventer,Overijssel,VBO,6.216971,52.260112
Cornelis Lelylaan,65,,,7424CC,Deventer,Deventer,Overijssel,VBO,6.217010,52.260069
Cornelis Lelylaan,67,,,7424CC,Deventer,Deventer,Overijssel,VBO,6.217042,52.260019
Cornelis Lelylaan,69,,,7424CC,Deventer,Deventer,Overijssel,VBO,6.217068,52.259974
Cornelis Lelylaan,71,,,7424CC,Deventer,Deventer,Overijssel,VBO,6.217099,52.259904
Cornelis Lelylaan,73,,,7424CC,Deventer,Deventer,Overijssel,VBO,6.217142,52.259859
Cornelis Lelylaan,75,,,7424CC,Deventer,Deventer,Overijssel,VBO,6.217176,52.259812
Cornelis Lelylaan,77,,,7424CC,Deventer,Deventer,Overijssel,VBO,6.217214,52.259768
Cornelis Lelylaan,79,,,7424CC,Deventer,Deventer,Overijssel,VBO,6.217226,52.259734
Cornelis Lelylaan,81,,,7424CC,Deventer,Deventer,Overijssel,VBO,6.217314,52.259651
Cornelis Lelylaan,83,,,7424CC,Deventer,Deventer,Overijssel,VBO,6.217342,52.259606
Cornelis Lelylaan,85,,,7424CC,Deventer,Deventer,Overijssel,VBO,6.217371,52.259552
Cornelis Lelylaan,87,,,7424CC,Deventer,Deventer,Overijssel,VBO,6.217414,52.259506
Cornelis Lelylaan,89,,,7424CC,Deventer,Deventer,Overijssel,VBO,6.217428,52.259461
Cornelis Lelylaan,91,,,7424CC,Deventer,Deventer,Overijssel,VBO,6.217471,52.259407
Cornelis Lelylaan,2,,,7424CD,Deventer,Deventer,Overijssel,VBO,6.212402,52.260189
Cornelis Lelylaan,4,,,7424CD,Deventer,Deventer,Overijssel,VBO,6.212490,52.260188
Cornelis Lelylaan,6,,,7424CD,Deventer,Deventer,Overijssel,VBO,6.212578,52.260187
Cornelis Lelylaan,8,,,7424CD,Deventer,Deventer,Overijssel,VBO,6.212681,52.260178
Cornelis Lelylaan,10,,,7424CD,Deventer,Deventer,Overijssel,VBO,6.212768,52.260177
Cornelis Lelylaan,12,,,7424CD,Deventer,Deventer,Overijssel,VBO,6.212856,52.260158
Cornelis Lelylaan,14,,,7424CD,Deventer,Deventer,Overijssel,VBO,6.212944,52.260158
Cornelis Lelylaan,16,,,7424CD,Deventer,Deventer,Overijssel,VBO,6.213046,52.260148
Cornelis Lelylaan,18,,,7424CD,Deventer,Deventer,Overijssel,VBO,6.213119,52.260112
Cornelis Lelylaan,20,,,7424CE,Deventer,Deventer,Overijssel,VBO,6.213454,52.260028
Cornelis Lelylaan,22,,,7424CE,Deventer,Deventer,Overijssel,VBO,6.213512,52.259974
Cornelis Lelylaan,24,,,7424CE,Deventer,Deventer,Overijssel,VBO,6.213584,52.259947
Cornelis Lelylaan,26,,,7424CE,Deventer,Deventer,Overijssel,VBO,6.213672,52.259928
Cornelis Lelylaan,28,,,7424CE,Deventer,Deventer,Overijssel,VBO,6.213759,52.259901
Cornelis Lelylaan,30,,,7424CE,Deventer,Deventer,Overijssel,VBO,6.213820,52.259872
Cornelis Lelylaan,32,,,7424CE,Deventer,Deventer,Overijssel,VBO,6.213905,52.259837
Cornelis Lelylaan,34,,,7424CE,Deventer,Deventer,Overijssel,VBO,6.213977,52.259809
Cornelis Lelylaan,36,,,7424CE,Deventer,Deventer,Overijssel,VBO,6.214050,52.259782
Cornelis Lelylaan,38,,,7424CE,Deventer,Deventer,Overijssel,VBO,6.214123,52.259754
Cornelis Lelylaan,40,,,7424CE,Deventer,Deventer,Overijssel,VBO,6.214283,52.259699
Cornelis Lelylaan,42,,,7424CE,Deventer,Deventer,Overijssel,VBO,6.214356,52.259672
Cornelis Lelylaan,44,,,7424CE,Deventer,Deventer,Overijssel,VBO,6.214428,52.259644
Cornelis Lelylaan,46,,,7424CE,Deventer,Deventer,Overijssel,VBO,6.214516,52.259617
Cornelis Lelylaan,48,,,7424CE,Deventer,Deventer,Overijssel,VBO,6.214588,52.259589
Cornelis Lelylaan,50,,,7424CE,Deventer,Deventer,Overijssel,VBO,6.214647,52.259571
Cornelis Lelylaan,52,,,7424CE,Deventer,Deventer,Overijssel,VBO,6.214734,52.259534
Cornelis Lelylaan,54,,,7424CE,Deventer,Deventer,Overijssel,VBO,6.214807,52.259507
Cornelis Lelylaan,56,,,7424CE,Deventer,Deventer,Overijssel,VBO,6.214879,52.259479
Cornelis Lelylaan,58,,,7424CE,Deventer,Deventer,Overijssel,VBO,6.214996,52.259442
Cornelis Lelylaan,60,,,7424CG,Deventer,Deventer,Overijssel,VBO,6.215317,52.259359
Cornelis Lelylaan,62,,,7424CG,Deventer,Deventer,Overijssel,VBO,6.215419,52.259332
Cornelis Lelylaan,64,,,7424CG,Deventer,Deventer,Overijssel,VBO,6.215506,52.259322
Cornelis Lelylaan,66,,,7424CG,Deventer,Deventer,Overijssel,VBO,6.215579,52.259304
Cornelis Lelylaan,68,,,7424CG,Deventer,Deventer,Overijssel,VBO,6.215652,52.259285
Cornelis Lelylaan,70,,,7424CG,Deventer,Deventer,Overijssel,VBO,6.215754,52.259275
Cornelis Lelylaan,72,,,7424CG,Deventer,Deventer,Overijssel,VBO,6.215842,52.259257
Cornelis Lelylaan,74,,,7424CG,Deventer,Deventer,Overijssel,VBO,6.215930,52.259247
Cornelis Lelylaan,76,,,7424CG,Deventer,Deventer,Overijssel,VBO,6.216017,52.259229
Cornelis Lelylaan,78,,,7424CG,Deventer,Deventer,Overijssel,VBO,6.216178,52.259200
Cornelis Lelylaan,80,,,7424CG,Deventer,Deventer,Overijssel,VBO,6.216280,52.259191
Cornelis Lelylaan,82,,,7424CG,Deventer,Deventer,Overijssel,VBO,6.216368,52.259181
Cornelis Lelylaan,84,,,7424CG,Deventer,Deventer,Overijssel,VBO,6.216441,52.259163
Cornelis Lelylaan,86,,,7424CG,Deventer,Deventer,Overijssel,VBO,6.216543,52.259144
Cornelis Lelylaan,88,,,7424CG,Deventer,Deventer,Overijssel,VBO,6.216616,52.259134
Cornelis Lelylaan,90,,,7424CG,Deventer,Deventer,Overijssel,VBO,6.216704,52.259125
Cornelis Lelylaan,92,,,7424CG,Deventer,Deventer,Overijssel,VBO,6.216791,52.259106
Cornelis Lelylaan,94,,,7424CG,Deventer,Deventer,Overijssel,VBO,6.216893,52.259088
Hendrik Verheesstraat,1,,,7424CH,Deventer,Deventer,Overijssel,VBO,6.212456,52.259892
Hendrik Verheesstraat,3,,,7424CH,Deventer,Deventer,Overijssel,VBO,6.212424,52.259757
Hendrik Verheesstraat,5,,,7424CH,Deventer,Deventer,Overijssel,VBO,6.212377,52.259605
Hendrik Verheesstraat,2,,,7424CJ,Deventer,Deventer,Overijssel,VBO,6.211609,52.260032
Hendrik Verheesstraat,4,,,7424CJ,Deventer,Deventer,Overijssel,VBO,6.211609,52.260077
Hendrik Verheesstraat,6,,,7424CJ,Deventer,Deventer,Overijssel,VBO,6.211625,52.260104
Hendrik Verheesstraat,8,,,7424CJ,Deventer,Deventer,Overijssel,VBO,6.211625,52.260140
Hendrik Verheesstraat,10,,,7424CJ,Deventer,Deventer,Overijssel,VBO,6.211699,52.260194
Hendrik Verheesstraat,12,,,7424CJ,Deventer,Deventer,Overijssel,VBO,6.211772,52.260184
Hendrik Verheesstraat,14,,,7424CJ,Deventer,Deventer,Overijssel,VBO,6.211890,52.260183
Hendrik Verheesstraat,16,,,7424CJ,Deventer,Deventer,Overijssel,VBO,6.211992,52.260174
Hendrik Verheesstraat,18,,,7424CJ,Deventer,Deventer,Overijssel,VBO,6.212080,52.260173
Hendrik Verheesstraat,20,,,7424CJ,Deventer,Deventer,Overijssel,VBO,6.211700,52.260220
Hendrik Verheesstraat,22,,,7424CJ,Deventer,Deventer,Overijssel,VBO,6.211788,52.260220
Hendrik Verheesstraat,24,,,7424CJ,Deventer,Deventer,Overijssel,VBO,6.211890,52.260210
Hendrik Verheesstraat,26,,,7424CJ,Deventer,Deventer,Overijssel,VBO,6.211993,52.260209
Hendrik Verheesstraat,28,,,7424CJ,Deventer,Deventer,Overijssel,VBO,6.212080,52.260200
Hendrik Verheesstraat,30,,,7424CJ,Deventer,Deventer,Overijssel,VBO,6.211550,52.260033
Hendrik Verheesstraat,32,,,7424CJ,Deventer,Deventer,Overijssel,VBO,6.211565,52.260069
Hendrik Verheesstraat,34,,,7424CJ,Deventer,Deventer,Overijssel,VBO,6.211566,52.260114
Hendrik Verheesstraat,36,,,7424CJ,Deventer,Deventer,Overijssel,VBO,6.211567,52.260150
Hendrik Verheesstraat,38,,,7424CJ,Deventer,Deventer,Overijssel,VBO,6.211582,52.260194
Hendrik Verheesstraat,40,,,7424CJ,Deventer,Deventer,Overijssel,VBO,6.211583,52.260239
Hendrik Verheesstraat,42,,,7424CJ,Deventer,Deventer,Overijssel,VBO,6.211715,52.260265
Hendrik Verheesstraat,44,,,7424CJ,Deventer,Deventer,Overijssel,VBO,6.211803,52.260265
Hendrik Verheesstraat,46,,,7424CJ,Deventer,Deventer,Overijssel,VBO,6.211906,52.260255
Hendrik Verheesstraat,48,,,7424CJ,Deventer,Deventer,Overijssel,VBO,6.211994,52.260254
Hendrik Verheesstraat,50,,,7424CJ,Deventer,Deventer,Overijssel,VBO,6.212096,52.260254
Hendrik Verheesstraat,52,,,7424CJ,Deventer,Deventer,Overijssel,VBO,6.211492,52.260042
Hendrik Verheesstraat,54,,,7424CJ,Deventer,Deventer,Overijssel,VBO,6.211507,52.260078
Hendrik Verheesstraat,56,,,7424CJ,Deventer,Deventer,Overijssel,VBO,6.211508,52.260114
Hendrik Verheesstraat,58,,,7424CJ,Deventer,Deventer,Overijssel,VBO,6.211523,52.260150
Hendrik Verheesstraat,60,,,7424CJ,Deventer,Deventer,Overijssel,VBO,6.211524,52.260195
Hendrik Verheesstraat,62,,,7424CJ,Deventer,Deventer,Overijssel,VBO,6.211525,52.260240
Hendrik Verheesstraat,64,,,7424CJ,Deventer,Deventer,Overijssel,VBO,6.211434,52.260114
Hendrik Verheesstraat,66,,,7424CJ,Deventer,Deventer,Overijssel,VBO,6.211450,52.260159
Hendrik Verheesstraat,68,,,7424CJ,Deventer,Deventer,Overijssel,VBO,6.211451,52.260204
Hendrik Verheesstraat,70,,,7424CJ,Deventer,Deventer,Overijssel,VBO,6.211466,52.260249
Leopold van der Kunstraat,1,,,7424CK,Deventer,Deventer,Overijssel,VBO,6.213375,52.259723
Leopold van der Kunstraat,2,,,7424CK,Deventer,Deventer,Overijssel,VBO,6.212894,52.259835
Leopold van der Kunstraat,3,,,7424CK,Deventer,Deventer,Overijssel,VBO,6.213314,52.259607
Leopold van der Kunstraat,4,,,7424CK,Deventer,Deventer,Overijssel,VBO,6.212803,52.259700
Leopold van der Kunstraat,5,,,7424CK,Deventer,Deventer,Overijssel,VBO,6.213209,52.259455
Leopold van der Kunstraat,6,,,7424CK,Deventer,Deventer,Overijssel,VBO,6.212742,52.259548
Leopold van der Kunstraat,7,,,7424CK,Deventer,Deventer,Overijssel,VBO,6.213207,52.259347
Leopold van der Kunstraat,8,,,7424CK,Deventer,Deventer,Overijssel,VBO,6.212652,52.259423
Leopold van der Kunstraat,9,,,7424CK,Deventer,Deventer,Overijssel,VBO,6.213072,52.259186
Wentholtstraat,1,,,7424CL,Deventer,Deventer,Overijssel,VBO,6.214261,52.259322
Wentholtstraat,2,,,7424CL,Deventer,Deventer,Overijssel,VBO,6.213812,52.259604
Wentholtstraat,3,,,7424CL,Deventer,Deventer,Overijssel,VBO,6.214156,52.259170
Wentholtstraat,4,,,7424CL,Deventer,Deventer,Overijssel,VBO,6.213693,52.259461
Wentholtstraat,5,,,7424CL,Deventer,Deventer,Overijssel,VBO,6.214109,52.259035
Wentholtstraat,6,,,7424CL,Deventer,Deventer,Overijssel,VBO,6.213602,52.259308
Wentholtstraat,7,,,7424CL,Deventer,Deventer,Overijssel,VBO,6.214004,52.258892
Wentholtstraat,8,,,7424CL,Deventer,Deventer,Overijssel,VBO,6.213467,52.259166
Wentholtstraat,10,,,7424CL,Deventer,Deventer,Overijssel,VBO,6.213362,52.259040
Ringersstraat,1,,,7424CM,Deventer,Deventer,Overijssel,VBO,6.215105,52.259037
Ringersstraat,2,T,,7424CM,Deventer,Deventer,Overijssel,VBO,6.214758,52.259255
Ringersstraat,2,,,7424CM,Deventer,Deventer,Overijssel,VBO,6.214712,52.259148
Ringersstraat,3,,,7424CM,Deventer,Deventer,Overijssel,VBO,6.215030,52.258912
Ringersstraat,4,,,7424CM,Deventer,Deventer,Overijssel,VBO,6.214563,52.259023
Ringersstraat,5,,,7424CM,Deventer,Deventer,Overijssel,VBO,6.214925,52.258787
Ringersstraat,6,,,7424CM,Deventer,Deventer,Overijssel,VBO,6.214458,52.258889
Ringersstraat,7,,,7424CM,Deventer,Deventer,Overijssel,VBO,6.214820,52.258653
Ringersstraat,8,,,7424CM,Deventer,Deventer,Overijssel,VBO,6.214323,52.258728
Witteveenstraat,1,,,7424CN,Deventer,Deventer,Overijssel,VBO,6.216173,52.258967
Witteveenstraat,2,,,7424CN,Deventer,Deventer,Overijssel,VBO,6.215587,52.258962
Witteveenstraat,3,,,7424CN,Deventer,Deventer,Overijssel,VBO,6.216098,52.258841
Witteveenstraat,4,,,7424CN,Deventer,Deventer,Overijssel,VBO,6.215468,52.258837
Witteveenstraat,5,,,7424CN,Deventer,Deventer,Overijssel,VBO,6.216008,52.258743
Witteveenstraat,6,,,7424CN,Deventer,Deventer,Overijssel,VBO,6.215348,52.258703
Witteveenstraat,7,,,7424CN,Deventer,Deventer,Overijssel,VBO,6.215918,52.258600
Witteveenstraat,8,,,7424CN,Deventer,Deventer,Overijssel,VBO,6.215244,52.258596
Witteveenstraat,9,,,7424CN,Deventer,Deventer,Overijssel,VBO,6.215827,52.258475
Melchior Bolstrastraat,1,,,7424CP,Deventer,Deventer,Overijssel,STA,6.217312,52.258295
Melchior Bolstrastraat,3,,,7424CP,Deventer,Deventer,Overijssel,STA,6.217219,52.258364
Melchior Bolstrastraat,5,,,7424CP,Deventer,Deventer,Overijssel,STA,6.217137,52.258435
Melchior Bolstrastraat,7,,,7424CP,Deventer,Deventer,Overijssel,STA,6.217055,52.258506
Melchior Bolstrastraat,9,,,7424CP,Deventer,Deventer,Overijssel,STA,6.216964,52.258594
Melchior Bolstrastraat,2,,,7424CR,Deventer,Deventer,Overijssel,VBO,6.216670,52.258891
Melchior Bolstrastraat,4,,,7424CR,Deventer,Deventer,Overijssel,VBO,6.216610,52.258829
Melchior Bolstrastraat,6,,,7424CR,Deventer,Deventer,Overijssel,VBO,6.216580,52.258766
Melchior Bolstrastraat,8,,,7424CR,Deventer,Deventer,Overijssel,VBO,6.216550,52.258730
Melchior Bolstrastraat,10,,,7424CR,Deventer,Deventer,Overijssel,VBO,6.216505,52.258686
Melchior Bolstrastraat,12,,,7424CR,Deventer,Deventer,Overijssel,VBO,6.216475,52.258641
Melchior Bolstrastraat,14,,,7424CR,Deventer,Deventer,Overijssel,VBO,6.216416,52.258597
Melchior Bolstrastraat,16,,,7424CR,Deventer,Deventer,Overijssel,VBO,6.216385,52.258543
Melchior Bolstrastraat,18,,,7424CR,Deventer,Deventer,Overijssel,VBO,6.216355,52.258498
Melchior Bolstrastraat,20,,,7424CR,Deventer,Deventer,Overijssel,VBO,6.216295,52.258427
Jan Blankenpad,1,,,7424CS,Deventer,Deventer,Overijssel,VBO,6.217672,52.259217
Jan Blankenpad,3,,,7424CS,Deventer,Deventer,Overijssel,VBO,6.217700,52.259163
Jan Blankenpad,5,,,7424CS,Deventer,Deventer,Overijssel,VBO,6.217758,52.259117
Jan Blankenpad,7,,,7424CS,Deventer,Deventer,Overijssel,VBO,6.217787,52.259072
Jan Blankenpad,9,,,7424CS,Deventer,Deventer,Overijssel,VBO,6.217844,52.259027
Jan Blankenpad,11,,,7424CS,Deventer,Deventer,Overijssel,VBO,6.217902,52.258991
Jan Blankenpad,13,,,7424CS,Deventer,Deventer,Overijssel,VBO,6.217960,52.258936
Jan Blankenpad,15,,,7424CS,Deventer,Deventer,Overijssel,VBO,6.217988,52.258900
Jan Blankenpad,17,,,7424CS,Deventer,Deventer,Overijssel,VBO,6.218061,52.258855
Jan Blankenpad,19,,,7424CS,Deventer,Deventer,Overijssel,VBO,6.218119,52.258809
Jan Blankenpad,21,,,7424CS,Deventer,Deventer,Overijssel,VBO,6.218161,52.258755
Jan Blankenpad,23,,,7424CS,Deventer,Deventer,Overijssel,VBO,6.218349,52.258610
Jan Blankenpad,25,,,7424CS,Deventer,Deventer,Overijssel,VBO,6.218421,52.258556
Jan Blankenpad,27,,,7424CS,Deventer,Deventer,Overijssel,VBO,6.218450,52.258510
Jan Blankenpad,29,,,7424CS,Deventer,Deventer,Overijssel,VBO,6.218618,52.258387
Jan Blankenpad,31,,,7424CS,Deventer,Deventer,Overijssel,VBO,6.218691,52.258415
Jan Blankenpad,2,,,7424CT,Deventer,Deventer,Overijssel,VBO,6.217184,52.258960
Jan Blankenpad,4,,,7424CT,Deventer,Deventer,Overijssel,VBO,6.217241,52.258896
Jan Blankenpad,6,,,7424CT,Deventer,Deventer,Overijssel,VBO,6.217284,52.258851
Jan Blankenpad,8,,,7424CT,Deventer,Deventer,Overijssel,VBO,6.217342,52.258806
Jan Blankenpad,10,,,7424CT,Deventer,Deventer,Overijssel,VBO,6.217414,52.258751
Jan Blankenpad,12,,,7424CT,Deventer,Deventer,Overijssel,VBO,6.217443,52.258715
Jan Blankenpad,14,,,7424CT,Deventer,Deventer,Overijssel,VBO,6.217486,52.258670
Jan Blankenpad,16,,,7424CT,Deventer,Deventer,Overijssel,VBO,6.217544,52.258625
Jan Blankenpad,18,,,7424CT,Deventer,Deventer,Overijssel,VBO,6.217587,52.258588
Jan Blankenpad,20,,,7424CT,Deventer,Deventer,Overijssel,VBO,6.217645,52.258525
Leonard Springerlaan,360,,,7424DA,Deventer,Deventer,Overijssel,VBO,6.218632,52.264315
Leonard Springerlaan,362,,,7424DA,Deventer,Deventer,Overijssel,VBO,6.218544,52.264307
Leonard Springerlaan,364,,,7424DA,Deventer,Deventer,Overijssel,VBO,6.218456,52.264299
Leonard Springerlaan,366,,,7424DA,Deventer,Deventer,Overijssel,VBO,6.218353,52.264290
Leonard Springerlaan,368,,,7424DA,Deventer,Deventer,Overijssel,VBO,6.218265,52.264273
Leonard Springerlaan,370,,,7424DA,Deventer,Deventer,Overijssel,VBO,6.218191,52.264247
Leonard Springerlaan,372,,,7424DA,Deventer,Deventer,Overijssel,VBO,6.218103,52.264229
Leonard Springerlaan,374,,,7424DA,Deventer,Deventer,Overijssel,VBO,6.218000,52.264212
Leonard Springerlaan,376,,,7424DA,Deventer,Deventer,Overijssel,VBO,6.217838,52.264195
Leonard Springerlaan,378,,,7424DA,Deventer,Deventer,Overijssel,VBO,6.217750,52.264169
Leonard Springerlaan,380,,,7424DA,Deventer,Deventer,Overijssel,VBO,6.217676,52.264142
Leonard Springerlaan,382,,,7424DA,Deventer,Deventer,Overijssel,VBO,6.217588,52.264125
Leonard Springerlaan,384,,,7424DA,Deventer,Deventer,Overijssel,VBO,6.217514,52.264108
Leonard Springerlaan,386,,,7424DA,Deventer,Deventer,Overijssel,VBO,6.217411,52.264081
Leonard Springerlaan,388,,,7424DA,Deventer,Deventer,Overijssel,VBO,6.217337,52.264046
Leonard Springerlaan,390,,,7424DA,Deventer,Deventer,Overijssel,VBO,6.217264,52.264028
Leonard Springerlaan,392,,,7424DA,Deventer,Deventer,Overijssel,VBO,6.217190,52.264002
Leonard Springerlaan,394,,,7424DA,Deventer,Deventer,Overijssel,VBO,6.217102,52.263976
Leonard Springerlaan,396,,,7424DA,Deventer,Deventer,Overijssel,VBO,6.217028,52.263940
Leonard Springerlaan,398,,,7424DA,Deventer,Deventer,Overijssel,VBO,6.216925,52.263923
Leonard Springerlaan,400,,,7424DB,Deventer,Deventer,Overijssel,VBO,6.216777,52.263843
Leonard Springerlaan,402,,,7424DB,Deventer,Deventer,Overijssel,VBO,6.216674,52.263817
Leonard Springerlaan,404,,,7424DB,Deventer,Deventer,Overijssel,VBO,6.216600,52.263790
Leonard Springerlaan,406,,,7424DB,Deventer,Deventer,Overijssel,VBO,6.216526,52.263755
Leonard Springerlaan,408,,,7424DB,Deventer,Deventer,Overijssel,VBO,6.216467,52.263728
Leonard Springerlaan,410,,,7424DB,Deventer,Deventer,Overijssel,VBO,6.216393,52.263693
Leonard Springerlaan,412,,,7424DB,Deventer,Deventer,Overijssel,VBO,6.216320,52.263667
Leonard Springerlaan,414,,,7424DB,Deventer,Deventer,Overijssel,VBO,6.216246,52.263631
Leonard Springerlaan,416,,,7424DB,Deventer,Deventer,Overijssel,VBO,6.216187,52.263605
Leonard Springerlaan,418,,,7424DB,Deventer,Deventer,Overijssel,VBO,6.216098,52.263569
Leonard Springerlaan,420,,,7424DB,Deventer,Deventer,Overijssel,VBO,6.216039,52.263543
Leonard Springerlaan,422,,,7424DB,Deventer,Deventer,Overijssel,VBO,6.215965,52.263498
Leonard Springerlaan,424,,,7424DC,Deventer,Deventer,Overijssel,VBO,6.215832,52.263427
Leonard Springerlaan,426,,,7424DC,Deventer,Deventer,Overijssel,VBO,6.215787,52.263401
Leonard Springerlaan,428,,,7424DC,Deventer,Deventer,Overijssel,VBO,6.215728,52.263356
Leonard Springerlaan,430,,,7424DC,Deventer,Deventer,Overijssel,VBO,6.215654,52.263321
Leonard Springerlaan,432,,,7424DC,Deventer,Deventer,Overijssel,VBO,6.215595,52.263294
Leonard Springerlaan,434,,,7424DC,Deventer,Deventer,Overijssel,VBO,6.215521,52.263250
Leonard Springerlaan,436,,,7424DC,Deventer,Deventer,Overijssel,VBO,6.215462,52.263214
Leonard Springerlaan,438,,,7424DC,Deventer,Deventer,Overijssel,VBO,6.215402,52.263170
Leonard Springerlaan,440,,,7424DC,Deventer,Deventer,Overijssel,VBO,6.215328,52.263134
Leonard Springerlaan,442,,,7424DC,Deventer,Deventer,Overijssel,VBO,6.215269,52.263099
Leonard Springerlaan,444,,,7424DC,Deventer,Deventer,Overijssel,VBO,6.215210,52.263063
Leonard Springerlaan,446,,,7424DC,Deventer,Deventer,Overijssel,VBO,6.215136,52.263019
Leonard Springerlaan,448,,,7424DC,Deventer,Deventer,Overijssel,VBO,6.215047,52.262956
Leonard Springerlaan,450,,,7424DC,Deventer,Deventer,Overijssel,VBO,6.214973,52.262912
Leonard Springerlaan,452,,,7424DC,Deventer,Deventer,Overijssel,VBO,6.214928,52.262867
Leonard Springerlaan,454,,,7424DC,Deventer,Deventer,Overijssel,VBO,6.214868,52.262832
Leonard Springerlaan,456,,,7424DC,Deventer,Deventer,Overijssel,VBO,6.214824,52.262787
Leonard Springerlaan,458,,,7424DC,Deventer,Deventer,Overijssel,VBO,6.214764,52.262743
Leonard Springerlaan,460,,,7424DC,Deventer,Deventer,Overijssel,VBO,6.214719,52.262689
Leonard Springerlaan,462,,,7424DC,Deventer,Deventer,Overijssel,VBO,6.214660,52.262654
Leonard Springerlaan,464,,,7424DC,Deventer,Deventer,Overijssel,VBO,6.214601,52.262609
Leonard Springerlaan,466,,,7424DC,Deventer,Deventer,Overijssel,VBO,6.214556,52.262564
Leonard Springerlaan,468,,,7424DC,Deventer,Deventer,Overijssel,VBO,6.214511,52.262520
Leonard Springerlaan,470,,,7424DC,Deventer,Deventer,Overijssel,VBO,6.214452,52.262475
Leonard Springerlaan,472,,,7424DD,Deventer,Deventer,Overijssel,VBO,6.213989,52.262002
Leonard Springerlaan,474,,,7424DD,Deventer,Deventer,Overijssel,VBO,6.213959,52.261957
Leonard Springerlaan,476,,,7424DD,Deventer,Deventer,Overijssel,VBO,6.213914,52.261922
Leonard Springerlaan,478,,,7424DD,Deventer,Deventer,Overijssel,VBO,6.213869,52.261877
Leonard Springerlaan,480,,,7424DD,Deventer,Deventer,Overijssel,VBO,6.213839,52.261823
Leonard Springerlaan,482,,,7424DD,Deventer,Deventer,Overijssel,VBO,6.213779,52.261770
Leonard Springerlaan,484,,,7424DD,Deventer,Deventer,Overijssel,VBO,6.213735,52.261725
Leonard Springerlaan,486,,,7424DD,Deventer,Deventer,Overijssel,VBO,6.213704,52.261681
Leonard Springerlaan,488,,,7424DD,Deventer,Deventer,Overijssel,VBO,6.213660,52.261636
Leonard Springerlaan,490,,,7424DD,Deventer,Deventer,Overijssel,VBO,6.213615,52.261591
Leonard Springerlaan,492,,,7424DD,Deventer,Deventer,Overijssel,VBO,6.213570,52.261547
Leonard Springerlaan,494,,,7424DD,Deventer,Deventer,Overijssel,VBO,6.213525,52.261493
Leonard Springerlaan,496,,,7424DD,Deventer,Deventer,Overijssel,VBO,6.213465,52.261431
Leonard Springerlaan,498,,,7424DD,Deventer,Deventer,Overijssel,VBO,6.213421,52.261377
Leonard Springerlaan,500,,,7424DD,Deventer,Deventer,Overijssel,VBO,6.213376,52.261332
Leonard Springerlaan,502,,,7424DD,Deventer,Deventer,Overijssel,VBO,6.213316,52.261288
Leonard Springerlaan,504,,,7424DD,Deventer,Deventer,Overijssel,VBO,6.213283,52.261235
Leonard Springerlaan,506,,,7424DD,Deventer,Deventer,Overijssel,VBO,6.213211,52.261136
Leonard Springerlaan,508,,,7424DD,Deventer,Deventer,Overijssel,VBO,6.213073,52.260985
Leonard Springerlaan,310,,,7424DE,Deventer,Deventer,Overijssel,VBO,6.221439,52.264458
Andreas Schelfhoutstraat,1,T,,7424DG,Deventer,Deventer,Overijssel,VBO,6.212789,52.261273
Andreas Schelfhoutstraat,1,,,7424DG,Deventer,Deventer,Overijssel,VBO,6.212836,52.261449
Andreas Schelfhoutstraat,3,,,7424DG,Deventer,Deventer,Overijssel,VBO,6.212856,52.261511
Andreas Schelfhoutstraat,5,,,7424DG,Deventer,Deventer,Overijssel,VBO,6.212885,52.261558
Andreas Schelfhoutstraat,7,,,7424DG,Deventer,Deventer,Overijssel,VBO,6.212927,52.261623
Andreas Schelfhoutstraat,9,,,7424DG,Deventer,Deventer,Overijssel,VBO,6.212946,52.261659
Andreas Schelfhoutstraat,11,,,7424DG,Deventer,Deventer,Overijssel,VBO,6.212981,52.261708
Andreas Schelfhoutstraat,13,,,7424DG,Deventer,Deventer,Overijssel,VBO,6.213047,52.261775
Andreas Schelfhoutstraat,15,,,7424DG,Deventer,Deventer,Overijssel,VBO,6.213092,52.261811
Andreas Schelfhoutstraat,17,,,7424DG,Deventer,Deventer,Overijssel,VBO,6.213125,52.261858
Andreas Schelfhoutstraat,19,,,7424DG,Deventer,Deventer,Overijssel,VBO,6.213167,52.261909
Andreas Schelfhoutstraat,21,,,7424DG,Deventer,Deventer,Overijssel,VBO,6.213226,52.261945
Andreas Schelfhoutstraat,23,,,7424DG,Deventer,Deventer,Overijssel,VBO,6.213263,52.261992
Andreas Schelfhoutstraat,25,,,7424DG,Deventer,Deventer,Overijssel,VBO,6.213301,52.262043
Andreas Schelfhoutstraat,27,,,7424DG,Deventer,Deventer,Overijssel,VBO,6.213346,52.262088
Andreas Schelfhoutstraat,29,,,7424DG,Deventer,Deventer,Overijssel,VBO,6.213390,52.262123
Andreas Schelfhoutstraat,31,,,7424DG,Deventer,Deventer,Overijssel,VBO,6.213436,52.262186
Andreas Schelfhoutstraat,33,,,7424DG,Deventer,Deventer,Overijssel,VBO,6.213496,52.262293
Andreas Schelfhoutstraat,35,,,7424DG,Deventer,Deventer,Overijssel,VBO,6.213832,52.262246
Andreas Schelfhoutstraat,37,,,7424DG,Deventer,Deventer,Overijssel,VBO,6.214036,52.262173
Andreas Schelfhoutstraat,6,,,7424DH,Deventer,Deventer,Overijssel,VBO,6.212959,52.260974
Andreas Schelfhoutstraat,8,,,7424DH,Deventer,Deventer,Overijssel,VBO,6.213004,52.260999
Andreas Schelfhoutstraat,10,,,7424DH,Deventer,Deventer,Overijssel,VBO,6.213051,52.261030
Andreas Schelfhoutstraat,12,,,7424DH,Deventer,Deventer,Overijssel,VBO,6.213088,52.261058
Andreas Schelfhoutstraat,14,,,7424DH,Deventer,Deventer,Overijssel,VBO,6.213121,52.261093
Andreas Schelfhoutstraat,16,,,7424DH,Deventer,Deventer,Overijssel,VBO,6.213156,52.261128
Andreas Schelfhoutstraat,18,,,7424DH,Deventer,Deventer,Overijssel,VBO,6.213182,52.261166
Andreas Schelfhoutstraat,20,,,7424DH,Deventer,Deventer,Overijssel,VBO,6.213203,52.261195
Andreas Schelfhoutstraat,22,,,7424DH,Deventer,Deventer,Overijssel,VBO,6.212916,52.261005
Andreas Schelfhoutstraat,24,,,7424DH,Deventer,Deventer,Overijssel,VBO,6.212998,52.261030
Andreas Schelfhoutstraat,26,,,7424DH,Deventer,Deventer,Overijssel,VBO,6.213028,52.261060
Andreas Schelfhoutstraat,28,,,7424DH,Deventer,Deventer,Overijssel,VBO,6.213051,52.261085
Andreas Schelfhoutstraat,30,,,7424DH,Deventer,Deventer,Overijssel,VBO,6.213085,52.261116
Andreas Schelfhoutstraat,32,,,7424DH,Deventer,Deventer,Overijssel,VBO,6.213109,52.261148
Andreas Schelfhoutstraat,34,,,7424DH,Deventer,Deventer,Overijssel,VBO,6.213136,52.261177
Andreas Schelfhoutstraat,36,,,7424DH,Deventer,Deventer,Overijssel,VBO,6.213157,52.261208
J.W. Pienemanstraat,1,,,7424DJ,Deventer,Deventer,Overijssel,VBO,6.210249,52.260995
J.W. Pienemanstraat,3,,,7424DJ,Deventer,Deventer,Overijssel,VBO,6.210352,52.261003
J.W. Pienemanstraat,5,,,7424DJ,Deventer,Deventer,Overijssel,VBO,6.210440,52.260993
J.W. Pienemanstraat,7,,,7424DJ,Deventer,Deventer,Overijssel,VBO,6.210528,52.260984
J.W. Pienemanstraat,9,,,7424DJ,Deventer,Deventer,Overijssel,VBO,6.210601,52.260983
J.W. Pienemanstraat,11,,,7424DJ,Deventer,Deventer,Overijssel,VBO,6.210689,52.260983
J.W. Pienemanstraat,13,,,7424DJ,Deventer,Deventer,Overijssel,VBO,6.210791,52.260973
J.W. Pienemanstraat,15,,,7424DJ,Deventer,Deventer,Overijssel,VBO,6.210879,52.260963
J.W. Pienemanstraat,17,,,7424DJ,Deventer,Deventer,Overijssel,VBO,6.210967,52.260963
J.W. Pienemanstraat,19,,,7424DJ,Deventer,Deventer,Overijssel,VBO,6.211055,52.260962
J.W. Pienemanstraat,21,,,7424DJ,Deventer,Deventer,Overijssel,VBO,6.211142,52.260952
J.W. Pienemanstraat,23,,,7424DJ,Deventer,Deventer,Overijssel,VBO,6.211230,52.260943
J.W. Pienemanstraat,25,,,7424DJ,Deventer,Deventer,Overijssel,VBO,6.211318,52.260942
J.W. Pienemanstraat,27,,,7424DJ,Deventer,Deventer,Overijssel,VBO,6.211406,52.260942
J.W. Pienemanstraat,29,,,7424DJ,Deventer,Deventer,Overijssel,VBO,6.211493,52.260932
J.W. Pienemanstraat,31,,,7424DJ,Deventer,Deventer,Overijssel,VBO,6.211581,52.260931
J.W. Pienemanstraat,33,,,7424DJ,Deventer,Deventer,Overijssel,VBO,6.211654,52.260922
J.W. Pienemanstraat,35,,,7424DJ,Deventer,Deventer,Overijssel,VBO,6.211757,52.260921
J.W. Pienemanstraat,37,,,7424DJ,Deventer,Deventer,Overijssel,VBO,6.211845,52.260912
J.W. Pienemanstraat,39,,,7424DJ,Deventer,Deventer,Overijssel,VBO,6.211932,52.260911
J.W. Pienemanstraat,41,,,7424DJ,Deventer,Deventer,Overijssel,VBO,6.212020,52.260910
J.W. Pienemanstraat,43,,,7424DJ,Deventer,Deventer,Overijssel,VBO,6.212094,52.260910
J.W. Pienemanstraat,45,,,7424DJ,Deventer,Deventer,Overijssel,VBO,6.212196,52.260918
J.W. Pienemanstraat,47,,,7424DJ,Deventer,Deventer,Overijssel,VBO,6.212284,52.260917
J.W. Pienemanstraat,49,,,7424DJ,Deventer,Deventer,Overijssel,VBO,6.212372,52.260917
J.W. Pienemanstraat,51,,,7424DJ,Deventer,Deventer,Overijssel,VBO,6.212460,52.260925
J.W. Pienemanstraat,2,,,7424DK,Deventer,Deventer,Overijssel,VBO,6.212011,52.261171
J.W. Pienemanstraat,4,,,7424DK,Deventer,Deventer,Overijssel,VBO,6.211894,52.261181
J.W. Pienemanstraat,6,,,7424DK,Deventer,Deventer,Overijssel,VBO,6.211718,52.261191
J.W. Pienemanstraat,8,,,7424DK,Deventer,Deventer,Overijssel,VBO,6.211630,52.261192
J.W. Pienemanstraat,10,,,7424DK,Deventer,Deventer,Overijssel,VBO,6.211454,52.261202
J.W. Pienemanstraat,12,,,7424DK,Deventer,Deventer,Overijssel,VBO,6.211352,52.261212
J.W. Pienemanstraat,14,,,7424DK,Deventer,Deventer,Overijssel,VBO,6.211177,52.261222
J.W. Pienemanstraat,16,,,7424DK,Deventer,Deventer,Overijssel,VBO,6.211089,52.261222
J.W. Pienemanstraat,18,,,7424DK,Deventer,Deventer,Overijssel,VBO,6.210913,52.261233
J.W. Pienemanstraat,20,,,7424DK,Deventer,Deventer,Overijssel,VBO,6.210811,52.261233
J.W. Pienemanstraat,22,,,7424DK,Deventer,Deventer,Overijssel,VBO,6.210650,52.261243
J.W. Pienemanstraat,24,,,7424DK,Deventer,Deventer,Overijssel,VBO,6.210547,52.261253
J.W. Pienemanstraat,26,,,7424DK,Deventer,Deventer,Overijssel,VBO,6.209947,52.261284
J.W. Pienemanstraat,28,,,7424DK,Deventer,Deventer,Overijssel,VBO,6.209860,52.261294
J.W. Pienemanstraat,30,,,7424DK,Deventer,Deventer,Overijssel,VBO,6.209685,52.261340
J.W. Pienemanstraat,32,,,7424DK,Deventer,Deventer,Overijssel,VBO,6.209597,52.261359
J.W. Pienemanstraat,34,,,7424DK,Deventer,Deventer,Overijssel,VBO,6.209422,52.261405
J.W. Pienemanstraat,36,,,7424DK,Deventer,Deventer,Overijssel,VBO,6.209350,52.261441
J.W. Pienemanstraat,38,,,7424DK,Deventer,Deventer,Overijssel,STA,6.209356,52.261091
J.W. Pienemanstraat,40,,,7424DK,Deventer,Deventer,Overijssel,STA,6.209618,52.261078
Abraham Teerlinkstraat,1,,,7424DL,Deventer,Deventer,Overijssel,VBO,6.211987,52.261486
Abraham Teerlinkstraat,3,,,7424DL,Deventer,Deventer,Overijssel,VBO,6.211899,52.261477
Abraham Teerlinkstraat,5,,,7424DL,Deventer,Deventer,Overijssel,VBO,6.211709,52.261497
Abraham Teerlinkstraat,7,,,7424DL,Deventer,Deventer,Overijssel,VBO,6.211636,52.261497
Abraham Teerlinkstraat,9,,,7424DL,Deventer,Deventer,Overijssel,VBO,6.211460,52.261498
Abraham Teerlinkstraat,11,,,7424DL,Deventer,Deventer,Overijssel,VBO,6.211358,52.261508
Abraham Teerlinkstraat,13,,,7424DL,Deventer,Deventer,Overijssel,VBO,6.211182,52.261527
Abraham Teerlinkstraat,15,,,7424DL,Deventer,Deventer,Overijssel,VBO,6.211094,52.261537
Abraham Teerlinkstraat,17,,,7424DL,Deventer,Deventer,Overijssel,VBO,6.210905,52.261565
Abraham Teerlinkstraat,19,,,7424DL,Deventer,Deventer,Overijssel,VBO,6.210817,52.261584
Abraham Teerlinkstraat,21,,,7424DL,Deventer,Deventer,Overijssel,VBO,6.210307,52.261731
Abraham Teerlinkstraat,23,,,7424DL,Deventer,Deventer,Overijssel,VBO,6.210117,52.261769
Abraham Teerlinkstraat,25,,,7424DL,Deventer,Deventer,Overijssel,VBO,6.209986,52.261805
Abraham Teerlinkstraat,27,,,7424DL,Deventer,Deventer,Overijssel,VBO,6.209840,52.261833
Abraham Teerlinkstraat,29,,,7424DL,Deventer,Deventer,Overijssel,VBO,6.209680,52.261870
Abraham Teerlinkstraat,2,,,7424DM,Deventer,Deventer,Overijssel,VBO,6.212021,52.261728
Abraham Teerlinkstraat,4,,,7424DM,Deventer,Deventer,Overijssel,VBO,6.211933,52.261729
Abraham Teerlinkstraat,6,,,7424DM,Deventer,Deventer,Overijssel,VBO,6.211757,52.261730
Abraham Teerlinkstraat,8,,,7424DM,Deventer,Deventer,Overijssel,VBO,6.211655,52.261740
Abraham Teerlinkstraat,10,,,7424DM,Deventer,Deventer,Overijssel,VBO,6.211523,52.261759
Abraham Teerlinkstraat,12,,,7424DM,Deventer,Deventer,Overijssel,VBO,6.211391,52.261751
Abraham Teerlinkstraat,14,,,7424DM,Deventer,Deventer,Overijssel,VBO,6.211201,52.261779
Abraham Teerlinkstraat,16,,,7424DM,Deventer,Deventer,Overijssel,VBO,6.211099,52.261789
Abraham Teerlinkstraat,18,,,7424DM,Deventer,Deventer,Overijssel,VBO,6.210545,52.261927
Abraham Teerlinkstraat,20,,,7424DM,Deventer,Deventer,Overijssel,VBO,6.210355,52.261974
Abraham Teerlinkstraat,22,,,7424DM,Deventer,Deventer,Overijssel,VBO,6.210224,52.262019
Abraham Teerlinkstraat,24,,,7424DM,Deventer,Deventer,Overijssel,VBO,6.210049,52.262057
Abraham Teerlinkstraat,26,,,7424DM,Deventer,Deventer,Overijssel,VBO,6.209874,52.262094
Ary Schefferstraat,1,,,7424DN,Deventer,Deventer,Overijssel,VBO,6.212347,52.261133
Ary Schefferstraat,3,,,7424DN,Deventer,Deventer,Overijssel,VBO,6.212334,52.261250
Ary Schefferstraat,5,,,7424DN,Deventer,Deventer,Overijssel,VBO,6.212322,52.261367
Ary Schefferstraat,7,,,7424DN,Deventer,Deventer,Overijssel,VBO,6.212309,52.261493
Ary Schefferstraat,9,,,7424DN,Deventer,Deventer,Overijssel,VBO,6.212298,52.261672
Ary Schefferstraat,11,,,7424DN,Deventer,Deventer,Overijssel,VBO,6.212359,52.261798
Ary Schefferstraat,13,,,7424DN,Deventer,Deventer,Overijssel,VBO,6.212420,52.261905
Ary Schefferstraat,15,,,7424DN,Deventer,Deventer,Overijssel,VBO,6.212524,52.262012
Ary Schefferstraat,17,,,7424DN,Deventer,Deventer,Overijssel,VBO,6.212247,52.262068
Ary Schefferstraat,19,,,7424DN,Deventer,Deventer,Overijssel,VBO,6.212159,52.262078
Ary Schefferstraat,21,,,7424DN,Deventer,Deventer,Overijssel,VBO,6.211984,52.262106
Ary Schefferstraat,23,,,7424DN,Deventer,Deventer,Overijssel,VBO,6.211896,52.262116
Ary Schefferstraat,25,,,7424DN,Deventer,Deventer,Overijssel,VBO,6.211721,52.262135
Ary Schefferstraat,27,,,7424DN,Deventer,Deventer,Overijssel,VBO,6.211633,52.262144
Ary Schefferstraat,29,,,7424DN,Deventer,Deventer,Overijssel,VBO,6.211472,52.262173
Ary Schefferstraat,31,,,7424DN,Deventer,Deventer,Overijssel,VBO,6.211385,52.262182
Ary Schefferstraat,33,,,7424DN,Deventer,Deventer,Overijssel,VBO,6.210859,52.262267
Ary Schefferstraat,35,,,7424DN,Deventer,Deventer,Overijssel,VBO,6.210655,52.262304
Ary Schefferstraat,37,,,7424DN,Deventer,Deventer,Overijssel,VBO,6.210509,52.262332
Ary Schefferstraat,39,,,7424DN,Deventer,Deventer,Overijssel,VBO,6.210348,52.262378
Ary Schefferstraat,41,,,7424DN,Deventer,Deventer,Overijssel,VBO,6.210188,52.262433
Ary Schefferstraat,2,,,7424DP,Deventer,Deventer,Overijssel,VBO,6.212807,52.262235
Ary Schefferstraat,4,,,7424DP,Deventer,Deventer,Overijssel,VBO,6.212822,52.262271
Ary Schefferstraat,6,,,7424DP,Deventer,Deventer,Overijssel,VBO,6.212823,52.262343
Ary Schefferstraat,8,,,7424DP,Deventer,Deventer,Overijssel,VBO,6.212853,52.262388
Ary Schefferstraat,10,,,7424DP,Deventer,Deventer,Overijssel,VBO,6.212869,52.262432
Ary Schefferstraat,12,,,7424DP,Deventer,Deventer,Overijssel,VBO,6.212899,52.262486
Ary Schefferstraat,14,,,7424DP,Deventer,Deventer,Overijssel,VBO,6.212325,52.262337
Ary Schefferstraat,16,,,7424DP,Deventer,Deventer,Overijssel,VBO,6.212370,52.262373
Ary Schefferstraat,18,,,7424DP,Deventer,Deventer,Overijssel,VBO,6.212429,52.262418
Ary Schefferstraat,20,,,7424DP,Deventer,Deventer,Overijssel,VBO,6.212459,52.262471
Ary Schefferstraat,22,,,7424DP,Deventer,Deventer,Overijssel,VBO,6.212504,52.262516
Ary Schefferstraat,24,,,7424DP,Deventer,Deventer,Overijssel,VBO,6.212534,52.262570
Ary Schefferstraat,26,,,7424DP,Deventer,Deventer,Overijssel,VBO,6.212004,52.262411
Ary Schefferstraat,28,,,7424DP,Deventer,Deventer,Overijssel,VBO,6.212020,52.262465
Ary Schefferstraat,30,,,7424DP,Deventer,Deventer,Overijssel,VBO,6.212021,52.262510
Ary Schefferstraat,32,,,7424DP,Deventer,Deventer,Overijssel,VBO,6.212022,52.262573
Ary Schefferstraat,34,,,7424DP,Deventer,Deventer,Overijssel,VBO,6.212023,52.262627
Ary Schefferstraat,36,,,7424DP,Deventer,Deventer,Overijssel,VBO,6.212024,52.262672
Ary Schefferstraat,38,,,7424DP,Deventer,Deventer,Overijssel,VBO,6.212025,52.262726
Ary Schefferstraat,40,,,7424DR,Deventer,Deventer,Overijssel,VBO,6.211463,52.262469
Ary Schefferstraat,42,,,7424DR,Deventer,Deventer,Overijssel,VBO,6.211493,52.262514
Ary Schefferstraat,44,,,7424DR,Deventer,Deventer,Overijssel,VBO,6.211524,52.262568
Ary Schefferstraat,46,,,7424DR,Deventer,Deventer,Overijssel,VBO,6.211554,52.262621
Ary Schefferstraat,48,,,7424DR,Deventer,Deventer,Overijssel,VBO,6.211584,52.262675
Ary Schefferstraat,50,,,7424DR,Deventer,Deventer,Overijssel,VBO,6.211629,52.262720
Ary Schefferstraat,52,,,7424DR,Deventer,Deventer,Overijssel,VBO,6.211659,52.262764
Ary Schefferstraat,54,,,7424DR,Deventer,Deventer,Overijssel,VBO,6.211690,52.262827
Ary Schefferstraat,56,,,7424DR,Deventer,Deventer,Overijssel,VBO,6.210850,52.262599
Ary Schefferstraat,58,,,7424DR,Deventer,Deventer,Overijssel,VBO,6.210851,52.262644
Ary Schefferstraat,60,,,7424DR,Deventer,Deventer,Overijssel,VBO,6.210852,52.262707
Ary Schefferstraat,62,,,7424DR,Deventer,Deventer,Overijssel,VBO,6.210868,52.262752
Ary Schefferstraat,64,,,7424DR,Deventer,Deventer,Overijssel,VBO,6.210854,52.262815
Ary Schefferstraat,66,,,7424DR,Deventer,Deventer,Overijssel,VBO,6.210870,52.262869
Ary Schefferstraat,68,,,7424DR,Deventer,Deventer,Overijssel,VBO,6.210871,52.262923
Ary Schefferstraat,70,,,7424DR,Deventer,Deventer,Overijssel,VBO,6.210872,52.262977
Wouter van Troostwijkstraat,2,,,7424DS,Deventer,Deventer,Overijssel,VBO,6.210225,52.261246
Wouter van Troostwijkstraat,4,,,7424DS,Deventer,Deventer,Overijssel,VBO,6.210300,52.261354
Wouter van Troostwijkstraat,6,,,7424DS,Deventer,Deventer,Overijssel,VBO,6.210375,52.261461
Wouter van Troostwijkstraat,8,,,7424DS,Deventer,Deventer,Overijssel,VBO,6.210480,52.261559
Wouter van Troostwijkstraat,10,,,7424DS,Deventer,Deventer,Overijssel,VBO,6.210570,52.261684
Wouter van Troostwijkstraat,12,,,7424DS,Deventer,Deventer,Overijssel,VBO,6.210777,52.261818
Wouter van Troostwijkstraat,14,,,7424DS,Deventer,Deventer,Overijssel,VBO,6.210897,52.261925
Wouter van Troostwijkstraat,16,,,7424DS,Deventer,Deventer,Overijssel,VBO,6.210942,52.262023
Wouter van Troostwijkstraat,18,,,7424DS,Deventer,Deventer,Overijssel,VBO,6.211061,52.262121
Wouter van Troostwijkstraat,20,,,7424DS,Deventer,Deventer,Overijssel,VBO,6.211137,52.262256
Anton Mauvestraat,1,,,7424EA,Deventer,Deventer,Overijssel,VBO,6.217639,52.264520
Anton Mauvestraat,3,,,7424EA,Deventer,Deventer,Overijssel,VBO,6.217713,52.264547
Anton Mauvestraat,5,,,7424EA,Deventer,Deventer,Overijssel,VBO,6.217787,52.264564
Anton Mauvestraat,7,,,7424EA,Deventer,Deventer,Overijssel,VBO,6.217860,52.264582
Anton Mauvestraat,9,,,7424EA,Deventer,Deventer,Overijssel,VBO,6.217934,52.264599
Anton Mauvestraat,11,,,7424EA,Deventer,Deventer,Overijssel,VBO,6.218036,52.264607
Anton Mauvestraat,13,,,7424EA,Deventer,Deventer,Overijssel,VBO,6.218110,52.264634
Anton Mauvestraat,15,,,7424EA,Deventer,Deventer,Overijssel,VBO,6.218213,52.264642
Anton Mauvestraat,17,,,7424EA,Deventer,Deventer,Overijssel,VBO,6.218301,52.264659
Anton Mauvestraat,19,,,7424EA,Deventer,Deventer,Overijssel,VBO,6.218389,52.264668
Anton Mauvestraat,21,,,7424EA,Deventer,Deventer,Overijssel,VBO,6.218463,52.264676
Anton Mauvestraat,23,,,7424EA,Deventer,Deventer,Overijssel,VBO,6.218551,52.264685
Anton Mauvestraat,2,,,7424EB,Deventer,Deventer,Overijssel,VBO,6.217360,52.264459
Anton Mauvestraat,4,,,7424EB,Deventer,Deventer,Overijssel,VBO,6.217286,52.264442
Anton Mauvestraat,6,,,7424EB,Deventer,Deventer,Overijssel,VBO,6.217198,52.264415
Anton Mauvestraat,8,,,7424EB,Deventer,Deventer,Overijssel,VBO,6.217110,52.264398
Anton Mauvestraat,10,,,7424EB,Deventer,Deventer,Overijssel,VBO,6.217036,52.264363
Anton Mauvestraat,12,,,7424EB,Deventer,Deventer,Overijssel,VBO,6.216962,52.264345
Anton Mauvestraat,14,,,7424EB,Deventer,Deventer,Overijssel,VBO,6.216874,52.264319
Anton Mauvestraat,16,,,7424EB,Deventer,Deventer,Overijssel,VBO,6.216800,52.264292
Anton Mauvestraat,18,,,7424EB,Deventer,Deventer,Overijssel,VBO,6.216741,52.264266
Anton Mauvestraat,20,,,7424EB,Deventer,Deventer,Overijssel,VBO,6.216653,52.264239
Anton Mauvestraat,22,,,7424EB,Deventer,Deventer,Overijssel,VBO,6.216768,52.264122
Weissenbruchstraat,1,,,7424EC,Deventer,Deventer,Overijssel,VBO,6.215752,52.263877
Weissenbruchstraat,3,,,7424EC,Deventer,Deventer,Overijssel,VBO,6.215841,52.263931
Weissenbruchstraat,5,,,7424EC,Deventer,Deventer,Overijssel,VBO,6.215929,52.263957
Weissenbruchstraat,7,,,7424EC,Deventer,Deventer,Overijssel,VBO,6.215974,52.263984
Weissenbruchstraat,9,,,7424EC,Deventer,Deventer,Overijssel,VBO,6.216062,52.264019
Weissenbruchstraat,11,,,7424EC,Deventer,Deventer,Overijssel,VBO,6.216136,52.264045
Weissenbruchstraat,13,,,7424EC,Deventer,Deventer,Overijssel,VBO,6.216195,52.264081
Weissenbruchstraat,15,,,7424EC,Deventer,Deventer,Overijssel,VBO,6.216269,52.264107
Weissenbruchstraat,17,,,7424EC,Deventer,Deventer,Overijssel,VBO,6.216343,52.264134
Weissenbruchstraat,19,a,,7424EC,Deventer,Deventer,Overijssel,VBO,6.216575,52.264057
Weissenbruchstraat,19,,,7424EC,Deventer,Deventer,Overijssel,VBO,6.216432,52.264169
Weissenbruchstraat,2,,,7424ED,Deventer,Deventer,Overijssel,VBO,6.215545,52.263762
Weissenbruchstraat,4,,,7424ED,Deventer,Deventer,Overijssel,VBO,6.215486,52.263744
Weissenbruchstraat,6,,,7424ED,Deventer,Deventer,Overijssel,VBO,6.215412,52.263682
Weissenbruchstraat,8,,,7424ED,Deventer,Deventer,Overijssel,VBO,6.215353,52.263655
Weissenbruchstraat,10,,,7424ED,Deventer,Deventer,Overijssel,VBO,6.215279,52.263611
Weissenbruchstraat,12,,,7424ED,Deventer,Deventer,Overijssel,VBO,6.215219,52.263575
Weissenbruchstraat,14,,,7424ED,Deventer,Deventer,Overijssel,VBO,6.215146,52.263549
Weissenbruchstraat,16,,,7424ED,Deventer,Deventer,Overijssel,VBO,6.215101,52.263504
Jan Vethstraat,1,T,,7424EE,Deventer,Deventer,Overijssel,VBO,6.214772,52.263138
Jan Vethstraat,1,,,7424EE,Deventer,Deventer,Overijssel,VBO,6.214642,52.263238
Jan Vethstraat,3,,,7424EE,Deventer,Deventer,Overijssel,VBO,6.214716,52.263273
Jan Vethstraat,5,,,7424EE,Deventer,Deventer,Overijssel,VBO,6.214789,52.263309
Jan Vethstraat,7,,,7424EE,Deventer,Deventer,Overijssel,VBO,6.214849,52.263353
Jan Vethstraat,9,,,7424EE,Deventer,Deventer,Overijssel,VBO,6.214908,52.263389
Jan Vethstraat,11,,,7424EE,Deventer,Deventer,Overijssel,VBO,6.214967,52.263424
Jan Vethstraat,13,,,7424EE,Deventer,Deventer,Overijssel,VBO,6.215027,52.263460
Jan Vethstraat,2,,,7424EG,Deventer,Deventer,Overijssel,VBO,6.214463,52.263095
Jan Vethstraat,4,,,7424EG,Deventer,Deventer,Overijssel,VBO,6.214418,52.263051
Jan Vethstraat,6,,,7424EG,Deventer,Deventer,Overijssel,VBO,6.214359,52.263006
Jan Vethstraat,8,,,7424EG,Deventer,Deventer,Overijssel,VBO,6.214300,52.262962
Jan Vethstraat,10,,,7424EG,Deventer,Deventer,Overijssel,VBO,6.214240,52.262917
Jan Vethstraat,12,,,7424EG,Deventer,Deventer,Overijssel,VBO,6.214196,52.262882
Jan Vethstraat,14,,,7424EG,Deventer,Deventer,Overijssel,VBO,6.214136,52.262837
Jan Vethstraat,16,,,7424EG,Deventer,Deventer,Overijssel,VBO,6.214077,52.262783
Jan Vethstraat,18,,,7424EG,Deventer,Deventer,Overijssel,VBO,6.214032,52.262748
Jan Vethstraat,20,,,7424EG,Deventer,Deventer,Overijssel,VBO,6.213973,52.262703
Jan Vethstraat,22,,,7424EG,Deventer,Deventer,Overijssel,VBO,6.213780,52.262579
Jan Vethstraat,24,,,7424EG,Deventer,Deventer,Overijssel,VBO,6.213998,52.262478
Jan Vethstraat,26,,,7424EG,Deventer,Deventer,Overijssel,VBO,6.214230,52.262387
Vincent van Goghstraat,1,,,7424EH,Deventer,Deventer,Overijssel,VBO,6.213437,52.263040
Vincent van Goghstraat,3,,,7424EH,Deventer,Deventer,Overijssel,VBO,6.213392,52.262986
Vincent van Goghstraat,5,,,7424EH,Deventer,Deventer,Overijssel,VBO,6.213347,52.262941
Vincent van Goghstraat,7,,,7424EH,Deventer,Deventer,Overijssel,VBO,6.213302,52.262897
Vincent van Goghstraat,9,,,7424EH,Deventer,Deventer,Overijssel,VBO,6.213258,52.262852
Vincent van Goghstraat,11,,,7424EH,Deventer,Deventer,Overijssel,VBO,6.213103,52.263186
Vincent van Goghstraat,13,,,7424EH,Deventer,Deventer,Overijssel,VBO,6.213043,52.263159
Vincent van Goghstraat,15,,,7424EH,Deventer,Deventer,Overijssel,VBO,6.212999,52.263124
Vincent van Goghstraat,17,,,7424EH,Deventer,Deventer,Overijssel,VBO,6.212939,52.263079
Vincent van Goghstraat,19,,,7424EH,Deventer,Deventer,Overijssel,VBO,6.212895,52.263043
Vincent van Goghstraat,21,,,7424EH,Deventer,Deventer,Overijssel,VBO,6.212835,52.262999
Vincent van Goghstraat,23,,,7424EH,Deventer,Deventer,Overijssel,VBO,6.212740,52.263395
Vincent van Goghstraat,25,,,7424EH,Deventer,Deventer,Overijssel,VBO,6.212710,52.263350
Vincent van Goghstraat,27,,,7424EH,Deventer,Deventer,Overijssel,VBO,6.212665,52.263306
Vincent van Goghstraat,29,,,7424EH,Deventer,Deventer,Overijssel,VBO,6.212621,52.263261
Vincent van Goghstraat,31,,,7424EH,Deventer,Deventer,Overijssel,VBO,6.212576,52.263207
Vincent van Goghstraat,33,,,7424EH,Deventer,Deventer,Overijssel,VBO,6.212531,52.263163
Vincent van Goghstraat,35,,,7424EH,Deventer,Deventer,Overijssel,VBO,6.212486,52.263127
Vincent van Goghstraat,37,,,7424EH,Deventer,Deventer,Overijssel,VBO,6.212456,52.263073
Vincent van Goghstraat,39,,,7424EJ,Deventer,Deventer,Overijssel,VBO,6.212320,52.263632
Vincent van Goghstraat,41,,,7424EJ,Deventer,Deventer,Overijssel,VBO,6.212304,52.263560
Vincent van Goghstraat,43,,,7424EJ,Deventer,Deventer,Overijssel,VBO,6.212274,52.263515
Vincent van Goghstraat,45,,,7424EJ,Deventer,Deventer,Overijssel,VBO,6.212243,52.263461
Vincent van Goghstraat,47,,,7424EJ,Deventer,Deventer,Overijssel,VBO,6.212228,52.263417
Vincent van Goghstraat,49,,,7424EJ,Deventer,Deventer,Overijssel,VBO,6.212183,52.263363
Vincent van Goghstraat,51,,,7424EJ,Deventer,Deventer,Overijssel,VBO,6.212153,52.263300
Vincent van Goghstraat,53,,,7424EJ,Deventer,Deventer,Overijssel,VBO,6.212122,52.263256
Vincent van Goghstraat,55,,,7424EJ,Deventer,Deventer,Overijssel,VBO,6.212092,52.263202
Vincent van Goghstraat,57,,,7424EJ,Deventer,Deventer,Overijssel,VBO,6.211985,52.263751
Vincent van Goghstraat,59,,,7424EJ,Deventer,Deventer,Overijssel,VBO,6.211955,52.263697
Vincent van Goghstraat,61,,,7424EJ,Deventer,Deventer,Overijssel,VBO,6.211925,52.263652
Vincent van Goghstraat,63,,,7424EJ,Deventer,Deventer,Overijssel,VBO,6.211880,52.263599
Vincent van Goghstraat,65,,,7424EJ,Deventer,Deventer,Overijssel,VBO,6.211835,52.263545
Vincent van Goghstraat,67,,,7424EJ,Deventer,Deventer,Overijssel,VBO,6.211790,52.263501
Vincent van Goghstraat,69,,,7424EJ,Deventer,Deventer,Overijssel,VBO,6.211760,52.263447
Vincent van Goghstraat,71,,,7424EJ,Deventer,Deventer,Overijssel,VBO,6.211715,52.263402
Vincent van Goghstraat,73,,,7424EJ,Deventer,Deventer,Overijssel,VBO,6.211685,52.263348
Vincent van Goghstraat,75,,,7424EJ,Deventer,Deventer,Overijssel,VBO,6.211134,52.263676
Vincent van Goghstraat,2,,,7424EK,Deventer,Deventer,Overijssel,VBO,6.217751,52.265005
Vincent van Goghstraat,4,,,7424EK,Deventer,Deventer,Overijssel,VBO,6.217648,52.264988
Vincent van Goghstraat,6,,,7424EK,Deventer,Deventer,Overijssel,VBO,6.217575,52.264979
Vincent van Goghstraat,8,,,7424EK,Deventer,Deventer,Overijssel,VBO,6.217501,52.264971
Vincent van Goghstraat,10,,,7424EK,Deventer,Deventer,Overijssel,VBO,6.217413,52.264953
Vincent van Goghstraat,12,,,7424EK,Deventer,Deventer,Overijssel,VBO,6.217340,52.264945
Vincent van Goghstraat,14,,,7424EK,Deventer,Deventer,Overijssel,VBO,6.217251,52.264927
Vincent van Goghstraat,16,,,7424EK,Deventer,Deventer,Overijssel,VBO,6.216898,52.264831
Vincent van Goghstraat,18,,,7424EK,Deventer,Deventer,Overijssel,VBO,6.216810,52.264814
Vincent van Goghstraat,20,,,7424EK,Deventer,Deventer,Overijssel,VBO,6.216707,52.264796
Vincent van Goghstraat,22,,,7424EK,Deventer,Deventer,Overijssel,VBO,6.216648,52.264779
Vincent van Goghstraat,24,,,7424EK,Deventer,Deventer,Overijssel,VBO,6.216560,52.264761
Vincent van Goghstraat,26,,,7424EK,Deventer,Deventer,Overijssel,VBO,6.216481,52.264742
Vincent van Goghstraat,28,,,7424EK,Deventer,Deventer,Overijssel,VBO,6.216397,52.264724
Vincent van Goghstraat,30,,,7424EK,Deventer,Deventer,Overijssel,VBO,6.216310,52.264702
Vincent van Goghstraat,32,,,7424EK,Deventer,Deventer,Overijssel,VBO,6.215776,52.264380
Vincent van Goghstraat,34,,,7424EK,Deventer,Deventer,Overijssel,VBO,6.215614,52.264319
Vincent van Goghstraat,36,,,7424EK,Deventer,Deventer,Overijssel,VBO,6.215378,52.264212
Vincent van Goghstraat,38,,,7424EK,Deventer,Deventer,Overijssel,VBO,6.215186,52.264151
Vincent van Goghstraat,40,,,7424EK,Deventer,Deventer,Overijssel,VBO,6.215112,52.264124
Vincent van Goghstraat,42,A,,7424EK,Deventer,Deventer,Overijssel,VBO,6.214891,52.264027
Vincent van Goghstraat,42,,,7424EK,Deventer,Deventer,Overijssel,VBO,6.214979,52.264053
Vincent van Goghstraat,44,,,7424EK,Deventer,Deventer,Overijssel,VBO,6.214650,52.263907
Vincent van Goghstraat,46,,,7424EK,Deventer,Deventer,Overijssel,VBO,6.214536,52.263827
Vincent van Goghstraat,48,,,7424EK,Deventer,Deventer,Overijssel,VBO,6.214435,52.263783
Vincent van Goghstraat,50,A,,7424EK,Deventer,Deventer,Overijssel,VBO,6.214205,52.263708
Vincent van Goghstraat,50,,,7424EK,Deventer,Deventer,Overijssel,VBO,6.214313,52.263724
Vincent van Goghstraat,52,,,7424EL,Deventer,Deventer,Overijssel,VBO,6.213926,52.263568
Vincent van Goghstraat,54,,,7424EL,Deventer,Deventer,Overijssel,VBO,6.213814,52.263518
Vincent van Goghstraat,56,,,7424EL,Deventer,Deventer,Overijssel,VBO,6.213719,52.263459
Vincent van Goghstraat,58,A,,7424EL,Deventer,Deventer,Overijssel,VBO,6.213516,52.263347
Vincent van Goghstraat,58,,,7424EL,Deventer,Deventer,Overijssel,VBO,6.213612,52.263409
Vincent van Goghstraat,60,,,7424EL,Deventer,Deventer,Overijssel,VBO,6.213293,52.263454
Vincent van Goghstraat,62,,,7424EL,Deventer,Deventer,Overijssel,VBO,6.213186,52.263513
Vincent van Goghstraat,64,,,7424EL,Deventer,Deventer,Overijssel,VBO,6.213091,52.263570
Vincent van Goghstraat,66,A,,7424EL,Deventer,Deventer,Overijssel,VBO,6.212898,52.263684
Vincent van Goghstraat,66,,,7424EL,Deventer,Deventer,Overijssel,VBO,6.213001,52.263632
Vincent van Goghstraat,68,,,7424EL,Deventer,Deventer,Overijssel,VBO,6.212437,52.263959
Vincent van Goghstraat,70,,,7424EL,Deventer,Deventer,Overijssel,VBO,6.212297,52.264010
Vincent van Goghstraat,72,,,7424EL,Deventer,Deventer,Overijssel,VBO,6.212148,52.264054
Vincent van Goghstraat,74,,,7424EL,Deventer,Deventer,Overijssel,VBO,6.212000,52.264096
Vincent van Goghstraat,76,,,7424EL,Deventer,Deventer,Overijssel,VBO,6.211862,52.264134
Gerard Bildersweg,2,,,7424EM,Deventer,Deventer,Overijssel,VBO,6.212582,52.263857
Gerard Bildersweg,4,,,7424EM,Deventer,Deventer,Overijssel,VBO,6.212676,52.263912
Gerard Bildersweg,6,,,7424EM,Deventer,Deventer,Overijssel,VBO,6.212777,52.263971
Gerard Bildersweg,8,,,7424EM,Deventer,Deventer,Overijssel,VBO,6.212891,52.264024
Gerard Bildersweg,10,,,7424EM,Deventer,Deventer,Overijssel,VBO,6.213026,52.264075
Jozef Isralsstraat,1,,,7424EN,Deventer,Deventer,Overijssel,VBO,6.213703,52.263697
Jozef Isralsstraat,3,,,7424EN,Deventer,Deventer,Overijssel,VBO,6.213629,52.263749
Jozef Isralsstraat,5,,,7424EN,Deventer,Deventer,Overijssel,VBO,6.213530,52.263804
Jozef Isralsstraat,7,A,,7424EN,Deventer,Deventer,Overijssel,VBO,6.213335,52.263931
Jozef Isralsstraat,7,,,7424EN,Deventer,Deventer,Overijssel,VBO,6.213437,52.263870
Jozef Isralsstraat,9,,,7424EN,Deventer,Deventer,Overijssel,VBO,6.212871,52.264191
Jozef Isralsstraat,11,,,7424EN,Deventer,Deventer,Overijssel,VBO,6.212731,52.264269
Jozef Isralsstraat,13,,,7424EN,Deventer,Deventer,Overijssel,VBO,6.212611,52.264352
Jozef Isralsstraat,15,,,7424EN,Deventer,Deventer,Overijssel,VBO,6.212468,52.264419
Jozef Isralsstraat,17,,,7424EN,Deventer,Deventer,Overijssel,VBO,6.212335,52.264485
Jozef Isralsstraat,19,,,7424EN,Deventer,Deventer,Overijssel,VBO,6.212191,52.264551
Jozef Isralsstraat,2,,,7424EP,Deventer,Deventer,Overijssel,VBO,6.213980,52.263826
Jozef Isralsstraat,4,,,7424EP,Deventer,Deventer,Overijssel,VBO,6.213854,52.263904
Jozef Isralsstraat,6,A,,7424EP,Deventer,Deventer,Overijssel,VBO,6.213653,52.264028
Jozef Isralsstraat,6,,,7424EP,Deventer,Deventer,Overijssel,VBO,6.213785,52.263953
Jozef Isralsstraat,8,,,7424EP,Deventer,Deventer,Overijssel,VBO,6.213300,52.264323
Jozef Isralsstraat,12,,,7424EP,Deventer,Deventer,Overijssel,VBO,6.213183,52.264390
Jozef Isralsstraat,14,,,7424EP,Deventer,Deventer,Overijssel,VBO,6.213034,52.264467
Jozef Isralsstraat,16,,,7424EP,Deventer,Deventer,Overijssel,VBO,6.212884,52.264565
Jozef Isralsstraat,18,,,7424EP,Deventer,Deventer,Overijssel,VBO,6.212785,52.264641
Jozef Isralsstraat,20,,,7424EP,Deventer,Deventer,Overijssel,VBO,6.212573,52.264685
Jozef Isralsstraat,22,,,7424EP,Deventer,Deventer,Overijssel,VBO,6.212371,52.264776
J.B. Jongkindstraat,1,,,7424ER,Deventer,Deventer,Overijssel,VBO,6.214433,52.264043
J.B. Jongkindstraat,3,,,7424ER,Deventer,Deventer,Overijssel,VBO,6.214337,52.264113
J.B. Jongkindstraat,5,A,,7424ER,Deventer,Deventer,Overijssel,VBO,6.214169,52.264257
J.B. Jongkindstraat,5,,,7424ER,Deventer,Deventer,Overijssel,VBO,6.214273,52.264175
J.B. Jongkindstraat,7,,,7424ER,Deventer,Deventer,Overijssel,VBO,6.213932,52.264438
J.B. Jongkindstraat,9,,,7424ER,Deventer,Deventer,Overijssel,VBO,6.213791,52.264532
J.B. Jongkindstraat,11,,,7424ER,Deventer,Deventer,Overijssel,VBO,6.213712,52.264603
J.B. Jongkindstraat,13,,,7424ER,Deventer,Deventer,Overijssel,VBO,6.213640,52.264672
J.B. Jongkindstraat,15,,,7424ER,Deventer,Deventer,Overijssel,VBO,6.213557,52.264800
J.B. Jongkindstraat,17,,,7424ER,Deventer,Deventer,Overijssel,VBO,6.213529,52.264855
J.B. Jongkindstraat,19,,,7424ER,Deventer,Deventer,Overijssel,VBO,6.213369,52.264918
J.B. Jongkindstraat,21,,,7424ER,Deventer,Deventer,Overijssel,VBO,6.213278,52.264977
J.B. Jongkindstraat,23,,,7424ER,Deventer,Deventer,Overijssel,VBO,6.213181,52.265040
J.B. Jongkindstraat,25,,,7424ER,Deventer,Deventer,Overijssel,VBO,6.213056,52.265151
J.B. Jongkindstraat,27,,,7424ER,Deventer,Deventer,Overijssel,VBO,6.212979,52.265187
J.B. Jongkindstraat,29,,,7424ER,Deventer,Deventer,Overijssel,VBO,6.212815,52.265256
J.B. Jongkindstraat,2,,,7424ES,Deventer,Deventer,Overijssel,VBO,6.214698,52.264176
J.B. Jongkindstraat,4,,,7424ES,Deventer,Deventer,Overijssel,VBO,6.214616,52.264227
J.B. Jongkindstraat,6,,,7424ES,Deventer,Deventer,Overijssel,VBO,6.214530,52.264299
J.B. Jongkindstraat,8,,,7424ES,Deventer,Deventer,Overijssel,VBO,6.214457,52.264354
J.B. Jongkindstraat,10,,,7424ES,Deventer,Deventer,Overijssel,VBO,6.214356,52.264426
J.B. Jongkindstraat,12,,,7424ES,Deventer,Deventer,Overijssel,VBO,6.214299,52.264481
J.B. Jongkindstraat,14,,,7424ES,Deventer,Deventer,Overijssel,VBO,6.214183,52.264580
J.B. Jongkindstraat,16,,,7424ES,Deventer,Deventer,Overijssel,VBO,6.214126,52.264653
J.B. Jongkindstraat,18,,,7424ES,Deventer,Deventer,Overijssel,VBO,6.213910,52.264879
J.B. Jongkindstraat,20,,,7424ES,Deventer,Deventer,Overijssel,VBO,6.213751,52.264961
J.B. Jongkindstraat,22,,,7424ES,Deventer,Deventer,Overijssel,VBO,6.213679,52.265042
J.B. Jongkindstraat,24,,,7424ES,Deventer,Deventer,Overijssel,VBO,6.213520,52.265142
J.B. Jongkindstraat,26,,,7424ES,Deventer,Deventer,Overijssel,VBO,6.213448,52.265197
J.B. Jongkindstraat,28,,,7424ES,Deventer,Deventer,Overijssel,VBO,6.213318,52.265296
J.B. Jongkindstraat,30,,,7424ES,Deventer,Deventer,Overijssel,VBO,6.213202,52.265360
J.B. Jongkindstraat,32,,,7424ES,Deventer,Deventer,Overijssel,VBO,6.213027,52.265424
Charles Leickertweg,1,,,7424ET,Deventer,Deventer,Overijssel,VBO,6.214567,52.265056
Charles Leickertweg,3,,,7424ET,Deventer,Deventer,Overijssel,VBO,6.214373,52.264995
Charles Leickertweg,5,,,7424ET,Deventer,Deventer,Overijssel,VBO,6.214294,52.264966
Charles Leickertweg,7,A,,7424ET,Deventer,Deventer,Overijssel,VBO,6.214158,52.264787
Charles Leickertweg,7,,,7424ET,Deventer,Deventer,Overijssel,VBO,6.214144,52.264850
Willem Witsenstraat,1,,,7424GA,Deventer,Deventer,Overijssel,VBO,6.218789,52.264338
Willem Witsenstraat,3,,,7424GA,Deventer,Deventer,Overijssel,VBO,6.218777,52.264395
Willem Witsenstraat,5,,,7424GA,Deventer,Deventer,Overijssel,VBO,6.218764,52.264467
Willem Witsenstraat,7,,,7424GA,Deventer,Deventer,Overijssel,VBO,6.218751,52.264521
Willem Witsenstraat,9,,,7424GA,Deventer,Deventer,Overijssel,VBO,6.218738,52.264581
Willem Witsenstraat,11,,,7424GA,Deventer,Deventer,Overijssel,VBO,6.218718,52.264666
Willem Witsenstraat,13,,,7424GA,Deventer,Deventer,Overijssel,VBO,6.218709,52.264725
Kaspar Karsenstraat,1,T,,7424GB,Deventer,Deventer,Overijssel,VBO,6.215321,52.264339
Kaspar Karsenstraat,1,,,7424GB,Deventer,Deventer,Overijssel,VBO,6.215219,52.264375
Kaspar Karsenstraat,3,,,7424GB,Deventer,Deventer,Overijssel,VBO,6.215147,52.264439
Kaspar Karsenstraat,5,,,7424GB,Deventer,Deventer,Overijssel,VBO,6.215061,52.264520
Kaspar Karsenstraat,7,,,7424GB,Deventer,Deventer,Overijssel,VBO,6.215003,52.264575
Kaspar Karsenstraat,9,,,7424GB,Deventer,Deventer,Overijssel,VBO,6.214917,52.264665
Kaspar Karsenstraat,11,,,7424GB,Deventer,Deventer,Overijssel,VBO,6.214852,52.264697
Kaspar Karsenstraat,13,,,7424GB,Deventer,Deventer,Overijssel,VBO,6.214788,52.264792
Kaspar Karsenstraat,15,,,7424GB,Deventer,Deventer,Overijssel,VBO,6.214716,52.264864
Kaspar Karsenstraat,17,,,7424GB,Deventer,Deventer,Overijssel,VBO,6.214355,52.265145
Kaspar Karsenstraat,19,,,7424GB,Deventer,Deventer,Overijssel,VBO,6.214254,52.265236
Kaspar Karsenstraat,21,,,7424GB,Deventer,Deventer,Overijssel,VBO,6.214139,52.265354
Kaspar Karsenstraat,23,,,7424GB,Deventer,Deventer,Overijssel,VBO,6.213980,52.265445
Kaspar Karsenstraat,25,,,7424GB,Deventer,Deventer,Overijssel,VBO,6.213907,52.265539
Kaspar Karsenstraat,27,,,7424GB,Deventer,Deventer,Overijssel,VBO,6.213749,52.265635
Kaspar Karsenstraat,29,,,7424GB,Deventer,Deventer,Overijssel,VBO,6.213647,52.265681
Kaspar Karsenstraat,31,,,7424GB,Deventer,Deventer,Overijssel,VBO,6.213400,52.265781
Kaspar Karsenstraat,2,,,7424GC,Deventer,Deventer,Overijssel,VBO,6.215538,52.264459
Kaspar Karsenstraat,4,,,7424GC,Deventer,Deventer,Overijssel,VBO,6.215471,52.264508
Kaspar Karsenstraat,6,,,7424GC,Deventer,Deventer,Overijssel,VBO,6.215413,52.264554
Kaspar Karsenstraat,8,,,7424GC,Deventer,Deventer,Overijssel,VBO,6.215385,52.264599
Kaspar Karsenstraat,10,,,7424GC,Deventer,Deventer,Overijssel,VBO,6.215342,52.264644
Kaspar Karsenstraat,12,,,7424GC,Deventer,Deventer,Overijssel,VBO,6.215299,52.264689
Kaspar Karsenstraat,14,,,7424GC,Deventer,Deventer,Overijssel,VBO,6.215241,52.264726
Kaspar Karsenstraat,16,,,7424GC,Deventer,Deventer,Overijssel,VBO,6.215083,52.264907
Kaspar Karsenstraat,18,,,7424GC,Deventer,Deventer,Overijssel,VBO,6.215055,52.264961
Kaspar Karsenstraat,20,,,7424GC,Deventer,Deventer,Overijssel,VBO,6.215011,52.265006
Kaspar Karsenstraat,22,,,7424GC,Deventer,Deventer,Overijssel,VBO,6.214983,52.265060
Kaspar Karsenstraat,24,,,7424GC,Deventer,Deventer,Overijssel,VBO,6.214940,52.265105
Kaspar Karsenstraat,26,,,7424GC,Deventer,Deventer,Overijssel,VBO,6.214912,52.265160
Kaspar Karsenstraat,28,,,7424GC,Deventer,Deventer,Overijssel,VBO,6.214869,52.265205
Kaspar Karsenstraat,30,,,7424GC,Deventer,Deventer,Overijssel,VBO,6.214840,52.265241
Kaspar Karsenstraat,32,,,7424GC,Deventer,Deventer,Overijssel,VBO,6.214667,52.265377
Kaspar Karsenstraat,34,,,7424GC,Deventer,Deventer,Overijssel,VBO,6.214622,52.265500
Kaspar Karsenstraat,36,,,7424GC,Deventer,Deventer,Overijssel,VBO,6.214553,52.265605
Kaspar Karsenstraat,38,,,7424GC,Deventer,Deventer,Overijssel,VBO,6.214482,52.265702
Kaspar Karsenstraat,40,,,7424GC,Deventer,Deventer,Overijssel,VBO,6.214381,52.265774
Kaspar Karsenstraat,42,,,7424GC,Deventer,Deventer,Overijssel,VBO,6.214237,52.265874
Kaspar Karsenstraat,44,,,7424GC,Deventer,Deventer,Overijssel,VBO,6.214106,52.265929
Kaspar Karsenstraat,46,,,7424GC,Deventer,Deventer,Overijssel,VBO,6.213713,52.266067
Willem Roelofsstraat,1,,,7424GD,Deventer,Deventer,Overijssel,VBO,6.216071,52.264450
Willem Roelofsstraat,3,,,7424GD,Deventer,Deventer,Overijssel,VBO,6.216042,52.264504
Willem Roelofsstraat,5,,,7424GD,Deventer,Deventer,Overijssel,VBO,6.215984,52.264550
Willem Roelofsstraat,7,,,7424GD,Deventer,Deventer,Overijssel,VBO,6.215956,52.264604
Willem Roelofsstraat,9,,,7424GD,Deventer,Deventer,Overijssel,VBO,6.215913,52.264649
Willem Roelofsstraat,11,,,7424GD,Deventer,Deventer,Overijssel,VBO,6.215870,52.264694
Willem Roelofsstraat,13,,,7424GD,Deventer,Deventer,Overijssel,VBO,6.215856,52.264748
Willem Roelofsstraat,15,,,7424GD,Deventer,Deventer,Overijssel,VBO,6.215798,52.264785
Willem Roelofsstraat,17,,,7424GD,Deventer,Deventer,Overijssel,VBO,6.215627,52.265002
Willem Roelofsstraat,19,,,7424GD,Deventer,Deventer,Overijssel,VBO,6.215584,52.265047
Willem Roelofsstraat,21,,,7424GD,Deventer,Deventer,Overijssel,VBO,6.215540,52.265092
Willem Roelofsstraat,23,,,7424GD,Deventer,Deventer,Overijssel,VBO,6.215512,52.265146
Willem Roelofsstraat,25,,,7424GD,Deventer,Deventer,Overijssel,VBO,6.215454,52.265192
Willem Roelofsstraat,27,,,7424GD,Deventer,Deventer,Overijssel,VBO,6.215426,52.265237
Willem Roelofsstraat,29,,,7424GD,Deventer,Deventer,Overijssel,VBO,6.215383,52.265282
Willem Roelofsstraat,31,,,7424GD,Deventer,Deventer,Overijssel,VBO,6.215297,52.265382
Willem Roelofsstraat,33,,,7424GE,Deventer,Deventer,Overijssel,VBO,6.215036,52.265554
Willem Roelofsstraat,35,,,7424GE,Deventer,Deventer,Overijssel,VBO,6.215039,52.265698
Willem Roelofsstraat,37,,,7424GE,Deventer,Deventer,Overijssel,VBO,6.214939,52.265842
Willem Roelofsstraat,39,,,7424GE,Deventer,Deventer,Overijssel,VBO,6.214809,52.265942
Willem Roelofsstraat,41,,,7424GE,Deventer,Deventer,Overijssel,VBO,6.214739,52.266095
Willem Roelofsstraat,43,,,7424GE,Deventer,Deventer,Overijssel,VBO,6.214609,52.266186
Willem Roelofsstraat,45,,,7424GE,Deventer,Deventer,Overijssel,VBO,6.214595,52.266267
Willem Roelofsstraat,47,,,7424GE,Deventer,Deventer,Overijssel,VBO,6.214524,52.266416
Willem Roelofsstraat,49,,,7424GE,Deventer,Deventer,Overijssel,VBO,6.214479,52.266493
Willem Roelofsstraat,57,,,7424GE,Deventer,Deventer,Overijssel,VBO,6.214345,52.266615
Willem Roelofsstraat,2,,,7424GG,Deventer,Deventer,Overijssel,VBO,6.216024,52.265080
Willem Roelofsstraat,4,,,7424GG,Deventer,Deventer,Overijssel,VBO,6.215981,52.265134
Willem Roelofsstraat,6,,,7424GG,Deventer,Deventer,Overijssel,VBO,6.215938,52.265188
Willem Roelofsstraat,8,,,7424GG,Deventer,Deventer,Overijssel,VBO,6.215909,52.265233
Willem Roelofsstraat,10,,,7424GG,Deventer,Deventer,Overijssel,VBO,6.215866,52.265288
Willem Roelofsstraat,12,,,7424GG,Deventer,Deventer,Overijssel,VBO,6.215823,52.265333
Willem Roelofsstraat,14,,,7424GG,Deventer,Deventer,Overijssel,VBO,6.215766,52.265378
Willem Roelofsstraat,16,,,7424GG,Deventer,Deventer,Overijssel,VBO,6.215737,52.265432
Willem Roelofsstraat,18,,,7424GG,Deventer,Deventer,Overijssel,VBO,6.215694,52.265487
Willem Roelofsstraat,20,,,7424GG,Deventer,Deventer,Overijssel,VBO,6.215666,52.265532
Willem Roelofsstraat,22,,,7424GG,Deventer,Deventer,Overijssel,VBO,6.215608,52.265586
Willem Roelofsstraat,24,,,7424GG,Deventer,Deventer,Overijssel,VBO,6.215565,52.265631
Willem Roelofsstraat,26,,,7424GG,Deventer,Deventer,Overijssel,VBO,6.215308,52.265975
Willem Roelofsstraat,28,,,7424GG,Deventer,Deventer,Overijssel,VBO,6.215221,52.266038
Willem Roelofsstraat,30,,,7424GG,Deventer,Deventer,Overijssel,VBO,6.215149,52.266120
Willem Roelofsstraat,32,,,7424GG,Deventer,Deventer,Overijssel,VBO,6.215106,52.266174
Willem Roelofsstraat,34,,,7424GG,Deventer,Deventer,Overijssel,VBO,6.215034,52.266237
Willem Roelofsstraat,36,,,7424GG,Deventer,Deventer,Overijssel,VBO,6.214992,52.266300
Willem Roelofsstraat,38,,,7424GG,Deventer,Deventer,Overijssel,VBO,6.214920,52.266391
Willem Roelofsstraat,40,,,7424GG,Deventer,Deventer,Overijssel,VBO,6.214863,52.266454
Willem Roelofsstraat,42,,,7424GG,Deventer,Deventer,Overijssel,VBO,6.214806,52.266580
Willem Roelofsstraat,44,,,7424GG,Deventer,Deventer,Overijssel,VBO,6.214661,52.266662
Johannes Tavenraatweg,2,,,7424GH,Deventer,Deventer,Overijssel,VBO,6.215436,52.265776
Johannes Tavenraatweg,4,,,7424GH,Deventer,Deventer,Overijssel,VBO,6.215539,52.265820
Johannes Tavenraatweg,6,,,7424GH,Deventer,Deventer,Overijssel,VBO,6.215672,52.265855
Johannes Tavenraatweg,8,,,7424GH,Deventer,Deventer,Overijssel,VBO,6.215760,52.265891
Charles Rochussenstraat,1,,,7424GJ,Deventer,Deventer,Overijssel,VBO,6.216682,52.265048
Charles Rochussenstraat,3,,,7424GJ,Deventer,Deventer,Overijssel,VBO,6.216654,52.265102
Charles Rochussenstraat,5,,,7424GJ,Deventer,Deventer,Overijssel,VBO,6.216640,52.265156
Charles Rochussenstraat,7,,,7424GJ,Deventer,Deventer,Overijssel,VBO,6.216612,52.265202
Charles Rochussenstraat,9,,,7424GJ,Deventer,Deventer,Overijssel,VBO,6.216569,52.265256
Charles Rochussenstraat,11,,,7424GJ,Deventer,Deventer,Overijssel,VBO,6.216541,52.265319
Charles Rochussenstraat,13,,,7424GJ,Deventer,Deventer,Overijssel,VBO,6.216527,52.265364
Charles Rochussenstraat,15,,,7424GJ,Deventer,Deventer,Overijssel,VBO,6.216499,52.265418
Charles Rochussenstraat,17,,,7424GJ,Deventer,Deventer,Overijssel,VBO,6.216456,52.265463
Charles Rochussenstraat,19,,,7424GJ,Deventer,Deventer,Overijssel,VBO,6.216314,52.265707
Charles Rochussenstraat,21,,,7424GJ,Deventer,Deventer,Overijssel,VBO,6.216256,52.265770
Charles Rochussenstraat,23,,,7424GJ,Deventer,Deventer,Overijssel,VBO,6.216243,52.265824
Charles Rochussenstraat,25,,,7424GJ,Deventer,Deventer,Overijssel,VBO,6.216200,52.265879
Charles Rochussenstraat,27,,,7424GJ,Deventer,Deventer,Overijssel,VBO,6.216171,52.265933
Charles Rochussenstraat,29,,,7424GJ,Deventer,Deventer,Overijssel,VBO,6.216158,52.265978
Charles Rochussenstraat,31,,,7424GK,Deventer,Deventer,Overijssel,VBO,6.216073,52.266176
Charles Rochussenstraat,33,,,7424GK,Deventer,Deventer,Overijssel,VBO,6.216016,52.266257
Charles Rochussenstraat,35,,,7424GK,Deventer,Deventer,Overijssel,VBO,6.215974,52.266347
Charles Rochussenstraat,37,,,7424GK,Deventer,Deventer,Overijssel,VBO,6.215931,52.266411
Charles Rochussenstraat,39,,,7424GK,Deventer,Deventer,Overijssel,VBO,6.215874,52.266474
Charles Rochussenstraat,41,,,7424GK,Deventer,Deventer,Overijssel,VBO,6.215832,52.266573
Charles Rochussenstraat,43,,,7424GK,Deventer,Deventer,Overijssel,VBO,6.215775,52.266654
Charles Rochussenstraat,45,,,7424GK,Deventer,Deventer,Overijssel,VBO,6.215689,52.266763
Charles Rochussenstraat,2,,,7424GL,Deventer,Deventer,Overijssel,VBO,6.217024,52.265306
Charles Rochussenstraat,4,,,7424GL,Deventer,Deventer,Overijssel,VBO,6.216996,52.265361
Charles Rochussenstraat,6,,,7424GL,Deventer,Deventer,Overijssel,VBO,6.216967,52.265415
Charles Rochussenstraat,8,,,7424GL,Deventer,Deventer,Overijssel,VBO,6.216939,52.265478
Charles Rochussenstraat,10,,,7424GL,Deventer,Deventer,Overijssel,VBO,6.216896,52.265523
Charles Rochussenstraat,12,,,7424GL,Deventer,Deventer,Overijssel,VBO,6.216897,52.265559
Charles Rochussenstraat,16,,,7424GL,Deventer,Deventer,Overijssel,VBO,6.216768,52.265722
Charles Rochussenstraat,18,,,7424GL,Deventer,Deventer,Overijssel,VBO,6.216675,52.265861
Charles Rochussenstraat,26,,,7424GL,Deventer,Deventer,Overijssel,VBO,6.216541,52.266128
Charles Rochussenstraat,28,,,7424GL,Deventer,Deventer,Overijssel,VBO,6.216484,52.266173
Charles Rochussenstraat,30,,,7424GL,Deventer,Deventer,Overijssel,VBO,6.216456,52.266254
Charles Rochussenstraat,32,,,7424GL,Deventer,Deventer,Overijssel,VBO,6.216355,52.266336
Charles Rochussenstraat,34,,,7424GL,Deventer,Deventer,Overijssel,VBO,6.216341,52.266408
Charles Rochussenstraat,36,,,7424GL,Deventer,Deventer,Overijssel,VBO,6.216299,52.266489
Charles Rochussenstraat,38,,,7424GL,Deventer,Deventer,Overijssel,VBO,6.216257,52.266588
Charles Rochussenstraat,40,,,7424GL,Deventer,Deventer,Overijssel,VBO,6.216199,52.266625
Charles Rochussenstraat,42,,,7424GL,Deventer,Deventer,Overijssel,VBO,6.216106,52.266766
Johannes Bosboomstraat,1,,,7424GM,Deventer,Deventer,Overijssel,VBO,6.217608,52.265186
Johannes Bosboomstraat,3,,,7424GM,Deventer,Deventer,Overijssel,VBO,6.217579,52.265231
Johannes Bosboomstraat,4,,,7424GM,Deventer,Deventer,Overijssel,VBO,6.217913,52.265656
Johannes Bosboomstraat,5,,,7424GM,Deventer,Deventer,Overijssel,VBO,6.217581,52.265339
Johannes Bosboomstraat,6,,,7424GM,Deventer,Deventer,Overijssel,VBO,6.217896,52.265704
Johannes Bosboomstraat,7,,,7424GM,Deventer,Deventer,Overijssel,VBO,6.217568,52.265411
Johannes Bosboomstraat,8,,,7424GM,Deventer,Deventer,Overijssel,VBO,6.217878,52.265748
Johannes Bosboomstraat,9,,,7424GM,Deventer,Deventer,Overijssel,VBO,6.217526,52.265501
Johannes Bosboomstraat,10,,,7424GM,Deventer,Deventer,Overijssel,VBO,6.217868,52.265790
Johannes Bosboomstraat,11,,,7424GM,Deventer,Deventer,Overijssel,VBO,6.217498,52.265573
Johannes Bosboomstraat,12,,,7424GM,Deventer,Deventer,Overijssel,VBO,6.217840,52.265840
Johannes Bosboomstraat,13,,,7424GM,Deventer,Deventer,Overijssel,VBO,6.217455,52.265654
Johannes Bosboomstraat,14,,,7424GM,Deventer,Deventer,Overijssel,VBO,6.217828,52.265879
Johannes Bosboomstraat,15,,,7424GM,Deventer,Deventer,Overijssel,VBO,6.217427,52.265717
Johannes Bosboomstraat,16,,,7424GM,Deventer,Deventer,Overijssel,VBO,6.217808,52.265929
Johannes Bosboomstraat,17,,,7424GM,Deventer,Deventer,Overijssel,VBO,6.217385,52.265807
Johannes Bosboomstraat,18,,,7424GM,Deventer,Deventer,Overijssel,VBO,6.217793,52.265972
Johannes Bosboomstraat,19,,,7424GM,Deventer,Deventer,Overijssel,VBO,6.217372,52.265879
Johannes Bosboomstraat,21,,,7424GM,Deventer,Deventer,Overijssel,VBO,6.217344,52.265960
Johannes Bosboomstraat,23,,,7424GM,Deventer,Deventer,Overijssel,VBO,6.217316,52.266032
Johannes Bosboomstraat,25,,,7424GM,Deventer,Deventer,Overijssel,VBO,6.217232,52.266240
Johannes Bosboomstraat,27,,,7424GM,Deventer,Deventer,Overijssel,VBO,6.217189,52.266321
Johannes Bosboomstraat,29,,,7424GM,Deventer,Deventer,Overijssel,VBO,6.217162,52.266402
Johannes Bosboomstraat,31,,,7424GM,Deventer,Deventer,Overijssel,VBO,6.217134,52.266483
Johannes Bosboomstraat,33,,,7424GM,Deventer,Deventer,Overijssel,VBO,6.217077,52.266573
Johannes Bosboomstraat,35,,,7424GM,Deventer,Deventer,Overijssel,VBO,6.217064,52.266663
Johannes Bosboomstraat,37,,,7424GM,Deventer,Deventer,Overijssel,VBO,6.217021,52.266736
Johannes Bosboomstraat,39,,,7424GM,Deventer,Deventer,Overijssel,VBO,6.216980,52.266880
Bernardus van den Bergweg,2,,,7424GP,Deventer,Deventer,Overijssel,VBO,6.218840,52.265884
Bernardus van den Bergweg,4,,,7424GP,Deventer,Deventer,Overijssel,VBO,6.218826,52.265926
Bernardus van den Bergweg,6,,,7424GP,Deventer,Deventer,Overijssel,VBO,6.218818,52.265970
Bernardus van den Bergweg,8,,,7424GP,Deventer,Deventer,Overijssel,VBO,6.218788,52.266022
Bernardus van den Bergweg,10,,,7424GP,Deventer,Deventer,Overijssel,VBO,6.218775,52.266069
Bernardus van den Bergweg,12,,,7424GP,Deventer,Deventer,Overijssel,VBO,6.218762,52.266111
Bernardus van den Bergweg,14,,,7424GP,Deventer,Deventer,Overijssel,VBO,6.218746,52.266155
Bernardus van den Bergweg,16,,,7424GP,Deventer,Deventer,Overijssel,VBO,6.218726,52.266202
Hoogeveenstraat,1,,,7424GR,Deventer,Deventer,Overijssel,VBO,6.221170,52.266535
Hoogeveenstraat,3,,,7424GR,Deventer,Deventer,Overijssel,VBO,6.221049,52.266586
Hoogeveenstraat,5,,,7424GR,Deventer,Deventer,Overijssel,VBO,6.220955,52.266595
Hoogeveenstraat,7,,,7424GR,Deventer,Deventer,Overijssel,VBO,6.220794,52.266549
Hoogeveenstraat,9,,,7424GR,Deventer,Deventer,Overijssel,VBO,6.220684,52.266572
Hoogeveenstraat,11,,,7424GR,Deventer,Deventer,Overijssel,VBO,6.220560,52.266558
Hoogeveenstraat,13,,,7424GR,Deventer,Deventer,Overijssel,VBO,6.220184,52.266444
Hoogeveenstraat,15,,,7424GR,Deventer,Deventer,Overijssel,VBO,6.220073,52.266451
Hoogeveenstraat,17,,,7424GR,Deventer,Deventer,Overijssel,VBO,6.219853,52.266384
Hoogeveenstraat,19,,,7424GR,Deventer,Deventer,Overijssel,VBO,6.219760,52.266328
Hoogeveenstraat,21,,,7424GR,Deventer,Deventer,Overijssel,VBO,6.219176,52.266300
Hoogeveenstraat,23,,,7424GR,Deventer,Deventer,Overijssel,VBO,6.218976,52.266393
Hoogeveenstraat,25,,,7424GR,Deventer,Deventer,Overijssel,VBO,6.218858,52.266413
Hoogeveenstraat,29,,,7424GR,Deventer,Deventer,Overijssel,VBO,6.218268,52.266258
Hoogeveenstraat,31,,,7424GR,Deventer,Deventer,Overijssel,VBO,6.218176,52.266256
Hoogeveenstraat,33,,,7424GR,Deventer,Deventer,Overijssel,VBO,6.218097,52.266254
Hoogeveenstraat,35,,,7424GR,Deventer,Deventer,Overijssel,VBO,6.217877,52.266218
Hoogeveenstraat,37,,,7424GR,Deventer,Deventer,Overijssel,VBO,6.217802,52.266202
Hoogeveenstraat,39,,,7424GR,Deventer,Deventer,Overijssel,VBO,6.217722,52.266179
Vorsselman de Heerstraat,1,,,7424GS,Deventer,Deventer,Overijssel,VBO,6.219351,52.265860
Vorsselman de Heerstraat,2,,,7424GS,Deventer,Deventer,Overijssel,VBO,6.219914,52.265429
Vorsselman de Heerstraat,3,,,7424GS,Deventer,Deventer,Overijssel,VBO,6.219326,52.265911
Vorsselman de Heerstraat,4,,,7424GS,Deventer,Deventer,Overijssel,VBO,6.219884,52.265476
Vorsselman de Heerstraat,5,,,7424GS,Deventer,Deventer,Overijssel,VBO,6.219314,52.265954
Vorsselman de Heerstraat,6,,,7424GS,Deventer,Deventer,Overijssel,VBO,6.219870,52.265528
Vorsselman de Heerstraat,7,,,7424GS,Deventer,Deventer,Overijssel,VBO,6.219293,52.266008
Vorsselman de Heerstraat,8,,,7424GS,Deventer,Deventer,Overijssel,VBO,6.219863,52.265568
Vorsselman de Heerstraat,10,,,7424GS,Deventer,Deventer,Overijssel,VBO,6.219849,52.265619
Vorsselman de Heerstraat,11,,,7424GS,Deventer,Deventer,Overijssel,VBO,6.219237,52.266238
Vorsselman de Heerstraat,12,,,7424GS,Deventer,Deventer,Overijssel,VBO,6.219819,52.265669
Vorsselman de Heerstraat,14,,,7424GS,Deventer,Deventer,Overijssel,VBO,6.219801,52.265718
Vorsselman de Heerstraat,16,,,7424GS,Deventer,Deventer,Overijssel,VBO,6.219772,52.265770
Vorsselman de Heerstraat,18,,,7424GS,Deventer,Deventer,Overijssel,VBO,6.219718,52.265984
Vorsselman de Heerstraat,20,,,7424GS,Deventer,Deventer,Overijssel,VBO,6.219682,52.266094
Vorsselman de Heerstraat,22,,,7424GS,Deventer,Deventer,Overijssel,VBO,6.219676,52.266158
Johannes Broekhuysenstraat,2,,,7424GT,Deventer,Deventer,Overijssel,VBO,6.219426,52.265707
Johannes Broekhuysenstraat,4,,,7424GT,Deventer,Deventer,Overijssel,VBO,6.219354,52.265696
Johannes Broekhuysenstraat,6,,,7424GT,Deventer,Deventer,Overijssel,VBO,6.219269,52.265684
Johannes Broekhuysenstraat,8,,,7424GT,Deventer,Deventer,Overijssel,VBO,6.219199,52.265671
Johannes Broekhuysenstraat,10,,,7424GT,Deventer,Deventer,Overijssel,VBO,6.219121,52.265664
Johannes Broekhuysenstraat,12,,,7424GT,Deventer,Deventer,Overijssel,VBO,6.219053,52.265656
Johannes Broekhuysenstraat,14,,,7424GT,Deventer,Deventer,Overijssel,VBO,6.218985,52.265645
Johannes Broekhuysenstraat,16,,,7424GT,Deventer,Deventer,Overijssel,VBO,6.218904,52.265638
Van der Willigenstraat,1,,,7424GV,Deventer,Deventer,Overijssel,VBO,6.220498,52.265376
Van der Willigenstraat,2,,,7424GV,Deventer,Deventer,Overijssel,VBO,6.220867,52.265434
Van der Willigenstraat,3,,,7424GV,Deventer,Deventer,Overijssel,VBO,6.220497,52.265424
Van der Willigenstraat,4,,,7424GV,Deventer,Deventer,Overijssel,VBO,6.220841,52.265487
Van der Willigenstraat,5,,,7424GV,Deventer,Deventer,Overijssel,VBO,6.220471,52.265470
Van der Willigenstraat,6,,,7424GV,Deventer,Deventer,Overijssel,VBO,6.220823,52.265545
Van der Willigenstraat,7,,,7424GV,Deventer,Deventer,Overijssel,VBO,6.220456,52.265512
Van der Willigenstraat,8,,,7424GV,Deventer,Deventer,Overijssel,VBO,6.220813,52.265591
Van der Willigenstraat,9,,,7424GV,Deventer,Deventer,Overijssel,VBO,6.220450,52.265553
Van der Willigenstraat,10,,,7424GV,Deventer,Deventer,Overijssel,VBO,6.220791,52.265694
Van der Willigenstraat,11,,,7424GV,Deventer,Deventer,Overijssel,VBO,6.220416,52.265601
Van der Willigenstraat,12,,,7424GV,Deventer,Deventer,Overijssel,VBO,6.220773,52.265744
Van der Willigenstraat,13,,,7424GV,Deventer,Deventer,Overijssel,VBO,6.220411,52.265647
Van der Willigenstraat,14,,,7424GV,Deventer,Deventer,Overijssel,VBO,6.220758,52.265782
Van der Willigenstraat,15,,,7424GV,Deventer,Deventer,Overijssel,VBO,6.220397,52.265690
Van der Willigenstraat,16,,,7424GV,Deventer,Deventer,Overijssel,VBO,6.220750,52.265827
Van der Willigenstraat,17,,,7424GV,Deventer,Deventer,Overijssel,VBO,6.220358,52.265871
Van der Willigenstraat,18,,,7424GV,Deventer,Deventer,Overijssel,VBO,6.220743,52.265870
Van der Willigenstraat,19,,,7424GV,Deventer,Deventer,Overijssel,VBO,6.220344,52.265920
Van der Willigenstraat,20,,,7424GV,Deventer,Deventer,Overijssel,VBO,6.220725,52.265920
Van der Willigenstraat,21,,,7424GV,Deventer,Deventer,Overijssel,VBO,6.220318,52.265964
Van der Willigenstraat,22,,,7424GV,Deventer,Deventer,Overijssel,VBO,6.220723,52.265958
Van der Willigenstraat,23,,,7424GV,Deventer,Deventer,Overijssel,VBO,6.220302,52.266005
Van der Willigenstraat,24,,,7424GV,Deventer,Deventer,Overijssel,VBO,6.220662,52.266147
Van der Willigenstraat,25,,,7424GV,Deventer,Deventer,Overijssel,VBO,6.220295,52.266045
Van der Willigenstraat,26,,,7424GV,Deventer,Deventer,Overijssel,VBO,6.220636,52.266200
Van der Willigenstraat,27,,,7424GV,Deventer,Deventer,Overijssel,VBO,6.220296,52.266098
Van der Willigenstraat,28,,,7424GV,Deventer,Deventer,Overijssel,VBO,6.220634,52.266261
Van der Willigenstraat,29,,,7424GV,Deventer,Deventer,Overijssel,VBO,6.220281,52.266146
Van der Willigenstraat,30,,,7424GV,Deventer,Deventer,Overijssel,VBO,6.220619,52.266319
Van der Willigenstraat,31,,,7424GV,Deventer,Deventer,Overijssel,VBO,6.220261,52.266183
Van der Willigenstraat,32,,,7424GV,Deventer,Deventer,Overijssel,VBO,6.220428,52.267025
Van der Willigenstraat,35,,,7424GV,Deventer,Deventer,Overijssel,VBO,6.220044,52.266894
Van der Willigenstraat,37,,,7424GV,Deventer,Deventer,Overijssel,VBO,6.220015,52.266986
Van der Waalsstraat,1,,,7424GW,Deventer,Deventer,Overijssel,VBO,6.221458,52.265355
Van der Waalsstraat,3,,,7424GW,Deventer,Deventer,Overijssel,VBO,6.221455,52.265400
Van der Waalsstraat,5,,,7424GW,Deventer,Deventer,Overijssel,VBO,6.221421,52.265451
Van der Waalsstraat,7,,,7424GW,Deventer,Deventer,Overijssel,VBO,6.221411,52.265491
Van der Waalsstraat,9,,,7424GW,Deventer,Deventer,Overijssel,VBO,6.221381,52.265545
Van der Waalsstraat,11,,,7424GW,Deventer,Deventer,Overijssel,VBO,6.221339,52.265735
Van der Waalsstraat,13,,,7424GW,Deventer,Deventer,Overijssel,VBO,6.221332,52.265770
Van der Waalsstraat,15,,,7424GW,Deventer,Deventer,Overijssel,VBO,6.221318,52.265824
Van der Waalsstraat,17,,,7424GW,Deventer,Deventer,Overijssel,VBO,6.221311,52.265876
Van der Waalsstraat,19,,,7424GW,Deventer,Deventer,Overijssel,VBO,6.221312,52.265920
Van der Waalsstraat,21,,,7424GW,Deventer,Deventer,Overijssel,VBO,6.221279,52.266002
Van der Waalsstraat,23,,,7424GW,Deventer,Deventer,Overijssel,VBO,6.221246,52.266061
Van der Waalsstraat,25,,,7424GW,Deventer,Deventer,Overijssel,VBO,6.221209,52.266111
Van der Waalsstraat,27,,,7424GW,Deventer,Deventer,Overijssel,VBO,6.221172,52.266205
Van der Waalsstraat,29,,,7424GW,Deventer,Deventer,Overijssel,VBO,6.221219,52.266263
Van der Waalsstraat,31,,,7424GW,Deventer,Deventer,Overijssel,VBO,6.221167,52.266315
Van der Waalsstraat,39,,,7424GW,Deventer,Deventer,Overijssel,VBO,6.221041,52.267203
Theda Mansholtstraat,1,,,7424GX,Deventer,Deventer,Overijssel,VBO,6.221489,52.264696
Theda Mansholtstraat,2,,,7424GX,Deventer,Deventer,Overijssel,VBO,6.221492,52.265121
Theda Mansholtstraat,4,,,7424GX,Deventer,Deventer,Overijssel,VBO,6.221404,52.265138
Theda Mansholtstraat,6,,,7424GX,Deventer,Deventer,Overijssel,VBO,6.221332,52.265143
Theda Mansholtstraat,8,,,7424GX,Deventer,Deventer,Overijssel,VBO,6.221252,52.265148
Theda Mansholtstraat,10,,,7424GX,Deventer,Deventer,Overijssel,VBO,6.221187,52.265156
Theda Mansholtstraat,12,,,7424GX,Deventer,Deventer,Overijssel,VBO,6.221118,52.265159
Theda Mansholtstraat,14,,,7424GX,Deventer,Deventer,Overijssel,VBO,6.221038,52.265141
Theda Mansholtstraat,16,,,7424GX,Deventer,Deventer,Overijssel,VBO,6.220948,52.265129
Theda Mansholtstraat,18,,,7424GX,Deventer,Deventer,Overijssel,VBO,6.220550,52.265149
Theda Mansholtstraat,20,,,7424GX,Deventer,Deventer,Overijssel,VBO,6.220466,52.265149
Theda Mansholtstraat,22,,,7424GX,Deventer,Deventer,Overijssel,VBO,6.220401,52.265152
Theda Mansholtstraat,24,,,7424GX,Deventer,Deventer,Overijssel,VBO,6.220309,52.265148
Theda Mansholtstraat,26,,,7424GX,Deventer,Deventer,Overijssel,VBO,6.220241,52.265151
Theda Mansholtstraat,28,,,7424GX,Deventer,Deventer,Overijssel,VBO,6.220157,52.265147
Theda Mansholtstraat,30,,,7424GX,Deventer,Deventer,Overijssel,VBO,6.220096,52.265145
Theda Mansholtstraat,32,,,7424GX,Deventer,Deventer,Overijssel,VBO,6.219993,52.265160
Pieter Stuitjestraat,1,,,7424HA,Deventer,Deventer,Overijssel,VBO,6.222332,52.266969
Pieter Stuitjestraat,4,,,7424HA,Deventer,Deventer,Overijssel,VBO,6.222656,52.267206
Pieter Stuitjestraat,6,,,7424HA,Deventer,Deventer,Overijssel,VBO,6.222640,52.267336
Cees Wilkeshuisstraat,3,,,7424HB,Deventer,Deventer,Overijssel,VBO,6.223372,52.267266
Cees Wilkeshuisstraat,4,,,7424HB,Deventer,Deventer,Overijssel,VBO,6.223904,52.267279
Cees Wilkeshuisstraat,5,,,7424HB,Deventer,Deventer,Overijssel,VBO,6.223367,52.267359
Cees Wilkeshuisstraat,6,,,7424HB,Deventer,Deventer,Overijssel,VBO,6.223925,52.267415
Willem ten Entelstraat,1,,,7424HC,Deventer,Deventer,Overijssel,VBO,6.224677,52.267076
Van der Marcklaan,13,,,7424HJ,Deventer,Deventer,Overijssel,VBO,6.224202,52.267052
Van der Marcklaan,15,,,7424HJ,Deventer,Deventer,Overijssel,VBO,6.223905,52.267055
Van der Marcklaan,19,,,7424HJ,Deventer,Deventer,Overijssel,VBO,6.223111,52.266989
Van der Marcklaan,21,,,7424HJ,Deventer,Deventer,Overijssel,VBO,6.222785,52.266958
Van der Marcklaan,25,,,7424HJ,Deventer,Deventer,Overijssel,VBO,6.221994,52.266736
Nulendsweg,2,,,7424MD,Deventer,Deventer,Overijssel,VBO,6.214063,52.257808
