openbareruimtenaam,huisnummer,huisletter,huisnummertoevoeging,postcode,woonplaatsnaam,gemeentenaam,provincienaam,typeadresseerbaarobject,longitude,latitude
De Poll-laan,1,A,,7437AA,Bathmen,Deventer,Overijssel,VBO,6.286374,52.248347
De Poll-laan,1,,,7437AA,Bathmen,Deventer,Overijssel,VBO,6.286709,52.248766
De Poll-laan,2,A,,7437AA,Bathmen,Deventer,Overijssel,VBO,6.286013,52.248848
De Poll-laan,2,,,7437AA,Bathmen,Deventer,Overijssel,VBO,6.285787,52.248562
De Poll-laan,3,,,7437AA,Bathmen,Deventer,Overijssel,VBO,6.285963,52.247850
De Poll-laan,4,,,7437AA,Bathmen,Deventer,Overijssel,VBO,6.285489,52.248303
De Poll-laan,5,,,7437AA,Bathmen,Deventer,Overijssel,VBO,6.285708,52.247683
De Poll-laan,6,,,7437AA,Bathmen,Deventer,Overijssel,VBO,6.285249,52.248000
De Poll-laan,7,,,7437AA,Bathmen,Deventer,Overijssel,VBO,6.284886,52.247430
De Poll-laan,8,,,7437AA,Bathmen,Deventer,Overijssel,VBO,6.284951,52.247768
De Poll-laan,9,,,7437AA,Bathmen,Deventer,Overijssel,VBO,6.284345,52.247458
De Poll-laan,11,,,7437AA,Bathmen,Deventer,Overijssel,VBO,6.283819,52.247525
Vegerinkskamp,1,,,7437AB,Bathmen,Deventer,Overijssel,VBO,6.289383,52.248571
Vegerinkskamp,2,F,1,7437AB,Bathmen,Deventer,Overijssel,VBO,6.288961,52.248632
Vegerinkskamp,2,F,10,7437AB,Bathmen,Deventer,Overijssel,VBO,6.289077,52.248869
Vegerinkskamp,2,F,11,7437AB,Bathmen,Deventer,Overijssel,VBO,6.288860,52.248660
Vegerinkskamp,2,F,12,7437AB,Bathmen,Deventer,Overijssel,VBO,6.288894,52.248708
Vegerinkskamp,2,F,13,7437AB,Bathmen,Deventer,Overijssel,VBO,6.288941,52.248769
Vegerinkskamp,2,F,14,7437AB,Bathmen,Deventer,Overijssel,VBO,6.288986,52.248822
Vegerinkskamp,2,F,15,7437AB,Bathmen,Deventer,Overijssel,VBO,6.289023,52.248883
Vegerinkskamp,2,F,2,7437AB,Bathmen,Deventer,Overijssel,VBO,6.289009,52.248686
Vegerinkskamp,2,F,3,7437AB,Bathmen,Deventer,Overijssel,VBO,6.289044,52.248746
Vegerinkskamp,2,F,4,7437AB,Bathmen,Deventer,Overijssel,VBO,6.289074,52.248801
Vegerinkskamp,2,F,5,7437AB,Bathmen,Deventer,Overijssel,VBO,6.289127,52.248860
Vegerinkskamp,2,F,6,7437AB,Bathmen,Deventer,Overijssel,VBO,6.288911,52.248647
Vegerinkskamp,2,F,7,7437AB,Bathmen,Deventer,Overijssel,VBO,6.288952,52.248695
Vegerinkskamp,2,F,8,7437AB,Bathmen,Deventer,Overijssel,VBO,6.289000,52.248756
Vegerinkskamp,2,F,9,7437AB,Bathmen,Deventer,Overijssel,VBO,6.289032,52.248809
Vegerinkskamp,3,,,7437AB,Bathmen,Deventer,Overijssel,VBO,6.289290,52.248406
Vegerinkskamp,4,,,7437AB,Bathmen,Deventer,Overijssel,VBO,6.288865,52.247981
Vegerinkskamp,5,,,7437AB,Bathmen,Deventer,Overijssel,VBO,6.289172,52.248268
Vegerinkskamp,6,,,7437AB,Bathmen,Deventer,Overijssel,VBO,6.288850,52.247918
Vegerinkskamp,7,,,7437AB,Bathmen,Deventer,Overijssel,VBO,6.289198,52.248023
Vegerinkskamp,8,,,7437AB,Bathmen,Deventer,Overijssel,VBO,6.288803,52.247802
Vegerinkskamp,9,,,7437AB,Bathmen,Deventer,Overijssel,VBO,6.288715,52.247250
Vegerinkskamp,10,,,7437AB,Bathmen,Deventer,Overijssel,VBO,6.288773,52.247739
Vegerinkskamp,11,,,7437AB,Bathmen,Deventer,Overijssel,VBO,6.288699,52.247193
Vegerinkskamp,12,,,7437AB,Bathmen,Deventer,Overijssel,VBO,6.288639,52.247632
Vegerinkskamp,13,,,7437AB,Bathmen,Deventer,Overijssel,VBO,6.288671,52.247075
Vegerinkskamp,14,,,7437AB,Bathmen,Deventer,Overijssel,VBO,6.288623,52.247578
Vegerinkskamp,15,,,7437AB,Bathmen,Deventer,Overijssel,VBO,6.288655,52.247012
Vegerinkskamp,16,,,7437AB,Bathmen,Deventer,Overijssel,VBO,6.288435,52.247435
Vegerinkskamp,17,,,7437AB,Bathmen,Deventer,Overijssel,VBO,6.288563,52.246788
Vegerinkskamp,18,,,7437AB,Bathmen,Deventer,Overijssel,VBO,6.288378,52.247268
De Veldkamp-laan,1,,,7437AC,Bathmen,Deventer,Overijssel,VBO,6.285510,52.249319
De Veldkamp-laan,3,A,,7437AC,Bathmen,Deventer,Overijssel,VBO,6.286378,52.249179
De Veldkamp-laan,3,B,,7437AC,Bathmen,Deventer,Overijssel,VBO,6.286532,52.249158
De Veldkamp-laan,3,,,7437AC,Bathmen,Deventer,Overijssel,VBO,6.286094,52.249224
De Veldkamp-laan,4,,,7437AC,Bathmen,Deventer,Overijssel,VBO,6.287163,52.248727
De Veldkamp-laan,5,,,7437AC,Bathmen,Deventer,Overijssel,VBO,6.287014,52.249110
De Veldkamp-laan,6,,,7437AC,Bathmen,Deventer,Overijssel,VBO,6.287692,52.248717
De Veldkamp-laan,7,,,7437AC,Bathmen,Deventer,Overijssel,VBO,6.287481,52.249061
De Veldkamp-laan,8,,,7437AC,Bathmen,Deventer,Overijssel,VBO,6.288145,52.248571
De Veldkamp-laan,9,,,7437AC,Bathmen,Deventer,Overijssel,VBO,6.287993,52.249012
De Veldkamp-laan,10,,,7437AC,Bathmen,Deventer,Overijssel,VBO,6.288728,52.248404
De Veldkamp-laan,11,,,7437AC,Bathmen,Deventer,Overijssel,VBO,6.288458,52.248856
Schoolstraat,4,A,,7437AE,Bathmen,Deventer,Overijssel,VBO,6.286119,52.249772
Schoolstraat,4,B,,7437AE,Bathmen,Deventer,Overijssel,VBO,6.286153,52.249706
Schoolstraat,4,,,7437AE,Bathmen,Deventer,Overijssel,VBO,6.286030,52.249719
Schoolstraat,4,,,7437AE,Bathmen,Deventer,Overijssel,VBO,6.285817,52.249767
Schoolstraat,5,A,,7437AE,Bathmen,Deventer,Overijssel,VBO,6.285900,52.250061
Schoolstraat,5,,,7437AE,Bathmen,Deventer,Overijssel,VBO,6.285859,52.249927
Schoolstraat,6,A,,7437AE,Bathmen,Deventer,Overijssel,VBO,6.286623,52.249399
Schoolstraat,6,,,7437AE,Bathmen,Deventer,Overijssel,VBO,6.286389,52.249775
Schoolstraat,7,,,7437AE,Bathmen,Deventer,Overijssel,VBO,6.285961,52.249936
Schoolstraat,8,,,7437AE,Bathmen,Deventer,Overijssel,VBO,6.286968,52.249757
Schoolstraat,9,A,,7437AE,Bathmen,Deventer,Overijssel,VBO,6.285975,52.250168
Schoolstraat,9,T,,7437AE,Bathmen,Deventer,Overijssel,VBO,6.286215,52.250017
Schoolstraat,9,,,7437AE,Bathmen,Deventer,Overijssel,VBO,6.286093,52.250021
Schoolstraat,10,A,,7437AE,Bathmen,Deventer,Overijssel,VBO,6.287704,52.249647
Schoolstraat,10,B,,7437AE,Bathmen,Deventer,Overijssel,VBO,6.287601,52.249659
Schoolstraat,10,,,7437AE,Bathmen,Deventer,Overijssel,VBO,6.287362,52.249673
Schoolstraat,11,,,7437AE,Bathmen,Deventer,Overijssel,VBO,6.286521,52.250084
Schoolstraat,12,,,7437AE,Bathmen,Deventer,Overijssel,VBO,6.287975,52.249561
Schoolstraat,13,,,7437AE,Bathmen,Deventer,Overijssel,VBO,6.287540,52.249968
Schoolstraat,15,,,7437AE,Bathmen,Deventer,Overijssel,VBO,6.287885,52.249957
Meesterspad,1,,,7437AG,Bathmen,Deventer,Overijssel,VBO,6.286563,52.250466
Meesterspad,3,,,7437AG,Bathmen,Deventer,Overijssel,VBO,6.286845,52.250189
Meesterspad,5,,,7437AG,Bathmen,Deventer,Overijssel,VBO,6.287140,52.250286
Molenhof,2,,,7437AG,Bathmen,Deventer,Overijssel,VBO,6.289499,52.250331
Molenhof,4,,,7437AG,Bathmen,Deventer,Overijssel,VBO,6.289587,52.250348
Molenhof,6,,,7437AG,Bathmen,Deventer,Overijssel,VBO,6.289660,52.250357
Molenhof,8,,,7437AG,Bathmen,Deventer,Overijssel,VBO,6.289705,52.250365
Molenhof,10,,,7437AG,Bathmen,Deventer,Overijssel,VBO,6.289896,52.250400
Molenhof,12,,,7437AG,Bathmen,Deventer,Overijssel,VBO,6.289998,52.250408
Molenhof,14,,,7437AG,Bathmen,Deventer,Overijssel,VBO,6.290101,52.250425
Molenhof,16,,,7437AG,Bathmen,Deventer,Overijssel,VBO,6.289869,52.250535
Molenhof,18,,,7437AG,Bathmen,Deventer,Overijssel,VBO,6.289841,52.250589
Molenhof,20,,,7437AG,Bathmen,Deventer,Overijssel,VBO,6.289785,52.250697
Molenhof,22,,,7437AG,Bathmen,Deventer,Overijssel,VBO,6.289771,52.250742
Molenhof,24,,,7437AG,Bathmen,Deventer,Overijssel,VBO,6.289714,52.250842
Molenhof,26,,,7437AG,Bathmen,Deventer,Overijssel,VBO,6.289701,52.250896
Molenstraat,2,,,7437AH,Bathmen,Deventer,Overijssel,VBO,6.288532,52.249999
Molenstraat,3,A,,7437AH,Bathmen,Deventer,Overijssel,VBO,6.287665,52.250183
Molenstraat,3,B,,7437AH,Bathmen,Deventer,Overijssel,VBO,6.287608,52.250247
Molenstraat,3,C,,7437AH,Bathmen,Deventer,Overijssel,VBO,6.287814,52.250299
Molenstraat,3,,,7437AH,Bathmen,Deventer,Overijssel,VBO,6.287913,52.250127
Molenstraat,5,,,7437AH,Bathmen,Deventer,Overijssel,VBO,6.287510,52.250490
Molenstraat,8,A,,7437AH,Bathmen,Deventer,Overijssel,VBO,6.288300,52.250209
Molenstraat,8,,,7437AH,Bathmen,Deventer,Overijssel,VBO,6.288237,52.250197
Molenstraat,10,,,7437AH,Bathmen,Deventer,Overijssel,VBO,6.288274,52.250270
Molenstraat,12,,,7437AH,Bathmen,Deventer,Overijssel,VBO,6.288152,52.250377
Molenstraat,14,,,7437AH,Bathmen,Deventer,Overijssel,VBO,6.288109,52.250423
Molenstraat,16,A,,7437AH,Bathmen,Deventer,Overijssel,VBO,6.287865,52.250667
Molenstraat,16,,,7437AH,Bathmen,Deventer,Overijssel,VBO,6.287879,52.250613
Molenstraat,18,,,7437AH,Bathmen,Deventer,Overijssel,VBO,6.288062,52.250989
Dorpsstraat,1,A,,7437AJ,Bathmen,Deventer,Overijssel,VBO,6.287643,52.251140
Dorpsstraat,1,,,7437AJ,Bathmen,Deventer,Overijssel,VBO,6.287676,52.251093
Dorpsstraat,2,,,7437AJ,Bathmen,Deventer,Overijssel,VBO,6.287250,52.251351
Dorpsstraat,3,,,7437AJ,Bathmen,Deventer,Overijssel,VBO,6.287391,52.251120
Dorpsstraat,4,,,7437AJ,Bathmen,Deventer,Overijssel,VBO,6.286836,52.251259
Dorpsstraat,5,,,7437AJ,Bathmen,Deventer,Overijssel,VBO,6.287096,52.250979
Dorpsstraat,6,,,7437AJ,Bathmen,Deventer,Overijssel,VBO,6.286095,52.251454
Dorpsstraat,7,,,7437AJ,Bathmen,Deventer,Overijssel,VBO,6.286846,52.250953
Dorpsstraat,8,,,7437AJ,Bathmen,Deventer,Overijssel,VBO,6.285595,52.251358
Dorpsstraat,10,,,7437AJ,Bathmen,Deventer,Overijssel,VBO,6.284664,52.250934
Dorpsstraat,11,,,7437AJ,Bathmen,Deventer,Overijssel,VBO,6.285762,52.250935
Dorpsstraat,12,T,,7437AJ,Bathmen,Deventer,Overijssel,VBO,6.284346,52.251161
Dorpsstraat,12,,,7437AJ,Bathmen,Deventer,Overijssel,VBO,6.284457,52.250864
Dorpsstraat,13,,,7437AJ,Bathmen,Deventer,Overijssel,VBO,6.285496,52.250926
Dorpsstraat,14,,,7437AJ,Bathmen,Deventer,Overijssel,VBO,6.284369,52.250838
Dorpsstraat,15,,,7437AJ,Bathmen,Deventer,Overijssel,VBO,6.284480,52.250522
Dorpsstraat,16,,,7437AJ,Bathmen,Deventer,Overijssel,VBO,6.284266,52.250820
Dorpsstraat,18,,,7437AJ,Bathmen,Deventer,Overijssel,VBO,6.284163,52.250785
Dorpsstraat,20,,,7437AJ,Bathmen,Deventer,Overijssel,VBO,6.284060,52.250768
Dorpsstraat,22,,,7437AJ,Bathmen,Deventer,Overijssel,VBO,6.284443,52.250909
Dorpsstraat,24,,,7437AJ,Bathmen,Deventer,Overijssel,VBO,6.284355,52.250883
Dorpsstraat,26,,,7437AJ,Bathmen,Deventer,Overijssel,VBO,6.284238,52.250865
Dorpsstraat,28,,,7437AJ,Bathmen,Deventer,Overijssel,VBO,6.284135,52.250839
Dorpsstraat,30,,,7437AJ,Bathmen,Deventer,Overijssel,VBO,6.284032,52.250822
Dorpsstraat,32,,,7437AJ,Bathmen,Deventer,Overijssel,VBO,6.284415,52.250945
Dorpsstraat,34,,,7437AJ,Bathmen,Deventer,Overijssel,VBO,6.284327,52.250928
Dorpsstraat,36,,,7437AJ,Bathmen,Deventer,Overijssel,VBO,6.284224,52.250902
Dorpsstraat,38,,,7437AJ,Bathmen,Deventer,Overijssel,VBO,6.284092,52.250894
Dorpsstraat,40,,,7437AJ,Bathmen,Deventer,Overijssel,VBO,6.284003,52.250867
Stationsstraat,1,,,7437AK,Bathmen,Deventer,Overijssel,VBO,6.284826,52.250996
Stationsstraat,2,,,7437AK,Bathmen,Deventer,Overijssel,VBO,6.285180,52.251119
Stationsstraat,3,,,7437AK,Bathmen,Deventer,Overijssel,VBO,6.284613,52.251372
Stationsstraat,4,,,7437AK,Bathmen,Deventer,Overijssel,VBO,6.285200,52.251397
Stationsstraat,5,,,7437AK,Bathmen,Deventer,Overijssel,VBO,6.284501,52.251583
Stationsstraat,6,,,7437AK,Bathmen,Deventer,Overijssel,VBO,6.285129,52.251515
Stationsstraat,7,,,7437AK,Bathmen,Deventer,Overijssel,VBO,6.284315,52.251782
Stationsstraat,9,,,7437AK,Bathmen,Deventer,Overijssel,VBO,6.284202,52.252025
Stationsstraat,10,,,7437AK,Bathmen,Deventer,Overijssel,VBO,6.284957,52.251687
Stationsstraat,12,A,,7437AK,Bathmen,Deventer,Overijssel,VBO,6.284832,52.252038
Stationsstraat,12,,,7437AK,Bathmen,Deventer,Overijssel,VBO,6.284931,52.251840
Kerkplein,1,,,7437AL,Bathmen,Deventer,Overijssel,VBO,6.286155,52.250797
Kerkplein,2,,,7437AL,Bathmen,Deventer,Overijssel,VBO,6.285320,52.250676
Kerkplein,3,,,7437AL,Bathmen,Deventer,Overijssel,VBO,6.285695,52.250502
Kerkplein,4,,,7437AL,Bathmen,Deventer,Overijssel,VBO,6.285172,52.250563
Kerkplein,5,,,7437AL,Bathmen,Deventer,Overijssel,VBO,6.285506,52.250460
Kerkplein,6,,,7437AL,Bathmen,Deventer,Overijssel,VBO,6.284990,52.250419
Brink,1,A,,7437AM,Bathmen,Deventer,Overijssel,VBO,6.284533,52.250279
Brink,1,,,7437AM,Bathmen,Deventer,Overijssel,VBO,6.284462,52.250351
Brink,2,,,7437AM,Bathmen,Deventer,Overijssel,VBO,6.284014,52.250299
Brink,3,,,7437AM,Bathmen,Deventer,Overijssel,VBO,6.284985,52.250159
Brink,4,,,7437AM,Bathmen,Deventer,Overijssel,VBO,6.283975,52.250184
Brink,5,,,7437AM,Bathmen,Deventer,Overijssel,VBO,6.285498,52.249843
Brink,6,,,7437AM,Bathmen,Deventer,Overijssel,VBO,6.284031,52.250049
Brink,7,,,7437AM,Bathmen,Deventer,Overijssel,VBO,6.285720,52.249560
Brink,8,,,7437AM,Bathmen,Deventer,Overijssel,VBO,6.284220,52.249976
Brink,10,,,7437AM,Bathmen,Deventer,Overijssel,VBO,6.284209,52.249437
Kerkdijk,2,,,7437AN,Bathmen,Deventer,Overijssel,VBO,6.284231,52.249077
Kerkdijk,4,,,7437AN,Bathmen,Deventer,Overijssel,VBO,6.284260,52.248868
Kerkdijk,6,,,7437AN,Bathmen,Deventer,Overijssel,VBO,6.284325,52.248654
Kerkdijk,8,,,7437AN,Bathmen,Deventer,Overijssel,VBO,6.284323,52.248582
Kerkdijk,10,,,7437AN,Bathmen,Deventer,Overijssel,VBO,6.284261,52.248420
Kerkdijk,12,,,7437AN,Bathmen,Deventer,Overijssel,VBO,6.284188,52.248385
Kerkdijk,14,,,7437AN,Bathmen,Deventer,Overijssel,VBO,6.284084,52.248332
Kerkdijk,16,,,7437AN,Bathmen,Deventer,Overijssel,VBO,6.283967,52.248342
Kerkdijk,18,,,7437AN,Bathmen,Deventer,Overijssel,VBO,6.284160,52.248448
Kerkdijk,20,,,7437AN,Bathmen,Deventer,Overijssel,VBO,6.284115,52.248413
Kerkdijk,22,,,7437AN,Bathmen,Deventer,Overijssel,VBO,6.284070,52.248368
Kerkdijk,24,,,7437AN,Bathmen,Deventer,Overijssel,VBO,6.283968,52.248378
Molenhof,1,,,7437AN,Bathmen,Deventer,Overijssel,VBO,6.288913,52.250327
Molenhof,3,,,7437AN,Bathmen,Deventer,Overijssel,VBO,6.288884,52.250363
Molenhof,5,,,7437AN,Bathmen,Deventer,Overijssel,VBO,6.288885,52.250417
Molenhof,7,,,7437AN,Bathmen,Deventer,Overijssel,VBO,6.288872,52.250453
Molenhof,9,,,7437AN,Bathmen,Deventer,Overijssel,VBO,6.288595,52.250554
Molenhof,11,,,7437AN,Bathmen,Deventer,Overijssel,VBO,6.288683,52.250562
Molenhof,13,,,7437AN,Bathmen,Deventer,Overijssel,VBO,6.288787,52.250597
Molenhof,15,,,7437AN,Bathmen,Deventer,Overijssel,VBO,6.288904,52.250623
Molenhof,17,,,7437AN,Bathmen,Deventer,Overijssel,VBO,6.288993,52.250667
Molenhof,19,,,7437AN,Bathmen,Deventer,Overijssel,VBO,6.289096,52.250685
Molenhof,21,,,7437AN,Bathmen,Deventer,Overijssel,VBO,6.289214,52.250720
Molenhof,23,,,7437AN,Bathmen,Deventer,Overijssel,VBO,6.289302,52.250737
Molenhof,25,,,7437AN,Bathmen,Deventer,Overijssel,VBO,6.289420,52.250772
Molenhof,27,,,7437AN,Bathmen,Deventer,Overijssel,VBO,6.289537,52.250780
Banekateweg,2,,,7437AP,Bathmen,Deventer,Overijssel,VBO,6.282306,52.248049
Banekateweg,4,,,7437AP,Bathmen,Deventer,Overijssel,VBO,6.282510,52.247975
Banekateweg,6,,,7437AP,Bathmen,Deventer,Overijssel,VBO,6.282758,52.247920
Polakstraat,1,,,7437AR,Bathmen,Deventer,Overijssel,VBO,6.281996,52.249345
Polakstraat,3,,,7437AR,Bathmen,Deventer,Overijssel,VBO,6.282068,52.249327
Polakstraat,5,,,7437AR,Bathmen,Deventer,Overijssel,VBO,6.282185,52.249299
Polakstraat,7,A,,7437AR,Bathmen,Deventer,Overijssel,VBO,6.282469,52.249246
Polakstraat,7,,,7437AR,Bathmen,Deventer,Overijssel,VBO,6.282447,52.249198
Polakstraat,9,A,,7437AR,Bathmen,Deventer,Overijssel,VBO,6.282596,52.249218
Polakstraat,9,,,7437AR,Bathmen,Deventer,Overijssel,VBO,6.282519,52.249171
Polakstraat,11,A,,7437AR,Bathmen,Deventer,Overijssel,VBO,6.282663,52.249199
Polakstraat,11,,,7437AR,Bathmen,Deventer,Overijssel,VBO,6.282607,52.249143
Polakstraat,13,A,,7437AR,Bathmen,Deventer,Overijssel,VBO,6.282738,52.249173
Polakstraat,13,,,7437AR,Bathmen,Deventer,Overijssel,VBO,6.282694,52.249124
Polakstraat,15,A,,7437AR,Bathmen,Deventer,Overijssel,VBO,6.282869,52.249145
Polakstraat,15,,,7437AR,Bathmen,Deventer,Overijssel,VBO,6.282781,52.249097
Polakstraat,17,A,,7437AR,Bathmen,Deventer,Overijssel,VBO,6.283135,52.249060
Polakstraat,19,A,,7437AR,Bathmen,Deventer,Overijssel,VBO,6.283216,52.249031
Polakstraat,19,,,7437AR,Bathmen,Deventer,Overijssel,VBO,6.283160,52.248986
Polakstraat,21,A,,7437AR,Bathmen,Deventer,Overijssel,VBO,6.283343,52.249006
Polakstraat,21,,,7437AR,Bathmen,Deventer,Overijssel,VBO,6.283277,52.248958
Polakstraat,23,A,,7437AR,Bathmen,Deventer,Overijssel,VBO,6.283416,52.248977
Polakstraat,23,,,7437AR,Bathmen,Deventer,Overijssel,VBO,6.283364,52.248931
Polakstraat,25,A,,7437AR,Bathmen,Deventer,Overijssel,VBO,6.283509,52.248948
Polakstraat,25,,,7437AR,Bathmen,Deventer,Overijssel,VBO,6.283466,52.248912
Polakstraat,27,A,,7437AR,Bathmen,Deventer,Overijssel,VBO,6.283617,52.248923
Polakstraat,27,,,7437AR,Bathmen,Deventer,Overijssel,VBO,6.283553,52.248884
Polakstraat,29,A,,7437AR,Bathmen,Deventer,Overijssel,VBO,6.283237,52.248742
Polakstraat,29,B,,7437AR,Bathmen,Deventer,Overijssel,VBO,6.283331,52.248718
Polakstraat,29,C,,7437AR,Bathmen,Deventer,Overijssel,VBO,6.283120,52.248722
Polakstraat,29,D,,7437AR,Bathmen,Deventer,Overijssel,VBO,6.283221,52.248702
Polakstraat,29,E,,7437AR,Bathmen,Deventer,Overijssel,VBO,6.283318,52.248683
Polakstraat,29,,,7437AR,Bathmen,Deventer,Overijssel,VBO,6.283164,52.248759
Polakstraat,31,A,,7437AR,Bathmen,Deventer,Overijssel,VBO,6.283189,52.248661
Polakstraat,31,B,,7437AR,Bathmen,Deventer,Overijssel,VBO,6.283287,52.248640
Polakstraat,31,C,,7437AR,Bathmen,Deventer,Overijssel,VBO,6.283067,52.248649
Polakstraat,31,D,,7437AR,Bathmen,Deventer,Overijssel,VBO,6.283164,52.248626
Polakstraat,31,E,,7437AR,Bathmen,Deventer,Overijssel,VBO,6.283258,52.248597
Polakstraat,31,T,,7437AR,Bathmen,Deventer,Overijssel,VBO,6.283802,52.248864
Polakstraat,31,,,7437AR,Bathmen,Deventer,Overijssel,VBO,6.283092,52.248685
Polakstraat,33,A,,7437AR,Bathmen,Deventer,Overijssel,VBO,6.282899,52.248792
Polakstraat,33,,,7437AR,Bathmen,Deventer,Overijssel,VBO,6.282919,52.248827
Polakstraat,35,A,,7437AR,Bathmen,Deventer,Overijssel,VBO,6.283035,52.248760
Polakstraat,35,,,7437AR,Bathmen,Deventer,Overijssel,VBO,6.283049,52.248789
Polakstraat,37,A,,7437AR,Bathmen,Deventer,Overijssel,VBO,6.282867,52.248744
Polakstraat,37,,,7437AR,Bathmen,Deventer,Overijssel,VBO,6.282844,52.248708
Polakstraat,39,A,,7437AS,Bathmen,Deventer,Overijssel,VBO,6.282995,52.248718
Polakstraat,39,,,7437AS,Bathmen,Deventer,Overijssel,VBO,6.282969,52.248675
Polakstraat,41,A,,7437AS,Bathmen,Deventer,Overijssel,VBO,6.282576,52.248370
Polakstraat,41,,,7437AS,Bathmen,Deventer,Overijssel,VBO,6.282592,52.248397
Polakstraat,43,A,,7437AS,Bathmen,Deventer,Overijssel,VBO,6.282637,52.248451
Polakstraat,43,,,7437AS,Bathmen,Deventer,Overijssel,VBO,6.282652,52.248487
Polakstraat,45,A,,7437AS,Bathmen,Deventer,Overijssel,VBO,6.282797,52.248423
Polakstraat,45,,,7437AS,Bathmen,Deventer,Overijssel,VBO,6.282827,52.248440
Polakstraat,47,A,,7437AS,Bathmen,Deventer,Overijssel,VBO,6.282722,52.248333
Polakstraat,47,,,7437AS,Bathmen,Deventer,Overijssel,VBO,6.282737,52.248360
Polakstraat,49,A,,7437AS,Bathmen,Deventer,Overijssel,VBO,6.282866,52.248224
Polakstraat,49,,,7437AS,Bathmen,Deventer,Overijssel,VBO,6.282882,52.248251
Polakstraat,51,A,,7437AS,Bathmen,Deventer,Overijssel,VBO,6.282971,52.248322
Polakstraat,51,B,,7437AS,Bathmen,Deventer,Overijssel,VBO,6.282877,52.248334
Polakstraat,51,,,7437AS,Bathmen,Deventer,Overijssel,VBO,6.283001,52.248349
Polakstraat,53,A,,7437AS,Bathmen,Deventer,Overijssel,VBO,6.283102,52.248285
Polakstraat,53,,,7437AS,Bathmen,Deventer,Overijssel,VBO,6.283132,52.248312
Polakstraat,55,A,,7437AS,Bathmen,Deventer,Overijssel,VBO,6.282997,52.248187
Polakstraat,55,,,7437AS,Bathmen,Deventer,Overijssel,VBO,6.283027,52.248214
Polakstraat,57,,,7437AS,Bathmen,Deventer,Overijssel,VBO,6.282228,52.247807
Polakstraat,59,,,7437AS,Bathmen,Deventer,Overijssel,VBO,6.282183,52.247744
Polakstraat,61,,,7437AS,Bathmen,Deventer,Overijssel,VBO,6.282136,52.247610
Polakstraat,63,,,7437AS,Bathmen,Deventer,Overijssel,VBO,6.282091,52.247556
Polakstraat,65,,,7437AS,Bathmen,Deventer,Overijssel,VBO,6.282045,52.247413
Polakstraat,67,,,7437AS,Bathmen,Deventer,Overijssel,VBO,6.282000,52.247359
Polakstraat,69,,,7437AS,Bathmen,Deventer,Overijssel,VBO,6.281697,52.247586
Polakstraat,71,,,7437AS,Bathmen,Deventer,Overijssel,VBO,6.281609,52.247614
Polakstraat,73,,,7437AS,Bathmen,Deventer,Overijssel,VBO,6.281405,52.247669
Polakstraat,75,,,7437AS,Bathmen,Deventer,Overijssel,VBO,6.281304,52.247697
Polakstraat,77,,,7437AS,Bathmen,Deventer,Overijssel,VBO,6.281114,52.247752
Polakstraat,79,,,7437AS,Bathmen,Deventer,Overijssel,VBO,6.281012,52.247771
Polakstraat,2,,,7437AT,Bathmen,Deventer,Overijssel,VBO,6.281830,52.249113
Polakstraat,4,,,7437AT,Bathmen,Deventer,Overijssel,VBO,6.281917,52.249094
Polakstraat,6,,,7437AT,Bathmen,Deventer,Overijssel,VBO,6.281990,52.249067
Polakstraat,8,,,7437AT,Bathmen,Deventer,Overijssel,VBO,6.282078,52.249048
Polakstraat,10,,,7437AT,Bathmen,Deventer,Overijssel,VBO,6.282194,52.249020
Polakstraat,12,G,1,7437AT,Bathmen,Deventer,Overijssel,VBO,6.282059,52.248715
Polakstraat,12,G,2,7437AT,Bathmen,Deventer,Overijssel,VBO,6.282016,52.248725
Polakstraat,12,G,3,7437AT,Bathmen,Deventer,Overijssel,VBO,6.281971,52.248737
Polakstraat,12,G,4,7437AT,Bathmen,Deventer,Overijssel,VBO,6.281927,52.248755
Polakstraat,12,G,5,7437AT,Bathmen,Deventer,Overijssel,VBO,6.281888,52.248765
Polakstraat,12,G,6,7437AT,Bathmen,Deventer,Overijssel,VBO,6.281855,52.248774
Polakstraat,12,,,7437AT,Bathmen,Deventer,Overijssel,VBO,6.282281,52.248993
Polakstraat,14,,,7437AT,Bathmen,Deventer,Overijssel,VBO,6.282529,52.248919
Polakstraat,16,,,7437AT,Bathmen,Deventer,Overijssel,VBO,6.282484,52.248865
Polakstraat,18,,,7437AT,Bathmen,Deventer,Overijssel,VBO,6.282468,52.248812
Polakstraat,20,,,7437AT,Bathmen,Deventer,Overijssel,VBO,6.282423,52.248767
Polakstraat,22,,,7437AT,Bathmen,Deventer,Overijssel,VBO,6.282378,52.248704
Polakstraat,24,T,,7437AT,Bathmen,Deventer,Overijssel,VBO,6.282107,52.248701
Polakstraat,24,,,7437AT,Bathmen,Deventer,Overijssel,VBO,6.282348,52.248660
Polakstraat,26,,,7437AT,Bathmen,Deventer,Overijssel,VBO,6.282047,52.248240
Polakstraat,28,,,7437AT,Bathmen,Deventer,Overijssel,VBO,6.281987,52.248177
Polakstraat,30,,,7437AT,Bathmen,Deventer,Overijssel,VBO,6.281913,52.248096
Polakstraat,32,,,7437AT,Bathmen,Deventer,Overijssel,VBO,6.281851,52.247989
Polakstraat,34,,,7437AT,Bathmen,Deventer,Overijssel,VBO,6.281702,52.247829
Polakstraat,36,,,7437AT,Bathmen,Deventer,Overijssel,VBO,6.281600,52.247883
Polakstraat,38,,,7437AT,Bathmen,Deventer,Overijssel,VBO,6.281440,52.247921
Polakstraat,40,,,7437AT,Bathmen,Deventer,Overijssel,VBO,6.281279,52.247940
Omerinkstraat,1,,,7437AV,Bathmen,Deventer,Overijssel,VBO,6.281785,52.248611
Omerinkstraat,2,,,7437AV,Bathmen,Deventer,Overijssel,VBO,6.281377,52.248451
Omerinkstraat,3,,,7437AV,Bathmen,Deventer,Overijssel,VBO,6.281882,52.248583
Omerinkstraat,4,,,7437AV,Bathmen,Deventer,Overijssel,VBO,6.281494,52.248432
Omerinkstraat,5,,,7437AV,Bathmen,Deventer,Overijssel,VBO,6.281973,52.248557
Omerinkstraat,6,,,7437AV,Bathmen,Deventer,Overijssel,VBO,6.281654,52.248386
Omerinkstraat,7,,,7437AV,Bathmen,Deventer,Overijssel,VBO,6.282060,52.248535
Omerinkstraat,8,,,7437AV,Bathmen,Deventer,Overijssel,VBO,6.281793,52.248355
Omerinkstraat,9,,,7437AV,Bathmen,Deventer,Overijssel,VBO,6.282144,52.248510
Omerinkstraat,11,,,7437AV,Bathmen,Deventer,Overijssel,VBO,6.282232,52.248484
Beuginkstraat,1,,,7437AW,Bathmen,Deventer,Overijssel,VBO,6.281710,52.248961
Beuginkstraat,2,,,7437AW,Bathmen,Deventer,Overijssel,VBO,6.283872,52.250185
Beuginkstraat,3,,,7437AW,Bathmen,Deventer,Overijssel,VBO,6.281665,52.248917
Beuginkstraat,4,,,7437AW,Bathmen,Deventer,Overijssel,VBO,6.281088,52.248624
Beuginkstraat,5,,,7437AW,Bathmen,Deventer,Overijssel,VBO,6.281620,52.248854
Beuginkstraat,6,,,7437AW,Bathmen,Deventer,Overijssel,VBO,6.281043,52.248571
Beuginkstraat,7,,,7437AW,Bathmen,Deventer,Overijssel,VBO,6.281589,52.248809
Beuginkstraat,8,,,7437AW,Bathmen,Deventer,Overijssel,VBO,6.280938,52.248437
Beuginkstraat,9,,,7437AW,Bathmen,Deventer,Overijssel,VBO,6.281544,52.248756
Beuginkstraat,10,,,7437AW,Bathmen,Deventer,Overijssel,VBO,6.280908,52.248394
Beuginkstraat,11,,,7437AW,Bathmen,Deventer,Overijssel,VBO,6.281529,52.248711
Beuginkstraat,12,,,7437AW,Bathmen,Deventer,Overijssel,VBO,6.280687,52.248194
Beuginkstraat,13,,,7437AW,Bathmen,Deventer,Overijssel,VBO,6.281213,52.248291
Beuginkstraat,15,,,7437AW,Bathmen,Deventer,Overijssel,VBO,6.281153,52.248219
Beuginkstraat,17,,,7437AW,Bathmen,Deventer,Overijssel,VBO,6.281093,52.248130
Beuginkstraat,19,,,7437AW,Bathmen,Deventer,Overijssel,VBO,6.281018,52.248041
Wolterinkhofstraat,1,,,7437AX,Bathmen,Deventer,Overijssel,VBO,6.284012,52.249123
Wolterinkhofstraat,3,,,7437AX,Bathmen,Deventer,Overijssel,VBO,6.283910,52.249133
Wolterinkhofstraat,5,,,7437AX,Bathmen,Deventer,Overijssel,VBO,6.283691,52.249189
Wolterinkhofstraat,7,,,7437AX,Bathmen,Deventer,Overijssel,VBO,6.283589,52.249217
Wolterinkhofstraat,9,,,7437AX,Bathmen,Deventer,Overijssel,VBO,6.283414,52.249263
Wolterinkhofstraat,11,,,7437AX,Bathmen,Deventer,Overijssel,VBO,6.283313,52.249291
Wolterinkhofstraat,13,,,7437AX,Bathmen,Deventer,Overijssel,VBO,6.283123,52.249337
Wolterinkhofstraat,15,,,7437AX,Bathmen,Deventer,Overijssel,VBO,6.283036,52.249365
Wolterinkhofstraat,17,,,7437AX,Bathmen,Deventer,Overijssel,VBO,6.282861,52.249411
Wolterinkhofstraat,19,,,7437AX,Bathmen,Deventer,Overijssel,VBO,6.282774,52.249438
Wolterinkhofstraat,21,,,7437AX,Bathmen,Deventer,Overijssel,VBO,6.282599,52.249485
Wolterinkhofstraat,23,,,7437AX,Bathmen,Deventer,Overijssel,VBO,6.282497,52.249512
Wolterinkhofstraat,25,,,7437AX,Bathmen,Deventer,Overijssel,VBO,6.282322,52.249559
Wolterinkhofstraat,27,,,7437AX,Bathmen,Deventer,Overijssel,VBO,6.282235,52.249586
Wolterinkhofstraat,29,,,7437AX,Bathmen,Deventer,Overijssel,VBO,6.281900,52.249706
Wolterinkhofstraat,31,,,7437AX,Bathmen,Deventer,Overijssel,VBO,6.281858,52.249760
Wolterinkhofstraat,33,,,7437AX,Bathmen,Deventer,Overijssel,VBO,6.281728,52.249851
Wolterinkhofstraat,35,,,7437AX,Bathmen,Deventer,Overijssel,VBO,6.281670,52.249896
Wolterinkhofstraat,37,,,7437AX,Bathmen,Deventer,Overijssel,VBO,6.281555,52.249996
Wolterinkhofstraat,39,,,7437AX,Bathmen,Deventer,Overijssel,VBO,6.281497,52.250041
Wolterinkhofstraat,2,T,,7437AZ,Bathmen,Deventer,Overijssel,VBO,6.284371,52.249292
Wolterinkhofstraat,4,,,7437AZ,Bathmen,Deventer,Overijssel,VBO,6.283888,52.249484
Wolterinkhofstraat,6,,,7437AZ,Bathmen,Deventer,Overijssel,VBO,6.283653,52.249486
Wolterinkhofstraat,8,,,7437AZ,Bathmen,Deventer,Overijssel,VBO,6.283434,52.249523
Wolterinkhofstraat,10,,,7437AZ,Bathmen,Deventer,Overijssel,VBO,6.283332,52.249542
Wolterinkhofstraat,12,,,7437AZ,Bathmen,Deventer,Overijssel,VBO,6.283173,52.249624
Wolterinkhofstraat,14,,,7437AZ,Bathmen,Deventer,Overijssel,VBO,6.282969,52.249662
Wolterinkhofstraat,16,,,7437AZ,Bathmen,Deventer,Overijssel,VBO,6.282881,52.249689
Wolterinkhofstraat,18,,,7437AZ,Bathmen,Deventer,Overijssel,VBO,6.282633,52.249727
Wolterinkhofstraat,20,,,7437AZ,Bathmen,Deventer,Overijssel,VBO,6.282546,52.249755
Wolterinkhofstraat,22,,,7437AZ,Bathmen,Deventer,Overijssel,VBO,6.282255,52.249874
Wolterinkhofstraat,24,,,7437AZ,Bathmen,Deventer,Overijssel,VBO,6.282198,52.249919
Wolterinkhofstraat,26,,,7437AZ,Bathmen,Deventer,Overijssel,VBO,6.282082,52.250010
Wolterinkhofstraat,28,,,7437AZ,Bathmen,Deventer,Overijssel,VBO,6.282025,52.250064
Wolterinkhofstraat,30,,,7437AZ,Bathmen,Deventer,Overijssel,VBO,6.281881,52.250200
Wolterinkhofstraat,32,,,7437AZ,Bathmen,Deventer,Overijssel,VBO,6.281790,52.250340
Burg. P.J. Hemmingalaan,1,,,7437BA,Bathmen,Deventer,Overijssel,VBO,6.280262,52.249089
Burg. P.J. Hemmingalaan,2,,,7437BA,Bathmen,Deventer,Overijssel,VBO,6.280370,52.248792
Burg. P.J. Hemmingalaan,3,,,7437BA,Bathmen,Deventer,Overijssel,VBO,6.280350,52.249061
Burg. P.J. Hemmingalaan,4,,,7437BA,Bathmen,Deventer,Overijssel,VBO,6.280463,52.248766
Burg. P.J. Hemmingalaan,5,,,7437BA,Bathmen,Deventer,Overijssel,VBO,6.280452,52.249034
Burg. P.J. Hemmingalaan,6,,,7437BA,Bathmen,Deventer,Overijssel,VBO,6.280683,52.248774
Burg. P.J. Hemmingalaan,7,,,7437BA,Bathmen,Deventer,Overijssel,VBO,6.280642,52.249050
Burg. P.J. Hemmingalaan,8,,,7437BA,Bathmen,Deventer,Overijssel,VBO,6.280775,52.248748
Burg. P.J. Hemmingalaan,9,,,7437BA,Bathmen,Deventer,Overijssel,VBO,6.280744,52.249022
Burg. P.J. Hemmingalaan,11,,,7437BA,Bathmen,Deventer,Overijssel,VBO,6.280893,52.248970
Burg. P.J. Hemmingalaan,13,,,7437BA,Bathmen,Deventer,Overijssel,VBO,6.280985,52.248942
Burg. P.J. Hemmingalaan,15,,,7437BA,Bathmen,Deventer,Overijssel,VBO,6.281152,52.248902
Burg. P.J. Hemmingalaan,17,G,1,7437BA,Bathmen,Deventer,Overijssel,VBO,6.281362,52.249006
Burg. P.J. Hemmingalaan,17,,,7437BA,Bathmen,Deventer,Overijssel,VBO,6.281254,52.248875
Burg. Jhr Dr A. Boreellaan,1,,,7437BB,Bathmen,Deventer,Overijssel,VBO,6.279714,52.249471
Burg. Jhr Dr A. Boreellaan,3,,,7437BB,Bathmen,Deventer,Overijssel,VBO,6.279816,52.249488
Burg. Jhr Dr A. Boreellaan,5,,,7437BB,Bathmen,Deventer,Overijssel,VBO,6.280083,52.249526
Burg. Jhr Dr A. Boreellaan,7,,,7437BB,Bathmen,Deventer,Overijssel,VBO,6.280177,52.249543
Burg. Jhr Dr A. Boreellaan,9,,,7437BB,Bathmen,Deventer,Overijssel,VBO,6.280426,52.249589
Burg. Jhr Dr A. Boreellaan,11,,,7437BB,Bathmen,Deventer,Overijssel,VBO,6.280518,52.249606
Burg. Jhr Dr A. Boreellaan,13,,,7437BB,Bathmen,Deventer,Overijssel,VBO,6.280918,52.249632
Burg. Jhr Dr A. Boreellaan,15,,,7437BB,Bathmen,Deventer,Overijssel,VBO,6.281005,52.249605
Burg. Jhr Dr A. Boreellaan,17,,,7437BB,Bathmen,Deventer,Overijssel,VBO,6.281238,52.249540
Burg. Jhr Dr A. Boreellaan,19,,,7437BB,Bathmen,Deventer,Overijssel,VBO,6.281326,52.249521
Burg. Jhr Dr A. Boreellaan,21,,,7437BB,Bathmen,Deventer,Overijssel,VBO,6.281544,52.249457
Burg. Jhr Dr A. Boreellaan,23,,,7437BB,Bathmen,Deventer,Overijssel,VBO,6.281631,52.249429
Burg. Jhr Dr A. Boreellaan,2,,,7437BC,Bathmen,Deventer,Overijssel,VBO,6.280030,52.249190
Burg. Jhr Dr A. Boreellaan,4,,,7437BC,Bathmen,Deventer,Overijssel,VBO,6.280075,52.249243
Burg. Jhr Dr A. Boreellaan,6,,,7437BC,Bathmen,Deventer,Overijssel,VBO,6.280443,52.249312
Burg. Jhr Dr A. Boreellaan,8,,,7437BC,Bathmen,Deventer,Overijssel,VBO,6.280530,52.249285
Burg. Jhr Dr A. Boreellaan,10,,,7437BC,Bathmen,Deventer,Overijssel,VBO,6.280736,52.249319
Burg. Jhr Dr A. Boreellaan,12,,,7437BC,Bathmen,Deventer,Overijssel,VBO,6.280838,52.249291
Burg. Jhr Dr A. Boreellaan,14,,,7437BC,Bathmen,Deventer,Overijssel,VBO,6.281057,52.249322
Burg. Jhr Dr A. Boreellaan,16,,,7437BC,Bathmen,Deventer,Overijssel,VBO,6.281160,52.249298
Burg. Jhr Dr A. Boreellaan,18,,,7437BC,Bathmen,Deventer,Overijssel,VBO,6.281240,52.249273
Burg. Jhr Dr A. Boreellaan,20,,,7437BC,Bathmen,Deventer,Overijssel,VBO,6.281367,52.249185
Burg. Jhr Dr A. Boreellaan,22,,,7437BC,Bathmen,Deventer,Overijssel,VBO,6.281466,52.249161
Gorsselseweg,1,,,7437BD,Bathmen,Deventer,Overijssel,VBO,6.285371,52.248969
Gorsselseweg,3,,,7437BD,Bathmen,Deventer,Overijssel,VBO,6.285217,52.248620
Gorsselseweg,5,,,7437BD,Bathmen,Deventer,Overijssel,VBO,6.285081,52.248387
Gorsselseweg,7,,,7437BD,Bathmen,Deventer,Overijssel,VBO,6.284827,52.248120
Gorsselseweg,9,,,7437BD,Bathmen,Deventer,Overijssel,VBO,6.284498,52.247825
Gorsselseweg,11,A,,7437BD,Bathmen,Deventer,Overijssel,VBO,6.283275,52.247243
Gorsselseweg,11,,,7437BD,Bathmen,Deventer,Overijssel,VBO,6.283318,52.247402
Gorsselseweg,13,A,,7437BD,Bathmen,Deventer,Overijssel,VBO,6.283215,52.246979
Gorsselseweg,13,,,7437BD,Bathmen,Deventer,Overijssel,VBO,6.283240,52.247103
Gorsselseweg,15,A,,7437BD,Bathmen,Deventer,Overijssel,VBO,6.283172,52.246685
Gorsselseweg,15,,,7437BD,Bathmen,Deventer,Overijssel,VBO,6.283204,52.246811
Gorsselseweg,17,,,7437BD,Bathmen,Deventer,Overijssel,VBO,6.283170,52.246559
Gorsselseweg,19,,,7437BD,Bathmen,Deventer,Overijssel,VBO,6.283154,52.246514
Gorsselseweg,23,A,,7437BD,Bathmen,Deventer,Overijssel,VBO,6.283247,52.246055
Gorsselseweg,23,,,7437BD,Bathmen,Deventer,Overijssel,VBO,6.283239,52.246352
Gorsselseweg,25,,,7437BD,Bathmen,Deventer,Overijssel,VBO,6.283477,52.245811
Gorsselseweg,27,,,7437BD,Bathmen,Deventer,Overijssel,VBO,6.283527,52.245424
Gorsselseweg,29,T,,7437BD,Bathmen,Deventer,Overijssel,VBO,6.283844,52.245134
Gorsselseweg,31,,,7437BD,Bathmen,Deventer,Overijssel,VBO,6.286805,52.245282
Gorsselseweg,33,,,7437BD,Bathmen,Deventer,Overijssel,VBO,6.282630,52.242285
Gorsselseweg,35,,,7437BD,Bathmen,Deventer,Overijssel,VBO,6.281557,52.239165
Gorsselseweg,2,,,7437BE,Bathmen,Deventer,Overijssel,VBO,6.283776,52.248382
Gorsselseweg,4,,,7437BE,Bathmen,Deventer,Overijssel,VBO,6.283019,52.247783
Gorsselseweg,6,A,,7437BE,Bathmen,Deventer,Overijssel,VBO,6.282642,52.247246
Gorsselseweg,6,,,7437BE,Bathmen,Deventer,Overijssel,VBO,6.282852,52.247417
Gorsselseweg,8,,,7437BE,Bathmen,Deventer,Overijssel,VBO,6.282754,52.247030
Gorsselseweg,37,A,,7437BE,Bathmen,Deventer,Overijssel,VBO,6.282626,52.234819
Gorsselseweg,37,,,7437BE,Bathmen,Deventer,Overijssel,VBO,6.282466,52.234848
Gorsselseweg,39,A,,7437BE,Bathmen,Deventer,Overijssel,VBO,6.277525,52.231591
Gorsselseweg,39,,,7437BE,Bathmen,Deventer,Overijssel,VBO,6.277585,52.231636
Gorsselseweg,41,,,7437BE,Bathmen,Deventer,Overijssel,VBO,6.277789,52.231400
Gorsselseweg,43,,,7437BE,Bathmen,Deventer,Overijssel,VBO,6.277559,52.231097
Gorsselseweg,47,,,7437BE,Bathmen,Deventer,Overijssel,VBO,6.277515,52.230941
Gorsselseweg,49,A,,7437BE,Bathmen,Deventer,Overijssel,VBO,6.281673,52.230685
Gorsselseweg,49,B,,7437BE,Bathmen,Deventer,Overijssel,VBO,6.281675,52.230861
Gorsselseweg,49,,,7437BE,Bathmen,Deventer,Overijssel,VBO,6.281692,52.230798
Geltinkssteeg,1,,,7437BG,Bathmen,Deventer,Overijssel,VBO,6.277828,52.232318
Gorsselseweg,10,,,7437BG,Bathmen,Deventer,Overijssel,VBO,6.282498,52.246681
Gorsselseweg,12,A,,7437BG,Bathmen,Deventer,Overijssel,VBO,6.282648,52.245757
Gorsselseweg,12,,,7437BG,Bathmen,Deventer,Overijssel,VBO,6.282840,52.245456
Gorsselseweg,14,,,7437BG,Bathmen,Deventer,Overijssel,VBO,6.282211,52.245499
Gorsselseweg,16,,,7437BG,Bathmen,Deventer,Overijssel,VBO,6.282503,52.245171
Gorsselseweg,18,T,,7437BG,Bathmen,Deventer,Overijssel,VBO,6.281421,52.244793
Gorsselseweg,18,,,7437BG,Bathmen,Deventer,Overijssel,VBO,6.281475,52.245014
Gorsselseweg,20,,,7437BG,Bathmen,Deventer,Overijssel,VBO,6.282753,52.244243
Gorsselseweg,22,,,7437BG,Bathmen,Deventer,Overijssel,VBO,6.281374,52.241746
Gorsselseweg,24,,,7437BG,Bathmen,Deventer,Overijssel,VBO,6.277984,52.240603
Gorsselseweg,26,,,7437BG,Bathmen,Deventer,Overijssel,VBO,6.280953,52.239700
Gorsselseweg,30,A,,7437BG,Bathmen,Deventer,Overijssel,VBO,6.281541,52.236720
Gorsselseweg,30,,,7437BG,Bathmen,Deventer,Overijssel,VBO,6.281789,52.236405
Gorsselseweg,32,A,,7437BG,Bathmen,Deventer,Overijssel,VBO,6.280507,52.234301
Gorsselseweg,32,,,7437BG,Bathmen,Deventer,Overijssel,VBO,6.280668,52.234300
Gorsselseweg,34,,,7437BG,Bathmen,Deventer,Overijssel,VBO,6.279580,52.234057
Gorsselseweg,36,A,,7437BG,Bathmen,Deventer,Overijssel,VBO,6.279830,52.233529
Gorsselseweg,36,,,7437BG,Bathmen,Deventer,Overijssel,VBO,6.279707,52.233512
Gorsselseweg,38,A,,7437BG,Bathmen,Deventer,Overijssel,VBO,6.276793,52.230232
Gorsselseweg,38,B,,7437BG,Bathmen,Deventer,Overijssel,VBO,6.276689,52.230226
Gorsselseweg,38,,,7437BG,Bathmen,Deventer,Overijssel,VBO,6.276291,52.230448
Gorsselseweg,40,,,7437BG,Bathmen,Deventer,Overijssel,VBO,6.276863,52.229943
Gorsselseweg,42,,,7437BG,Bathmen,Deventer,Overijssel,VBO,6.276830,52.229763
Deventerweg,1,A,,7437BH,Bathmen,Deventer,Overijssel,VBO,6.283714,52.250459
Deventerweg,1,C,,7437BH,Bathmen,Deventer,Overijssel,VBO,6.283741,52.250424
Deventerweg,1,,,7437BH,Bathmen,Deventer,Overijssel,VBO,6.283833,52.250462
Deventerweg,3,,,7437BH,Bathmen,Deventer,Overijssel,VBO,6.283466,52.250350
Deventerweg,5,,,7437BH,Bathmen,Deventer,Overijssel,VBO,6.283084,52.250299
Deventerweg,7,,,7437BH,Bathmen,Deventer,Overijssel,VBO,6.282541,52.250376
Deventerweg,9,,,7437BH,Bathmen,Deventer,Overijssel,VBO,6.282468,52.250374
Deventerweg,11,,,7437BH,Bathmen,Deventer,Overijssel,VBO,6.282108,52.250358
Deventerweg,13,,,7437BH,Bathmen,Deventer,Overijssel,VBO,6.281326,52.250249
Deventerweg,15,,,7437BH,Bathmen,Deventer,Overijssel,VBO,6.280959,52.250225
Deventerweg,17,,,7437BH,Bathmen,Deventer,Overijssel,VBO,6.280636,52.250183
Deventerweg,19,,,7437BH,Bathmen,Deventer,Overijssel,VBO,6.280430,52.250130
Deventerweg,21,A,,7437BH,Bathmen,Deventer,Overijssel,VBO,6.279767,52.249947
Deventerweg,21,,,7437BH,Bathmen,Deventer,Overijssel,VBO,6.280149,52.250025
Deventerweg,23,,,7437BH,Bathmen,Deventer,Overijssel,VBO,6.278731,52.249861
Deventerweg,25,,,7437BH,Bathmen,Deventer,Overijssel,VBO,6.278668,52.249845
Deventerweg,27,A,,7437BH,Bathmen,Deventer,Overijssel,VBO,6.278467,52.249505
Deventerweg,27,,,7437BH,Bathmen,Deventer,Overijssel,VBO,6.278598,52.249549
Deventerweg,29,A,,7437BH,Bathmen,Deventer,Overijssel,VBO,6.278063,52.249681
Deventerweg,29,,,7437BH,Bathmen,Deventer,Overijssel,VBO,6.278255,52.249760
Deventerweg,31,A,,7437BH,Bathmen,Deventer,Overijssel,VBO,6.277133,52.249301
Deventerweg,31,B,,7437BH,Bathmen,Deventer,Overijssel,VBO,6.276660,52.249272
Deventerweg,31,,,7437BH,Bathmen,Deventer,Overijssel,VBO,6.277681,52.249603
Deventerweg,33,A,,7437BH,Bathmen,Deventer,Overijssel,VBO,6.266768,52.248757
Deventerweg,33,,,7437BH,Bathmen,Deventer,Overijssel,VBO,6.266625,52.248792
Koesteeg,2,,,7437BH,Bathmen,Deventer,Overijssel,VBO,6.281672,52.250955
Deventerweg,2,,,7437BJ,Bathmen,Deventer,Overijssel,VBO,6.283819,52.250707
Deventerweg,4,,,7437BJ,Bathmen,Deventer,Overijssel,VBO,6.283450,52.251113
Deventerweg,6,,,7437BJ,Bathmen,Deventer,Overijssel,VBO,6.283430,52.250746
Deventerweg,8,A,,7437BJ,Bathmen,Deventer,Overijssel,VBO,6.282776,52.251081
Deventerweg,8,,,7437BJ,Bathmen,Deventer,Overijssel,VBO,6.283251,52.250594
Deventerweg,10,,,7437BJ,Bathmen,Deventer,Overijssel,VBO,6.282651,52.250608
Deventerweg,12,A,,7437BJ,Bathmen,Deventer,Overijssel,VBO,6.282399,52.250672
Deventerweg,12,,,7437BJ,Bathmen,Deventer,Overijssel,VBO,6.282284,52.250602
Deventerweg,14,,,7437BJ,Bathmen,Deventer,Overijssel,VBO,6.282013,52.250580
Deventerweg,16,,,7437BJ,Bathmen,Deventer,Overijssel,VBO,6.281916,52.250577
Deventerweg,18,A,,7437BJ,Bathmen,Deventer,Overijssel,VBO,6.281347,52.250600
Deventerweg,18,,,7437BJ,Bathmen,Deventer,Overijssel,VBO,6.281727,52.250570
Deventerweg,20,A,,7437BJ,Bathmen,Deventer,Overijssel,VBO,6.281027,52.250701
Deventerweg,20,,,7437BJ,Bathmen,Deventer,Overijssel,VBO,6.281146,52.250567
Deventerweg,22,,,7437BJ,Bathmen,Deventer,Overijssel,VBO,6.281054,52.250562
Deventerweg,24,,,7437BJ,Bathmen,Deventer,Overijssel,VBO,6.280818,52.250496
Deventerweg,26,,,7437BJ,Bathmen,Deventer,Overijssel,VBO,6.280612,52.250471
Deventerweg,28,,,7437BJ,Bathmen,Deventer,Overijssel,VBO,6.280524,52.250453
Deventerweg,30,,,7437BJ,Bathmen,Deventer,Overijssel,VBO,6.280318,52.250401
Deventerweg,32,A,,7437BJ,Bathmen,Deventer,Overijssel,VBO,6.279753,52.250263
Deventerweg,32,,,7437BJ,Bathmen,Deventer,Overijssel,VBO,6.279980,52.250322
Deventerweg,34,,,7437BJ,Bathmen,Deventer,Overijssel,VBO,6.279538,52.250200
Deventerweg,36,,,7437BJ,Bathmen,Deventer,Overijssel,VBO,6.279303,52.250157
Deventerweg,38,,,7437BJ,Bathmen,Deventer,Overijssel,VBO,6.278849,52.250160
Koesteeg,1,,,7437BJ,Bathmen,Deventer,Overijssel,VBO,6.281297,52.250910
Deventerweg,40,,,7437BK,Bathmen,Deventer,Overijssel,VBO,6.277983,52.250086
Deventerweg,42,,,7437BK,Bathmen,Deventer,Overijssel,VBO,6.277909,52.250050
Deventerweg,44,,,7437BK,Bathmen,Deventer,Overijssel,VBO,6.277835,52.250015
Deventerweg,46,,,7437BK,Bathmen,Deventer,Overijssel,VBO,6.277747,52.249998
Deventerweg,48,A,,7437BK,Bathmen,Deventer,Overijssel,VBO,6.277335,52.250022
Deventerweg,48,,,7437BK,Bathmen,Deventer,Overijssel,VBO,6.276939,52.249850
Deventerweg,50,A,,7437BK,Bathmen,Deventer,Overijssel,VBO,6.275018,52.249941
Deventerweg,50,,,7437BK,Bathmen,Deventer,Overijssel,VBO,6.275066,52.249852
Deventerweg,52,A,,7437BK,Bathmen,Deventer,Overijssel,VBO,6.272182,52.249986
Deventerweg,52,,,7437BK,Bathmen,Deventer,Overijssel,VBO,6.272939,52.249746
Deventerweg,54,T,,7437BK,Bathmen,Deventer,Overijssel,VBO,6.269385,52.249998
Deventerweg,54,,,7437BK,Bathmen,Deventer,Overijssel,VBO,6.269647,52.249906
Deventerweg,56,,,7437BK,Bathmen,Deventer,Overijssel,VBO,6.268478,52.250786
Deventerweg,58,,,7437BK,Bathmen,Deventer,Overijssel,VBO,6.268294,52.249619
Larenseweg,1,,,7437BL,Bathmen,Deventer,Overijssel,VBO,6.288629,52.249672
Larenseweg,5,,,7437BL,Bathmen,Deventer,Overijssel,VBO,6.288532,52.249574
Larenseweg,7,,,7437BL,Bathmen,Deventer,Overijssel,VBO,6.288793,52.249447
Larenseweg,9,,,7437BL,Bathmen,Deventer,Overijssel,VBO,6.289039,52.249337
Larenseweg,11,,,7437BL,Bathmen,Deventer,Overijssel,VBO,6.289345,52.249245
Larenseweg,13,,,7437BL,Bathmen,Deventer,Overijssel,VBO,6.289681,52.249206
Larenseweg,15,,,7437BL,Bathmen,Deventer,Overijssel,VBO,6.289798,52.249214
Larenseweg,17,,,7437BL,Bathmen,Deventer,Overijssel,VBO,6.289974,52.249231
Larenseweg,19,,,7437BL,Bathmen,Deventer,Overijssel,VBO,6.290106,52.249239
Larenseweg,21,,,7437BL,Bathmen,Deventer,Overijssel,VBO,6.290313,52.249309
Larenseweg,23,,,7437BL,Bathmen,Deventer,Overijssel,VBO,6.290724,52.249369
Larenseweg,25,,,7437BL,Bathmen,Deventer,Overijssel,VBO,6.290930,52.249421
Larenseweg,27,,,7437BL,Bathmen,Deventer,Overijssel,VBO,6.291682,52.249667
Larenseweg,2,A,,7437BM,Bathmen,Deventer,Overijssel,VBO,6.288279,52.249289
Larenseweg,2,,,7437BM,Bathmen,Deventer,Overijssel,VBO,6.288293,52.249370
Larenseweg,4,,,7437BM,Bathmen,Deventer,Overijssel,VBO,6.288349,52.249234
Larenseweg,6,,,7437BM,Bathmen,Deventer,Overijssel,VBO,6.288611,52.249151
Larenseweg,8,,,7437BM,Bathmen,Deventer,Overijssel,VBO,6.288873,52.249106
Larenseweg,10,,,7437BM,Bathmen,Deventer,Overijssel,VBO,6.288961,52.249077
Larenseweg,16,A,,7437BM,Bathmen,Deventer,Overijssel,VBO,6.290138,52.248755
Larenseweg,16,B,,7437BM,Bathmen,Deventer,Overijssel,VBO,6.290126,52.248710
Larenseweg,16,C,,7437BM,Bathmen,Deventer,Overijssel,VBO,6.290117,52.248657
Larenseweg,16,D,,7437BM,Bathmen,Deventer,Overijssel,VBO,6.290064,52.248551
Larenseweg,18,A,,7437BM,Bathmen,Deventer,Overijssel,VBO,6.290136,52.248472
Larenseweg,18,,,7437BM,Bathmen,Deventer,Overijssel,VBO,6.290048,52.248496
Larenseweg,20,A,,7437BM,Bathmen,Deventer,Overijssel,VBO,6.290177,52.248576
Larenseweg,20,,,7437BM,Bathmen,Deventer,Overijssel,VBO,6.289998,52.248943
Larenseweg,22,,,7437BM,Bathmen,Deventer,Overijssel,VBO,6.290248,52.249004
Larenseweg,24,,,7437BM,Bathmen,Deventer,Overijssel,VBO,6.290557,52.249074
Larenseweg,26,,,7437BM,Bathmen,Deventer,Overijssel,VBO,6.290983,52.249124
Larenseweg,28,,,7437BM,Bathmen,Deventer,Overijssel,VBO,6.291310,52.249255
Larenseweg,30,,,7437BM,Bathmen,Deventer,Overijssel,VBO,6.291399,52.249281
Larenseweg,32,,,7437BM,Bathmen,Deventer,Overijssel,VBO,6.291602,52.249326
Larenseweg,34,,,7437BM,Bathmen,Deventer,Overijssel,VBO,6.291703,52.249352
Larenseweg,36,,,7437BM,Bathmen,Deventer,Overijssel,VBO,6.291998,52.249377
Larenseweg,38,,,7437BM,Bathmen,Deventer,Overijssel,VBO,6.292115,52.249340
Noteboomstraat,1,,,7437BN,Bathmen,Deventer,Overijssel,VBO,6.291405,52.249025
Noteboomstraat,3,,,7437BN,Bathmen,Deventer,Overijssel,VBO,6.291419,52.248968
Noteboomstraat,5,,,7437BN,Bathmen,Deventer,Overijssel,VBO,6.291433,52.248879
Noteboomstraat,7,,,7437BN,Bathmen,Deventer,Overijssel,VBO,6.291445,52.248824
Noteboomstraat,9,,,7437BN,Bathmen,Deventer,Overijssel,VBO,6.291459,52.248779
Noteboomstraat,11,,,7437BN,Bathmen,Deventer,Overijssel,VBO,6.291441,52.248599
Noteboomstraat,13,,,7437BN,Bathmen,Deventer,Overijssel,VBO,6.291410,52.248546
Noteboomstraat,15,,,7437BN,Bathmen,Deventer,Overijssel,VBO,6.291329,52.248443
Noteboomstraat,17,,,7437BN,Bathmen,Deventer,Overijssel,VBO,6.291299,52.248389
Noteboomstraat,19,,,7437BN,Bathmen,Deventer,Overijssel,VBO,6.291274,52.248304
Noteboomstraat,21,G,1,7437BN,Bathmen,Deventer,Overijssel,VBO,6.291477,52.248222
Noteboomstraat,21,G,10,7437BN,Bathmen,Deventer,Overijssel,VBO,6.291430,52.248087
Noteboomstraat,21,G,2,7437BN,Bathmen,Deventer,Overijssel,VBO,6.291521,52.248212
Noteboomstraat,21,G,3,7437BN,Bathmen,Deventer,Overijssel,VBO,6.291564,52.248203
Noteboomstraat,21,G,4,7437BN,Bathmen,Deventer,Overijssel,VBO,6.291603,52.248199
Noteboomstraat,21,G,5,7437BN,Bathmen,Deventer,Overijssel,VBO,6.291657,52.248190
Noteboomstraat,21,G,6,7437BN,Bathmen,Deventer,Overijssel,VBO,6.291701,52.248181
Noteboomstraat,21,G,7,7437BN,Bathmen,Deventer,Overijssel,VBO,6.291740,52.248175
Noteboomstraat,21,G,8,7437BN,Bathmen,Deventer,Overijssel,VBO,6.291783,52.248165
Noteboomstraat,21,G,9,7437BN,Bathmen,Deventer,Overijssel,VBO,6.291827,52.248156
Noteboomstraat,21,,,7437BN,Bathmen,Deventer,Overijssel,VBO,6.291258,52.248259
Noteboomstraat,23,,,7437BN,Bathmen,Deventer,Overijssel,VBO,6.291243,52.248223
Noteboomstraat,25,,,7437BN,Bathmen,Deventer,Overijssel,VBO,6.291227,52.248152
Noteboomstraat,27,,,7437BN,Bathmen,Deventer,Overijssel,VBO,6.291196,52.248107
Noteboomstraat,29,,,7437BN,Bathmen,Deventer,Overijssel,VBO,6.291195,52.248062
Noteboomstraat,31,,,7437BN,Bathmen,Deventer,Overijssel,VBO,6.291121,52.247982
Noteboomstraat,33,,,7437BN,Bathmen,Deventer,Overijssel,VBO,6.291105,52.247937
Noteboomstraat,35,,,7437BN,Bathmen,Deventer,Overijssel,VBO,6.291412,52.247899
Noteboomstraat,37,,,7437BN,Bathmen,Deventer,Overijssel,VBO,6.291470,52.247880
Noteboomstraat,39,,,7437BN,Bathmen,Deventer,Overijssel,VBO,6.291543,52.247871
Noteboomstraat,41,,,7437BN,Bathmen,Deventer,Overijssel,VBO,6.291601,52.247861
Noteboomstraat,43,,,7437BN,Bathmen,Deventer,Overijssel,VBO,6.291689,52.247852
Noteboomstraat,2,,,7437BP,Bathmen,Deventer,Overijssel,VBO,6.290907,52.248990
Noteboomstraat,4,,,7437BP,Bathmen,Deventer,Overijssel,VBO,6.291036,52.248872
Noteboomstraat,6,,,7437BP,Bathmen,Deventer,Overijssel,VBO,6.291064,52.248809
Noteboomstraat,8,,,7437BP,Bathmen,Deventer,Overijssel,VBO,6.291003,52.248657
Noteboomstraat,10,,,7437BP,Bathmen,Deventer,Overijssel,VBO,6.290972,52.248612
Noteboomstraat,12,,,7437BP,Bathmen,Deventer,Overijssel,VBO,6.290957,52.248558
Noteboomstraat,14,G,1,7437BP,Bathmen,Deventer,Overijssel,VBO,6.290560,52.248480
Noteboomstraat,14,G,10,7437BP,Bathmen,Deventer,Overijssel,VBO,6.290468,52.248274
Noteboomstraat,14,G,11,7437BP,Bathmen,Deventer,Overijssel,VBO,6.290450,52.248249
Noteboomstraat,14,G,12,7437BP,Bathmen,Deventer,Overijssel,VBO,6.290452,52.248229
Noteboomstraat,14,G,13,7437BP,Bathmen,Deventer,Overijssel,VBO,6.290432,52.248204
Noteboomstraat,14,G,2,7437BP,Bathmen,Deventer,Overijssel,VBO,6.290544,52.248453
Noteboomstraat,14,G,3,7437BP,Bathmen,Deventer,Overijssel,VBO,6.290544,52.248427
Noteboomstraat,14,G,4,7437BP,Bathmen,Deventer,Overijssel,VBO,6.290529,52.248409
Noteboomstraat,14,G,5,7437BP,Bathmen,Deventer,Overijssel,VBO,6.290511,52.248387
Noteboomstraat,14,G,6,7437BP,Bathmen,Deventer,Overijssel,VBO,6.290513,52.248364
Noteboomstraat,14,G,7,7437BP,Bathmen,Deventer,Overijssel,VBO,6.290498,52.248346
Noteboomstraat,14,G,8,7437BP,Bathmen,Deventer,Overijssel,VBO,6.290483,52.248319
Noteboomstraat,14,G,9,7437BP,Bathmen,Deventer,Overijssel,VBO,6.290483,52.248292
Noteboomstraat,14,,,7437BP,Bathmen,Deventer,Overijssel,VBO,6.290926,52.248513
Noteboomstraat,16,T,,7437BP,Bathmen,Deventer,Overijssel,VBO,6.290407,52.248167
Noteboomstraat,18,,,7437BP,Bathmen,Deventer,Overijssel,VBO,6.290865,52.248352
Noteboomstraat,20,,,7437BP,Bathmen,Deventer,Overijssel,VBO,6.290834,52.248307
Noteboomstraat,22,,,7437BP,Bathmen,Deventer,Overijssel,VBO,6.290804,52.248263
Noteboomstraat,24,,,7437BP,Bathmen,Deventer,Overijssel,VBO,6.290759,52.248209
Noteboomstraat,26,,,7437BP,Bathmen,Deventer,Overijssel,VBO,6.290758,52.248164
Noteboomstraat,28,,,7437BP,Bathmen,Deventer,Overijssel,VBO,6.291376,52.247608
Noteboomstraat,30,,,7437BP,Bathmen,Deventer,Overijssel,VBO,6.291500,52.247603
Noteboomstraat,32,,,7437BP,Bathmen,Deventer,Overijssel,VBO,6.291741,52.247574
Noteboomstraat,34,,,7437BP,Bathmen,Deventer,Overijssel,VBO,6.291865,52.247574
Henry Dunantlaan,1,,,7437BR,Bathmen,Deventer,Overijssel,VBO,6.291016,52.247683
Henry Dunantlaan,2,,,7437BR,Bathmen,Deventer,Overijssel,VBO,6.290654,52.247792
Henry Dunantlaan,3,,,7437BR,Bathmen,Deventer,Overijssel,VBO,6.291040,52.247605
Henry Dunantlaan,4,,,7437BR,Bathmen,Deventer,Overijssel,VBO,6.290647,52.247652
Henry Dunantlaan,5,,,7437BR,Bathmen,Deventer,Overijssel,VBO,6.291005,52.247501
Henry Dunantlaan,6,,,7437BR,Bathmen,Deventer,Overijssel,VBO,6.290641,52.247610
Henry Dunantlaan,8,,,7437BR,Bathmen,Deventer,Overijssel,VBO,6.290641,52.247419
Henry Dunantlaan,10,,,7437BR,Bathmen,Deventer,Overijssel,VBO,6.290624,52.247329
Europalaan,2,,,7437BS,Bathmen,Deventer,Overijssel,VBO,6.291845,52.247276
Europalaan,4,,,7437BS,Bathmen,Deventer,Overijssel,VBO,6.291699,52.247280
Europalaan,6,,,7437BS,Bathmen,Deventer,Overijssel,VBO,6.291537,52.247299
Europalaan,8,,,7437BS,Bathmen,Deventer,Overijssel,VBO,6.291391,52.247303
Europalaan,10,,,7437BS,Bathmen,Deventer,Overijssel,VBO,6.291243,52.247305
Europalaan,12,,,7437BS,Bathmen,Deventer,Overijssel,VBO,6.291094,52.247311
Brilmanskamp,1,,,7437BT,Bathmen,Deventer,Overijssel,VBO,6.291394,52.247018
Brilmanskamp,2,,,7437BT,Bathmen,Deventer,Overijssel,VBO,6.291922,52.247068
Brilmanskamp,3,,,7437BT,Bathmen,Deventer,Overijssel,VBO,6.291392,52.246928
Brilmanskamp,4,,,7437BT,Bathmen,Deventer,Overijssel,VBO,6.291875,52.246915
Brilmanskamp,5,,,7437BT,Bathmen,Deventer,Overijssel,VBO,6.291041,52.246931
Brilmanskamp,6,,,7437BT,Bathmen,Deventer,Overijssel,VBO,6.291975,52.246771
Brilmanskamp,7,,,7437BT,Bathmen,Deventer,Overijssel,VBO,6.291042,52.247012
Brilmanskamp,8,,,7437BT,Bathmen,Deventer,Overijssel,VBO,6.291814,52.246772
Brilmanskamp,10,,,7437BT,Bathmen,Deventer,Overijssel,VBO,6.291491,52.246738
Brilmanskamp,12,,,7437BT,Bathmen,Deventer,Overijssel,VBO,6.291330,52.246740
Brilmanskamp,14,,,7437BT,Bathmen,Deventer,Overijssel,VBO,6.291065,52.246688
Brilmanskamp,16,,,7437BT,Bathmen,Deventer,Overijssel,VBO,6.290904,52.246689
Brilmanskamp,18,,,7437BT,Bathmen,Deventer,Overijssel,VBO,6.290640,52.246655
Brilmanskamp,20,,,7437BT,Bathmen,Deventer,Overijssel,VBO,6.290508,52.246656
Brilmanskamp,22,,,7437BT,Bathmen,Deventer,Overijssel,VBO,6.290600,52.246871
Brilmanskamp,24,,,7437BT,Bathmen,Deventer,Overijssel,VBO,6.290602,52.246943
Brilmanskamp,26,,,7437BT,Bathmen,Deventer,Overijssel,VBO,6.290618,52.247051
Schipbeeksweg,1,,,7437BV,Bathmen,Deventer,Overijssel,VBO,6.292297,52.246777
Schipbeeksweg,3,,,7437BV,Bathmen,Deventer,Overijssel,VBO,6.292213,52.246967
Schipbeeksweg,5,,,7437BV,Bathmen,Deventer,Overijssel,VBO,6.292146,52.247291
Schipbeeksweg,7,,,7437BV,Bathmen,Deventer,Overijssel,VBO,6.292192,52.247398
Schipbeeksweg,9,,,7437BV,Bathmen,Deventer,Overijssel,VBO,6.292165,52.247506
Schipbeeksweg,11,,,7437BV,Bathmen,Deventer,Overijssel,VBO,6.292105,52.247794
Schipbeeksweg,13,,,7437BV,Bathmen,Deventer,Overijssel,VBO,6.292075,52.248015
Schipbeeksweg,15,,,7437BV,Bathmen,Deventer,Overijssel,VBO,6.292064,52.248271
Schipbeeksweg,17,,,7437BV,Bathmen,Deventer,Overijssel,VBO,6.291947,52.248272
Schipbeeksweg,19,,,7437BV,Bathmen,Deventer,Overijssel,VBO,6.292169,52.248787
Schipbeeksweg,21,,,7437BV,Bathmen,Deventer,Overijssel,VBO,6.292163,52.248852
Schipbeeksweg,23,,,7437BV,Bathmen,Deventer,Overijssel,VBO,6.292146,52.248988
Schipbeeksweg,25,,,7437BV,Bathmen,Deventer,Overijssel,VBO,6.292141,52.249046
Schipbeeksweg,27,,,7437BV,Bathmen,Deventer,Overijssel,VBO,6.292138,52.249131
Schipbeeksweg,29,,,7437BV,Bathmen,Deventer,Overijssel,VBO,6.292139,52.249197
Schipbeeksweg,33,,,7437BV,Bathmen,Deventer,Overijssel,VBO,6.292382,52.250246
Schipbeeksweg,2,,,7437BW,Bathmen,Deventer,Overijssel,VBO,6.292780,52.247502
Schipbeeksweg,4,,,7437BW,Bathmen,Deventer,Overijssel,VBO,6.293023,52.250807
Schipbeeksweg,6,A,,7437BW,Bathmen,Deventer,Overijssel,VBO,6.292999,52.251077
Schipbeeksweg,6,,,7437BW,Bathmen,Deventer,Overijssel,VBO,6.293026,52.250933
Schipbeeksweg,8,,,7437BW,Bathmen,Deventer,Overijssel,VBO,6.292988,52.251212
Schipbeeksweg,10,,,7437BW,Bathmen,Deventer,Overijssel,VBO,6.292961,52.251356
Schipbeeksweg,12,,,7437BW,Bathmen,Deventer,Overijssel,VBO,6.292820,52.251636
Schipbeeksweg,35,,,7437BW,Bathmen,Deventer,Overijssel,VBO,6.292481,52.250812
Schipbeeksweg,37,,,7437BW,Bathmen,Deventer,Overijssel,VBO,6.292454,52.250893
Schipbeeksweg,39,,,7437BW,Bathmen,Deventer,Overijssel,VBO,6.292456,52.251009
Schipbeeksweg,41,,,7437BW,Bathmen,Deventer,Overijssel,VBO,6.292429,52.251091
Schipbeeksweg,43,,,7437BW,Bathmen,Deventer,Overijssel,VBO,6.292431,52.251198
Schipbeeksweg,45,,,7437BW,Bathmen,Deventer,Overijssel,VBO,6.292403,52.251289
Prins Constantijnlaan,1,,,7437BX,Bathmen,Deventer,Overijssel,VBO,6.293482,52.248871
Prins Constantijnlaan,2,,,7437BX,Bathmen,Deventer,Overijssel,VBO,6.293356,52.249187
Prins Constantijnlaan,3,,,7437BX,Bathmen,Deventer,Overijssel,VBO,6.294411,52.248998
Prins Constantijnlaan,4,,,7437BX,Bathmen,Deventer,Overijssel,VBO,6.293222,52.249192
Prins Constantijnlaan,5,,,7437BX,Bathmen,Deventer,Overijssel,VBO,6.294509,52.248989
Prins Constantijnlaan,6,,,7437BX,Bathmen,Deventer,Overijssel,VBO,6.293061,52.249241
Prins Constantijnlaan,7,,,7437BX,Bathmen,Deventer,Overijssel,VBO,6.294582,52.248980
Prins Constantijnlaan,8,,,7437BX,Bathmen,Deventer,Overijssel,VBO,6.292918,52.249244
Prins Constantijnlaan,9,,,7437BX,Bathmen,Deventer,Overijssel,VBO,6.294685,52.248988
Prins Constantijnlaan,11,,,7437BX,Bathmen,Deventer,Overijssel,VBO,6.294831,52.248987
Prins Constantijnlaan,13,,,7437BX,Bathmen,Deventer,Overijssel,VBO,6.294948,52.248977
Prins Constantijnlaan,15,,,7437BX,Bathmen,Deventer,Overijssel,VBO,6.295036,52.248976
Prins Constantijnlaan,17,,,7437BX,Bathmen,Deventer,Overijssel,VBO,6.295109,52.248976
Prins Clauslaan,1,,,7437BZ,Bathmen,Deventer,Overijssel,VBO,6.293389,52.249648
Prins Clauslaan,2,,,7437BZ,Bathmen,Deventer,Overijssel,VBO,6.293400,52.249915
Prins Clauslaan,3,,,7437BZ,Bathmen,Deventer,Overijssel,VBO,6.293253,52.249655
Prins Clauslaan,4,,,7437BZ,Bathmen,Deventer,Overijssel,VBO,6.293291,52.249919
Prins Clauslaan,5,,,7437BZ,Bathmen,Deventer,Overijssel,VBO,6.293094,52.249621
Prins Clauslaan,6,,,7437BZ,Bathmen,Deventer,Overijssel,VBO,6.293108,52.249953
Prins Clauslaan,7,,,7437BZ,Bathmen,Deventer,Overijssel,VBO,6.292957,52.249626
Prins Clauslaan,8,,,7437BZ,Bathmen,Deventer,Overijssel,VBO,6.292989,52.249954
Prinses Beatrixlaan,1,,,7437CA,Bathmen,Deventer,Overijssel,VBO,6.293986,52.251321
Prinses Beatrixlaan,3,,,7437CA,Bathmen,Deventer,Overijssel,VBO,6.293984,52.251249
Prinses Beatrixlaan,5,,,7437CA,Bathmen,Deventer,Overijssel,VBO,6.293983,52.251187
Prinses Beatrixlaan,7,,,7437CA,Bathmen,Deventer,Overijssel,VBO,6.293946,52.251070
Prinses Beatrixlaan,9,,,7437CA,Bathmen,Deventer,Overijssel,VBO,6.293943,52.251015
Prinses Beatrixlaan,11,,,7437CA,Bathmen,Deventer,Overijssel,VBO,6.293943,52.250957
Prinses Beatrixlaan,13,,,7437CA,Bathmen,Deventer,Overijssel,VBO,6.293976,52.250836
Prinses Beatrixlaan,15,,,7437CA,Bathmen,Deventer,Overijssel,VBO,6.293960,52.250773
Prinses Beatrixlaan,17,,,7437CA,Bathmen,Deventer,Overijssel,VBO,6.293959,52.250710
Prinses Beatrixlaan,19,,,7437CA,Bathmen,Deventer,Overijssel,VBO,6.293983,52.250458
Prinses Beatrixlaan,21,,,7437CA,Bathmen,Deventer,Overijssel,VBO,6.293966,52.250378
Prinses Beatrixlaan,23,,,7437CA,Bathmen,Deventer,Overijssel,VBO,6.293891,52.250288
Prinses Beatrixlaan,25,,,7437CA,Bathmen,Deventer,Overijssel,VBO,6.293885,52.250001
Prinses Beatrixlaan,27,,,7437CA,Bathmen,Deventer,Overijssel,VBO,6.293899,52.249938
Prinses Beatrixlaan,29,,,7437CA,Bathmen,Deventer,Overijssel,VBO,6.293911,52.249821
Prinses Beatrixlaan,31,,,7437CA,Bathmen,Deventer,Overijssel,VBO,6.293880,52.249749
Prinses Beatrixlaan,2,,,7437CB,Bathmen,Deventer,Overijssel,VBO,6.293557,52.251177
Prinses Beatrixlaan,4,A,,7437CB,Bathmen,Deventer,Overijssel,VBO,6.293479,52.250903
Prinses Beatrixlaan,4,,,7437CB,Bathmen,Deventer,Overijssel,VBO,6.293497,52.251046
Prinses Beatrixlaan,6,,,7437CB,Bathmen,Deventer,Overijssel,VBO,6.293420,52.250157
Prinses Beatrixlaan,8,,,7437CB,Bathmen,Deventer,Overijssel,VBO,6.293418,52.250067
Prinses Beatrixlaan,10,,,7437CB,Bathmen,Deventer,Overijssel,VBO,6.293376,52.249438
Prinses Beatrixlaan,12,,,7437CB,Bathmen,Deventer,Overijssel,VBO,6.293375,52.249376
Prinses Beatrixlaan,33,,,7437CB,Bathmen,Deventer,Overijssel,VBO,6.293816,52.249462
Prinses Beatrixlaan,35,,,7437CB,Bathmen,Deventer,Overijssel,VBO,6.293843,52.249372
Prinses Beatrixlaan,37,,,7437CB,Bathmen,Deventer,Overijssel,VBO,6.293915,52.249282
Prinses Beatrixlaan,39,,,7437CB,Bathmen,Deventer,Overijssel,VBO,6.293884,52.249192
Smidsweg,1,,,7437CC,Bathmen,Deventer,Overijssel,VBO,6.288562,52.249929
Smidsweg,2,A,,7437CC,Bathmen,Deventer,Overijssel,VBO,6.289057,52.249743
Smidsweg,2,,,7437CC,Bathmen,Deventer,Overijssel,VBO,6.288968,52.249731
Smidsweg,3,,,7437CC,Bathmen,Deventer,Overijssel,VBO,6.289464,52.250062
Smidsweg,4,,,7437CC,Bathmen,Deventer,Overijssel,VBO,6.289152,52.249757
Smidsweg,5,,,7437CC,Bathmen,Deventer,Overijssel,VBO,6.289567,52.250079
Smidsweg,6,,,7437CC,Bathmen,Deventer,Overijssel,VBO,6.289328,52.249799
Smidsweg,7,,,7437CC,Bathmen,Deventer,Overijssel,VBO,6.289655,52.250087
Smidsweg,8,,,7437CC,Bathmen,Deventer,Overijssel,VBO,6.289423,52.249811
Smidsweg,9,,,7437CC,Bathmen,Deventer,Overijssel,VBO,6.289728,52.250096
Smidsweg,11,,,7437CC,Bathmen,Deventer,Overijssel,VBO,6.289949,52.250139
Smidsweg,13,,,7437CC,Bathmen,Deventer,Overijssel,VBO,6.290037,52.250147
Smidsweg,15,,,7437CC,Bathmen,Deventer,Overijssel,VBO,6.290111,52.250165
Smidsweg,17,,,7437CC,Bathmen,Deventer,Overijssel,VBO,6.290213,52.250182
Smidsweg,19,,,7437CC,Bathmen,Deventer,Overijssel,VBO,6.291243,52.250426
Smidsweg,21,,,7437CC,Bathmen,Deventer,Overijssel,VBO,6.292052,52.250572
Smidsweg,23,,,7437CC,Bathmen,Deventer,Overijssel,VBO,6.292140,52.250580
Smidsweg,25,,,7437CC,Bathmen,Deventer,Overijssel,VBO,6.292404,52.250614
Smidsweg,27,,,7437CC,Bathmen,Deventer,Overijssel,VBO,6.292492,52.250632
Smidsweg,29,A,,7437CC,Bathmen,Deventer,Overijssel,VBO,6.293489,52.250669
Smidsweg,29,,,7437CC,Bathmen,Deventer,Overijssel,VBO,6.293387,52.250679
Smidsweg,10,,,7437CD,Bathmen,Deventer,Overijssel,VBO,6.289511,52.249823
Smidsweg,12,G,1,7437CD,Bathmen,Deventer,Overijssel,VBO,6.289569,52.249477
Smidsweg,12,G,10,7437CD,Bathmen,Deventer,Overijssel,VBO,6.289922,52.249510
Smidsweg,12,G,2,7437CD,Bathmen,Deventer,Overijssel,VBO,6.289599,52.249476
Smidsweg,12,G,3,7437CD,Bathmen,Deventer,Overijssel,VBO,6.289643,52.249485
Smidsweg,12,G,4,7437CD,Bathmen,Deventer,Overijssel,VBO,6.289687,52.249485
Smidsweg,12,G,5,7437CD,Bathmen,Deventer,Overijssel,VBO,6.289731,52.249493
Smidsweg,12,G,6,7437CD,Bathmen,Deventer,Overijssel,VBO,6.289760,52.249493
Smidsweg,12,G,7,7437CD,Bathmen,Deventer,Overijssel,VBO,6.289804,52.249493
Smidsweg,12,G,8,7437CD,Bathmen,Deventer,Overijssel,VBO,6.289833,52.249502
Smidsweg,12,G,9,7437CD,Bathmen,Deventer,Overijssel,VBO,6.289877,52.249501
Smidsweg,12,,,7437CD,Bathmen,Deventer,Overijssel,VBO,6.289606,52.249836
Smidsweg,14,,,7437CD,Bathmen,Deventer,Overijssel,VBO,6.289841,52.249870
Smidsweg,16,,,7437CD,Bathmen,Deventer,Overijssel,VBO,6.289929,52.249887
Smidsweg,18,,,7437CD,Bathmen,Deventer,Overijssel,VBO,6.290003,52.249905
Smidsweg,20,,,7437CD,Bathmen,Deventer,Overijssel,VBO,6.290120,52.249922
Smidsweg,22,,,7437CD,Bathmen,Deventer,Overijssel,VBO,6.290326,52.249956
Smidsweg,24,,,7437CD,Bathmen,Deventer,Overijssel,VBO,6.290414,52.249965
Smidsweg,26,,,7437CD,Bathmen,Deventer,Overijssel,VBO,6.290502,52.249982
Smidsweg,28,,,7437CD,Bathmen,Deventer,Overijssel,VBO,6.290590,52.249990
Smidsweg,30,,,7437CD,Bathmen,Deventer,Overijssel,VBO,6.291354,52.250119
Smidsweg,32,,,7437CD,Bathmen,Deventer,Overijssel,VBO,6.291663,52.250180
Smidsweg,34,,,7437CD,Bathmen,Deventer,Overijssel,VBO,6.291957,52.250240
Smidsweg,36,,,7437CD,Bathmen,Deventer,Overijssel,VBO,6.293020,52.250322
Smidsweg,38,,,7437CD,Bathmen,Deventer,Overijssel,VBO,6.293138,52.250323
Smidsweg,40,,,7437CD,Bathmen,Deventer,Overijssel,VBO,6.293312,52.250363
Smidsweg,42,,,7437CD,Bathmen,Deventer,Overijssel,VBO,6.293442,52.250360
Kerkmarsweg,1,,,7437CE,Bathmen,Deventer,Overijssel,VBO,6.291830,52.251194
Kerkmarsweg,2,,,7437CE,Bathmen,Deventer,Overijssel,VBO,6.291404,52.251098
Kerkmarsweg,3,,,7437CE,Bathmen,Deventer,Overijssel,VBO,6.291858,52.251122
Kerkmarsweg,4,,,7437CE,Bathmen,Deventer,Overijssel,VBO,6.291431,52.251017
Kerkmarsweg,5,,,7437CE,Bathmen,Deventer,Overijssel,VBO,6.291881,52.251001
Kerkmarsweg,6,,,7437CE,Bathmen,Deventer,Overijssel,VBO,6.291459,52.250918
Kerkmarsweg,7,,,7437CE,Bathmen,Deventer,Overijssel,VBO,6.291895,52.250946
Kerkmarsweg,8,,,7437CE,Bathmen,Deventer,Overijssel,VBO,6.291486,52.250837
Kerkmarsweg,9,,,7437CE,Bathmen,Deventer,Overijssel,VBO,6.291955,52.250825
Kerkmarsweg,10,,,7437CE,Bathmen,Deventer,Overijssel,VBO,6.291528,52.250720
Kerkmarsweg,11,,,7437CE,Bathmen,Deventer,Overijssel,VBO,6.291960,52.250768
Kerkmarsweg,12,,,7437CE,Bathmen,Deventer,Overijssel,VBO,6.291541,52.250657
Kerkmarsweg,14,,,7437CE,Bathmen,Deventer,Overijssel,VBO,6.291582,52.250531
Kerkmarsweg,16,,,7437CE,Bathmen,Deventer,Overijssel,VBO,6.291611,52.250477
Klumperstraat,1,,,7437CG,Bathmen,Deventer,Overijssel,VBO,6.290767,52.250780
Klumperstraat,3,,,7437CG,Bathmen,Deventer,Overijssel,VBO,6.290781,52.250717
Klumperstraat,5,,,7437CG,Bathmen,Deventer,Overijssel,VBO,6.290794,52.250672
Klumperstraat,7,,,7437CG,Bathmen,Deventer,Overijssel,VBO,6.290808,52.250618
Klumperstraat,9,,,7437CG,Bathmen,Deventer,Overijssel,VBO,6.290879,52.250482
Klumperstraat,11,,,7437CG,Bathmen,Deventer,Overijssel,VBO,6.290907,52.250428
Klumperstraat,13,,,7437CG,Bathmen,Deventer,Overijssel,VBO,6.290906,52.250374
Klumperstraat,15,,,7437CG,Bathmen,Deventer,Overijssel,VBO,6.290949,52.250329
Klumperstraat,17,,,7437CG,Bathmen,Deventer,Overijssel,VBO,6.291045,52.250041
Klumperstraat,19,,,7437CG,Bathmen,Deventer,Overijssel,VBO,6.291086,52.249896
Klumperstraat,21,,,7437CG,Bathmen,Deventer,Overijssel,VBO,6.291186,52.249752
Klumperstraat,23,,,7437CG,Bathmen,Deventer,Overijssel,VBO,6.291299,52.249571
Klumperstraat,2,G,1,7437CH,Bathmen,Deventer,Overijssel,VBO,6.289951,52.250966
Klumperstraat,2,G,10,7437CH,Bathmen,Deventer,Overijssel,VBO,6.290035,52.250758
Klumperstraat,2,G,11,7437CH,Bathmen,Deventer,Overijssel,VBO,6.290049,52.250731
Klumperstraat,2,G,12,7437CH,Bathmen,Deventer,Overijssel,VBO,6.290048,52.250713
Klumperstraat,2,G,13,7437CH,Bathmen,Deventer,Overijssel,VBO,6.290048,52.250686
Klumperstraat,2,G,14,7437CH,Bathmen,Deventer,Overijssel,VBO,6.290062,52.250659
Klumperstraat,2,G,15,7437CH,Bathmen,Deventer,Overijssel,VBO,6.290062,52.250641
Klumperstraat,2,G,2,7437CH,Bathmen,Deventer,Overijssel,VBO,6.289965,52.250939
Klumperstraat,2,G,3,7437CH,Bathmen,Deventer,Overijssel,VBO,6.289965,52.250912
Klumperstraat,2,G,4,7437CH,Bathmen,Deventer,Overijssel,VBO,6.289979,52.250894
Klumperstraat,2,G,5,7437CH,Bathmen,Deventer,Overijssel,VBO,6.289993,52.250867
Klumperstraat,2,G,6,7437CH,Bathmen,Deventer,Overijssel,VBO,6.289993,52.250849
Klumperstraat,2,G,7,7437CH,Bathmen,Deventer,Overijssel,VBO,6.290007,52.250822
Klumperstraat,2,G,8,7437CH,Bathmen,Deventer,Overijssel,VBO,6.290021,52.250794
Klumperstraat,2,G,9,7437CH,Bathmen,Deventer,Overijssel,VBO,6.290020,52.250776
Klumperstraat,2,,,7437CH,Bathmen,Deventer,Overijssel,VBO,6.290215,52.250982
Klumperstraat,4,,,7437CH,Bathmen,Deventer,Overijssel,VBO,6.290229,52.250928
Klumperstraat,6,,,7437CH,Bathmen,Deventer,Overijssel,VBO,6.290257,52.250874
Klumperstraat,8,,,7437CH,Bathmen,Deventer,Overijssel,VBO,6.290285,52.250819
Klumperstraat,10,,,7437CH,Bathmen,Deventer,Overijssel,VBO,6.290326,52.250675
Klumperstraat,12,,,7437CH,Bathmen,Deventer,Overijssel,VBO,6.290354,52.250630
Klumperstraat,14,,,7437CH,Bathmen,Deventer,Overijssel,VBO,6.290368,52.250567
Klumperstraat,16,,,7437CH,Bathmen,Deventer,Overijssel,VBO,6.290396,52.250513
Klumperstraat,18,,,7437CH,Bathmen,Deventer,Overijssel,VBO,6.290437,52.250387
Klumperstraat,20,,,7437CH,Bathmen,Deventer,Overijssel,VBO,6.290465,52.250333
Klumperstraat,22,,,7437CH,Bathmen,Deventer,Overijssel,VBO,6.290479,52.250288
Klumperstraat,24,,,7437CH,Bathmen,Deventer,Overijssel,VBO,6.290507,52.250224
Klumperstraat,26,,,7437CH,Bathmen,Deventer,Overijssel,VBO,6.290660,52.249828
Klumperstraat,28,,,7437CH,Bathmen,Deventer,Overijssel,VBO,6.290703,52.249774
Koekendijk,1,,,7437CJ,Bathmen,Deventer,Overijssel,VBO,6.287711,52.251425
Koekendijk,3,A,,7437CJ,Bathmen,Deventer,Overijssel,VBO,6.287361,52.251692
Koekendijk,3,,,7437CJ,Bathmen,Deventer,Overijssel,VBO,6.287652,52.251693
Koekendijk,5,,,7437CJ,Bathmen,Deventer,Overijssel,VBO,6.287597,52.251874
Koekendijk,7,,,7437CJ,Bathmen,Deventer,Overijssel,VBO,6.287571,52.252027
Koekendijk,9,,,7437CJ,Bathmen,Deventer,Overijssel,VBO,6.287570,52.252139
Koekendijk,13,T,,7437CJ,Bathmen,Deventer,Overijssel,VBO,6.286651,52.252186
Koekendijk,15,,,7437CJ,Bathmen,Deventer,Overijssel,VBO,6.287500,52.252854
Koekendijk,17,T,,7437CJ,Bathmen,Deventer,Overijssel,VBO,6.287387,52.252370
Koekendijk,17,,,7437CJ,Bathmen,Deventer,Overijssel,VBO,6.287501,52.252908
Koekendijk,19,,,7437CJ,Bathmen,Deventer,Overijssel,VBO,6.287462,52.253142
Koekendijk,21,,,7437CJ,Bathmen,Deventer,Overijssel,VBO,6.287068,52.253244
Koekendijk,23,,,7437CJ,Bathmen,Deventer,Overijssel,VBO,6.286586,52.253416
Koekendijk,25,,,7437CJ,Bathmen,Deventer,Overijssel,VBO,6.286341,52.253474
Koekendijk,29,,,7437CJ,Bathmen,Deventer,Overijssel,VBO,6.286020,52.253575
Koekendijk,2,,,7437CK,Bathmen,Deventer,Overijssel,VBO,6.288261,52.251410
Koekendijk,4,,,7437CK,Bathmen,Deventer,Overijssel,VBO,6.288154,52.251905
Koekendijk,6,,,7437CK,Bathmen,Deventer,Overijssel,VBO,6.288232,52.252120
Koekendijk,8,,,7437CK,Bathmen,Deventer,Overijssel,VBO,6.288088,52.252957
Koekendijk,10,A,,7437CK,Bathmen,Deventer,Overijssel,VBO,6.287891,52.253381
Koekendijk,10,B,,7437CK,Bathmen,Deventer,Overijssel,VBO,6.287821,52.253444
Koekendijk,10,C,,7437CK,Bathmen,Deventer,Overijssel,VBO,6.287921,52.253390
Koekendijk,10,,,7437CK,Bathmen,Deventer,Overijssel,VBO,6.287892,52.253417
Koekendijk,12,,,7437CK,Bathmen,Deventer,Overijssel,VBO,6.287394,52.253403
Koekendijk,14,,,7437CK,Bathmen,Deventer,Overijssel,VBO,6.287292,52.253440
Koekendijk,16,,,7437CK,Bathmen,Deventer,Overijssel,VBO,6.287104,52.253549
Koekendijk,18,T,,7437CK,Bathmen,Deventer,Overijssel,VBO,6.285874,52.255042
Koekendijk,20,,,7437CK,Bathmen,Deventer,Overijssel,VBO,6.286851,52.256978
Koekendijk,31,,,7437CK,Bathmen,Deventer,Overijssel,VBO,6.285745,52.253721
Koekendijk,33,,,7437CK,Bathmen,Deventer,Overijssel,VBO,6.285498,52.253804
Koekendijk,35,A,,7437CK,Bathmen,Deventer,Overijssel,VBO,6.285166,52.253979
Koekendijk,35,,,7437CK,Bathmen,Deventer,Overijssel,VBO,6.285150,52.254013
Koekendijk,37,A,,7437CK,Bathmen,Deventer,Overijssel,VBO,6.284912,52.254961
Koekendijk,37,,,7437CK,Bathmen,Deventer,Overijssel,VBO,6.284258,52.254898
Koekendijk,39,,,7437CK,Bathmen,Deventer,Overijssel,VBO,6.285398,52.255405
Koekendijk,41,,,7437CK,Bathmen,Deventer,Overijssel,VBO,6.285568,52.255864
De Vlasakkers,1,,,7437CL,Bathmen,Deventer,Overijssel,VBO,6.287983,52.247418
De Vlasakkers,2,,,7437CL,Bathmen,Deventer,Overijssel,VBO,6.288151,52.247647
De Vlasakkers,3,,,7437CL,Bathmen,Deventer,Overijssel,VBO,6.287788,52.247421
De Vlasakkers,4,,,7437CL,Bathmen,Deventer,Overijssel,VBO,6.287932,52.247649
De Vlasakkers,5,,,7437CL,Bathmen,Deventer,Overijssel,VBO,6.286994,52.247411
De Vlasakkers,6,,,7437CL,Bathmen,Deventer,Overijssel,VBO,6.287069,52.247672
De Vlasakkers,7,,,7437CL,Bathmen,Deventer,Overijssel,VBO,6.286877,52.247412
De Vlasakkers,8,,,7437CL,Bathmen,Deventer,Overijssel,VBO,6.286981,52.247674
De Vlasakkers,9,,,7437CL,Bathmen,Deventer,Overijssel,VBO,6.286698,52.247384
De Vlasakkers,10,,,7437CL,Bathmen,Deventer,Overijssel,VBO,6.286789,52.247694
De Vlasakkers,11,,,7437CL,Bathmen,Deventer,Overijssel,VBO,6.286510,52.247381
De Vlasakkers,12,,,7437CL,Bathmen,Deventer,Overijssel,VBO,6.286678,52.247692
De Vlasakkers,14,,,7437CL,Bathmen,Deventer,Overijssel,VBO,6.286485,52.247678
De Vlasakkers,16,,,7437CL,Bathmen,Deventer,Overijssel,VBO,6.286392,52.247681
De Vlasakkers,18,T,,7437CL,Bathmen,Deventer,Overijssel,VBO,6.286020,52.247751
De Vlasakkers,20,,,7437CL,Bathmen,Deventer,Overijssel,VBO,6.286047,52.247429
De Vlasakkers,22,,,7437CL,Bathmen,Deventer,Overijssel,VBO,6.286084,52.247233
De Vlasakkers,24,,,7437CL,Bathmen,Deventer,Overijssel,VBO,6.286093,52.247004
Dr. Albert Schweitzerlaan,1,,,7437CM,Bathmen,Deventer,Overijssel,VBO,6.286691,52.248331
Dr. Albert Schweitzerlaan,2,,,7437CM,Bathmen,Deventer,Overijssel,VBO,6.286114,52.248056
Dr. Albert Schweitzerlaan,3,,,7437CM,Bathmen,Deventer,Overijssel,VBO,6.286998,52.248319
Dr. Albert Schweitzerlaan,4,,,7437CM,Bathmen,Deventer,Overijssel,VBO,6.286448,52.247927
Dr. Albert Schweitzerlaan,5,,,7437CM,Bathmen,Deventer,Overijssel,VBO,6.287335,52.248325
Dr. Albert Schweitzerlaan,6,,,7437CM,Bathmen,Deventer,Overijssel,VBO,6.286580,52.247944
Dr. Albert Schweitzerlaan,7,,,7437CM,Bathmen,Deventer,Overijssel,VBO,6.287671,52.248287
Dr. Albert Schweitzerlaan,8,,,7437CM,Bathmen,Deventer,Overijssel,VBO,6.286713,52.247979
Dr. Albert Schweitzerlaan,9,,,7437CM,Bathmen,Deventer,Overijssel,VBO,6.288080,52.248266
Dr. Albert Schweitzerlaan,10,,,7437CM,Bathmen,Deventer,Overijssel,VBO,6.286873,52.247960
Dr. Albert Schweitzerlaan,11,,,7437CM,Bathmen,Deventer,Overijssel,VBO,6.287951,52.247985
Dr. Albert Schweitzerlaan,12,,,7437CM,Bathmen,Deventer,Overijssel,VBO,6.287020,52.247968
Dr. Albert Schweitzerlaan,13,,,7437CM,Bathmen,Deventer,Overijssel,VBO,6.288148,52.247980
Dr. Albert Schweitzerlaan,14,,,7437CM,Bathmen,Deventer,Overijssel,VBO,6.287152,52.247958
Dr. Albert Schweitzerlaan,15,,,7437CM,Bathmen,Deventer,Overijssel,VBO,6.288237,52.247977
Dr. Albert Schweitzerlaan,16,,,7437CM,Bathmen,Deventer,Overijssel,VBO,6.287566,52.247978
Dr. Albert Schweitzerlaan,17,,,7437CM,Bathmen,Deventer,Overijssel,VBO,6.288439,52.248012
Dr. Albert Schweitzerlaan,18,,,7437CM,Bathmen,Deventer,Overijssel,VBO,6.287501,52.247857
Dr. Albert Schweitzerlaan,20,,,7437CM,Bathmen,Deventer,Overijssel,VBO,6.287498,52.247797
Dr. Albert Schweitzerlaan,22,,,7437CM,Bathmen,Deventer,Overijssel,VBO,6.287511,52.247678
Dr. Albert Schweitzerlaan,24,,,7437CM,Bathmen,Deventer,Overijssel,VBO,6.287335,52.247450
Dr. Albert Schweitzerlaan,26,,,7437CM,Bathmen,Deventer,Overijssel,VBO,6.287355,52.247323
Burg. A. Bontekoelaan,1,,,7437CP,Bathmen,Deventer,Overijssel,VBO,6.285628,52.247436
Burg. A. Bontekoelaan,3,,,7437CP,Bathmen,Deventer,Overijssel,VBO,6.285617,52.247214
Burg. A. Bontekoelaan,5,,,7437CP,Bathmen,Deventer,Overijssel,VBO,6.285667,52.246972
Burg. A. Bontekoelaan,7,,,7437CP,Bathmen,Deventer,Overijssel,VBO,6.286490,52.247091
Burg. A. Bontekoelaan,9,,,7437CP,Bathmen,Deventer,Overijssel,VBO,6.286689,52.247079
Burg. A. Bontekoelaan,11,,,7437CP,Bathmen,Deventer,Overijssel,VBO,6.286786,52.247079
Burg. A. Bontekoelaan,13,,,7437CP,Bathmen,Deventer,Overijssel,VBO,6.286972,52.247088
Burg. A. Bontekoelaan,15,,,7437CP,Bathmen,Deventer,Overijssel,VBO,6.287083,52.247090
Burg. A. Bontekoelaan,17,,,7437CP,Bathmen,Deventer,Overijssel,VBO,6.287282,52.247139
Burg. A. Bontekoelaan,19,,,7437CP,Bathmen,Deventer,Overijssel,VBO,6.287618,52.247137
Burg. A. Bontekoelaan,21,,,7437CP,Bathmen,Deventer,Overijssel,VBO,6.287809,52.247153
Burg. A. Bontekoelaan,23,,,7437CP,Bathmen,Deventer,Overijssel,VBO,6.288143,52.247109
Burg. A. Bontekoelaan,2,,,7437CR,Bathmen,Deventer,Overijssel,VBO,6.286189,52.246707
Burg. A. Bontekoelaan,4,,,7437CR,Bathmen,Deventer,Overijssel,VBO,6.286277,52.246706
Burg. A. Bontekoelaan,6,,,7437CR,Bathmen,Deventer,Overijssel,VBO,6.286536,52.246736
Burg. A. Bontekoelaan,8,,,7437CR,Bathmen,Deventer,Overijssel,VBO,6.286618,52.246738
Burg. A. Bontekoelaan,10,,,7437CR,Bathmen,Deventer,Overijssel,VBO,6.287425,52.246848
Burg. A. Bontekoelaan,12,,,7437CR,Bathmen,Deventer,Overijssel,VBO,6.287729,52.246812
Stegemanskamp,2,,,7437CS,Bathmen,Deventer,Overijssel,VBO,6.285294,52.246633
Stegemanskamp,4,,,7437CS,Bathmen,Deventer,Overijssel,VBO,6.285276,52.246435
Stegemanskamp,6,,,7437CS,Bathmen,Deventer,Overijssel,VBO,6.285345,52.246228
Stegemanskamp,8,,,7437CS,Bathmen,Deventer,Overijssel,VBO,6.285425,52.246016
Stegemanskamp,10,,,7437CS,Bathmen,Deventer,Overijssel,VBO,6.285381,52.245850
Stegemanskamp,12,,,7437CS,Bathmen,Deventer,Overijssel,VBO,6.285792,52.245901
Stegemanskamp,14,,,7437CS,Bathmen,Deventer,Overijssel,VBO,6.286071,52.245935
Stegemanskamp,16,,,7437CS,Bathmen,Deventer,Overijssel,VBO,6.286408,52.245950
Stegemanskamp,18,,,7437CS,Bathmen,Deventer,Overijssel,VBO,6.286745,52.246104
Stegemanskamp,20,,,7437CS,Bathmen,Deventer,Overijssel,VBO,6.287114,52.246098
Stegemanskamp,22,,,7437CS,Bathmen,Deventer,Overijssel,VBO,6.287551,52.246143
Stegemanskamp,24,,,7437CS,Bathmen,Deventer,Overijssel,VBO,6.287617,52.246337
Stegemanskamp,26,,,7437CS,Bathmen,Deventer,Overijssel,VBO,6.287591,52.246535
Stegemanskamp,1,,,7437CT,Bathmen,Deventer,Overijssel,VBO,6.285838,52.246710
Stegemanskamp,3,,,7437CT,Bathmen,Deventer,Overijssel,VBO,6.285806,52.246575
Stegemanskamp,5,,,7437CT,Bathmen,Deventer,Overijssel,VBO,6.285761,52.246520
Stegemanskamp,7,,,7437CT,Bathmen,Deventer,Overijssel,VBO,6.285749,52.246388
Stegemanskamp,9,,,7437CT,Bathmen,Deventer,Overijssel,VBO,6.285754,52.246332
Stegemanskamp,11,,,7437CT,Bathmen,Deventer,Overijssel,VBO,6.285769,52.246207
Stegemanskamp,13,,,7437CT,Bathmen,Deventer,Overijssel,VBO,6.286295,52.246218
Stegemanskamp,15,,,7437CT,Bathmen,Deventer,Overijssel,VBO,6.286310,52.246275
Stegemanskamp,17,,,7437CT,Bathmen,Deventer,Overijssel,VBO,6.286242,52.246410
Stegemanskamp,19,,,7437CT,Bathmen,Deventer,Overijssel,VBO,6.286243,52.246473
Stegemanskamp,21,,,7437CT,Bathmen,Deventer,Overijssel,VBO,6.286655,52.246332
Stegemanskamp,23,,,7437CT,Bathmen,Deventer,Overijssel,VBO,6.286851,52.246359
Stegemanskamp,25,,,7437CT,Bathmen,Deventer,Overijssel,VBO,6.286941,52.246356
Stegemanskamp,27,,,7437CT,Bathmen,Deventer,Overijssel,VBO,6.287146,52.246377
Stegemanskamp,29,,,7437CT,Bathmen,Deventer,Overijssel,VBO,6.286965,52.246719
Stegemanskamp,31,,,7437CT,Bathmen,Deventer,Overijssel,VBO,6.286952,52.246800
De Kuiperij,2,,,7437CV,Bathmen,Deventer,Overijssel,VBO,6.291356,52.251620
De Kuiperij,4,,,7437CV,Bathmen,Deventer,Overijssel,VBO,6.291319,52.251810
De Kuiperij,6,,,7437CV,Bathmen,Deventer,Overijssel,VBO,6.291349,52.252034
De Kuiperij,8,,,7437CV,Bathmen,Deventer,Overijssel,VBO,6.291555,52.252041
De Kuiperij,10,,,7437CV,Bathmen,Deventer,Overijssel,VBO,6.291774,52.252039
De Kuiperij,12,,,7437CV,Bathmen,Deventer,Overijssel,VBO,6.291687,52.252259
De Kuiperij,14,,,7437CV,Bathmen,Deventer,Overijssel,VBO,6.291602,52.252260
De Kuiperij,16,,,7437CV,Bathmen,Deventer,Overijssel,VBO,6.291432,52.252253
De Kuiperij,18,,,7437CV,Bathmen,Deventer,Overijssel,VBO,6.291343,52.252250
De Kuiperij,20,,,7437CV,Bathmen,Deventer,Overijssel,VBO,6.290943,52.252234
De Kuiperij,22,,,7437CV,Bathmen,Deventer,Overijssel,VBO,6.290870,52.252235
De Kuiperij,24,,,7437CV,Bathmen,Deventer,Overijssel,VBO,6.290782,52.252227
De Kuiperij,26,,,7437CV,Bathmen,Deventer,Overijssel,VBO,6.290723,52.252218
De Kuiperij,28,,,7437CV,Bathmen,Deventer,Overijssel,VBO,6.290635,52.252210
De Kuiperij,30,,,7437CV,Bathmen,Deventer,Overijssel,VBO,6.290577,52.252210
De Kuiperij,32,,,7437CV,Bathmen,Deventer,Overijssel,VBO,6.290445,52.252229
De Kuiperij,34,,,7437CV,Bathmen,Deventer,Overijssel,VBO,6.290372,52.252230
De Kuiperij,36,,,7437CV,Bathmen,Deventer,Overijssel,VBO,6.290284,52.252231
De Kuiperij,38,,,7437CV,Bathmen,Deventer,Overijssel,VBO,6.290211,52.252240
De Kuiperij,40,,,7437CV,Bathmen,Deventer,Overijssel,VBO,6.290094,52.252232
De Kuiperij,42,,,7437CV,Bathmen,Deventer,Overijssel,VBO,6.289991,52.252233
De Kuiperij,44,,,7437CV,Bathmen,Deventer,Overijssel,VBO,6.289904,52.252233
De Kuiperij,46,,,7437CV,Bathmen,Deventer,Overijssel,VBO,6.289816,52.252225
De Kuiperij,48,,,7437CV,Bathmen,Deventer,Overijssel,VBO,6.289640,52.252218
De Kuiperij,50,,,7437CV,Bathmen,Deventer,Overijssel,VBO,6.289566,52.252218
De Kuiperij,52,,,7437CV,Bathmen,Deventer,Overijssel,VBO,6.289449,52.252219
De Kuiperij,54,,,7437CV,Bathmen,Deventer,Overijssel,VBO,6.289376,52.252211
De Kuiperij,56,,,7437CV,Bathmen,Deventer,Overijssel,VBO,6.289229,52.252203
De Kuiperij,58,,,7437CV,Bathmen,Deventer,Overijssel,VBO,6.289185,52.252194
De Kuiperij,60,,,7437CV,Bathmen,Deventer,Overijssel,VBO,6.289097,52.252195
De Kuiperij,62,,,7437CV,Bathmen,Deventer,Overijssel,VBO,6.289024,52.252186
De Kuiperij,3,,,7437CW,Bathmen,Deventer,Overijssel,VBO,6.290800,52.251669
De Kuiperij,5,,,7437CW,Bathmen,Deventer,Overijssel,VBO,6.290984,52.251810
De Kuiperij,7,,,7437CW,Bathmen,Deventer,Overijssel,VBO,6.290976,52.251859
De Kuiperij,9,,,7437CW,Bathmen,Deventer,Overijssel,VBO,6.290931,52.251984
De Kuiperij,11,,,7437CW,Bathmen,Deventer,Overijssel,VBO,6.290930,52.252033
De Kuiperij,13,,,7437CW,Bathmen,Deventer,Overijssel,VBO,6.290450,52.252026
De Kuiperij,15,,,7437CW,Bathmen,Deventer,Overijssel,VBO,6.290457,52.251973
De Kuiperij,17,,,7437CW,Bathmen,Deventer,Overijssel,VBO,6.290420,52.251862
De Kuiperij,19,,,7437CW,Bathmen,Deventer,Overijssel,VBO,6.290428,52.251808
De Kuiperij,21,,,7437CW,Bathmen,Deventer,Overijssel,VBO,6.290450,52.251699
De Kuiperij,23,,,7437CW,Bathmen,Deventer,Overijssel,VBO,6.290076,52.251738
De Kuiperij,25,,,7437CW,Bathmen,Deventer,Overijssel,VBO,6.290042,52.251789
De Kuiperij,27,,,7437CW,Bathmen,Deventer,Overijssel,VBO,6.290012,52.251904
De Kuiperij,29,,,7437CW,Bathmen,Deventer,Overijssel,VBO,6.289979,52.251956
De Kuiperij,31,,,7437CW,Bathmen,Deventer,Overijssel,VBO,6.289590,52.251957
De Kuiperij,33,,,7437CW,Bathmen,Deventer,Overijssel,VBO,6.289589,52.251903
De Kuiperij,35,,,7437CW,Bathmen,Deventer,Overijssel,VBO,6.289529,52.251805
De Kuiperij,37,,,7437CW,Bathmen,Deventer,Overijssel,VBO,6.289542,52.251742
De Kuiperij,39,,,7437CW,Bathmen,Deventer,Overijssel,VBO,6.289074,52.251763
De Kuiperij,41,,,7437CW,Bathmen,Deventer,Overijssel,VBO,6.289075,52.251835
De Kuiperij,43,,,7437CW,Bathmen,Deventer,Overijssel,VBO,6.289063,52.251925
De Kuiperij,45,,,7437CW,Bathmen,Deventer,Overijssel,VBO,6.289064,52.251988
Burg. Bogtstralaan,1,,,7437CX,Bathmen,Deventer,Overijssel,VBO,6.284694,52.246620
Burg. Bogtstralaan,2,,,7437CX,Bathmen,Deventer,Overijssel,VBO,6.284331,52.246527
Burg. Bogtstralaan,3,,,7437CX,Bathmen,Deventer,Overijssel,VBO,6.284733,52.246395
Burg. Bogtstralaan,4,,,7437CX,Bathmen,Deventer,Overijssel,VBO,6.284325,52.246358
Burg. Bogtstralaan,5,,,7437CX,Bathmen,Deventer,Overijssel,VBO,6.284729,52.246170
Burg. Bogtstralaan,6,,,7437CX,Bathmen,Deventer,Overijssel,VBO,6.283999,52.246356
Burg. Bogtstralaan,7,,,7437CX,Bathmen,Deventer,Overijssel,VBO,6.284725,52.246008
Burg. Bogtstralaan,8,,,7437CX,Bathmen,Deventer,Overijssel,VBO,6.283736,52.246332
Burg. Bogtstralaan,9,,,7437CX,Bathmen,Deventer,Overijssel,VBO,6.284361,52.246083
Burg. Bogtstralaan,11,,,7437CX,Bathmen,Deventer,Overijssel,VBO,6.284112,52.246085
Burg. Bogtstralaan,13,,,7437CX,Bathmen,Deventer,Overijssel,VBO,6.283863,52.246087
Burg. Bazenlaan,1,,,7437CZ,Bathmen,Deventer,Overijssel,VBO,6.284341,52.246737
Burg. Bazenlaan,2,,,7437CZ,Bathmen,Deventer,Overijssel,VBO,6.285023,52.246977
Burg. Bazenlaan,3,,,7437CZ,Bathmen,Deventer,Overijssel,VBO,6.284049,52.246761
Burg. Bazenlaan,4,,,7437CZ,Bathmen,Deventer,Overijssel,VBO,6.284788,52.246942
Burg. Bazenlaan,5,,,7437CZ,Bathmen,Deventer,Overijssel,VBO,6.283875,52.246766
Burg. Bazenlaan,6,,,7437CZ,Bathmen,Deventer,Overijssel,VBO,6.284516,52.246932
Burg. Bazenlaan,7,,,7437CZ,Bathmen,Deventer,Overijssel,VBO,6.283651,52.246780
Burg. Bazenlaan,8,,,7437CZ,Bathmen,Deventer,Overijssel,VBO,6.284309,52.246931
Burg. Bazenlaan,9,,,7437CZ,Bathmen,Deventer,Overijssel,VBO,6.283476,52.246804
Burg. Bazenlaan,10,,,7437CZ,Bathmen,Deventer,Overijssel,VBO,6.284144,52.246938
Burg. Bazenlaan,12,,,7437CZ,Bathmen,Deventer,Overijssel,VBO,6.283967,52.246955
Burg. Bazenlaan,14,,,7437CZ,Bathmen,Deventer,Overijssel,VBO,6.283739,52.246967
Burg. Bazenlaan,16,,,7437CZ,Bathmen,Deventer,Overijssel,VBO,6.283559,52.246979
Groene Strook,1,,,7437DB,Bathmen,Deventer,Overijssel,VBO,6.276068,52.247576
Groene Strook,2,,,7437DB,Bathmen,Deventer,Overijssel,VBO,6.276092,52.247606
Groene Strook,3,,,7437DB,Bathmen,Deventer,Overijssel,VBO,6.276119,52.247632
Groene Strook,4,,,7437DB,Bathmen,Deventer,Overijssel,VBO,6.276018,52.247594
Groene Strook,5,,,7437DB,Bathmen,Deventer,Overijssel,VBO,6.276039,52.247618
Groene Strook,6,,,7437DB,Bathmen,Deventer,Overijssel,VBO,6.276063,52.247647
Groene Strook,7,,,7437DB,Bathmen,Deventer,Overijssel,VBO,6.276172,52.247762
Groene Strook,8,,,7437DB,Bathmen,Deventer,Overijssel,VBO,6.276205,52.247789
Groene Strook,9,,,7437DB,Bathmen,Deventer,Overijssel,VBO,6.276244,52.247816
Groene Strook,10,,,7437DB,Bathmen,Deventer,Overijssel,VBO,6.276113,52.247782
Groene Strook,11,,,7437DB,Bathmen,Deventer,Overijssel,VBO,6.276140,52.247816
Groene Strook,12,,,7437DB,Bathmen,Deventer,Overijssel,VBO,6.276446,52.247931
Groene Strook,13,,,7437DB,Bathmen,Deventer,Overijssel,VBO,6.276458,52.247952
Groene Strook,14,,,7437DB,Bathmen,Deventer,Overijssel,VBO,6.276468,52.247968
Groene Strook,15,,,7437DB,Bathmen,Deventer,Overijssel,VBO,6.276308,52.247915
Groene Strook,16,,,7437DB,Bathmen,Deventer,Overijssel,VBO,6.276327,52.247940
Groene Strook,17,,,7437DB,Bathmen,Deventer,Overijssel,VBO,6.276350,52.247960
Groene Strook,18,,,7437DB,Bathmen,Deventer,Overijssel,VBO,6.276371,52.247980
Groene Strook,19,,,7437DB,Bathmen,Deventer,Overijssel,VBO,6.276432,52.247481
Groene Strook,21,,,7437DB,Bathmen,Deventer,Overijssel,VBO,6.276480,52.247513
Groene Strook,23,,,7437DB,Bathmen,Deventer,Overijssel,VBO,6.276513,52.247545
Groene Strook,25,,,7437DB,Bathmen,Deventer,Overijssel,VBO,6.276546,52.247574
Groene Strook,27,,,7437DB,Bathmen,Deventer,Overijssel,VBO,6.276591,52.247610
Groene Strook,29,,,7437DB,Bathmen,Deventer,Overijssel,VBO,6.276619,52.247644
Alferinklaan,2,,,7437DC,Bathmen,Deventer,Overijssel,VBO,6.279244,52.247964
Alferinklaan,4,,,7437DC,Bathmen,Deventer,Overijssel,VBO,6.278374,52.247674
Alferinklaan,6,,,7437DC,Bathmen,Deventer,Overijssel,VBO,6.278286,52.247639
Alferinklaan,8,,,7437DC,Bathmen,Deventer,Overijssel,VBO,6.278109,52.247577
Alferinklaan,10,,,7437DC,Bathmen,Deventer,Overijssel,VBO,6.278035,52.247542
Alferinklaan,12,,,7437DC,Bathmen,Deventer,Overijssel,VBO,6.277887,52.247489
Alferinklaan,14,,,7437DC,Bathmen,Deventer,Overijssel,VBO,6.277799,52.247445
Alferinklaan,16,,,7437DC,Bathmen,Deventer,Overijssel,VBO,6.277607,52.247365
Alferinklaan,18,,,7437DC,Bathmen,Deventer,Overijssel,VBO,6.277495,52.247341
Alferinklaan,20,,,7437DC,Bathmen,Deventer,Overijssel,VBO,6.275765,52.247719
Alferinklaan,22,,,7437DC,Bathmen,Deventer,Overijssel,VBO,6.275601,52.247769
Alferinklaan,24,,,7437DC,Bathmen,Deventer,Overijssel,VBO,6.275516,52.247799
Alferinklaan,26,,,7437DC,Bathmen,Deventer,Overijssel,VBO,6.275335,52.247857
Alferinklaan,28,,,7437DC,Bathmen,Deventer,Overijssel,VBO,6.275235,52.247892
Alferinklaan,30,,,7437DC,Bathmen,Deventer,Overijssel,VBO,6.275049,52.247971
Alferinklaan,32,,,7437DC,Bathmen,Deventer,Overijssel,VBO,6.274583,52.248330
Alferinklaan,34,,,7437DC,Bathmen,Deventer,Overijssel,VBO,6.274507,52.248407
Alferinklaan,36,,,7437DC,Bathmen,Deventer,Overijssel,VBO,6.274413,52.248489
Alferinklaan,38,,,7437DC,Bathmen,Deventer,Overijssel,VBO,6.274366,52.248551
Alferinklaan,40,,,7437DC,Bathmen,Deventer,Overijssel,VBO,6.274260,52.248670
Alferinklaan,42,,,7437DC,Bathmen,Deventer,Overijssel,VBO,6.274236,52.248747
Alferinklaan,44,,,7437DC,Bathmen,Deventer,Overijssel,VBO,6.274174,52.248852
Alferinklaan,46,,,7437DC,Bathmen,Deventer,Overijssel,VBO,6.274166,52.248932
Alferinklaan,1,,,7437DD,Bathmen,Deventer,Overijssel,VBO,6.280465,52.247695
Alferinklaan,3,,,7437DD,Bathmen,Deventer,Overijssel,VBO,6.280351,52.247686
Alferinklaan,5,,,7437DD,Bathmen,Deventer,Overijssel,VBO,6.280161,52.247679
Alferinklaan,7,,,7437DD,Bathmen,Deventer,Overijssel,VBO,6.280073,52.247679
Alferinklaan,9,,,7437DD,Bathmen,Deventer,Overijssel,VBO,6.279882,52.247654
Alferinklaan,11,,,7437DD,Bathmen,Deventer,Overijssel,VBO,6.279780,52.247645
Alferinklaan,13,,,7437DD,Bathmen,Deventer,Overijssel,VBO,6.279471,52.247594
Alferinklaan,15,,,7437DD,Bathmen,Deventer,Overijssel,VBO,6.279353,52.247568
Alferinklaan,17,,,7437DD,Bathmen,Deventer,Overijssel,VBO,6.279147,52.247524
Alferinklaan,19,,,7437DD,Bathmen,Deventer,Overijssel,VBO,6.279074,52.247498
Alferinklaan,21,,,7437DD,Bathmen,Deventer,Overijssel,VBO,6.278911,52.247427
Alferinklaan,23,,,7437DD,Bathmen,Deventer,Overijssel,VBO,6.278822,52.247383
Alferinklaan,25,,,7437DD,Bathmen,Deventer,Overijssel,VBO,6.278660,52.247330
Alferinklaan,27,,,7437DD,Bathmen,Deventer,Overijssel,VBO,6.278572,52.247304
Alferinklaan,29,,,7437DD,Bathmen,Deventer,Overijssel,VBO,6.278424,52.247224
Alferinklaan,31,,,7437DD,Bathmen,Deventer,Overijssel,VBO,6.278350,52.247198
Alferinklaan,33,,,7437DD,Bathmen,Deventer,Overijssel,VBO,6.278173,52.247127
Alferinklaan,35,,,7437DD,Bathmen,Deventer,Overijssel,VBO,6.278114,52.247101
Alferinklaan,37,,,7437DD,Bathmen,Deventer,Overijssel,VBO,6.277922,52.247030
Alferinklaan,39,,,7437DD,Bathmen,Deventer,Overijssel,VBO,6.277834,52.247004
Alferinklaan,41,T,,7437DD,Bathmen,Deventer,Overijssel,VBO,6.277174,52.246973
Alferinklaan,43,,,7437DD,Bathmen,Deventer,Overijssel,VBO,6.276983,52.246921
Alferinklaan,45,,,7437DD,Bathmen,Deventer,Overijssel,VBO,6.276749,52.246967
Alferinklaan,47,,,7437DD,Bathmen,Deventer,Overijssel,VBO,6.276486,52.246996
Alferinklaan,49,,,7437DD,Bathmen,Deventer,Overijssel,VBO,6.273986,52.248226
Alferinklaan,51,,,7437DD,Bathmen,Deventer,Overijssel,VBO,6.273820,52.248371
Alferinklaan,53,,,7437DD,Bathmen,Deventer,Overijssel,VBO,6.273729,52.248521
Alferinklaan,55,,,7437DD,Bathmen,Deventer,Overijssel,VBO,6.273624,52.248679
Alferinklaan,57,,,7437DD,Bathmen,Deventer,Overijssel,VBO,6.273575,52.248826
Alferinklaan,59,,,7437DD,Bathmen,Deventer,Overijssel,VBO,6.273523,52.248995
Berkenschakel,1,,,7437DE,Bathmen,Deventer,Overijssel,VBO,6.278774,52.247806
Berkenschakel,3,,,7437DE,Bathmen,Deventer,Overijssel,VBO,6.278765,52.247864
Berkenschakel,5,,,7437DE,Bathmen,Deventer,Overijssel,VBO,6.278702,52.248015
Berkenschakel,7,,,7437DE,Bathmen,Deventer,Overijssel,VBO,6.278680,52.248078
Berkenschakel,9,,,7437DE,Bathmen,Deventer,Overijssel,VBO,6.278666,52.248328
Berkenschakel,11,,,7437DE,Bathmen,Deventer,Overijssel,VBO,6.278638,52.248400
Berkenschakel,13,,,7437DE,Bathmen,Deventer,Overijssel,VBO,6.278581,52.248508
Berkenschakel,15,,,7437DE,Bathmen,Deventer,Overijssel,VBO,6.278568,52.248571
Berkenschakel,17,,,7437DE,Bathmen,Deventer,Overijssel,VBO,6.278526,52.248689
Berkenschakel,19,,,7437DE,Bathmen,Deventer,Overijssel,VBO,6.278484,52.248761
Berkenschakel,21,,,7437DE,Bathmen,Deventer,Overijssel,VBO,6.278159,52.248637
Berkenschakel,23,,,7437DE,Bathmen,Deventer,Overijssel,VBO,6.278057,52.248629
Berkenschakel,25,,,7437DE,Bathmen,Deventer,Overijssel,VBO,6.277983,52.248621
Berkenschakel,27,,,7437DE,Bathmen,Deventer,Overijssel,VBO,6.277910,52.248612
Berkenschakel,29,,,7437DE,Bathmen,Deventer,Overijssel,VBO,6.277734,52.248596
Berkenschakel,31,,,7437DE,Bathmen,Deventer,Overijssel,VBO,6.277660,52.248587
Berkenschakel,33,,,7437DE,Bathmen,Deventer,Overijssel,VBO,6.277572,52.248570
Berkenschakel,35,,,7437DE,Bathmen,Deventer,Overijssel,VBO,6.277498,52.248544
Berkenschakel,37,,,7437DE,Bathmen,Deventer,Overijssel,VBO,6.277425,52.248526
Berkenschakel,39,,,7437DE,Bathmen,Deventer,Overijssel,VBO,6.277351,52.248518
Berkenschakel,41,,,7437DE,Bathmen,Deventer,Overijssel,VBO,6.277175,52.248483
Berkenschakel,43,,,7437DE,Bathmen,Deventer,Overijssel,VBO,6.277101,52.248466
Berkenschakel,45,,,7437DE,Bathmen,Deventer,Overijssel,VBO,6.277013,52.248448
Berkenschakel,47,,,7437DE,Bathmen,Deventer,Overijssel,VBO,6.276940,52.248440
Berkenschakel,2,,,7437DG,Bathmen,Deventer,Overijssel,VBO,6.279280,52.248296
Berkenschakel,4,,,7437DG,Bathmen,Deventer,Overijssel,VBO,6.279283,52.248449
Berkenschakel,6,,,7437DG,Bathmen,Deventer,Overijssel,VBO,6.279227,52.248557
Berkenschakel,8,,,7437DG,Bathmen,Deventer,Overijssel,VBO,6.279184,52.248621
Berkenschakel,10,,,7437DG,Bathmen,Deventer,Overijssel,VBO,6.279113,52.248720
Berkenschakel,12,,,7437DG,Bathmen,Deventer,Overijssel,VBO,6.279085,52.248783
Berkenschakel,14,,,7437DG,Bathmen,Deventer,Overijssel,VBO,6.278796,52.248992
Berkenschakel,16,,,7437DG,Bathmen,Deventer,Overijssel,VBO,6.278754,52.249064
Berkenschakel,18,,,7437DG,Bathmen,Deventer,Overijssel,VBO,6.278668,52.249200
Berkenschakel,20,,,7437DG,Bathmen,Deventer,Overijssel,VBO,6.278641,52.249272
Berkenschakel,22,,,7437DG,Bathmen,Deventer,Overijssel,VBO,6.278302,52.249167
Berkenschakel,24,,,7437DG,Bathmen,Deventer,Overijssel,VBO,6.278169,52.249141
Berkenschakel,26,,,7437DG,Bathmen,Deventer,Overijssel,VBO,6.278037,52.249106
Berkenschakel,28,,,7437DG,Bathmen,Deventer,Overijssel,VBO,6.277890,52.249071
Berkenschakel,30,,,7437DG,Bathmen,Deventer,Overijssel,VBO,6.277806,52.249269
Berkenschakel,32,A,,7437DG,Bathmen,Deventer,Overijssel,VBO,6.276810,52.249029
Berkenschakel,32,,,7437DG,Bathmen,Deventer,Overijssel,VBO,6.277749,52.249360
Berkenschakel,34,,,7437DG,Bathmen,Deventer,Overijssel,VBO,6.277563,52.248849
Berkenschakel,36,,,7437DG,Bathmen,Deventer,Overijssel,VBO,6.277445,52.248823
Berkenschakel,38,,,7437DG,Bathmen,Deventer,Overijssel,VBO,6.277240,52.248797
Berkenschakel,40,,,7437DG,Bathmen,Deventer,Overijssel,VBO,6.277137,52.248780
Berkenschakel,42,,,7437DG,Bathmen,Deventer,Overijssel,VBO,6.276932,52.248764
Berkenschakel,44,,,7437DG,Bathmen,Deventer,Overijssel,VBO,6.276814,52.248737
Bomenrand,1,,,7437DH,Bathmen,Deventer,Overijssel,VBO,6.275100,52.247542
Bomenrand,3,,,7437DH,Bathmen,Deventer,Overijssel,VBO,6.275032,52.247351
Bomenrand,5,,,7437DH,Bathmen,Deventer,Overijssel,VBO,6.274709,52.247438
Bomenrand,7,,,7437DH,Bathmen,Deventer,Overijssel,VBO,6.274512,52.247484
Bomenrand,9,,,7437DH,Bathmen,Deventer,Overijssel,VBO,6.274298,52.247574
Bomenrand,11,,,7437DH,Bathmen,Deventer,Overijssel,VBO,6.274071,52.247647
Bomenrand,13,,,7437DH,Bathmen,Deventer,Overijssel,VBO,6.274251,52.247799
Bomenrand,15,,,7437DH,Bathmen,Deventer,Overijssel,VBO,6.274425,52.247881
Hazelaarserf,1,,,7437DJ,Bathmen,Deventer,Overijssel,VBO,6.276331,52.248342
Hazelaarserf,2,,,7437DJ,Bathmen,Deventer,Overijssel,VBO,6.275785,52.249112
Hazelaarserf,3,,,7437DJ,Bathmen,Deventer,Overijssel,VBO,6.276256,52.248288
Hazelaarserf,4,,,7437DJ,Bathmen,Deventer,Overijssel,VBO,6.275808,52.249066
Hazelaarserf,5,,,7437DJ,Bathmen,Deventer,Overijssel,VBO,6.276177,52.248275
Hazelaarserf,6,,,7437DJ,Bathmen,Deventer,Overijssel,VBO,6.275864,52.248929
Hazelaarserf,7,,,7437DJ,Bathmen,Deventer,Overijssel,VBO,6.276114,52.248217
Hazelaarserf,8,,,7437DJ,Bathmen,Deventer,Overijssel,VBO,6.275897,52.248881
Hazelaarserf,9,,,7437DJ,Bathmen,Deventer,Overijssel,VBO,6.276033,52.248211
Hazelaarserf,10,,,7437DJ,Bathmen,Deventer,Overijssel,VBO,6.276204,52.248610
Hazelaarserf,11,,,7437DJ,Bathmen,Deventer,Overijssel,VBO,6.275955,52.248198
Hazelaarserf,12,,,7437DJ,Bathmen,Deventer,Overijssel,VBO,6.276091,52.248636
Hazelaarserf,13,,,7437DJ,Bathmen,Deventer,Overijssel,VBO,6.275881,52.248183
Hazelaarserf,14,,,7437DJ,Bathmen,Deventer,Overijssel,VBO,6.276009,52.248624
Hazelaarserf,15,,,7437DJ,Bathmen,Deventer,Overijssel,VBO,6.275788,52.248207
Hazelaarserf,16,,,7437DJ,Bathmen,Deventer,Overijssel,VBO,6.275901,52.248643
Hazelaarserf,17,,,7437DJ,Bathmen,Deventer,Overijssel,VBO,6.275722,52.248196
Hazelaarserf,18,,,7437DJ,Bathmen,Deventer,Overijssel,VBO,6.275832,52.248633
Hazelaarserf,19,,,7437DJ,Bathmen,Deventer,Overijssel,VBO,6.275578,52.248212
Hazelaarserf,20,,,7437DJ,Bathmen,Deventer,Overijssel,VBO,6.275756,52.248623
Hazelaarserf,21,,,7437DJ,Bathmen,Deventer,Overijssel,VBO,6.275538,52.248204
Hazelaarserf,22,,,7437DJ,Bathmen,Deventer,Overijssel,VBO,6.275683,52.248610
Hazelaarserf,23,,,7437DJ,Bathmen,Deventer,Overijssel,VBO,6.275435,52.248186
Hazelaarserf,24,,,7437DJ,Bathmen,Deventer,Overijssel,VBO,6.275631,52.248556
Hazelaarserf,26,,,7437DJ,Bathmen,Deventer,Overijssel,VBO,6.275559,52.248547
Hazelaarserf,28,,,7437DJ,Bathmen,Deventer,Overijssel,VBO,6.275477,52.248481
Hazelaarserf,30,,,7437DJ,Bathmen,Deventer,Overijssel,VBO,6.275183,52.248338
Hazelaarserf,32,,,7437DJ,Bathmen,Deventer,Overijssel,VBO,6.275057,52.248265
Hazelaarserf,34,,,7437DJ,Bathmen,Deventer,Overijssel,VBO,6.274979,52.248220
Hazelaarserf,36,,,7437DJ,Bathmen,Deventer,Overijssel,VBO,6.274861,52.248144
Esdoornerf,1,,,7437DK,Bathmen,Deventer,Overijssel,VBO,6.278263,52.247972
Esdoornerf,3,,,7437DK,Bathmen,Deventer,Overijssel,VBO,6.278175,52.247954
Esdoornerf,5,,,7437DK,Bathmen,Deventer,Overijssel,VBO,6.278130,52.247910
Esdoornerf,7,,,7437DK,Bathmen,Deventer,Overijssel,VBO,6.278042,52.247892
Esdoornerf,9,,,7437DK,Bathmen,Deventer,Overijssel,VBO,6.277953,52.247866
Esdoornerf,11,,,7437DK,Bathmen,Deventer,Overijssel,VBO,6.277895,52.247857
Esdoornerf,13,,,7437DK,Bathmen,Deventer,Overijssel,VBO,6.277805,52.247786
Esdoornerf,15,,,7437DK,Bathmen,Deventer,Overijssel,VBO,6.277717,52.247769
Esdoornerf,17,,,7437DK,Bathmen,Deventer,Overijssel,VBO,6.277658,52.247751
Esdoornerf,19,,,7437DK,Bathmen,Deventer,Overijssel,VBO,6.277585,52.247734
Esdoornerf,21,,,7437DK,Bathmen,Deventer,Overijssel,VBO,6.277511,52.247726
Esdoornerf,23,,,7437DK,Bathmen,Deventer,Overijssel,VBO,6.277424,52.247726
Esdoornerf,25,,,7437DK,Bathmen,Deventer,Overijssel,VBO,6.277336,52.247727
Esdoornerf,27,,,7437DK,Bathmen,Deventer,Overijssel,VBO,6.277233,52.247728
Esdoornerf,2,,,7437DL,Bathmen,Deventer,Overijssel,VBO,6.278329,52.248340
Esdoornerf,4,,,7437DL,Bathmen,Deventer,Overijssel,VBO,6.278241,52.248331
Esdoornerf,6,,,7437DL,Bathmen,Deventer,Overijssel,VBO,6.278138,52.248296
Esdoornerf,8,,,7437DL,Bathmen,Deventer,Overijssel,VBO,6.278050,52.248279
Esdoornerf,10,,,7437DL,Bathmen,Deventer,Overijssel,VBO,6.277961,52.248261
Esdoornerf,12,,,7437DL,Bathmen,Deventer,Overijssel,VBO,6.277888,52.248244
Esdoornerf,14,,,7437DL,Bathmen,Deventer,Overijssel,VBO,6.277786,52.248254
Esdoornerf,16,,,7437DL,Bathmen,Deventer,Overijssel,VBO,6.277712,52.248236
Esdoornerf,18,,,7437DL,Bathmen,Deventer,Overijssel,VBO,6.277624,52.248210
Esdoornerf,20,,,7437DL,Bathmen,Deventer,Overijssel,VBO,6.277550,52.248193
Esdoornerf,22,,,7437DL,Bathmen,Deventer,Overijssel,VBO,6.277447,52.248175
Esdoornerf,24,,,7437DL,Bathmen,Deventer,Overijssel,VBO,6.277374,52.248158
Esdoornerf,26,,,7437DL,Bathmen,Deventer,Overijssel,VBO,6.277285,52.248132
Esdoornerf,28,,,7437DL,Bathmen,Deventer,Overijssel,VBO,6.277212,52.248114
Esdoornerf,30,,,7437DL,Bathmen,Deventer,Overijssel,VBO,6.277152,52.248079
Esdoornerf,32,,,7437DL,Bathmen,Deventer,Overijssel,VBO,6.277093,52.248043
Esdoornerf,34,,,7437DL,Bathmen,Deventer,Overijssel,VBO,6.277019,52.247999
Essenzoom,1,,,7437DM,Bathmen,Deventer,Overijssel,VBO,6.280127,52.247445
Essenzoom,2,,,7437DM,Bathmen,Deventer,Overijssel,VBO,6.279503,52.247347
Essenzoom,3,,,7437DM,Bathmen,Deventer,Overijssel,VBO,6.280155,52.247400
Essenzoom,4,,,7437DM,Bathmen,Deventer,Overijssel,VBO,6.279549,52.247202
Essenzoom,5,,,7437DM,Bathmen,Deventer,Overijssel,VBO,6.280130,52.247262
Essenzoom,7,,,7437DM,Bathmen,Deventer,Overijssel,VBO,6.280124,52.247197
Walnotenhof,1,,,7437DN,Bathmen,Deventer,Overijssel,VBO,6.276051,52.247188
Walnotenhof,3,,,7437DN,Bathmen,Deventer,Overijssel,VBO,6.276179,52.247017
Walnotenhof,5,,,7437DN,Bathmen,Deventer,Overijssel,VBO,6.276178,52.246972
Walnotenhof,7,,,7437DN,Bathmen,Deventer,Overijssel,VBO,6.276169,52.246920
Walnotenhof,9,,,7437DN,Bathmen,Deventer,Overijssel,VBO,6.276142,52.246864
Walnotenhof,11,,,7437DN,Bathmen,Deventer,Overijssel,VBO,6.276135,52.246803
Walnotenhof,13,,,7437DN,Bathmen,Deventer,Overijssel,VBO,6.276115,52.246747
Walnotenhof,2,,,7437DP,Bathmen,Deventer,Overijssel,VBO,6.275818,52.247271
Walnotenhof,4,,,7437DP,Bathmen,Deventer,Overijssel,VBO,6.275540,52.247264
Walnotenhof,6,,,7437DP,Bathmen,Deventer,Overijssel,VBO,6.275451,52.247229
Walnotenhof,8,,,7437DP,Bathmen,Deventer,Overijssel,VBO,6.275334,52.247212
Walnotenhof,10,,,7437DP,Bathmen,Deventer,Overijssel,VBO,6.275260,52.247185
Haagbeukerf,1,,,7437DR,Bathmen,Deventer,Overijssel,VBO,6.275057,52.248590
Haagbeukerf,2,,,7437DR,Bathmen,Deventer,Overijssel,VBO,6.275338,52.248748
Haagbeukerf,3,,,7437DR,Bathmen,Deventer,Overijssel,VBO,6.274999,52.248638
Haagbeukerf,4,,,7437DR,Bathmen,Deventer,Overijssel,VBO,6.275289,52.248791
Haagbeukerf,5,,,7437DR,Bathmen,Deventer,Overijssel,VBO,6.274867,52.248763
Haagbeukerf,6,,,7437DR,Bathmen,Deventer,Overijssel,VBO,6.275174,52.248903
Haagbeukerf,7,,,7437DR,Bathmen,Deventer,Overijssel,VBO,6.274826,52.248815
Haagbeukerf,8,,,7437DR,Bathmen,Deventer,Overijssel,VBO,6.275163,52.248948
Haagbeukerf,9,,,7437DR,Bathmen,Deventer,Overijssel,VBO,6.274780,52.248943
Haagbeukerf,10,,,7437DR,Bathmen,Deventer,Overijssel,VBO,6.275148,52.249081
Haagbeukerf,11,,,7437DR,Bathmen,Deventer,Overijssel,VBO,6.274777,52.249008
Haagbeukerf,12,,,7437DR,Bathmen,Deventer,Overijssel,VBO,6.275135,52.249130
Vegerinkskamp,22,,,7437GA,Bathmen,Deventer,Overijssel,VBO,6.288139,52.246800
Vegerinkskamp,24,,,7437GA,Bathmen,Deventer,Overijssel,VBO,6.288091,52.246630
Vegerinkskamp,26,,,7437GA,Bathmen,Deventer,Overijssel,VBO,6.288117,52.246441
Vegerinkskamp,28,,,7437GA,Bathmen,Deventer,Overijssel,VBO,6.288230,52.246251
Vegerinkskamp,30,,,7437GA,Bathmen,Deventer,Overijssel,VBO,6.288509,52.246535
Vegerinkskamp,32,,,7437GA,Bathmen,Deventer,Overijssel,VBO,6.288591,52.246537
Vegerinkskamp,34,,,7437GA,Bathmen,Deventer,Overijssel,VBO,6.288798,52.246557
Vegerinkskamp,36,,,7437GA,Bathmen,Deventer,Overijssel,VBO,6.288887,52.246557
Vegerinkskamp,38,A,,7437GA,Bathmen,Deventer,Overijssel,VBO,6.289080,52.246561
Vegerinkskamp,38,B,,7437GA,Bathmen,Deventer,Overijssel,VBO,6.289170,52.246545
Vegerinkskamp,40,,,7437GA,Bathmen,Deventer,Overijssel,VBO,6.289392,52.246559
Vegerinkskamp,42,,,7437GA,Bathmen,Deventer,Overijssel,VBO,6.289655,52.246483
Vegerinkskamp,44,,,7437GA,Bathmen,Deventer,Overijssel,VBO,6.290035,52.246462
Vegerinkskamp,46,,,7437GA,Bathmen,Deventer,Overijssel,VBO,6.290069,52.246677
Vegerinkskamp,48,,,7437GA,Bathmen,Deventer,Overijssel,VBO,6.290013,52.246822
Vegerinkskamp,50,A,,7437GA,Bathmen,Deventer,Overijssel,VBO,6.289973,52.246984
Vegerinkskamp,50,,,7437GA,Bathmen,Deventer,Overijssel,VBO,6.290015,52.246894
Vegerinkskamp,52,,,7437GA,Bathmen,Deventer,Overijssel,VBO,6.289989,52.247056
Vegerinkskamp,54,,,7437GA,Bathmen,Deventer,Overijssel,VBO,6.289949,52.247272
Vegerinkskamp,56,,,7437GA,Bathmen,Deventer,Overijssel,VBO,6.289921,52.247317
Vegerinkskamp,58,,,7437GA,Bathmen,Deventer,Overijssel,VBO,6.289982,52.247451
Vegerinkskamp,60,,,7437GA,Bathmen,Deventer,Overijssel,VBO,6.289998,52.247505
Vegerinkskamp,62,,,7437GA,Bathmen,Deventer,Overijssel,VBO,6.290015,52.247622
Vegerinkskamp,64,,,7437GA,Bathmen,Deventer,Overijssel,VBO,6.290046,52.247684
Vegerinkskamp,66,,,7437GA,Bathmen,Deventer,Overijssel,VBO,6.290121,52.247801
Vegerinkskamp,68,,,7437GA,Bathmen,Deventer,Overijssel,VBO,6.290122,52.247837
Vegerinkskamp,19,,,7437GB,Bathmen,Deventer,Overijssel,VBO,6.288665,52.246778
Vegerinkskamp,21,,,7437GB,Bathmen,Deventer,Overijssel,VBO,6.288870,52.246741
Vegerinkskamp,23,,,7437GB,Bathmen,Deventer,Overijssel,VBO,6.288972,52.246740
Vegerinkskamp,25,,,7437GB,Bathmen,Deventer,Overijssel,VBO,6.289485,52.246736
Vegerinkskamp,27,A,,7437GB,Bathmen,Deventer,Overijssel,VBO,6.289486,52.246826
Vegerinkskamp,27,,,7437GB,Bathmen,Deventer,Overijssel,VBO,6.289471,52.246781
Vegerinkskamp,29,,,7437GB,Bathmen,Deventer,Overijssel,VBO,6.289483,52.246879
Vegerinkskamp,31,,,7437GB,Bathmen,Deventer,Overijssel,VBO,6.289488,52.246916
Vegerinkskamp,33,,,7437GB,Bathmen,Deventer,Overijssel,VBO,6.289451,52.247047
Vegerinkskamp,35,,,7437GB,Bathmen,Deventer,Overijssel,VBO,6.289463,52.247105
Vegerinkskamp,37,,,7437GB,Bathmen,Deventer,Overijssel,VBO,6.289478,52.247149
Vegerinkskamp,45,,,7437GC,Bathmen,Deventer,Overijssel,VBO,6.289714,52.247930
Vegerinkskamp,47,,,7437GC,Bathmen,Deventer,Overijssel,VBO,6.289775,52.248073
Vegerinkskamp,49,,,7437GC,Bathmen,Deventer,Overijssel,VBO,6.289910,52.248243
Vegerinkskamp,51,,,7437GC,Bathmen,Deventer,Overijssel,VBO,6.290099,52.248133
Vegerinkskamp,53,,,7437GC,Bathmen,Deventer,Overijssel,VBO,6.290129,52.248169
Vegerinkskamp,55,,,7437GC,Bathmen,Deventer,Overijssel,VBO,6.290191,52.248119
Vegerinkskamp,57,,,7437GC,Bathmen,Deventer,Overijssel,VBO,6.290205,52.248162
Vegerinkskamp,59,,,7437GC,Bathmen,Deventer,Overijssel,VBO,6.290244,52.248078
Vegerinkskamp,61,,,7437GC,Bathmen,Deventer,Overijssel,VBO,6.290259,52.248114
Vegerinkskamp,63,,,7437GC,Bathmen,Deventer,Overijssel,VBO,6.290316,52.248033
Vegerinkskamp,65,,,7437GC,Bathmen,Deventer,Overijssel,VBO,6.290332,52.248069
Vegerinkskamp,67,,,7437GC,Bathmen,Deventer,Overijssel,VBO,6.290389,52.248014
Vegerinkskamp,69,,,7437GC,Bathmen,Deventer,Overijssel,VBO,6.290419,52.248050
Vegerinkskamp,71,,,7437GC,Bathmen,Deventer,Overijssel,VBO,6.290506,52.247995
Vegerinkskamp,73,,,7437GC,Bathmen,Deventer,Overijssel,VBO,6.290521,52.248031
Vegerinkskamp,75,,,7437GC,Bathmen,Deventer,Overijssel,VBO,6.290579,52.247986
Vegerinkskamp,77,,,7437GC,Bathmen,Deventer,Overijssel,VBO,6.290594,52.248022
Vegerinkskamp,79,,,7437GC,Bathmen,Deventer,Overijssel,VBO,6.290652,52.247967
Vegerinkskamp,81,,,7437GC,Bathmen,Deventer,Overijssel,VBO,6.290667,52.248012
Vegerinkskamp,83,,,7437GC,Bathmen,Deventer,Overijssel,VBO,6.290725,52.247958
Vegerinkskamp,85,,,7437GC,Bathmen,Deventer,Overijssel,VBO,6.290755,52.247993
Sportlaan,1,,,7437NA,Bathmen,Deventer,Overijssel,VBO,6.300967,52.251115
Begraafplaatsweg,2,,,7437NB,Bathmen,Deventer,Overijssel,VBO,6.297802,52.251723
Begraafplaatsweg,4,,,7437NB,Bathmen,Deventer,Overijssel,VBO,6.297885,52.251498
Paddensteeg,1,A,,7437PB,Bathmen,Deventer,Overijssel,VBO,6.275351,52.237055
Paddensteeg,1,,,7437PB,Bathmen,Deventer,Overijssel,VBO,6.275424,52.237081
Paddensteeg,3,A,,7437PB,Bathmen,Deventer,Overijssel,VBO,6.275495,52.235844
Paddensteeg,3,B,,7437PB,Bathmen,Deventer,Overijssel,VBO,6.275949,52.235689
Paddensteeg,3,,,7437PB,Bathmen,Deventer,Overijssel,VBO,6.275541,52.235789
Molenweg,2,,,7437PC,Bathmen,Deventer,Overijssel,VBO,6.277191,52.231684
Molenweg,3,,,7437PC,Bathmen,Deventer,Overijssel,VBO,6.275807,52.231326
Molenweg,4,,,7437PC,Bathmen,Deventer,Overijssel,VBO,6.275835,52.231982
Molenweg,5,,,7437PC,Bathmen,Deventer,Overijssel,VBO,6.275836,52.231272
Molenweg,6,,,7437PC,Bathmen,Deventer,Overijssel,VBO,6.275494,52.231787
Molenweg,8,,,7437PC,Bathmen,Deventer,Overijssel,VBO,6.275262,52.231123
Oxersteeg,1,,,7437PD,Bathmen,Deventer,Overijssel,VBO,6.281503,52.237961
Oxersteeg,2,,,7437PD,Bathmen,Deventer,Overijssel,VBO,6.278203,52.238382
Oxersteeg,3,,,7437PD,Bathmen,Deventer,Overijssel,VBO,6.281325,52.237998
Oxersteeg,4,T,,7437PD,Bathmen,Deventer,Overijssel,VBO,6.277943,52.238572
Oxersteeg,4,,,7437PD,Bathmen,Deventer,Overijssel,VBO,6.278057,52.238419
Oxersteeg,5,,,7437PD,Bathmen,Deventer,Overijssel,VBO,6.278918,52.236785
Oxersteeg,7,,,7437PD,Bathmen,Deventer,Overijssel,VBO,6.277838,52.237416
Hoogesteeg,1,,,7437PE,Bathmen,Deventer,Overijssel,VBO,6.285832,52.237721
Hoogesteeg,2,,,7437PE,Bathmen,Deventer,Overijssel,VBO,6.288920,52.235514
Hoogesteeg,3,,,7437PE,Bathmen,Deventer,Overijssel,VBO,6.286880,52.237417
Hoogesteeg,4,A,,7437PE,Bathmen,Deventer,Overijssel,VBO,6.290598,52.234521
Hoogesteeg,4,B,,7437PE,Bathmen,Deventer,Overijssel,VBO,6.290613,52.234512
Hoogesteeg,4,,,7437PE,Bathmen,Deventer,Overijssel,VBO,6.290826,52.234214
Hoogesteeg,5,,,7437PE,Bathmen,Deventer,Overijssel,VBO,6.295632,52.234411
Hoogesteeg,7,A,,7437PE,Bathmen,Deventer,Overijssel,VBO,6.295517,52.233119
Hoogesteeg,7,,,7437PE,Bathmen,Deventer,Overijssel,VBO,6.295516,52.233027
Veldkampsteeg,1,,,7437PG,Bathmen,Deventer,Overijssel,VBO,6.309091,52.239618
Veldkampsteeg,2,,,7437PG,Bathmen,Deventer,Overijssel,VBO,6.283595,52.234961
Veldkampsteeg,4,A,,7437PG,Bathmen,Deventer,Overijssel,VBO,6.285683,52.231135
Veldkampsteeg,4,T,,7437PG,Bathmen,Deventer,Overijssel,VBO,6.285653,52.231605
Veldkampsteeg,4,,,7437PG,Bathmen,Deventer,Overijssel,VBO,6.285722,52.231044
Veldkampsteeg,6,T,,7437PG,Bathmen,Deventer,Overijssel,VBO,6.284569,52.235340
Veldkampsteeg,8,A,,7437PG,Bathmen,Deventer,Overijssel,VBO,6.290479,52.237004
Veldkampsteeg,8,,,7437PG,Bathmen,Deventer,Overijssel,VBO,6.290960,52.237169
Veldkampsteeg,10,A,,7437PG,Bathmen,Deventer,Overijssel,VBO,6.291880,52.237075
Veldkampsteeg,10,,,7437PG,Bathmen,Deventer,Overijssel,VBO,6.291748,52.237083
Veldkampsteeg,12,,,7437PG,Bathmen,Deventer,Overijssel,VBO,6.292121,52.237413
Veldkampsteeg,14,,,7437PG,Bathmen,Deventer,Overijssel,VBO,6.296939,52.238176
Veldkampsteeg,16,A,,7437PG,Bathmen,Deventer,Overijssel,VBO,6.302673,52.238733
Veldkampsteeg,16,B,,7437PG,Bathmen,Deventer,Overijssel,VBO,6.303267,52.238883
Veldkampsteeg,16,,,7437PG,Bathmen,Deventer,Overijssel,VBO,6.302557,52.238699
Veldkampsteeg,18,,,7437PG,Bathmen,Deventer,Overijssel,VBO,6.307936,52.237596
Veldkampsteeg,22,,,7437PG,Bathmen,Deventer,Overijssel,VBO,6.311070,52.239046
Leppersweg,1,,,7437PH,Bathmen,Deventer,Overijssel,VBO,6.296530,52.238952
Leppersweg,4,,,7437PH,Bathmen,Deventer,Overijssel,VBO,6.295081,52.240392
Steginksweg,1,,,7437PJ,Bathmen,Deventer,Overijssel,VBO,6.286790,52.241642
Steginksweg,2,T,,7437PJ,Bathmen,Deventer,Overijssel,VBO,6.282245,52.240634
Steginksweg,2,,,7437PJ,Bathmen,Deventer,Overijssel,VBO,6.282283,52.240337
Steginksweg,4,A,,7437PJ,Bathmen,Deventer,Overijssel,VBO,6.283732,52.240629
Steginksweg,4,B,,7437PJ,Bathmen,Deventer,Overijssel,VBO,6.283769,52.240579
Steginksweg,4,,,7437PJ,Bathmen,Deventer,Overijssel,VBO,6.284224,52.240010
Steginksweg,5,,,7437PJ,Bathmen,Deventer,Overijssel,VBO,6.291798,52.241694
Steginksweg,6,A,,7437PJ,Bathmen,Deventer,Overijssel,VBO,6.289347,52.241416
Steginksweg,6,,,7437PJ,Bathmen,Deventer,Overijssel,VBO,6.289334,52.241470
Steginksweg,7,A,,7437PJ,Bathmen,Deventer,Overijssel,VBO,6.294432,52.241806
Steginksweg,7,,,7437PJ,Bathmen,Deventer,Overijssel,VBO,6.294364,52.241944
Steginksweg,8,,,7437PJ,Bathmen,Deventer,Overijssel,VBO,6.292343,52.240422
Steginksweg,9,,,7437PJ,Bathmen,Deventer,Overijssel,VBO,6.296540,52.242331
Steginksweg,11,,,7437PJ,Bathmen,Deventer,Overijssel,VBO,6.300376,52.240172
Koersensweg,1,,,7437PK,Bathmen,Deventer,Overijssel,VBO,6.285299,52.243936
Woertmansweg,2,,,7437PK,Bathmen,Deventer,Overijssel,VBO,6.282387,52.246961
Woertmansweg,4,,,7437PK,Bathmen,Deventer,Overijssel,VBO,6.282284,52.246952
Woertmansweg,6,,,7437PK,Bathmen,Deventer,Overijssel,VBO,6.282050,52.246954
Woertmansweg,8,,,7437PK,Bathmen,Deventer,Overijssel,VBO,6.281948,52.246955
Woertmansweg,10,,,7437PK,Bathmen,Deventer,Overijssel,VBO,6.281728,52.246948
Woertmansweg,12,,,7437PK,Bathmen,Deventer,Overijssel,VBO,6.281625,52.246948
Woertmansweg,14,,,7437PK,Bathmen,Deventer,Overijssel,VBO,6.280585,52.246938
Woertmansweg,16,,,7437PK,Bathmen,Deventer,Overijssel,VBO,6.280351,52.246949
Woertmansweg,18,,,7437PK,Bathmen,Deventer,Overijssel,VBO,6.280058,52.246951
Woertmansweg,20,,,7437PK,Bathmen,Deventer,Overijssel,VBO,6.279648,52.246936
Woertmansweg,22,,,7437PK,Bathmen,Deventer,Overijssel,VBO,6.279326,52.246939
Woertmansweg,24,,,7437PK,Bathmen,Deventer,Overijssel,VBO,6.279092,52.246941
Woertmansweg,26,,,7437PK,Bathmen,Deventer,Overijssel,VBO,6.278857,52.246933
Woertmansweg,28,,,7437PK,Bathmen,Deventer,Overijssel,VBO,6.278565,52.246945
Woertmansweg,30,,,7437PK,Bathmen,Deventer,Overijssel,VBO,6.278372,52.246829
Woertmansweg,32,,,7437PK,Bathmen,Deventer,Overijssel,VBO,6.278136,52.246741
Woertmansweg,34,,,7437PK,Bathmen,Deventer,Overijssel,VBO,6.277988,52.246652
Woertmansweg,36,,,7437PK,Bathmen,Deventer,Overijssel,VBO,6.277499,52.246539
Woertmansweg,38,,,7437PK,Bathmen,Deventer,Overijssel,VBO,6.277066,52.246668
Woertmansweg,40,,,7437PK,Bathmen,Deventer,Overijssel,VBO,6.276803,52.246697
Woertmansweg,42,,,7437PK,Bathmen,Deventer,Overijssel,VBO,6.276496,52.246727
Woertmansweg,46,,,7437PK,Bathmen,Deventer,Overijssel,VBO,6.275252,52.246896
Woertmansweg,48,,,7437PK,Bathmen,Deventer,Overijssel,VBO,6.275215,52.246940
Woertmansweg,50,,,7437PK,Bathmen,Deventer,Overijssel,VBO,6.264752,52.245996
Woertmansweg,52,,,7437PK,Bathmen,Deventer,Overijssel,VBO,6.263481,52.246150
Woertmansweg,54,,,7437PK,Bathmen,Deventer,Overijssel,VBO,6.262797,52.246388
Woertmansweg,56,,,7437PK,Bathmen,Deventer,Overijssel,VBO,6.265103,52.247469
Woertmansweg,1,A,,7437PL,Bathmen,Deventer,Overijssel,VBO,6.280542,52.246644
Woertmansweg,1,,,7437PL,Bathmen,Deventer,Overijssel,VBO,6.281004,52.246657
Woertmansweg,3,,,7437PL,Bathmen,Deventer,Overijssel,VBO,6.278994,52.246438
Woertmansweg,5,A,,7437PL,Bathmen,Deventer,Overijssel,VBO,6.274509,52.245519
Woertmansweg,5,B,,7437PL,Bathmen,Deventer,Overijssel,VBO,6.272617,52.245362
Woertmansweg,5,T,,7437PL,Bathmen,Deventer,Overijssel,VBO,6.272164,52.245497
Woertmansweg,5,,,7437PL,Bathmen,Deventer,Overijssel,VBO,6.275857,52.246509
Woertmansweg,7,A,,7437PL,Bathmen,Deventer,Overijssel,VBO,6.269125,52.245391
Woertmansweg,7,,,7437PL,Bathmen,Deventer,Overijssel,VBO,6.271315,52.245390
Woertmansweg,9,,,7437PL,Bathmen,Deventer,Overijssel,VBO,6.268345,52.245529
Woertmansweg,11,A,,7437PL,Bathmen,Deventer,Overijssel,VBO,6.264069,52.244855
Woertmansweg,11,T,,7437PL,Bathmen,Deventer,Overijssel,VBO,6.264995,52.245725
Woertmansweg,11,,,7437PL,Bathmen,Deventer,Overijssel,VBO,6.263939,52.244891
Woertmansweg,13,A,,7437PL,Bathmen,Deventer,Overijssel,VBO,6.262035,52.246340
Woertmansweg,13,,,7437PL,Bathmen,Deventer,Overijssel,VBO,6.262066,52.246439
Enklaan,1,,,7437PM,Bathmen,Deventer,Overijssel,VBO,6.280996,52.246953
Enklaan,3,,,7437PM,Bathmen,Deventer,Overijssel,VBO,6.280956,52.247111
Enklaan,5,,,7437PM,Bathmen,Deventer,Overijssel,VBO,6.280899,52.247253
Enklaan,7,,,7437PM,Bathmen,Deventer,Overijssel,VBO,6.280756,52.247404
Enklaan,9,,,7437PM,Bathmen,Deventer,Overijssel,VBO,6.280642,52.247548
Enklaan,11,,,7437PM,Bathmen,Deventer,Overijssel,VBO,6.280114,52.248131
Enklaan,13,,,7437PM,Bathmen,Deventer,Overijssel,VBO,6.279998,52.248309
Enklaan,15,,,7437PM,Bathmen,Deventer,Overijssel,VBO,6.279971,52.248435
Enklaan,17,,,7437PM,Bathmen,Deventer,Overijssel,VBO,6.279857,52.248580
Enklaan,19,,,7437PM,Bathmen,Deventer,Overijssel,VBO,6.279846,52.248787
Enklaan,21,,,7437PM,Bathmen,Deventer,Overijssel,VBO,6.279762,52.248940
Enklaan,23,,,7437PM,Bathmen,Deventer,Overijssel,VBO,6.279600,52.249152
Enklaan,25,,,7437PM,Bathmen,Deventer,Overijssel,VBO,6.279369,52.249258
Enklaan,27,,,7437PM,Bathmen,Deventer,Overijssel,VBO,6.279330,52.249312
Enklaan,29,,,7437PM,Bathmen,Deventer,Overijssel,VBO,6.279200,52.249421
Enklaan,31,,,7437PM,Bathmen,Deventer,Overijssel,VBO,6.279157,52.249466
Enklaan,33,,,7437PM,Bathmen,Deventer,Overijssel,VBO,6.278955,52.249602
Enklaan,2,,,7437PN,Bathmen,Deventer,Overijssel,VBO,6.281467,52.247084
Enklaan,4,,,7437PN,Bathmen,Deventer,Overijssel,VBO,6.281439,52.247148
Enklaan,6,,,7437PN,Bathmen,Deventer,Overijssel,VBO,6.281384,52.247310
Enklaan,8,,,7437PN,Bathmen,Deventer,Overijssel,VBO,6.281370,52.247355
Enklaan,10,,,7437PN,Bathmen,Deventer,Overijssel,VBO,6.280590,52.248220
Enklaan,12,,,7437PN,Bathmen,Deventer,Overijssel,VBO,6.280551,52.248441
Enklaan,14,,,7437PN,Bathmen,Deventer,Overijssel,VBO,6.280457,52.248472
Enklaan,16,,,7437PN,Bathmen,Deventer,Overijssel,VBO,6.279542,52.249661
Enklaan,18,,,7437PN,Bathmen,Deventer,Overijssel,VBO,6.279529,52.249733
Enklaan,20,,,7437PN,Bathmen,Deventer,Overijssel,VBO,6.279428,52.249823
Enklaan,22,,,7437PN,Bathmen,Deventer,Overijssel,VBO,6.279356,52.249905
Hoekmansweg,1,T,,7437PN,Bathmen,Deventer,Overijssel,VBO,6.271120,52.243923
Hoekmansweg,1,,,7437PN,Bathmen,Deventer,Overijssel,VBO,6.271464,52.243949
Blankenadijk,1,,,7437PP,Bathmen,Deventer,Overijssel,VBO,6.303377,52.230198
Blankenadijk,2,,,7437PP,Bathmen,Deventer,Overijssel,VBO,6.301868,52.230129
Boersenk,2,A,,7437PR,Bathmen,Deventer,Overijssel,VBO,6.301272,52.232631
Boersenk,2,,,7437PR,Bathmen,Deventer,Overijssel,VBO,6.301861,52.233099
Boersenk,4,A,,7437PR,Bathmen,Deventer,Overijssel,VBO,6.300672,52.231756
Boersenk,4,,,7437PR,Bathmen,Deventer,Overijssel,VBO,6.301153,52.231654
Rossemansweg,1,A,,7437PR,Bathmen,Deventer,Overijssel,VBO,6.305902,52.234515
Rossemansweg,1,,,7437PR,Bathmen,Deventer,Overijssel,VBO,6.305965,52.234286
Rossemansweg,3,,,7437PR,Bathmen,Deventer,Overijssel,VBO,6.307968,52.235574
Zuidloorweg,1,A,,7437PS,Bathmen,Deventer,Overijssel,VBO,6.302810,52.237183
Zuidloorweg,1,,,7437PS,Bathmen,Deventer,Overijssel,VBO,6.303224,52.236875
Zuidloorweg,2,,,7437PS,Bathmen,Deventer,Overijssel,VBO,6.300068,52.235851
Zuidloorweg,4,,,7437PS,Bathmen,Deventer,Overijssel,VBO,6.307600,52.231253
Zuidloorweg,5,,,7437PS,Bathmen,Deventer,Overijssel,VBO,6.305152,52.233196
Zuidloorweg,7,,,7437PS,Bathmen,Deventer,Overijssel,VBO,6.305504,52.232501
Zuidloorweg,9,,,7437PS,Bathmen,Deventer,Overijssel,VBO,6.313245,52.232204
Zuidloorweg,11,A,,7437PS,Bathmen,Deventer,Overijssel,VBO,6.316659,52.230769
Zuidloorweg,11,,,7437PS,Bathmen,Deventer,Overijssel,VBO,6.316608,52.230796
Broekhuisdijk,1,,,7437PT,Bathmen,Deventer,Overijssel,VBO,6.327282,52.231619
Broekhuisdijk,2,A,,7437PT,Bathmen,Deventer,Overijssel,VBO,6.332957,52.230037
Broekhuisdijk,2,T,,7437PT,Bathmen,Deventer,Overijssel,VBO,6.332366,52.229911
Broekhuisdijk,2,,,7437PT,Bathmen,Deventer,Overijssel,VBO,6.332871,52.230048
Broekhuisdijk,3,A,,7437PT,Bathmen,Deventer,Overijssel,VBO,6.329943,52.231258
Broekhuisdijk,3,,,7437PT,Bathmen,Deventer,Overijssel,VBO,6.330238,52.231170
Broekhuisdijk,5,A,,7437PT,Bathmen,Deventer,Overijssel,VBO,6.332114,52.232589
Broekhuisdijk,5,,,7437PT,Bathmen,Deventer,Overijssel,VBO,6.332203,52.232582
Braakmanssteeg,1,,,7437PV,Bathmen,Deventer,Overijssel,VBO,6.314800,52.236623
Braakmanssteeg,2,,,7437PV,Bathmen,Deventer,Overijssel,VBO,6.312952,52.238298
Braakmanssteeg,3,A,,7437PV,Bathmen,Deventer,Overijssel,VBO,6.315031,52.235610
Braakmanssteeg,3,,,7437PV,Bathmen,Deventer,Overijssel,VBO,6.315106,52.235521
Braakmanssteeg,4,,,7437PV,Bathmen,Deventer,Overijssel,VBO,6.313983,52.236875
Braakmanssteeg,5,A,,7437PV,Bathmen,Deventer,Overijssel,VBO,6.321795,52.232427
Braakmanssteeg,5,B,,7437PV,Bathmen,Deventer,Overijssel,VBO,6.322091,52.232526
Braakmanssteeg,5,,,7437PV,Bathmen,Deventer,Overijssel,VBO,6.321830,52.232687
Braakmanssteeg,6,A,,7437PV,Bathmen,Deventer,Overijssel,VBO,6.320580,52.231708
Braakmanssteeg,6,,,7437PV,Bathmen,Deventer,Overijssel,VBO,6.320562,52.231777
Braakmanssteeg,7,A,,7437PV,Bathmen,Deventer,Overijssel,VBO,6.322586,52.231746
Braakmanssteeg,7,,,7437PV,Bathmen,Deventer,Overijssel,VBO,6.322454,52.231756
Braakmanssteeg,8,,,7437PV,Bathmen,Deventer,Overijssel,VBO,6.322117,52.230321
Braakmanssteeg,10,,,7437PV,Bathmen,Deventer,Overijssel,VBO,6.323001,52.229928
Braakmanssteeg,12,,,7437PV,Bathmen,Deventer,Overijssel,VBO,6.322970,52.229155
Langenbergerweg,1,,,7437PW,Bathmen,Deventer,Overijssel,VBO,6.311964,52.239794
Langenbergerweg,2,A,,7437PW,Bathmen,Deventer,Overijssel,VBO,6.312527,52.239579
Langenbergerweg,2,,,7437PW,Bathmen,Deventer,Overijssel,VBO,6.313730,52.239519
Langenbergerweg,3,,,7437PW,Bathmen,Deventer,Overijssel,VBO,6.313512,52.239864
Langenbergerweg,4,,,7437PW,Bathmen,Deventer,Overijssel,VBO,6.314499,52.239615
Langenbergerweg,5,A,,7437PW,Bathmen,Deventer,Overijssel,VBO,6.316625,52.240045
Langenbergerweg,5,,,7437PW,Bathmen,Deventer,Overijssel,VBO,6.315705,52.239992
Langenbergerweg,6,A,,7437PW,Bathmen,Deventer,Overijssel,VBO,6.317758,52.239600
Langenbergerweg,6,,,7437PW,Bathmen,Deventer,Overijssel,VBO,6.315063,52.239518
Langenbergerweg,7,,,7437PW,Bathmen,Deventer,Overijssel,VBO,6.324111,52.240228
Langenbergerweg,8,,,7437PW,Bathmen,Deventer,Overijssel,VBO,6.323762,52.239638
Bronsvoorderdijk,1,,,7437PX,Bathmen,Deventer,Overijssel,VBO,6.316462,52.237143
Bronsvoorderdijk,3,A,,7437PX,Bathmen,Deventer,Overijssel,VBO,6.318822,52.237951
Bronsvoorderdijk,3,,,7437PX,Bathmen,Deventer,Overijssel,VBO,6.318809,52.238059
Bronsvoorderdijk,5,,,7437PX,Bathmen,Deventer,Overijssel,VBO,6.322040,52.238528
Bronsvoorderdijk,7,,,7437PX,Bathmen,Deventer,Overijssel,VBO,6.323276,52.238833
Bronsvoorderdijk,9,,,7437PX,Bathmen,Deventer,Overijssel,VBO,6.324206,52.239194
Bronsvoorderdijk,11,,,7437PX,Bathmen,Deventer,Overijssel,VBO,6.327235,52.241857
Bronsvoorderdijk,13,A,,7437PX,Bathmen,Deventer,Overijssel,VBO,6.331230,52.240396
Bronsvoorderdijk,13,,,7437PX,Bathmen,Deventer,Overijssel,VBO,6.331201,52.240415
Bronsvoorderdijk,19,,,7437PX,Bathmen,Deventer,Overijssel,VBO,6.334308,52.241226
Bronsvoorderdijk,21,A,,7437PX,Bathmen,Deventer,Overijssel,VBO,6.339962,52.241828
Bronsvoorderdijk,21,,,7437PX,Bathmen,Deventer,Overijssel,VBO,6.339875,52.241822
Bronsvoorderdijk,23,,,7437PX,Bathmen,Deventer,Overijssel,VBO,6.343465,52.243552
Bronsvoorderdijk,25,,,7437PX,Bathmen,Deventer,Overijssel,VBO,6.346639,52.244065
Beekwal,1,,,7437PZ,Bathmen,Deventer,Overijssel,VBO,6.331363,52.243191
Beekwal,3,,,7437PZ,Bathmen,Deventer,Overijssel,VBO,6.331349,52.243245
Bronsvoorderdijk,2,,,7437PZ,Bathmen,Deventer,Overijssel,VBO,6.316400,52.236245
Bronsvoorderdijk,4,T,,7437PZ,Bathmen,Deventer,Overijssel,VBO,6.317861,52.236817
Bronsvoorderdijk,6,,,7437PZ,Bathmen,Deventer,Overijssel,VBO,6.321393,52.237679
Bronsvoorderdijk,8,,,7437PZ,Bathmen,Deventer,Overijssel,VBO,6.322637,52.237643
Bronsvoorderdijk,10,A,,7437PZ,Bathmen,Deventer,Overijssel,VBO,6.329513,52.236544
Bronsvoorderdijk,10,,,7437PZ,Bathmen,Deventer,Overijssel,VBO,6.329290,52.236428
Bronsvoorderdijk,12,,,7437PZ,Bathmen,Deventer,Overijssel,VBO,6.329755,52.239159
Bronsvoorderdijk,14,A,,7437PZ,Bathmen,Deventer,Overijssel,VBO,6.332372,52.240378
Bronsvoorderdijk,14,,,7437PZ,Bathmen,Deventer,Overijssel,VBO,6.331939,52.239968
Bronsvoorderdijk,16,,,7437PZ,Bathmen,Deventer,Overijssel,VBO,6.332754,52.240438
Bronsvoorderdijk,18,A,,7437PZ,Bathmen,Deventer,Overijssel,VBO,6.335055,52.236949
Bronsvoorderdijk,18,T,,7437PZ,Bathmen,Deventer,Overijssel,VBO,6.333343,52.240622
Bronsvoorderdijk,18,,,7437PZ,Bathmen,Deventer,Overijssel,VBO,6.335055,52.236900
Bronsvoorderdijk,20,,,7437PZ,Bathmen,Deventer,Overijssel,VBO,6.338492,52.239691
Bettinkdijk,1,,,7437RA,Bathmen,Deventer,Overijssel,VBO,6.339842,52.252848
Bettinkdijk,2,A,,7437RA,Bathmen,Deventer,Overijssel,VBO,6.339470,52.252572
Bettinkdijk,2,,,7437RA,Bathmen,Deventer,Overijssel,VBO,6.339398,52.252591
Bettinkdijk,3,A,,7437RA,Bathmen,Deventer,Overijssel,VBO,6.343711,52.251748
Bettinkdijk,3,,,7437RA,Bathmen,Deventer,Overijssel,VBO,6.340410,52.252691
Bettinkdijk,4,A,,7437RA,Bathmen,Deventer,Overijssel,VBO,6.339797,52.252473
Bettinkdijk,4,,,7437RA,Bathmen,Deventer,Overijssel,VBO,6.340053,52.252433
Bettinkdijk,5,,,7437RA,Bathmen,Deventer,Overijssel,VBO,6.346461,52.250754
Bettinkdijk,6,A,,7437RA,Bathmen,Deventer,Overijssel,VBO,6.340590,52.250842
Bettinkdijk,6,,,7437RA,Bathmen,Deventer,Overijssel,VBO,6.340811,52.250872
Bettinkdijk,7,,,7437RA,Bathmen,Deventer,Overijssel,VBO,6.348185,52.246933
Bettinkdijk,10,A,,7437RA,Bathmen,Deventer,Overijssel,VBO,6.348891,52.241228
Bettinkdijk,10,,,7437RA,Bathmen,Deventer,Overijssel,VBO,6.348889,52.241135
Boermark,2,,,7437RB,Bathmen,Deventer,Overijssel,VBO,6.350535,52.242757
Boermark,4,A,,7437RB,Bathmen,Deventer,Overijssel,VBO,6.357088,52.243782
Boermark,4,,,7437RB,Bathmen,Deventer,Overijssel,VBO,6.356867,52.243748
Boermark,6,T,,7437RB,Bathmen,Deventer,Overijssel,VBO,6.360897,52.244551
Boermark,6,,,7437RB,Bathmen,Deventer,Overijssel,VBO,6.361472,52.243378
Britspad,1,,,7437RB,Bathmen,Deventer,Overijssel,VBO,6.343880,52.249803
Britspad,3,,,7437RB,Bathmen,Deventer,Overijssel,VBO,6.343418,52.250221
Peppeldijk,2,A,,7437RC,Bathmen,Deventer,Overijssel,VBO,6.331187,52.227470
Peppeldijk,2,B,,7437RC,Bathmen,Deventer,Overijssel,VBO,6.331142,52.227604
Wippertdijk,9,A,,7437RC,Bathmen,Deventer,Overijssel,VBO,6.366603,52.241681
Wippertdijk,9,,,7437RC,Bathmen,Deventer,Overijssel,VBO,6.366844,52.241731
Wippertdijk,11,,,7437RC,Bathmen,Deventer,Overijssel,VBO,6.369020,52.242371
Koekoeksweg,2,A,,7437RD,Bathmen,Deventer,Overijssel,VBO,6.346476,52.246330
Koekoeksweg,2,,,7437RD,Bathmen,Deventer,Overijssel,VBO,6.346394,52.246278
Koekoeksweg,4,,,7437RD,Bathmen,Deventer,Overijssel,VBO,6.344139,52.245632
Vonkendijk,1,T,,7437RE,Bathmen,Deventer,Overijssel,VBO,6.351449,52.248439
Vonkendijk,1,,,7437RE,Bathmen,Deventer,Overijssel,VBO,6.352069,52.249360
Vonkendijk,2,A,,7437RE,Bathmen,Deventer,Overijssel,VBO,6.348816,52.248711
Vonkendijk,2,,,7437RE,Bathmen,Deventer,Overijssel,VBO,6.348899,52.248690
Vonkendijk,3,,,7437RE,Bathmen,Deventer,Overijssel,VBO,6.355435,52.247894
Scheperboersweg,1,,,7437RG,Bathmen,Deventer,Overijssel,VBO,6.339150,52.252973
Scheperboersweg,2,,,7437RG,Bathmen,Deventer,Overijssel,VBO,6.340593,52.252995
Scheperboersweg,3,A,,7437RG,Bathmen,Deventer,Overijssel,VBO,6.339536,52.253150
Scheperboersweg,3,,,7437RG,Bathmen,Deventer,Overijssel,VBO,6.339584,52.253069
Scheperboersweg,4,,,7437RG,Bathmen,Deventer,Overijssel,VBO,6.340713,52.253164
Scheperboersweg,5,,,7437RG,Bathmen,Deventer,Overijssel,VBO,6.340116,52.253304
Scheperboersweg,6,,,7437RG,Bathmen,Deventer,Overijssel,VBO,6.341067,52.253243
Scheperboersweg,7,,,7437RG,Bathmen,Deventer,Overijssel,VBO,6.340178,52.253483
Scheperboersweg,8,,,7437RG,Bathmen,Deventer,Overijssel,VBO,6.341303,52.253366
Scheperboersweg,9,,,7437RG,Bathmen,Deventer,Overijssel,VBO,6.343385,52.255498
Baarhorsterdijk,1,A,,7437RH,Bathmen,Deventer,Overijssel,VBO,6.310975,52.245725
Baarhorsterdijk,1,T,,7437RH,Bathmen,Deventer,Overijssel,VBO,6.310833,52.245478
Baarhorsterdijk,1,,,7437RH,Bathmen,Deventer,Overijssel,VBO,6.310878,52.245735
Baarhorsterdijk,3,,,7437RH,Bathmen,Deventer,Overijssel,VBO,6.312309,52.245786
Baarhorsterdijk,4,,,7437RH,Bathmen,Deventer,Overijssel,VBO,6.337373,52.251735
Baarhorsterdijk,5,A,,7437RH,Bathmen,Deventer,Overijssel,VBO,6.312730,52.244201
Baarhorsterdijk,5,,,7437RH,Bathmen,Deventer,Overijssel,VBO,6.312701,52.244219
Baarhorsterdijk,6,,,7437RH,Bathmen,Deventer,Overijssel,VBO,6.337902,52.251803
Baarhorsterdijk,7,A,,7437RH,Bathmen,Deventer,Overijssel,VBO,6.324021,52.245676
Baarhorsterdijk,7,,,7437RH,Bathmen,Deventer,Overijssel,VBO,6.323919,52.245722
Baarhorsterdijk,8,,,7437RH,Bathmen,Deventer,Overijssel,VBO,6.337995,52.252045
Baarhorsterdijk,10,,,7437RH,Bathmen,Deventer,Overijssel,VBO,6.338115,52.252197
Baarhorsterdijk,11,,,7437RH,Bathmen,Deventer,Overijssel,VBO,6.335194,52.252571
Baarhorsterdijk,12,A,,7437RH,Bathmen,Deventer,Overijssel,VBO,6.338425,52.252293
Baarhorsterdijk,12,,,7437RH,Bathmen,Deventer,Overijssel,VBO,6.338322,52.252267
Baarhorsterdijk,14,,,7437RH,Bathmen,Deventer,Overijssel,VBO,6.338559,52.252391
Baarhorsterdijk,16,,,7437RH,Bathmen,Deventer,Overijssel,VBO,6.338647,52.252426
Baarhorsterdijk,18,,,7437RH,Bathmen,Deventer,Overijssel,VBO,6.338896,52.252424
Baarhorsterdijk,20,T,,7437RH,Bathmen,Deventer,Overijssel,VBO,6.339059,52.252504
Baarhorsterdijk,22,,,7437RH,Bathmen,Deventer,Overijssel,VBO,6.339148,52.252444
Slagmansdijk,1,,,7437RJ,Bathmen,Deventer,Overijssel,VBO,6.327516,52.245486
Slagmansdijk,2,T,,7437RJ,Bathmen,Deventer,Overijssel,VBO,6.327266,52.245222
Slagmansdijk,2,,,7437RJ,Bathmen,Deventer,Overijssel,VBO,6.325107,52.245128
Slagmansdijk,4,,,7437RJ,Bathmen,Deventer,Overijssel,VBO,6.330158,52.245052
Slagmansdijk,6,A,,7437RJ,Bathmen,Deventer,Overijssel,VBO,6.331034,52.245091
Slagmansdijk,6,,,7437RJ,Bathmen,Deventer,Overijssel,VBO,6.331096,52.245102
Slagmansdijk,8,,,7437RJ,Bathmen,Deventer,Overijssel,VBO,6.332213,52.245997
Menopsweg,2,,,7437RK,Bathmen,Deventer,Overijssel,VBO,6.321650,52.252040
Menopsweg,4,,,7437RK,Bathmen,Deventer,Overijssel,VBO,6.322223,52.251879
Menopsweg,6,,,7437RK,Bathmen,Deventer,Overijssel,VBO,6.321174,52.250507
Menopsweg,8,A,,7437RK,Bathmen,Deventer,Overijssel,VBO,6.323574,52.251567
Menopsweg,8,,,7437RK,Bathmen,Deventer,Overijssel,VBO,6.323487,52.251621
Menopsweg,10,,,7437RK,Bathmen,Deventer,Overijssel,VBO,6.325500,52.251154
Menopsweg,12,A,,7437RK,Bathmen,Deventer,Overijssel,VBO,6.325700,52.251712
Menopsweg,12,B,,7437RK,Bathmen,Deventer,Overijssel,VBO,6.325753,52.252112
Menopsweg,12,,,7437RK,Bathmen,Deventer,Overijssel,VBO,6.325599,52.251784
Menopsweg,14,,,7437RK,Bathmen,Deventer,Overijssel,VBO,6.328218,52.252339
Schapespikke,1,A,,7437RL,Bathmen,Deventer,Overijssel,VBO,6.315907,52.257033
Schapespikke,1,,,7437RL,Bathmen,Deventer,Overijssel,VBO,6.315999,52.257047
Schapespikke,2,,,7437RL,Bathmen,Deventer,Overijssel,VBO,6.320399,52.258729
Schapespikke,3,A,,7437RL,Bathmen,Deventer,Overijssel,VBO,6.318556,52.258132
Schapespikke,3,T,,7437RL,Bathmen,Deventer,Overijssel,VBO,6.318604,52.258320
Schapespikke,3,,,7437RL,Bathmen,Deventer,Overijssel,VBO,6.318613,52.258033
Schapespikke,4,,,7437RL,Bathmen,Deventer,Overijssel,VBO,6.319411,52.259096
Schapespikke,5,,,7437RL,Bathmen,Deventer,Overijssel,VBO,6.318110,52.259232
Diepenmarsweg,1,A,,7437RM,Bathmen,Deventer,Overijssel,VBO,6.314184,52.253503
Diepenmarsweg,1,,,7437RM,Bathmen,Deventer,Overijssel,VBO,6.314039,52.253460
Diepenmarsweg,2,A,,7437RM,Bathmen,Deventer,Overijssel,VBO,6.316195,52.254474
Diepenmarsweg,2,,,7437RM,Bathmen,Deventer,Overijssel,VBO,6.316193,52.254394
Diepenmarsweg,3,T,,7437RM,Bathmen,Deventer,Overijssel,VBO,6.314446,52.253490
Diepenmarsweg,4,,,7437RM,Bathmen,Deventer,Overijssel,VBO,6.318344,52.256399
Diepenmarsweg,5,,,7437RM,Bathmen,Deventer,Overijssel,VBO,6.314844,52.254341
Diepenmarsweg,6,,,7437RM,Bathmen,Deventer,Overijssel,VBO,6.321055,52.257186
Diepenmarsweg,8,A,,7437RM,Bathmen,Deventer,Overijssel,VBO,6.323560,52.257194
Diepenmarsweg,8,,,7437RM,Bathmen,Deventer,Overijssel,VBO,6.323531,52.257212
Diepenmarsweg,10,,,7437RM,Bathmen,Deventer,Overijssel,VBO,6.325773,52.257248
Loonkweg,1,,,7437RN,Bathmen,Deventer,Overijssel,VBO,6.303119,52.249013
Loonkweg,3,,,7437RN,Bathmen,Deventer,Overijssel,VBO,6.302216,52.250611
Looweg,19,,,7437RP,Bathmen,Deventer,Overijssel,VBO,6.292309,52.251911
Looweg,21,,,7437RP,Bathmen,Deventer,Overijssel,VBO,6.293035,52.251987
Looweg,23,,,7437RP,Bathmen,Deventer,Overijssel,VBO,6.293342,52.252042
Looweg,25,,,7437RP,Bathmen,Deventer,Overijssel,VBO,6.293613,52.252098
Looweg,27,,,7437RP,Bathmen,Deventer,Overijssel,VBO,6.293838,52.252118
Looweg,29,,,7437RP,Bathmen,Deventer,Overijssel,VBO,6.294084,52.252149
Looweg,31,,,7437RP,Bathmen,Deventer,Overijssel,VBO,6.294311,52.252209
Looweg,33,A,,7437RP,Bathmen,Deventer,Overijssel,VBO,6.294898,52.252267
Looweg,33,B,,7437RP,Bathmen,Deventer,Overijssel,VBO,6.294855,52.252276
Looweg,33,C,,7437RP,Bathmen,Deventer,Overijssel,VBO,6.295090,52.252329
Looweg,33,D,,7437RP,Bathmen,Deventer,Overijssel,VBO,6.295118,52.252283
Looweg,35,,,7437RP,Bathmen,Deventer,Overijssel,VBO,6.295704,52.252270
Looweg,37,,,7437RP,Bathmen,Deventer,Overijssel,VBO,6.296012,52.252285
Looweg,39,,,7437RP,Bathmen,Deventer,Overijssel,VBO,6.296378,52.252301
Looweg,41,,,7437RP,Bathmen,Deventer,Overijssel,VBO,6.296657,52.252316
Looweg,43,,,7437RP,Bathmen,Deventer,Overijssel,VBO,6.297126,52.252349
Looweg,45,,,7437RP,Bathmen,Deventer,Overijssel,VBO,6.297961,52.252351
Looweg,47,A,,7437RP,Bathmen,Deventer,Overijssel,STA,6.301035,52.252638
Looweg,47,B,,7437RP,Bathmen,Deventer,Overijssel,STA,6.301069,52.252749
Looweg,47,C,,7437RP,Bathmen,Deventer,Overijssel,STA,6.301086,52.252852
Looweg,47,,,7437RP,Bathmen,Deventer,Overijssel,STA,6.300998,52.252535
Looweg,49,,,7437RP,Bathmen,Deventer,Overijssel,VBO,6.302485,52.252298
Looweg,51,,,7437RP,Bathmen,Deventer,Overijssel,VBO,6.306546,52.253193
Looweg,53,,,7437RP,Bathmen,Deventer,Overijssel,VBO,6.312221,52.253553
Looweg,55,A,,7437RP,Bathmen,Deventer,Overijssel,VBO,6.314732,52.252682
Looweg,55,,,7437RP,Bathmen,Deventer,Overijssel,VBO,6.314620,52.252680
Looweg,57,,,7437RP,Bathmen,Deventer,Overijssel,VBO,6.319062,52.252933
Looweg,59,,,7437RP,Bathmen,Deventer,Overijssel,VBO,6.319224,52.252967
Looweg,61,A,,7437RP,Bathmen,Deventer,Overijssel,VBO,6.320987,52.253502
Looweg,61,,,7437RP,Bathmen,Deventer,Overijssel,VBO,6.320823,52.253407
Looweg,63,,,7437RP,Bathmen,Deventer,Overijssel,VBO,6.321834,52.253801
Looweg,65,,,7437RP,Bathmen,Deventer,Overijssel,VBO,6.325445,52.254905
Looweg,67,,,7437RP,Bathmen,Deventer,Overijssel,VBO,6.337991,52.253267
Looweg,69,,,7437RP,Bathmen,Deventer,Overijssel,VBO,6.338195,52.253221
Looweg,71,,,7437RP,Bathmen,Deventer,Overijssel,VBO,6.338618,52.253136
Looweg,73,,,7437RP,Bathmen,Deventer,Overijssel,VBO,6.339261,52.253255
Looweg,1,,,7437RR,Bathmen,Deventer,Overijssel,VBO,6.288936,52.251450
Looweg,2,,,7437RR,Bathmen,Deventer,Overijssel,VBO,6.288151,52.251033
Looweg,3,,,7437RR,Bathmen,Deventer,Overijssel,VBO,6.289273,52.251474
Looweg,4,,,7437RR,Bathmen,Deventer,Overijssel,VBO,6.288415,52.251031
Looweg,5,,,7437RR,Bathmen,Deventer,Overijssel,VBO,6.289652,52.251399
Looweg,6,,,7437RR,Bathmen,Deventer,Overijssel,VBO,6.288602,52.251084
Looweg,8,,,7437RR,Bathmen,Deventer,Overijssel,VBO,6.288719,52.251092
Looweg,9,,,7437RR,Bathmen,Deventer,Overijssel,VBO,6.290415,52.251475
Looweg,10,,,7437RR,Bathmen,Deventer,Overijssel,VBO,6.288913,52.251073
Looweg,11,,,7437RR,Bathmen,Deventer,Overijssel,VBO,6.290913,52.251480
Looweg,12,,,7437RR,Bathmen,Deventer,Overijssel,VBO,6.289133,52.251080
Looweg,13,,,7437RR,Bathmen,Deventer,Overijssel,VBO,6.291590,52.251645
Looweg,14,,,7437RR,Bathmen,Deventer,Overijssel,VBO,6.289361,52.251120
Looweg,15,,,7437RR,Bathmen,Deventer,Overijssel,VBO,6.291856,52.251719
Looweg,16,T,,7437RR,Bathmen,Deventer,Overijssel,VBO,6.290037,52.251145
Looweg,16,,,7437RR,Bathmen,Deventer,Overijssel,VBO,6.289617,52.251103
Looweg,17,,,7437RR,Bathmen,Deventer,Overijssel,VBO,6.292108,52.251878
Looweg,18,A,,7437RR,Bathmen,Deventer,Overijssel,VBO,6.290740,52.251129
Looweg,18,,,7437RR,Bathmen,Deventer,Overijssel,VBO,6.290695,52.251101
Looweg,20,,,7437RR,Bathmen,Deventer,Overijssel,VBO,6.290937,52.251201
Looweg,22,A,,7437RR,Bathmen,Deventer,Overijssel,VBO,6.291158,52.251244
Looweg,22,,,7437RR,Bathmen,Deventer,Overijssel,VBO,6.291203,52.251298
Looweg,24,,,7437RS,Bathmen,Deventer,Overijssel,VBO,6.291703,52.251411
Looweg,26,,,7437RS,Bathmen,Deventer,Overijssel,VBO,6.291820,52.251419
Looweg,28,,,7437RS,Bathmen,Deventer,Overijssel,VBO,6.292011,52.251435
Looweg,30,,,7437RS,Bathmen,Deventer,Overijssel,VBO,6.292129,52.251461
Looweg,32,,,7437RS,Bathmen,Deventer,Overijssel,VBO,6.292319,52.251478
Looweg,34,,,7437RS,Bathmen,Deventer,Overijssel,VBO,6.292437,52.251495
Looweg,38,,,7437RS,Bathmen,Deventer,Overijssel,VBO,6.293085,52.251670
Looweg,40,A,,7437RS,Bathmen,Deventer,Overijssel,VBO,6.293540,52.251747
Looweg,40,,,7437RS,Bathmen,Deventer,Overijssel,VBO,6.293423,52.251748
Looweg,42,,,7437RS,Bathmen,Deventer,Overijssel,VBO,6.293819,52.251790
Looweg,44,T,,7437RS,Bathmen,Deventer,Overijssel,VBO,6.294212,52.251661
Looweg,44,,,7437RS,Bathmen,Deventer,Overijssel,VBO,6.294157,52.251823
Looweg,46,,,7437RS,Bathmen,Deventer,Overijssel,VBO,6.294508,52.251794
Looweg,48,A,,7437RS,Bathmen,Deventer,Overijssel,VBO,6.294789,52.251850
Looweg,48,,,7437RS,Bathmen,Deventer,Overijssel,VBO,6.294929,52.251907
Looweg,50,,,7437RS,Bathmen,Deventer,Overijssel,VBO,6.295154,52.251906
Looweg,52,,,7437RS,Bathmen,Deventer,Overijssel,VBO,6.295521,52.251930
Looweg,54,A,,7437RS,Bathmen,Deventer,Overijssel,VBO,6.296269,52.251969
Looweg,54,B,,7437RS,Bathmen,Deventer,Overijssel,VBO,6.296576,52.251967
Looweg,54,,,7437RS,Bathmen,Deventer,Overijssel,VBO,6.295946,52.251962
Looweg,56,,,7437RS,Bathmen,Deventer,Overijssel,VBO,6.296841,52.252018
Looweg,58,A,,7437RS,Bathmen,Deventer,Overijssel,VBO,6.297236,52.252015
Looweg,58,,,7437RS,Bathmen,Deventer,Overijssel,VBO,6.297310,52.252051
Looweg,60,,,7437RS,Bathmen,Deventer,Overijssel,VBO,6.297808,52.252056
Schouwenbergsweg,1,A,,7437RS,Bathmen,Deventer,Overijssel,VBO,6.323897,52.258779
Schouwenbergsweg,1,T,,7437RS,Bathmen,Deventer,Overijssel,VBO,6.323412,52.258985
Schouwenbergsweg,1,,,7437RS,Bathmen,Deventer,Overijssel,VBO,6.323832,52.258816
Looweg,62,A,,7437RT,Bathmen,Deventer,Overijssel,VBO,6.308902,52.252383
Looweg,62,,,7437RT,Bathmen,Deventer,Overijssel,VBO,6.309005,52.252331
Looweg,64,,,7437RT,Bathmen,Deventer,Overijssel,VBO,6.316854,52.252366
Looweg,66,,,7437RT,Bathmen,Deventer,Overijssel,VBO,6.317741,52.251361
Looweg,68,A,,7437RT,Bathmen,Deventer,Overijssel,VBO,6.319137,52.252249
Looweg,68,B,,7437RT,Bathmen,Deventer,Overijssel,VBO,6.319644,52.252244
Looweg,68,,,7437RT,Bathmen,Deventer,Overijssel,VBO,6.319107,52.252285
Looweg,70,,,7437RT,Bathmen,Deventer,Overijssel,VBO,6.322736,52.253515
Looweg,72,T,,7437RT,Bathmen,Deventer,Overijssel,VBO,6.323458,52.253707
Looweg,74,,,7437RT,Bathmen,Deventer,Overijssel,VBO,6.323778,52.253819
Looweg,76,,,7437RT,Bathmen,Deventer,Overijssel,VBO,6.324300,52.253982
Looweg,78,,,7437RT,Bathmen,Deventer,Overijssel,VBO,6.325226,52.254214
Looweg,80,,,7437RT,Bathmen,Deventer,Overijssel,VBO,6.329723,52.255662
Looweg,82,A,,7437RT,Bathmen,Deventer,Overijssel,VBO,6.330383,52.255674
Looweg,82,,,7437RT,Bathmen,Deventer,Overijssel,VBO,6.330354,52.255692
Looweg,84,,,7437RT,Bathmen,Deventer,Overijssel,VBO,6.332362,52.255748
Looweg,86,A,,7437RT,Bathmen,Deventer,Overijssel,VBO,6.334283,52.254502
Looweg,86,,,7437RT,Bathmen,Deventer,Overijssel,VBO,6.334381,52.254294
Looweg,88,A,,7437RT,Bathmen,Deventer,Overijssel,VBO,6.335450,52.254016
Looweg,88,,,7437RT,Bathmen,Deventer,Overijssel,VBO,6.335246,52.254341
Looweg,90,A,,7437RT,Bathmen,Deventer,Overijssel,VBO,6.335432,52.253314
Kleinen Traasterdijk,1,,,7437RV,Bathmen,Deventer,Overijssel,VBO,6.302199,52.252642
Marsdijk,1,,,7437RX,Bathmen,Deventer,Overijssel,VBO,6.302515,52.247319
Marsdijk,2,A,,7437RX,Bathmen,Deventer,Overijssel,VBO,6.299884,52.244816
Marsdijk,2,,,7437RX,Bathmen,Deventer,Overijssel,VBO,6.297043,52.244691
Marsdijk,3,,,7437RX,Bathmen,Deventer,Overijssel,VBO,6.303089,52.247467
Marsdijk,4,A,,7437RX,Bathmen,Deventer,Overijssel,VBO,6.303901,52.244124
Marsdijk,4,,,7437RX,Bathmen,Deventer,Overijssel,VBO,6.303830,52.243956
Marsdijk,5,,,7437RX,Bathmen,Deventer,Overijssel,VBO,6.293073,52.246061
Marsdijk,6,A,,7437RX,Bathmen,Deventer,Overijssel,VBO,6.305719,52.244451
Marsdijk,6,,,7437RX,Bathmen,Deventer,Overijssel,VBO,6.305798,52.243950
Marsdijk,7,,,7437RX,Bathmen,Deventer,Overijssel,VBO,6.293256,52.245673
Marsdijk,9,,,7437RX,Bathmen,Deventer,Overijssel,VBO,6.312025,52.242013
Marsdijk,11,,,7437RX,Bathmen,Deventer,Overijssel,VBO,6.309010,52.242064
Marsdijk,13,,,7437RX,Bathmen,Deventer,Overijssel,VBO,6.310736,52.241277
Marsdijk,15,,,7437RX,Bathmen,Deventer,Overijssel,VBO,6.311294,52.240614
Marsdijk,15,,,7437RX,Bathmen,Deventer,Overijssel,VBO,6.311219,52.240582
Traasterdijk,1,A,,7437RZ,Bathmen,Deventer,Overijssel,VBO,6.288443,52.253312
Traasterdijk,1,B,,7437RZ,Bathmen,Deventer,Overijssel,VBO,6.288564,52.253331
Traasterdijk,1,C,,7437RZ,Bathmen,Deventer,Overijssel,VBO,6.288696,52.253330
Traasterdijk,1,D,,7437RZ,Bathmen,Deventer,Overijssel,VBO,6.288938,52.253357
Traasterdijk,1,E,,7437RZ,Bathmen,Deventer,Overijssel,VBO,6.288954,52.253357
Traasterdijk,1,,,7437RZ,Bathmen,Deventer,Overijssel,VBO,6.288299,52.253297
Traasterdijk,2,,,7437RZ,Bathmen,Deventer,Overijssel,VBO,6.289083,52.252950
Traasterdijk,3,,,7437RZ,Bathmen,Deventer,Overijssel,VBO,6.289163,52.253246
Traasterdijk,4,,,7437RZ,Bathmen,Deventer,Overijssel,VBO,6.289274,52.252984
Traasterdijk,5,A,,7437RZ,Bathmen,Deventer,Overijssel,VBO,6.289820,52.253422
Traasterdijk,5,,,7437RZ,Bathmen,Deventer,Overijssel,VBO,6.289236,52.253236
Traasterdijk,6,,,7437RZ,Bathmen,Deventer,Overijssel,VBO,6.289363,52.253002
Traasterdijk,7,A,,7437RZ,Bathmen,Deventer,Overijssel,VBO,6.290696,52.255270
Traasterdijk,7,,,7437RZ,Bathmen,Deventer,Overijssel,VBO,6.290647,52.255218
Traasterdijk,8,,,7437RZ,Bathmen,Deventer,Overijssel,VBO,6.289554,52.253045
Traasterdijk,10,A,,7437RZ,Bathmen,Deventer,Overijssel,VBO,6.290011,52.252802
Traasterdijk,10,B,,7437RZ,Bathmen,Deventer,Overijssel,VBO,6.290421,52.253209
Traasterdijk,10,C,,7437RZ,Bathmen,Deventer,Overijssel,VBO,6.290700,52.253252
Traasterdijk,10,,,7437RZ,Bathmen,Deventer,Overijssel,VBO,6.289642,52.253062
Traasterdijk,12,,,7437RZ,Bathmen,Deventer,Overijssel,VBO,6.291025,52.253357
Traasterdijk,14,T,,7437RZ,Bathmen,Deventer,Overijssel,VBO,6.293470,52.253911
Traasterdijk,14,,,7437RZ,Bathmen,Deventer,Overijssel,VBO,6.293859,52.254468
Traasterdijk,16,,,7437RZ,Bathmen,Deventer,Overijssel,VBO,6.292073,52.255911
Apenhuizerweg,1,A,,7437SB,Bathmen,Deventer,Overijssel,VBO,6.295044,52.253248
Apenhuizerweg,1,,,7437SB,Bathmen,Deventer,Overijssel,VBO,6.295037,52.253299
Apenhuizerweg,2,,,7437SB,Bathmen,Deventer,Overijssel,VBO,6.296354,52.253263
Apenhuizerweg,3,A,,7437SB,Bathmen,Deventer,Overijssel,VBO,6.297042,52.257608
Apenhuizerweg,3,,,7437SB,Bathmen,Deventer,Overijssel,VBO,6.296882,52.257618
Apenhuizerweg,4,,,7437SB,Bathmen,Deventer,Overijssel,VBO,6.298307,52.254227
Apenhuizerweg,5,,,7437SB,Bathmen,Deventer,Overijssel,VBO,6.299789,52.257236
Apenhuizerweg,6,,,7437SB,Bathmen,Deventer,Overijssel,VBO,6.299340,52.255663
Apenhuizerweg,7,,,7437SB,Bathmen,Deventer,Overijssel,VBO,6.302472,52.257893
Apenhuizerweg,8,A,,7437SB,Bathmen,Deventer,Overijssel,VBO,6.299461,52.256232
Apenhuizerweg,8,,,7437SB,Bathmen,Deventer,Overijssel,VBO,6.299447,52.256259
Apenhuizerweg,9,A,,7437SB,Bathmen,Deventer,Overijssel,VBO,6.300474,52.258183
Apenhuizerweg,9,,,7437SB,Bathmen,Deventer,Overijssel,VBO,6.300441,52.258309
Apenhuizerweg,10,T,,7437SB,Bathmen,Deventer,Overijssel,VBO,6.301020,52.257244
Apenhuizerweg,10,,,7437SB,Bathmen,Deventer,Overijssel,VBO,6.301414,52.257205
Apenhuizerweg,14,A,,7437SB,Bathmen,Deventer,Overijssel,VBO,6.303293,52.257406
Apenhuizerweg,14,,,7437SB,Bathmen,Deventer,Overijssel,VBO,6.303395,52.257343
Apenhuizerenkweg,1,,,7437SC,Bathmen,Deventer,Overijssel,VBO,6.326007,52.261003
Apenhuizerenkweg,2,A,,7437SC,Bathmen,Deventer,Overijssel,VBO,6.313207,52.260225
Apenhuizerenkweg,2,,,7437SC,Bathmen,Deventer,Overijssel,VBO,6.312212,52.259681
Apenhuizerenkweg,4,,,7437SC,Bathmen,Deventer,Overijssel,VBO,6.326751,52.260530
Pothaarsweg,1,A,,7437SE,Bathmen,Deventer,Overijssel,VBO,6.366576,52.254468
Pothaarsweg,1,,,7437SE,Bathmen,Deventer,Overijssel,VBO,6.366767,52.254448
Pothaarsweg,2,A,,7437SE,Bathmen,Deventer,Overijssel,VBO,6.362185,52.253650
Pothaarsweg,2,,,7437SE,Bathmen,Deventer,Overijssel,VBO,6.361929,52.253576
Pothaarsweg,4,,,7437SE,Bathmen,Deventer,Overijssel,VBO,6.368235,52.253272
Pothaarsweg,6,A,,7437SE,Bathmen,Deventer,Overijssel,VBO,6.372014,52.253334
Pothaarsweg,6,,,7437SE,Bathmen,Deventer,Overijssel,VBO,6.372081,52.253373
Pothaarsweg,8,A,,7437SE,Bathmen,Deventer,Overijssel,VBO,6.372974,52.254311
Pothaarsweg,8,,,7437SE,Bathmen,Deventer,Overijssel,VBO,6.372594,52.254332
Veenweg,1,,,7437SG,Bathmen,Deventer,Overijssel,VBO,6.370106,52.251117
Veenweg,2,A,,7437SG,Bathmen,Deventer,Overijssel,VBO,6.356594,52.252504
Veenweg,2,B,,7437SG,Bathmen,Deventer,Overijssel,VBO,6.356480,52.252575
Veenweg,2,,,7437SG,Bathmen,Deventer,Overijssel,VBO,6.356725,52.252456
Veenweg,4,,,7437SG,Bathmen,Deventer,Overijssel,VBO,6.362504,52.251045
Veenweg,6,,,7437SG,Bathmen,Deventer,Overijssel,VBO,6.366715,52.249419
Veenweg,8,A,,7437SG,Bathmen,Deventer,Overijssel,VBO,6.370039,52.249819
Veenweg,8,,,7437SG,Bathmen,Deventer,Overijssel,VBO,6.370483,52.249607
Veenweg,10,T,,7437SG,Bathmen,Deventer,Overijssel,VBO,6.372773,52.249890
Veenweg,10,,,7437SG,Bathmen,Deventer,Overijssel,VBO,6.373874,52.248650
Veenweg,12,,,7437SG,Bathmen,Deventer,Overijssel,VBO,6.375468,52.249230
Loormark,1,,,7437SH,Bathmen,Deventer,Overijssel,VBO,6.357345,52.252876
Loormark,2,,,7437SH,Bathmen,Deventer,Overijssel,VBO,6.357770,52.252927
Loormark,3,,,7437SH,Bathmen,Deventer,Overijssel,VBO,6.357926,52.252621
Loormark,4,,,7437SH,Bathmen,Deventer,Overijssel,VBO,6.358271,52.252401
Loormark,5,,,7437SH,Bathmen,Deventer,Overijssel,VBO,6.358782,52.252289
Loormark,6,,,7437SH,Bathmen,Deventer,Overijssel,VBO,6.359220,52.252250
Loormark,7,,,7437SH,Bathmen,Deventer,Overijssel,VBO,6.359432,52.252571
Loormark,8,,,7437SH,Bathmen,Deventer,Overijssel,VBO,6.359599,52.252840
Loormark,9,,,7437SH,Bathmen,Deventer,Overijssel,VBO,6.359620,52.253145
Loormark,10,,,7437SH,Bathmen,Deventer,Overijssel,VBO,6.359551,52.253299
Loormark,11,,,7437SH,Bathmen,Deventer,Overijssel,VBO,6.359876,52.253449
Loormark,12,,,7437SH,Bathmen,Deventer,Overijssel,VBO,6.359727,52.253642
Loormark,13,,,7437SH,Bathmen,Deventer,Overijssel,VBO,6.360149,52.253869
Loormark,14,,,7437SH,Bathmen,Deventer,Overijssel,VBO,6.360526,52.253686
Loormark,15,,,7437SH,Bathmen,Deventer,Overijssel,VBO,6.361098,52.253744
Loormark,16,,,7437SH,Bathmen,Deventer,Overijssel,VBO,6.361466,52.253840
Loormark,17,,,7437SH,Bathmen,Deventer,Overijssel,VBO,6.361878,52.253927
Loormark,18,,,7437SH,Bathmen,Deventer,Overijssel,VBO,6.362275,52.254004
Loormark,19,,,7437SH,Bathmen,Deventer,Overijssel,VBO,6.362327,52.254345
Loormark,20,,,7437SH,Bathmen,Deventer,Overijssel,VBO,6.362232,52.254645
Loormark,21,,,7437SH,Bathmen,Deventer,Overijssel,VBO,6.361823,52.254745
Loormark,22,,,7437SH,Bathmen,Deventer,Overijssel,VBO,6.361255,52.254851
Loormark,23,,,7437SH,Bathmen,Deventer,Overijssel,VBO,6.360715,52.254997
Loormark,24,,,7437SH,Bathmen,Deventer,Overijssel,VBO,6.360162,52.255136
Loormark,25,,,7437SH,Bathmen,Deventer,Overijssel,VBO,6.359623,52.255266
Loormark,26,,,7437SH,Bathmen,Deventer,Overijssel,VBO,6.359054,52.255379
Loormark,27,,,7437SH,Bathmen,Deventer,Overijssel,VBO,6.358758,52.255220
Loormark,28,,,7437SH,Bathmen,Deventer,Overijssel,VBO,6.358374,52.255079
Loormark,29,,,7437SH,Bathmen,Deventer,Overijssel,VBO,6.357947,52.254984
Loormark,30,,,7437SJ,Bathmen,Deventer,Overijssel,VBO,6.358144,52.254604
Loormark,31,,,7437SJ,Bathmen,Deventer,Overijssel,VBO,6.358411,52.254773
Loormark,32,,,7437SJ,Bathmen,Deventer,Overijssel,VBO,6.358926,52.254877
Loormark,33,,,7437SJ,Bathmen,Deventer,Overijssel,VBO,6.359065,52.254552
Loormark,34,,,7437SJ,Bathmen,Deventer,Overijssel,VBO,6.358648,52.254487
Loormark,35,,,7437SJ,Bathmen,Deventer,Overijssel,VBO,6.358300,52.254325
Loormark,36,,,7437SJ,Bathmen,Deventer,Overijssel,VBO,6.358188,52.253966
Loormark,37,,,7437SJ,Bathmen,Deventer,Overijssel,VBO,6.358603,52.254151
Loormark,38,,,7437SJ,Bathmen,Deventer,Overijssel,VBO,6.359030,52.254256
Loormark,39,,,7437SJ,Bathmen,Deventer,Overijssel,VBO,6.358892,52.253978
Loormark,40,,,7437SJ,Bathmen,Deventer,Overijssel,VBO,6.358477,52.253766
Loormark,41,A,,7437SJ,Bathmen,Deventer,Overijssel,VBO,6.357564,52.254232
Loormark,41,B,,7437SJ,Bathmen,Deventer,Overijssel,VBO,6.357495,52.254421
Loormark,41,T,,7437SJ,Bathmen,Deventer,Overijssel,VBO,6.357769,52.254194
Loormark,41,,,7437SJ,Bathmen,Deventer,Overijssel,VBO,6.357691,52.253970
Loormark,42,,,7437SJ,Bathmen,Deventer,Overijssel,VBO,6.357218,52.253803
Loormark,43,,,7437SJ,Bathmen,Deventer,Overijssel,VBO,6.356861,52.253448
Loormark,44,,,7437SJ,Bathmen,Deventer,Overijssel,VBO,6.356600,52.253189
Loormark,45,,,7437SJ,Bathmen,Deventer,Overijssel,VBO,6.357043,52.253139
Loormark,46,,,7437SJ,Bathmen,Deventer,Overijssel,VBO,6.357557,52.253207
Loormark,47,,,7437SK,Bathmen,Deventer,Overijssel,VBO,6.357358,52.253478
Loormark,48,,,7437SK,Bathmen,Deventer,Overijssel,VBO,6.357742,52.253655
Loormark,49,,,7437SK,Bathmen,Deventer,Overijssel,VBO,6.357899,52.253456
Loormark,50,,,7437SK,Bathmen,Deventer,Overijssel,VBO,6.358070,52.253257
Loormark,51,,,7437SK,Bathmen,Deventer,Overijssel,VBO,6.358663,52.252892
Loormark,52,,,7437SK,Bathmen,Deventer,Overijssel,VBO,6.358352,52.252724
Loormark,53,,,7437SK,Bathmen,Deventer,Overijssel,VBO,6.358920,52.252612
Loormark,54,,,7437SK,Bathmen,Deventer,Overijssel,VBO,6.359043,52.252862
Loormark,55,,,7437SK,Bathmen,Deventer,Overijssel,VBO,6.358831,52.253224
Loormark,56,,,7437SK,Bathmen,Deventer,Overijssel,VBO,6.358616,52.253441
Loormark,57,,,7437SK,Bathmen,Deventer,Overijssel,VBO,6.359048,52.253761
Loormark,58,,,7437SK,Bathmen,Deventer,Overijssel,VBO,6.359264,52.253571
Loormark,59,,,7437SK,Bathmen,Deventer,Overijssel,VBO,6.359463,52.253964
Loormark,60,,,7437SK,Bathmen,Deventer,Overijssel,VBO,6.360009,52.254176
Loormark,61,,,7437SK,Bathmen,Deventer,Overijssel,VBO,6.359557,52.254278
Loormark,62,,,7437SK,Bathmen,Deventer,Overijssel,VBO,6.359484,52.254673
Loormark,63,,,7437SK,Bathmen,Deventer,Overijssel,VBO,6.359295,52.254999
Loormark,64,,,7437SK,Bathmen,Deventer,Overijssel,VBO,6.359849,52.254887
Loormark,65,,,7437SK,Bathmen,Deventer,Overijssel,VBO,6.360316,52.254793
Loormark,66,,,7437SK,Bathmen,Deventer,Overijssel,VBO,6.360855,52.254672
Loormark,67,,,7437SK,Bathmen,Deventer,Overijssel,VBO,6.361365,52.254542
Loormark,68,,,7437SK,Bathmen,Deventer,Overijssel,VBO,6.361860,52.254448
Loormark,69,,,7437SK,Bathmen,Deventer,Overijssel,VBO,6.361533,52.254217
Loormark,70,,,7437SK,Bathmen,Deventer,Overijssel,VBO,6.361001,52.254006
Loormark,71,,,7437SK,Bathmen,Deventer,Overijssel,VBO,6.360554,52.254105
Loormark,72,,,7437SK,Bathmen,Deventer,Overijssel,VBO,6.360993,52.254302
Loormark,73,,,7437SK,Bathmen,Deventer,Overijssel,VBO,6.360541,52.254378
Loormark,74,,,7437SK,Bathmen,Deventer,Overijssel,VBO,6.359856,52.254545
Oudendijk,1,,,7437SL,Bathmen,Deventer,Overijssel,VBO,6.346139,52.253136
Oudendijk,2,A,,7437SL,Bathmen,Deventer,Overijssel,VBO,6.346911,52.251126
Oudendijk,2,,,7437SL,Bathmen,Deventer,Overijssel,VBO,6.349183,52.252132
Oudendijk,3,A,,7437SL,Bathmen,Deventer,Overijssel,VBO,6.348095,52.253872
Oudendijk,3,,,7437SL,Bathmen,Deventer,Overijssel,VBO,6.348317,52.253957
Oudendijk,4,A,,7437SL,Bathmen,Deventer,Overijssel,VBO,6.350911,52.252668
Oudendijk,4,,,7437SL,Bathmen,Deventer,Overijssel,VBO,6.351101,52.252685
Oudendijk,5,T,1,7437SL,Bathmen,Deventer,Overijssel,VBO,6.354091,52.254130
Oudendijk,5,T,2,7437SL,Bathmen,Deventer,Overijssel,VBO,6.353932,52.255428
Oudendijk,5,,,7437SL,Bathmen,Deventer,Overijssel,VBO,6.353415,52.256531
Oudendijk,6,,,7437SL,Bathmen,Deventer,Overijssel,VBO,6.355953,52.254209
Oudendijk,7,A,,7437SL,Bathmen,Deventer,Overijssel,VBO,6.357650,52.255444
Oudendijk,7,,,7437SL,Bathmen,Deventer,Overijssel,VBO,6.357371,52.255420
Oudendijk,8,,,7437SL,Bathmen,Deventer,Overijssel,VBO,6.357051,52.254191
Oudendijk,9,A,,7437SL,Bathmen,Deventer,Overijssel,VBO,6.368111,52.259831
Oudendijk,9,,,7437SL,Bathmen,Deventer,Overijssel,VBO,6.368944,52.260003
Oudendijk,10,T,,7437SL,Bathmen,Deventer,Overijssel,VBO,6.369186,52.259196
Oudendijk,10,,,7437SL,Bathmen,Deventer,Overijssel,VBO,6.372628,52.257855
Arkelsteijnweg,1,,,7437SM,Bathmen,Deventer,Overijssel,VBO,6.343241,52.259031
Arkelsteijnweg,2,A,,7437SM,Bathmen,Deventer,Overijssel,VBO,6.342445,52.258786
Arkelsteijnweg,2,,,7437SM,Bathmen,Deventer,Overijssel,VBO,6.342332,52.258756
Arkelsteijnweg,3,A,,7437SM,Bathmen,Deventer,Overijssel,VBO,6.343900,52.258990
Arkelsteijnweg,3,,,7437SM,Bathmen,Deventer,Overijssel,VBO,6.343680,52.259019
Arkelsteijnweg,4,A,,7437SM,Bathmen,Deventer,Overijssel,VBO,6.347832,52.258617
Arkelsteijnweg,4,,,7437SM,Bathmen,Deventer,Overijssel,VBO,6.348615,52.258269
Arkelsteijnweg,5,T,,7437SM,Bathmen,Deventer,Overijssel,VBO,6.349590,52.259978
Arkelsteijnweg,5,,,7437SM,Bathmen,Deventer,Overijssel,VBO,6.349031,52.260548
Arkelsteijnweg,6,,,7437SM,Bathmen,Deventer,Overijssel,VBO,6.353920,52.260031
Arkelsteijnweg,7,,,7437SM,Bathmen,Deventer,Overijssel,VBO,6.363196,52.261273
Arkelsteijnweg,8,A,,7437SM,Bathmen,Deventer,Overijssel,VBO,6.354469,52.259601
Arkelsteijnweg,8,,,7437SM,Bathmen,Deventer,Overijssel,VBO,6.354363,52.259525
Arkelsteijnweg,9,,,7437SM,Bathmen,Deventer,Overijssel,VBO,6.368293,52.260766
Arkelsteijnweg,10,,,7437SM,Bathmen,Deventer,Overijssel,VBO,6.367911,52.260430
Arkelsteijnweg,11,,,7437SM,Bathmen,Deventer,Overijssel,VBO,6.368956,52.260773
Leemkuilsweg,1,T,,7437SN,Bathmen,Deventer,Overijssel,VBO,6.352890,52.265577
Leemkuilsweg,1,,,7437SN,Bathmen,Deventer,Overijssel,VBO,6.353693,52.265445
Leemkuilsweg,2,A,,7437SN,Bathmen,Deventer,Overijssel,VBO,6.354392,52.264658
Leemkuilsweg,2,,,7437SN,Bathmen,Deventer,Overijssel,VBO,6.354202,52.264589
Leemkuilsweg,3,A,,7437SN,Bathmen,Deventer,Overijssel,VBO,6.358050,52.264909
Leemkuilsweg,3,B,,7437SN,Bathmen,Deventer,Overijssel,VBO,6.358080,52.265098
Leemkuilsweg,3,,,7437SN,Bathmen,Deventer,Overijssel,VBO,6.358000,52.265129
Oude Holterdijk,1,A,,7437SR,Bathmen,Deventer,Overijssel,VBO,6.349558,52.267986
Oude Holterdijk,1,T,,7437SR,Bathmen,Deventer,Overijssel,VBO,6.347231,52.266756
Oude Holterdijk,1,,,7437SR,Bathmen,Deventer,Overijssel,VBO,6.349702,52.268098
Oude Holterdijk,2,A,,7437SR,Bathmen,Deventer,Overijssel,VBO,6.336117,52.261244
Oude Holterdijk,2,,,7437SR,Bathmen,Deventer,Overijssel,VBO,6.336030,52.261201
Oude Holterdijk,4,,,7437SR,Bathmen,Deventer,Overijssel,VBO,6.337750,52.262518
Oude Holterdijk,6,,,7437SR,Bathmen,Deventer,Overijssel,VBO,6.338917,52.263659
Oude Holterdijk,8,,,7437SR,Bathmen,Deventer,Overijssel,VBO,6.345505,52.265503
Zandvoortdijk,1,A,,7437ST,Bathmen,Deventer,Overijssel,VBO,6.331317,52.259676
Zandvoortdijk,1,,,7437ST,Bathmen,Deventer,Overijssel,VBO,6.331538,52.259542
Zandvoortdijk,3,,,7437ST,Bathmen,Deventer,Overijssel,VBO,6.334725,52.259433
Paalmansweg,1,,,7437SV,Bathmen,Deventer,Overijssel,VBO,6.330207,52.256377
Paalmansweg,3,T,,7437SV,Bathmen,Deventer,Overijssel,VBO,6.329978,52.256603
Paalmansweg,5,,,7437SV,Bathmen,Deventer,Overijssel,VBO,6.327553,52.258312
Paalmansweg,7,A,,7437SV,Bathmen,Deventer,Overijssel,VBO,6.327786,52.263775
Paalmansweg,7,,,7437SV,Bathmen,Deventer,Overijssel,VBO,6.327787,52.263838
Paalmansweg,9,,,7437SV,Bathmen,Deventer,Overijssel,VBO,6.326772,52.265698
Paalmansweg,11,,,7437SV,Bathmen,Deventer,Overijssel,VBO,6.327286,52.268420
Postweg,1,A,,7437SW,Bathmen,Deventer,Overijssel,VBO,6.330557,52.263879
Postweg,1,T,,7437SW,Bathmen,Deventer,Overijssel,VBO,6.334154,52.263581
Postweg,1,,,7437SW,Bathmen,Deventer,Overijssel,VBO,6.330498,52.263889
Postweg,2,,,7437SW,Bathmen,Deventer,Overijssel,VBO,6.333692,52.263198
Postweg,3,,,7437SW,Bathmen,Deventer,Overijssel,VBO,6.336346,52.264031
Maatboersweg,2,,,7437SX,Bathmen,Deventer,Overijssel,VBO,6.347203,52.268648
Maatboersweg,4,,,7437SX,Bathmen,Deventer,Overijssel,VBO,6.343843,52.266690
1e Zuider Pierkesmarsweg,1,,,7437SZ,Bathmen,Deventer,Overijssel,VBO,6.334474,52.266014
1e Zuider Pierkesmarsweg,2,A,,7437SZ,Bathmen,Deventer,Overijssel,VBO,6.335731,52.269082
1e Zuider Pierkesmarsweg,2,,,7437SZ,Bathmen,Deventer,Overijssel,VBO,6.335910,52.269121
1e Zuider Pierkesmarsweg,3,,,7437SZ,Bathmen,Deventer,Overijssel,VBO,6.334510,52.269321
1e Zuider Pierkesmarsweg,5,,,7437SZ,Bathmen,Deventer,Overijssel,VBO,6.334518,52.269663
2e Zuider Pierkesmarsweg,1,,,7437TA,Bathmen,Deventer,Overijssel,VBO,6.340446,52.270083
Bussinksweg,1,,,7437TB,Bathmen,Deventer,Overijssel,VBO,6.330726,52.273226
Bussinksweg,2,A,,7437TB,Bathmen,Deventer,Overijssel,VBO,6.331302,52.271484
Bussinksweg,2,,,7437TB,Bathmen,Deventer,Overijssel,VBO,6.330967,52.271471
Bussinksweg,3,T,,7437TB,Bathmen,Deventer,Overijssel,VBO,6.333089,52.274780
Bussinksweg,3,,,7437TB,Bathmen,Deventer,Overijssel,VBO,6.332629,52.275916
Bussinksweg,4,A,,7437TB,Bathmen,Deventer,Overijssel,VBO,6.337979,52.274781
Bussinksweg,4,,,7437TB,Bathmen,Deventer,Overijssel,VBO,6.338003,52.274854
Bussinksweg,5,,,7437TB,Bathmen,Deventer,Overijssel,VBO,6.335565,52.277537
Bussinksweg,6,,,7437TB,Bathmen,Deventer,Overijssel,VBO,6.336805,52.276610
Noorder Pierkesmarsweg,1,,,7437TC,Bathmen,Deventer,Overijssel,VBO,6.334879,52.273534
Meutsteeg,1,A,,7437TD,Bathmen,Deventer,Overijssel,VBO,6.329315,52.279443
Meutsteeg,1,,,7437TD,Bathmen,Deventer,Overijssel,VBO,6.329379,52.279510
Holterweg,140,,,7437TG,Bathmen,Deventer,Overijssel,VBO,6.327469,52.268865
Holterweg,141,,,7437TG,Bathmen,Deventer,Overijssel,VBO,6.333944,52.270899
Holterweg,142,,,7437TG,Bathmen,Deventer,Overijssel,VBO,6.331534,52.269324
Holterweg,143,,,7437TG,Bathmen,Deventer,Overijssel,VBO,6.336500,52.271247
Holterweg,144,,,7437TG,Bathmen,Deventer,Overijssel,VBO,6.332426,52.269797
Holterweg,146,T,,7437TG,Bathmen,Deventer,Overijssel,VBO,6.332629,52.269714
Holterweg,148,A,,7437TG,Bathmen,Deventer,Overijssel,VBO,6.336468,52.270349
Holterweg,148,,,7437TG,Bathmen,Deventer,Overijssel,VBO,6.334930,52.270442
Holterweg,150,,,7437TG,Bathmen,Deventer,Overijssel,VBO,6.336592,52.270707
Holterweg,152,A,,7437TG,Bathmen,Deventer,Overijssel,VBO,6.337887,52.270953
Holterweg,152,,,7437TG,Bathmen,Deventer,Overijssel,VBO,6.337481,52.270900
Cooleweesweg,1,,,7437TH,Bathmen,Deventer,Overijssel,VBO,6.357151,52.262828
Spoorstraat,3,,,7437TR,Bathmen,Deventer,Overijssel,VBO,6.294012,52.252415
Spoorstraat,5,,,7437TR,Bathmen,Deventer,Overijssel,VBO,6.293816,52.252428
Spoorstraat,7,,,7437TR,Bathmen,Deventer,Overijssel,VBO,6.293350,52.252390
Spoorstraat,9,,,7437TR,Bathmen,Deventer,Overijssel,VBO,6.292778,52.252364
Spoorstraat,2,,,7437TS,Bathmen,Deventer,Overijssel,VBO,6.295639,52.252452
Spoorstraat,4,,,7437TS,Bathmen,Deventer,Overijssel,VBO,6.295925,52.252481
Spoorstraat,6,,,7437TS,Bathmen,Deventer,Overijssel,VBO,6.296238,52.252486
Spoorstraat,8,,,7437TS,Bathmen,Deventer,Overijssel,VBO,6.296722,52.252521
Spoorstraat,10,,,7437TS,Bathmen,Deventer,Overijssel,VBO,6.297091,52.252543
Oerbosdijk,1,,,7437TZ,Bathmen,Deventer,Overijssel,VBO,6.324986,52.248410
Prins Bernhardlaan,1,,,7437VA,Bathmen,Deventer,Overijssel,VBO,6.294158,52.249738
Prins Bernhardlaan,2,,,7437VA,Bathmen,Deventer,Overijssel,VBO,6.294094,52.249469
Prins Bernhardlaan,3,,,7437VA,Bathmen,Deventer,Overijssel,VBO,6.294276,52.249737
Prins Bernhardlaan,4,,,7437VA,Bathmen,Deventer,Overijssel,VBO,6.294255,52.249468
Prins Bernhardlaan,5,,,7437VA,Bathmen,Deventer,Overijssel,VBO,6.295300,52.249711
Prins Bernhardlaan,6,,,7437VA,Bathmen,Deventer,Overijssel,VBO,6.295236,52.249424
Prins Bernhardlaan,7,,,7437VA,Bathmen,Deventer,Overijssel,VBO,6.295417,52.249701
Prins Bernhardlaan,8,,,7437VA,Bathmen,Deventer,Overijssel,VBO,6.295397,52.249423
Koningin Julianalaan,1,,,7437VB,Bathmen,Deventer,Overijssel,VBO,6.294178,52.249990
Koningin Julianalaan,2,,,7437VB,Bathmen,Deventer,Overijssel,VBO,6.296237,52.250387
Koningin Julianalaan,3,,,7437VB,Bathmen,Deventer,Overijssel,VBO,6.294280,52.249980
Koningin Julianalaan,4,,,7437VB,Bathmen,Deventer,Overijssel,VBO,6.296206,52.250325
Koningin Julianalaan,5,,,7437VB,Bathmen,Deventer,Overijssel,VBO,6.295318,52.249978
Koningin Julianalaan,6,,,7437VB,Bathmen,Deventer,Overijssel,VBO,6.296189,52.250208
Koningin Julianalaan,7,,,7437VB,Bathmen,Deventer,Overijssel,VBO,6.295424,52.249976
Koningin Julianalaan,9,,,7437VB,Bathmen,Deventer,Overijssel,VBO,6.296213,52.249956
Koningin Julianalaan,11,,,7437VB,Bathmen,Deventer,Overijssel,VBO,6.296316,52.249955
Koningin Julianalaan,13,,,7437VB,Bathmen,Deventer,Overijssel,VBO,6.296745,52.250177
Koningin Julianalaan,15,,,7437VB,Bathmen,Deventer,Overijssel,VBO,6.296688,52.250276
Koningin Julianalaan,17,,,7437VB,Bathmen,Deventer,Overijssel,VBO,6.296765,52.250428
Prins Mauritslaan,1,G,1,7437VC,Bathmen,Deventer,Overijssel,VBO,6.296357,52.251267
Prins Mauritslaan,1,,,7437VC,Bathmen,Deventer,Overijssel,VBO,6.296166,52.251224
Prins Mauritslaan,2,,,7437VC,Bathmen,Deventer,Overijssel,VBO,6.295810,52.251221
Prins Mauritslaan,3,,,7437VC,Bathmen,Deventer,Overijssel,VBO,6.296150,52.251170
Prins Mauritslaan,4,,,7437VC,Bathmen,Deventer,Overijssel,VBO,6.295487,52.251090
Prins Mauritslaan,5,,,7437VC,Bathmen,Deventer,Overijssel,VBO,6.296149,52.251116
Prins Mauritslaan,6,,,7437VC,Bathmen,Deventer,Overijssel,VBO,6.295480,52.251036
Prins Mauritslaan,7,,,7437VC,Bathmen,Deventer,Overijssel,VBO,6.296148,52.251062
Prins Mauritslaan,8,,,7437VC,Bathmen,Deventer,Overijssel,VBO,6.295484,52.250982
Prins Mauritslaan,9,,,7437VC,Bathmen,Deventer,Overijssel,VBO,6.296161,52.250999
Prins Mauritslaan,10,,,7437VC,Bathmen,Deventer,Overijssel,VBO,6.295475,52.250924
Prins Mauritslaan,11,,,7437VC,Bathmen,Deventer,Overijssel,VBO,6.296144,52.250891
Prins Mauritslaan,12,,,7437VC,Bathmen,Deventer,Overijssel,VBO,6.295481,52.250868
Prins Mauritslaan,13,,,7437VC,Bathmen,Deventer,Overijssel,VBO,6.296143,52.250837
Prins Mauritslaan,14,,,7437VC,Bathmen,Deventer,Overijssel,VBO,6.295746,52.250660
Prins Mauritslaan,15,,,7437VC,Bathmen,Deventer,Overijssel,VBO,6.296127,52.250784
Prins Mauritslaan,17,,,7437VC,Bathmen,Deventer,Overijssel,VBO,6.296126,52.250721
Prins Mauritslaan,19,,,7437VC,Bathmen,Deventer,Overijssel,VBO,6.296125,52.250676
Prinses Margrietlaan,1,,,7437VD,Bathmen,Deventer,Overijssel,VBO,6.294934,52.250710
Prinses Margrietlaan,2,,,7437VD,Bathmen,Deventer,Overijssel,VBO,6.297013,52.250424
Prinses Margrietlaan,3,,,7437VD,Bathmen,Deventer,Overijssel,VBO,6.295099,52.250694
Prinses Margrietlaan,4,,,7437VD,Bathmen,Deventer,Overijssel,VBO,6.297105,52.250420
Prinses Margrietlaan,5,,,7437VD,Bathmen,Deventer,Overijssel,VBO,6.295212,52.250692
Prinses Margrietlaan,6,,,7437VD,Bathmen,Deventer,Overijssel,VBO,6.297380,52.250348
Prinses Margrietlaan,7,,,7437VD,Bathmen,Deventer,Overijssel,VBO,6.295373,52.250688
Prinses Margrietlaan,8,,,7437VD,Bathmen,Deventer,Overijssel,VBO,6.297682,52.250341
Prinses Margrietlaan,9,,,7437VD,Bathmen,Deventer,Overijssel,VBO,6.295472,52.250678
Prinses Margrietlaan,10,,,7437VD,Bathmen,Deventer,Overijssel,VBO,6.297764,52.250345
Prinses Margrietlaan,11,,,7437VD,Bathmen,Deventer,Overijssel,VBO,6.295649,52.250663
Prinses Margrietlaan,12,,,7437VD,Bathmen,Deventer,Overijssel,VBO,6.298053,52.250409
Prinses Margrietlaan,14,,,7437VD,Bathmen,Deventer,Overijssel,VBO,6.298967,52.249971
Prinses Margrietlaan,15,,,7437VD,Bathmen,Deventer,Overijssel,VBO,6.298058,52.250670
Prinses Margrietlaan,16,T,,7437VD,Bathmen,Deventer,Overijssel,VBO,6.300028,52.250295
Prinses Margrietlaan,18,,,7437VD,Bathmen,Deventer,Overijssel,VBO,6.301266,52.249270
Prinses Margrietlaan,20,,,7437VD,Bathmen,Deventer,Overijssel,VBO,6.300486,52.250525
Prinses Margrietlaan,22,,,7437VD,Bathmen,Deventer,Overijssel,VBO,6.300528,52.250408
Prins Willem-Alexanderlaan,2,,,7437VE,Bathmen,Deventer,Overijssel,VBO,6.294498,52.251290
Prins Willem-Alexanderlaan,4,,,7437VE,Bathmen,Deventer,Overijssel,VBO,6.294511,52.251236
Prins Willem-Alexanderlaan,6,,,7437VE,Bathmen,Deventer,Overijssel,VBO,6.294495,52.251165
Prins Willem-Alexanderlaan,8,,,7437VE,Bathmen,Deventer,Overijssel,VBO,6.294449,52.251057
Prins Willem-Alexanderlaan,10,,,7437VE,Bathmen,Deventer,Overijssel,VBO,6.294462,52.251003
Prins Willem-Alexanderlaan,12,,,7437VE,Bathmen,Deventer,Overijssel,VBO,6.294476,52.250949
Prins Willem-Alexanderlaan,14,,,7437VE,Bathmen,Deventer,Overijssel,VBO,6.294459,52.250823
Prins Willem-Alexanderlaan,16,,,7437VE,Bathmen,Deventer,Overijssel,VBO,6.294472,52.250769
Prins Willem-Alexanderlaan,18,,,7437VE,Bathmen,Deventer,Overijssel,VBO,6.294456,52.250698
Prins Willem-Alexanderlaan,20,,,7437VE,Bathmen,Deventer,Overijssel,VBO,6.294393,52.250455
Prins Willem-Alexanderlaan,22,,,7437VE,Bathmen,Deventer,Overijssel,VBO,6.294405,52.250365
Prins Willem-Alexanderlaan,24,,,7437VE,Bathmen,Deventer,Overijssel,VBO,6.294403,52.250267
Prins Willem-Alexanderlaan,1,,,7437VG,Bathmen,Deventer,Overijssel,VBO,6.294877,52.251259
Prins Willem-Alexanderlaan,3,,,7437VG,Bathmen,Deventer,Overijssel,VBO,6.295090,52.251121
Prins Willem-Alexanderlaan,5,,,7437VG,Bathmen,Deventer,Overijssel,VBO,6.295093,52.251052
Prins Willem-Alexanderlaan,7,,,7437VG,Bathmen,Deventer,Overijssel,VBO,6.295087,52.250978
Prins Willem-Alexanderlaan,9,,,7437VG,Bathmen,Deventer,Overijssel,VBO,6.295102,52.250931
Prins Willem-Alexanderlaan,11,,,7437VG,Bathmen,Deventer,Overijssel,VBO,6.295085,52.250880
Prins Willem-Alexanderlaan,13,,,7437VG,Bathmen,Deventer,Overijssel,VBO,6.294850,52.250737
Prins Willem-Alexanderlaan,17,,,7437VG,Bathmen,Deventer,Overijssel,VBO,6.294875,52.250425
Prins Willem-Alexanderlaan,19,,,7437VG,Bathmen,Deventer,Overijssel,VBO,6.294859,52.250362
Prins Willem-Alexanderlaan,21,,,7437VG,Bathmen,Deventer,Overijssel,VBO,6.294857,52.250263
Hogeweg,1,A,,7437VH,Bathmen,Deventer,Overijssel,VBO,6.294838,52.251570
Hogeweg,1,,,7437VH,Bathmen,Deventer,Overijssel,VBO,6.294738,52.251567
Hogeweg,2,,,7437VH,Bathmen,Deventer,Overijssel,VBO,6.293532,52.251325
Hogeweg,3,,,7437VH,Bathmen,Deventer,Overijssel,VBO,6.295133,52.251573
Hogeweg,4,,,7437VH,Bathmen,Deventer,Overijssel,VBO,6.294995,52.251269
Hogeweg,5,,,7437VH,Bathmen,Deventer,Overijssel,VBO,6.295455,52.251544
Hogeweg,6,,,7437VH,Bathmen,Deventer,Overijssel,VBO,6.295161,52.251301
Hogeweg,7,,,7437VH,Bathmen,Deventer,Overijssel,VBO,6.295746,52.251532
Hogeweg,8,,,7437VH,Bathmen,Deventer,Overijssel,VBO,6.295260,52.251304
Hogeweg,9,,,7437VH,Bathmen,Deventer,Overijssel,VBO,6.296144,52.251592
Hogeweg,10,,,7437VH,Bathmen,Deventer,Overijssel,VBO,6.295430,52.251281
Hogeweg,11,,,7437VH,Bathmen,Deventer,Overijssel,VBO,6.296538,52.251544
Hogeweg,12,,,7437VH,Bathmen,Deventer,Overijssel,VBO,6.295515,52.251278
Hogeweg,13,A,,7437VH,Bathmen,Deventer,Overijssel,VBO,6.297035,52.251487
Hogeweg,13,,,7437VH,Bathmen,Deventer,Overijssel,VBO,6.296772,52.251516
Hogeweg,14,,,7437VH,Bathmen,Deventer,Overijssel,VBO,6.295682,52.251268
Hogeweg,15,,,7437VH,Bathmen,Deventer,Overijssel,VBO,6.297284,52.251476
Hogeweg,17,,,7437VH,Bathmen,Deventer,Overijssel,VBO,6.297591,52.251464
Hogeweg,20,,,7437VH,Bathmen,Deventer,Overijssel,VBO,6.301712,52.251404
Hogeweg,21,,,7437VH,Bathmen,Deventer,Overijssel,VBO,6.298533,52.251409
Hogeweg,22,,,7437VH,Bathmen,Deventer,Overijssel,VBO,6.302410,52.251554
Hogeweg,24,T,,7437VH,Bathmen,Deventer,Overijssel,VBO,6.302808,52.251391
Hogeweg,24,,,7437VH,Bathmen,Deventer,Overijssel,VBO,6.303144,52.251387
Abdisseplein,1,,,7437VJ,Bathmen,Deventer,Overijssel,VBO,6.281482,52.251462
Abdisseplein,3,,,7437VJ,Bathmen,Deventer,Overijssel,VBO,6.281394,52.251462
Abdisseplein,5,,,7437VJ,Bathmen,Deventer,Overijssel,VBO,6.281277,52.251463
Abdisseplein,7,,,7437VJ,Bathmen,Deventer,Overijssel,VBO,6.281203,52.251464
Abdisseplein,9,,,7437VJ,Bathmen,Deventer,Overijssel,VBO,6.281057,52.251447
Abdisseplein,11,,,7437VJ,Bathmen,Deventer,Overijssel,VBO,6.281164,52.251662
Abdisseplein,13,,,7437VJ,Bathmen,Deventer,Overijssel,VBO,6.281180,52.251743
Abdisseplein,15,,,7437VJ,Bathmen,Deventer,Overijssel,VBO,6.281166,52.251797
Abdisseplein,17,,,7437VJ,Bathmen,Deventer,Overijssel,VBO,6.281167,52.251859
Abdisseplein,19,,,7437VJ,Bathmen,Deventer,Overijssel,VBO,6.281184,52.251922
Anna van Lintelolaan,2,,,7437VK,Bathmen,Deventer,Overijssel,VBO,6.280259,52.251830
Anna van Lintelolaan,4,,,7437VK,Bathmen,Deventer,Overijssel,VBO,6.280347,52.251857
Anna van Lintelolaan,6,,,7437VK,Bathmen,Deventer,Overijssel,VBO,6.280450,52.251847
Anna van Lintelolaan,8,,,7437VK,Bathmen,Deventer,Overijssel,VBO,6.280567,52.251855
Anna van Lintelolaan,10,,,7437VK,Bathmen,Deventer,Overijssel,VBO,6.280626,52.251864
Anna van Lintelolaan,12,,,7437VK,Bathmen,Deventer,Overijssel,VBO,6.280728,52.251854
Anna van Lintelolaan,14,,,7437VK,Bathmen,Deventer,Overijssel,VBO,6.281594,52.251955
Anna van Lintelolaan,16,,,7437VK,Bathmen,Deventer,Overijssel,VBO,6.281682,52.251963
Anna van Lintelolaan,18,,,7437VK,Bathmen,Deventer,Overijssel,VBO,6.281799,52.251972
Anna van Lintelolaan,20,,,7437VK,Bathmen,Deventer,Overijssel,VBO,6.281873,52.251971
Anna van Lintelolaan,22,,,7437VK,Bathmen,Deventer,Overijssel,VBO,6.281975,52.251979
Anna van Lintelolaan,24,,,7437VK,Bathmen,Deventer,Overijssel,VBO,6.283705,52.251324
Ter Hunnepeplein,1,,,7437VL,Bathmen,Deventer,Overijssel,VBO,6.280189,52.251390
Ter Hunnepeplein,2,,,7437VL,Bathmen,Deventer,Overijssel,VBO,6.280597,52.251357
Ter Hunnepeplein,3,,,7437VL,Bathmen,Deventer,Overijssel,VBO,6.280089,52.251382
Ter Hunnepeplein,4,,,7437VL,Bathmen,Deventer,Overijssel,VBO,6.280591,52.251419
Ter Hunnepeplein,5,,,7437VL,Bathmen,Deventer,Overijssel,VBO,6.280001,52.251383
Ter Hunnepeplein,6,,,7437VL,Bathmen,Deventer,Overijssel,VBO,6.280589,52.251477
Ter Hunnepeplein,7,,,7437VL,Bathmen,Deventer,Overijssel,VBO,6.279909,52.251379
Ter Hunnepeplein,8,,,7437VL,Bathmen,Deventer,Overijssel,VBO,6.280586,52.251531
Ter Hunnepeplein,9,,,7437VL,Bathmen,Deventer,Overijssel,VBO,6.279810,52.251378
Ter Hunnepeplein,10,T,,7437VL,Bathmen,Deventer,Overijssel,VBO,6.280842,52.251700
Ter Hunnepeplein,10,,,7437VL,Bathmen,Deventer,Overijssel,VBO,6.280587,52.251593
Ter Hunnepeplein,11,,,7437VL,Bathmen,Deventer,Overijssel,VBO,6.279845,52.251618
Ter Hunnepeplein,13,,,7437VL,Bathmen,Deventer,Overijssel,VBO,6.279890,52.251689
Ter Hunnepeplein,15,,,7437VL,Bathmen,Deventer,Overijssel,VBO,6.279877,52.251752
Ter Hunnepeplein,17,,,7437VL,Bathmen,Deventer,Overijssel,VBO,6.279863,52.251806
Ter Hunnepeplein,19,,,7437VL,Bathmen,Deventer,Overijssel,VBO,6.279864,52.251860
Ter Hunnepeplein,21,,,7437VL,Bathmen,Deventer,Overijssel,VBO,6.279821,52.251915
Arkelsteinlaan,20,,,7437VM,Bathmen,Deventer,Overijssel,VBO,6.281769,52.251163
Arkelsteinlaan,22,,,7437VM,Bathmen,Deventer,Overijssel,VBO,6.281915,52.251171
Arkelsteinlaan,24,A,,7437VM,Bathmen,Deventer,Overijssel,VBO,6.282193,52.251142
Arkelsteinlaan,24,,,7437VM,Bathmen,Deventer,Overijssel,VBO,6.282032,52.251170
Arkelsteinlaan,26,A,,7437VM,Bathmen,Deventer,Overijssel,VBO,6.282488,52.251256
Arkelsteinlaan,26,,,7437VM,Bathmen,Deventer,Overijssel,VBO,6.282429,52.251212
Arkelsteinlaan,28,,,7437VM,Bathmen,Deventer,Overijssel,VBO,6.282403,52.251410
Arkelsteinlaan,30,,,7437VM,Bathmen,Deventer,Overijssel,VBO,6.282405,52.251473
Arkelsteinlaan,32,,,7437VM,Bathmen,Deventer,Overijssel,VBO,6.282405,52.251518
Arkelsteinlaan,34,,,7437VM,Bathmen,Deventer,Overijssel,VBO,6.282407,52.251571
Arkelsteinlaan,36,,,7437VM,Bathmen,Deventer,Overijssel,VBO,6.282393,52.251634
Arkelsteinlaan,38,,,7437VM,Bathmen,Deventer,Overijssel,VBO,6.282381,52.251742
Arkelsteinlaan,40,,,7437VM,Bathmen,Deventer,Overijssel,VBO,6.282382,52.251805
Arkelsteinlaan,42,,,7437VM,Bathmen,Deventer,Overijssel,VBO,6.282383,52.251850
Arkelsteinlaan,44,,,7437VM,Bathmen,Deventer,Overijssel,VBO,6.282384,52.251913
Arkelsteinlaan,46,,,7437VM,Bathmen,Deventer,Overijssel,VBO,6.282385,52.251976
Arkelsteinlaan,48,,,7437VM,Bathmen,Deventer,Overijssel,VBO,6.282357,52.252030
Arkelsteinlaan,1,,,7437VN,Bathmen,Deventer,Overijssel,VBO,6.281964,52.251404
Arkelsteinlaan,2,A,,7437VN,Bathmen,Deventer,Overijssel,VBO,6.280404,52.250905
Arkelsteinlaan,2,,,7437VN,Bathmen,Deventer,Overijssel,VBO,6.280273,52.251084
Arkelsteinlaan,3,,,7437VN,Bathmen,Deventer,Overijssel,VBO,6.281980,52.251467
Arkelsteinlaan,4,,,7437VN,Bathmen,Deventer,Overijssel,VBO,6.280358,52.251094
Arkelsteinlaan,5,,,7437VN,Bathmen,Deventer,Overijssel,VBO,6.281966,52.251512
Arkelsteinlaan,6,,,7437VN,Bathmen,Deventer,Overijssel,VBO,6.280552,52.251091
Arkelsteinlaan,7,,,7437VN,Bathmen,Deventer,Overijssel,VBO,6.281967,52.251575
Arkelsteinlaan,8,,,7437VN,Bathmen,Deventer,Overijssel,VBO,6.280654,52.251099
Arkelsteinlaan,9,,,7437VN,Bathmen,Deventer,Overijssel,VBO,6.281968,52.251638
Arkelsteinlaan,10,,,7437VN,Bathmen,Deventer,Overijssel,VBO,6.280815,52.251098
Arkelsteinlaan,11,,,7437VN,Bathmen,Deventer,Overijssel,VBO,6.281955,52.251692
Arkelsteinlaan,12,,,7437VN,Bathmen,Deventer,Overijssel,VBO,6.280904,52.251124
Arkelsteinlaan,14,,,7437VN,Bathmen,Deventer,Overijssel,VBO,6.281094,52.251123
Arkelsteinlaan,16,,,7437VN,Bathmen,Deventer,Overijssel,VBO,6.281182,52.251140
Arkelsteinlaan,18,,,7437VN,Bathmen,Deventer,Overijssel,VBO,6.281677,52.251159
Noorderenk,38,,,7437VP,Bathmen,Deventer,Overijssel,VBO,6.278831,52.251455
Noorderenk,40,,,7437VP,Bathmen,Deventer,Overijssel,VBO,6.278817,52.251518
Noorderenk,42,,,7437VP,Bathmen,Deventer,Overijssel,VBO,6.278818,52.251572
Noorderenk,44,,,7437VP,Bathmen,Deventer,Overijssel,VBO,6.278256,52.251288
Noorderenk,46,,,7437VP,Bathmen,Deventer,Overijssel,VBO,6.278199,52.251352
Noorderenk,48,,,7437VP,Bathmen,Deventer,Overijssel,VBO,6.278156,52.251415
Noorderenk,50,,,7437VP,Bathmen,Deventer,Overijssel,VBO,6.278084,52.251460
Noorderenk,52,,,7437VP,Bathmen,Deventer,Overijssel,VBO,6.278000,52.251632
Noorderenk,54,,,7437VP,Bathmen,Deventer,Overijssel,VBO,6.277972,52.251704
Noorderenk,56,,,7437VP,Bathmen,Deventer,Overijssel,VBO,6.277914,52.251758
Noorderenk,58,,,7437VP,Bathmen,Deventer,Overijssel,VBO,6.277886,52.251794
Noorderenk,60,,,7437VP,Bathmen,Deventer,Overijssel,VBO,6.277828,52.251849
Noorderenk,62,,,7437VP,Bathmen,Deventer,Overijssel,VBO,6.277770,52.251876
Noorderenk,64,,,7437VP,Bathmen,Deventer,Overijssel,VBO,6.276871,52.251679
Noorderenk,66,,,7437VP,Bathmen,Deventer,Overijssel,VBO,6.276961,52.251694
Noorderenk,68,,,7437VP,Bathmen,Deventer,Overijssel,VBO,6.277064,52.251738
Noorderenk,70,,,7437VP,Bathmen,Deventer,Overijssel,VBO,6.277109,52.251764
Noorderenk,72,,,7437VP,Bathmen,Deventer,Overijssel,VBO,6.277201,52.251793
Noorderenk,2,,,7437VR,Bathmen,Deventer,Overijssel,VBO,6.278216,52.250722
Noorderenk,4,,,7437VR,Bathmen,Deventer,Overijssel,VBO,6.278158,52.250786
Noorderenk,6,,,7437VR,Bathmen,Deventer,Overijssel,VBO,6.278130,52.250840
Noorderenk,8,,,7437VR,Bathmen,Deventer,Overijssel,VBO,6.278058,52.250885
Noorderenk,10,,,7437VR,Bathmen,Deventer,Overijssel,VBO,6.278030,52.250939
Noorderenk,12,,,7437VR,Bathmen,Deventer,Overijssel,VBO,6.277957,52.250985
Noorderenk,14,,,7437VR,Bathmen,Deventer,Overijssel,VBO,6.278414,52.251125
Noorderenk,16,,,7437VR,Bathmen,Deventer,Overijssel,VBO,6.278443,52.251089
Noorderenk,18,,,7437VR,Bathmen,Deventer,Overijssel,VBO,6.278500,52.251026
Noorderenk,20,,,7437VR,Bathmen,Deventer,Overijssel,VBO,6.278558,52.250980
Noorderenk,22,,,7437VR,Bathmen,Deventer,Overijssel,VBO,6.278586,52.250917
Noorderenk,24,,,7437VR,Bathmen,Deventer,Overijssel,VBO,6.278629,52.250872
Noorderenk,26,,,7437VR,Bathmen,Deventer,Overijssel,VBO,6.279056,52.251004
Noorderenk,28,,,7437VR,Bathmen,Deventer,Overijssel,VBO,6.279173,52.251003
Noorderenk,30,,,7437VR,Bathmen,Deventer,Overijssel,VBO,6.279261,52.251011
Noorderenk,32,,,7437VR,Bathmen,Deventer,Overijssel,VBO,6.279349,52.251010
Noorderenk,34,,,7437VR,Bathmen,Deventer,Overijssel,VBO,6.278828,52.251320
Noorderenk,36,,,7437VR,Bathmen,Deventer,Overijssel,VBO,6.278830,52.251392
Noorderenk,61,,,7437VS,Bathmen,Deventer,Overijssel,VBO,6.276630,52.251229
Noorderenk,63,,,7437VS,Bathmen,Deventer,Overijssel,VBO,6.276532,52.251481
Noorderenk,65,,,7437VS,Bathmen,Deventer,Overijssel,VBO,6.276475,52.251535
Noorderenk,67,,,7437VS,Bathmen,Deventer,Overijssel,VBO,6.276446,52.251581
Noorderenk,69,,,7437VS,Bathmen,Deventer,Overijssel,VBO,6.276418,52.251644
Noorderenk,71,,,7437VS,Bathmen,Deventer,Overijssel,VBO,6.276331,52.251698
Noorderenk,73,,,7437VS,Bathmen,Deventer,Overijssel,VBO,6.276288,52.251744
Noorderenk,75,,,7437VS,Bathmen,Deventer,Overijssel,VBO,6.278588,52.251744
Noorderenk,77,,,7437VS,Bathmen,Deventer,Overijssel,VBO,6.278603,52.251798
Noorderenk,79,,,7437VS,Bathmen,Deventer,Overijssel,VBO,6.278575,52.251861
Noorderenk,81,,,7437VS,Bathmen,Deventer,Overijssel,VBO,6.278562,52.251906
Noorderenk,83,,,7437VS,Bathmen,Deventer,Overijssel,VBO,6.278986,52.251894
Noorderenk,85,,,7437VS,Bathmen,Deventer,Overijssel,VBO,6.279089,52.251902
Noorderenk,87,,,7437VS,Bathmen,Deventer,Overijssel,VBO,6.279177,52.251901
Noorderenk,89,,,7437VS,Bathmen,Deventer,Overijssel,VBO,6.279279,52.251901
Noorderenk,91,,,7437VS,Bathmen,Deventer,Overijssel,VBO,6.279352,52.251900
Noorderenk,31,,,7437VT,Bathmen,Deventer,Overijssel,VBO,6.277594,52.251140
Noorderenk,33,,,7437VT,Bathmen,Deventer,Overijssel,VBO,6.277683,52.251167
Noorderenk,35,,,7437VT,Bathmen,Deventer,Overijssel,VBO,6.277756,52.251184
Noorderenk,37,,,7437VT,Bathmen,Deventer,Overijssel,VBO,6.277845,52.251201
Noorderenk,39,,,7437VT,Bathmen,Deventer,Overijssel,VBO,6.277557,52.251446
Noorderenk,41,,,7437VT,Bathmen,Deventer,Overijssel,VBO,6.277528,52.251500
Noorderenk,43,,,7437VT,Bathmen,Deventer,Overijssel,VBO,6.277486,52.251564
Noorderenk,45,,,7437VT,Bathmen,Deventer,Overijssel,VBO,6.277428,52.251600
Noorderenk,47,,,7437VT,Bathmen,Deventer,Overijssel,VBO,6.277205,52.251440
Noorderenk,49,,,7437VT,Bathmen,Deventer,Overijssel,VBO,6.277131,52.251423
Noorderenk,51,,,7437VT,Bathmen,Deventer,Overijssel,VBO,6.277043,52.251387
Noorderenk,53,,,7437VT,Bathmen,Deventer,Overijssel,VBO,6.276955,52.251370
Noorderenk,55,,,7437VT,Bathmen,Deventer,Overijssel,VBO,6.276881,52.251344
Noorderenk,57,,,7437VT,Bathmen,Deventer,Overijssel,VBO,6.276792,52.251308
Noorderenk,59,,,7437VT,Bathmen,Deventer,Overijssel,VBO,6.276718,52.251282
Noorderenk,1,,,7437VV,Bathmen,Deventer,Overijssel,VBO,6.277762,52.250735
Noorderenk,3,,,7437VV,Bathmen,Deventer,Overijssel,VBO,6.277673,52.250699
Noorderenk,5,,,7437VV,Bathmen,Deventer,Overijssel,VBO,6.277585,52.250673
Noorderenk,7,,,7437VV,Bathmen,Deventer,Overijssel,VBO,6.277526,52.250656
Noorderenk,9,,,7437VV,Bathmen,Deventer,Overijssel,VBO,6.277438,52.250629
Noorderenk,11,,,7437VV,Bathmen,Deventer,Overijssel,VBO,6.277349,52.250594
Noorderenk,13,,,7437VV,Bathmen,Deventer,Overijssel,VBO,6.277246,52.250559
Noorderenk,15,,,7437VV,Bathmen,Deventer,Overijssel,VBO,6.277148,52.250811
Noorderenk,17,,,7437VV,Bathmen,Deventer,Overijssel,VBO,6.277120,52.250874
Noorderenk,19,,,7437VV,Bathmen,Deventer,Overijssel,VBO,6.277048,52.250920
Noorderenk,21,,,7437VV,Bathmen,Deventer,Overijssel,VBO,6.277005,52.250965
Noorderenk,23,,,7437VV,Bathmen,Deventer,Overijssel,VBO,6.276962,52.251001
Noorderenk,25,T,,7437VV,Bathmen,Deventer,Overijssel,VBO,6.277157,52.251234
Noorderenk,25,,,7437VV,Bathmen,Deventer,Overijssel,VBO,6.276934,52.251056
Noorderenk,27,,,7437VV,Bathmen,Deventer,Overijssel,VBO,6.277417,52.251061
Noorderenk,29,,,7437VV,Bathmen,Deventer,Overijssel,VBO,6.277535,52.251096
Peter Mulderstraat,1,,,7437VW,Bathmen,Deventer,Overijssel,VBO,6.278284,52.250461
Peter Mulderstraat,3,,,7437VW,Bathmen,Deventer,Overijssel,VBO,6.278167,52.250462
Peter Mulderstraat,5,,,7437VW,Bathmen,Deventer,Overijssel,VBO,6.278079,52.250454
Peter Mulderstraat,7,,,7437VW,Bathmen,Deventer,Overijssel,VBO,6.277991,52.250454
Peter Mulderstraat,9,,,7437VW,Bathmen,Deventer,Overijssel,VBO,6.277756,52.250438
Peter Mulderstraat,11,,,7437VW,Bathmen,Deventer,Overijssel,VBO,6.277668,52.250412
Peter Mulderstraat,13,,,7437VW,Bathmen,Deventer,Overijssel,VBO,6.277579,52.250395
Peter Mulderstraat,15,,,7437VW,Bathmen,Deventer,Overijssel,VBO,6.277506,52.250368
Peter Mulderstraat,17,,,7437VW,Bathmen,Deventer,Overijssel,VBO,6.277432,52.250324
Seino van Dorthlaan,2,,,7437VX,Bathmen,Deventer,Overijssel,VBO,6.278737,52.250440
Seino van Dorthlaan,4,,,7437VX,Bathmen,Deventer,Overijssel,VBO,6.278724,52.250494
Seino van Dorthlaan,6,,,7437VX,Bathmen,Deventer,Overijssel,VBO,6.279032,52.250554
Seino van Dorthlaan,8,,,7437VX,Bathmen,Deventer,Overijssel,VBO,6.279135,52.250581
Seino van Dorthlaan,10,,,7437VX,Bathmen,Deventer,Overijssel,VBO,6.279282,52.250606
Seino van Dorthlaan,12,,,7437VX,Bathmen,Deventer,Overijssel,VBO,6.279400,52.250623
Seino van Dorthlaan,14,,,7437VX,Bathmen,Deventer,Overijssel,VBO,6.279547,52.250658
Seino van Dorthlaan,16,,,7437VX,Bathmen,Deventer,Overijssel,VBO,6.279650,52.250693
Seino van Dorthlaan,18,,,7437VX,Bathmen,Deventer,Overijssel,VBO,6.279859,52.250854
Seino van Dorthlaan,20,,,7437VX,Bathmen,Deventer,Overijssel,VBO,6.279860,52.250917
Seino van Dorthlaan,22,,,7437VX,Bathmen,Deventer,Overijssel,VBO,6.279847,52.251016
Seino van Dorthlaan,24,,,7437VX,Bathmen,Deventer,Overijssel,VBO,6.279834,52.251097
Seino van Dorthlaan,1,,,7437VZ,Bathmen,Deventer,Overijssel,VBO,6.278306,52.250110
Seino van Dorthlaan,3,,,7437VZ,Bathmen,Deventer,Overijssel,VBO,6.278307,52.250164
Seino van Dorthlaan,5,,,7437VZ,Bathmen,Deventer,Overijssel,VBO,6.278293,52.250218
Seino van Dorthlaan,7,,,7437VZ,Bathmen,Deventer,Overijssel,VBO,6.278295,52.250281
Seino van Dorthlaan,9,,,7437VZ,Bathmen,Deventer,Overijssel,VBO,6.279295,52.251235
Seino van Dorthlaan,11,,,7437VZ,Bathmen,Deventer,Overijssel,VBO,6.279282,52.251298
Seino van Dorthlaan,13,,,7437VZ,Bathmen,Deventer,Overijssel,VBO,6.279283,52.251361
Seino van Dorthlaan,15,,,7437VZ,Bathmen,Deventer,Overijssel,VBO,6.279270,52.251424
Seino van Dorthlaan,17,,,7437VZ,Bathmen,Deventer,Overijssel,VBO,6.279256,52.251478
Seino van Dorthlaan,19,,,7437VZ,Bathmen,Deventer,Overijssel,VBO,6.279243,52.251541
Seino van Dorthlaan,21,,,7437VZ,Bathmen,Deventer,Overijssel,VBO,6.279258,52.251595
Bergakker,1,,,7437WB,Bathmen,Deventer,Overijssel,VBO,6.275987,52.250604
Bergakker,2,,,7437WB,Bathmen,Deventer,Overijssel,VBO,6.276273,52.250261
Bergakker,3,,,7437WB,Bathmen,Deventer,Overijssel,VBO,6.275799,52.250714
Bergakker,4,,,7437WB,Bathmen,Deventer,Overijssel,VBO,6.276421,52.250322
Bergakker,5,,,7437WB,Bathmen,Deventer,Overijssel,VBO,6.275728,52.250887
Bergakker,6,,,7437WB,Bathmen,Deventer,Overijssel,VBO,6.276524,52.250358
Bergakker,7,,,7437WB,Bathmen,Deventer,Overijssel,VBO,6.275542,52.251030
Bergakker,8,,,7437WB,Bathmen,Deventer,Overijssel,VBO,6.276686,52.250410
Bergakker,9,,,7437WB,Bathmen,Deventer,Overijssel,VBO,6.275398,52.251184
Bergakker,10,,,7437WB,Bathmen,Deventer,Overijssel,VBO,6.276746,52.250446
Bergakker,12,,,7437WB,Bathmen,Deventer,Overijssel,VBO,6.276908,52.250498
Bergakker,14,,,7437WB,Bathmen,Deventer,Overijssel,VBO,6.277011,52.250525
Bergakker,16,,,7437WB,Bathmen,Deventer,Overijssel,VBO,6.276621,52.250661
Bergakker,18,,,7437WB,Bathmen,Deventer,Overijssel,VBO,6.276575,52.250717
Bergakker,20,,,7437WB,Bathmen,Deventer,Overijssel,VBO,6.276446,52.250861
Bergakker,22,,,7437WB,Bathmen,Deventer,Overijssel,VBO,6.276404,52.250916
Bergakker,24,,,7437WB,Bathmen,Deventer,Overijssel,VBO,6.276232,52.251124
Bergakker,26,,,7437WB,Bathmen,Deventer,Overijssel,VBO,6.276321,52.251159
Bergakker,28,,,7437WB,Bathmen,Deventer,Overijssel,VBO,6.276002,52.251359
Bergakker,30,,,7437WB,Bathmen,Deventer,Overijssel,VBO,6.275755,52.251442
Bergakker,32,,,7437WB,Bathmen,Deventer,Overijssel,VBO,6.275419,52.251489
Bergakker,34,,,7437WB,Bathmen,Deventer,Overijssel,VBO,6.275210,52.251469
Koningin Emmalaan,2,,,7437XA,Bathmen,Deventer,Overijssel,VBO,6.295054,52.248401
Koningin Emmalaan,4,,,7437XA,Bathmen,Deventer,Overijssel,VBO,6.295071,52.248545
Koningin Emmalaan,6,,,7437XA,Bathmen,Deventer,Overijssel,VBO,6.295055,52.248674
Koningin Emmalaan,8,,,7437XA,Bathmen,Deventer,Overijssel,VBO,6.294750,52.248601
Koningin Emmalaan,10,,,7437XA,Bathmen,Deventer,Overijssel,VBO,6.294604,52.248602
Koningin Emmalaan,12,,,7437XA,Bathmen,Deventer,Overijssel,VBO,6.294443,52.248612
Koningin Emmalaan,14,,,7437XA,Bathmen,Deventer,Overijssel,VBO,6.294355,52.248615
Prins Hendriklaan,1,,,7437XB,Bathmen,Deventer,Overijssel,VBO,6.297478,52.249488
Prins Hendriklaan,2,,,7437XB,Bathmen,Deventer,Overijssel,VBO,6.297456,52.249173
Prins Hendriklaan,3,,,7437XB,Bathmen,Deventer,Overijssel,VBO,6.297580,52.249478
Prins Hendriklaan,4,,,7437XB,Bathmen,Deventer,Overijssel,VBO,6.297559,52.249191
Prins Hendriklaan,5,,,7437XB,Bathmen,Deventer,Overijssel,VBO,6.297682,52.249468
Prins Hendriklaan,6,,,7437XB,Bathmen,Deventer,Overijssel,VBO,6.297661,52.249172
Prins Hendriklaan,7,,,7437XB,Bathmen,Deventer,Overijssel,VBO,6.297755,52.249459
Prins Hendriklaan,8,,,7437XB,Bathmen,Deventer,Overijssel,VBO,6.297734,52.249162
Prins Hendriklaan,9,,,7437XB,Bathmen,Deventer,Overijssel,VBO,6.297915,52.249413
Prins Hendriklaan,10,,,7437XB,Bathmen,Deventer,Overijssel,VBO,6.297906,52.249143
Prins Hendriklaan,11,,,7437XB,Bathmen,Deventer,Overijssel,VBO,6.298003,52.249403
Prins Hendriklaan,12,,,7437XB,Bathmen,Deventer,Overijssel,VBO,6.297989,52.249143
Prins Hendriklaan,13,,,7437XB,Bathmen,Deventer,Overijssel,VBO,6.298120,52.249393
Prins Hendriklaan,14,,,7437XB,Bathmen,Deventer,Overijssel,VBO,6.298086,52.249141
Prins Hendriklaan,15,,,7437XB,Bathmen,Deventer,Overijssel,VBO,6.298193,52.249401
Prins Hendriklaan,16,,,7437XB,Bathmen,Deventer,Overijssel,VBO,6.298176,52.249138
Rietakker,2,,,7437XC,Bathmen,Deventer,Overijssel,VBO,6.293323,52.248393
Rietakker,4,,,7437XC,Bathmen,Deventer,Overijssel,VBO,6.293350,52.248343
Rietakker,6,,,7437XC,Bathmen,Deventer,Overijssel,VBO,6.293365,52.248293
Rietakker,8,,,7437XC,Bathmen,Deventer,Overijssel,VBO,6.293390,52.248244
Rietakker,10,,,7437XC,Bathmen,Deventer,Overijssel,VBO,6.293395,52.248198
Rietakker,12,,,7437XC,Bathmen,Deventer,Overijssel,VBO,6.293476,52.248126
Rietakker,14,,,7437XC,Bathmen,Deventer,Overijssel,VBO,6.293500,52.248074
Rietakker,16,,,7437XC,Bathmen,Deventer,Overijssel,VBO,6.293519,52.248017
Rietakker,18,,,7437XC,Bathmen,Deventer,Overijssel,VBO,6.293536,52.247954
Rietakker,20,,,7437XC,Bathmen,Deventer,Overijssel,VBO,6.294615,52.247631
Rietakker,22,,,7437XC,Bathmen,Deventer,Overijssel,VBO,6.294713,52.247627
Rietakker,24,,,7437XC,Bathmen,Deventer,Overijssel,VBO,6.294914,52.247623
Rietakker,26,,,7437XC,Bathmen,Deventer,Overijssel,VBO,6.295003,52.247617
Rietakker,28,,,7437XC,Bathmen,Deventer,Overijssel,VBO,6.295207,52.247609
Rietakker,30,,,7437XC,Bathmen,Deventer,Overijssel,VBO,6.295305,52.247608
Rietakker,32,,,7437XC,Bathmen,Deventer,Overijssel,VBO,6.295473,52.247409
Rietakker,34,,,7437XC,Bathmen,Deventer,Overijssel,VBO,6.295707,52.247407
Rietakker,36,,,7437XC,Bathmen,Deventer,Overijssel,VBO,6.295957,52.247468
Rietakker,38,,,7437XC,Bathmen,Deventer,Overijssel,VBO,6.296092,52.247629
Rietakker,40,,,7437XC,Bathmen,Deventer,Overijssel,VBO,6.296022,52.247773
Rietakker,42,,,7437XC,Bathmen,Deventer,Overijssel,VBO,6.296040,52.247926
Rietakker,1,,,7437XD,Bathmen,Deventer,Overijssel,VBO,6.293792,52.248312
Rietakker,3,,,7437XD,Bathmen,Deventer,Overijssel,VBO,6.293813,52.248262
Rietakker,5,,,7437XD,Bathmen,Deventer,Overijssel,VBO,6.293840,52.248217
Rietakker,7,,,7437XD,Bathmen,Deventer,Overijssel,VBO,6.293865,52.248154
Rietakker,9,,,7437XD,Bathmen,Deventer,Overijssel,VBO,6.293876,52.248086
Rietakker,11,,,7437XD,Bathmen,Deventer,Overijssel,VBO,6.293904,52.248050
Rietakker,13,,,7437XD,Bathmen,Deventer,Overijssel,VBO,6.293961,52.247933
Rietakker,15,,,7437XD,Bathmen,Deventer,Overijssel,VBO,6.294034,52.247932
Rietakker,17,,,7437XD,Bathmen,Deventer,Overijssel,VBO,6.294121,52.247905
Rietakker,19,,,7437XD,Bathmen,Deventer,Overijssel,VBO,6.294194,52.247895
Rietakker,21,,,7437XD,Bathmen,Deventer,Overijssel,VBO,6.294369,52.247858
Rietakker,23,,,7437XD,Bathmen,Deventer,Overijssel,VBO,6.294486,52.247857
Rietakker,25,,,7437XD,Bathmen,Deventer,Overijssel,VBO,6.294647,52.247847
Rietakker,27,,,7437XD,Bathmen,Deventer,Overijssel,VBO,6.294749,52.247846
Rietakker,29,,,7437XD,Bathmen,Deventer,Overijssel,VBO,6.294943,52.247837
Rietakker,31,,,7437XD,Bathmen,Deventer,Overijssel,VBO,6.295042,52.247835
Rietakker,33,,,7437XD,Bathmen,Deventer,Overijssel,VBO,6.295218,52.247833
Rietakker,35,,,7437XD,Bathmen,Deventer,Overijssel,VBO,6.295314,52.247828
Rietakker,37,,,7437XD,Bathmen,Deventer,Overijssel,VBO,6.295496,52.247822
Rietakker,39,,,7437XD,Bathmen,Deventer,Overijssel,VBO,6.295613,52.247821
Bisschopsland,1,,,7437XE,Bathmen,Deventer,Overijssel,VBO,6.292823,52.248402
Bisschopsland,2,,,7437XE,Bathmen,Deventer,Overijssel,VBO,6.293295,52.247605
Bisschopsland,3,,,7437XE,Bathmen,Deventer,Overijssel,VBO,6.292844,52.248341
Bisschopsland,4,,,7437XE,Bathmen,Deventer,Overijssel,VBO,6.293411,52.247578
Bisschopsland,5,,,7437XE,Bathmen,Deventer,Overijssel,VBO,6.292830,52.248229
Bisschopsland,6,,,7437XE,Bathmen,Deventer,Overijssel,VBO,6.293629,52.247486
Bisschopsland,7,,,7437XE,Bathmen,Deventer,Overijssel,VBO,6.292858,52.248183
Bisschopsland,8,,,7437XE,Bathmen,Deventer,Overijssel,VBO,6.293731,52.247467
Bisschopsland,9,,,7437XE,Bathmen,Deventer,Overijssel,VBO,6.292914,52.248072
Bisschopsland,10,,,7437XE,Bathmen,Deventer,Overijssel,VBO,6.293860,52.247314
Bisschopsland,11,,,7437XE,Bathmen,Deventer,Overijssel,VBO,6.292942,52.248017
Bisschopsland,12,,,7437XE,Bathmen,Deventer,Overijssel,VBO,6.293902,52.247232
Bisschopsland,13,,,7437XE,Bathmen,Deventer,Overijssel,VBO,6.293007,52.247923
Bisschopsland,14,,,7437XE,Bathmen,Deventer,Overijssel,VBO,6.293945,52.247160
Bisschopsland,15,,,7437XE,Bathmen,Deventer,Overijssel,VBO,6.293034,52.247876
Bisschopsland,16,,,7437XE,Bathmen,Deventer,Overijssel,VBO,6.293942,52.247016
Bisschopsland,17,,,7437XE,Bathmen,Deventer,Overijssel,VBO,6.294297,52.247202
Bisschopsland,19,,,7437XE,Bathmen,Deventer,Overijssel,VBO,6.294486,52.247156
Bisschopsland,21,,,7437XE,Bathmen,Deventer,Overijssel,VBO,6.294736,52.247172
Bisschopsland,23,,,7437XE,Bathmen,Deventer,Overijssel,VBO,6.295015,52.247233
Laan van Westerkappeln,1,,,7437XG,Bathmen,Deventer,Overijssel,VBO,6.292936,52.247240
Laan van Westerkappeln,3,,,7437XG,Bathmen,Deventer,Overijssel,VBO,6.293038,52.247212
Laan van Westerkappeln,5,,,7437XG,Bathmen,Deventer,Overijssel,VBO,6.293270,52.247084
Laan van Westerkappeln,7,,,7437XG,Bathmen,Deventer,Overijssel,VBO,6.293342,52.247030
Laan van Westerkappeln,9,,,7437XG,Bathmen,Deventer,Overijssel,VBO,6.293405,52.246908
De Broake,1,,,7437XH,Bathmen,Deventer,Overijssel,VBO,6.294321,52.247643
De Broake,2,,,7437XH,Bathmen,Deventer,Overijssel,VBO,6.293564,52.247864
De Broake,3,,,7437XH,Bathmen,Deventer,Overijssel,VBO,6.294285,52.247600
De Broake,4,,,7437XH,Bathmen,Deventer,Overijssel,VBO,6.293551,52.247823
De Broake,5,,,7437XH,Bathmen,Deventer,Overijssel,VBO,6.294252,52.247557
De Broake,6,,,7437XH,Bathmen,Deventer,Overijssel,VBO,6.293518,52.247775
De Broake,7,,,7437XH,Bathmen,Deventer,Overijssel,VBO,6.294201,52.247512
De Broake,8,,,7437XH,Bathmen,Deventer,Overijssel,VBO,6.293458,52.247730
De Broake,9,,,7437XH,Bathmen,Deventer,Overijssel,VBO,6.294185,52.247455
Willem de Zwijgerlaan,2,,,7437XM,Bathmen,Deventer,Overijssel,VBO,6.294228,52.248280
Willem de Zwijgerlaan,4,,,7437XM,Bathmen,Deventer,Overijssel,VBO,6.294316,52.248270
Willem de Zwijgerlaan,6,,,7437XM,Bathmen,Deventer,Overijssel,VBO,6.294478,52.248199
Willem de Zwijgerlaan,8,,,7437XM,Bathmen,Deventer,Overijssel,VBO,6.294551,52.248189
Willem de Zwijgerlaan,10,,,7437XM,Bathmen,Deventer,Overijssel,VBO,6.294712,52.248143
Willem de Zwijgerlaan,12,,,7437XM,Bathmen,Deventer,Overijssel,VBO,6.294799,52.248133
Willem de Zwijgerlaan,14,,,7437XM,Bathmen,Deventer,Overijssel,VBO,6.295021,52.248177
Willem de Zwijgerlaan,16,,,7437XM,Bathmen,Deventer,Overijssel,VBO,6.295095,52.248176
Willem de Zwijgerlaan,18,,,7437XM,Bathmen,Deventer,Overijssel,VBO,6.295254,52.248166
Willem de Zwijgerlaan,20,,,7437XM,Bathmen,Deventer,Overijssel,VBO,6.295356,52.248165
Willem de Zwijgerlaan,22,,,7437XM,Bathmen,Deventer,Overijssel,VBO,6.295532,52.248173
Willem de Zwijgerlaan,24,,,7437XM,Bathmen,Deventer,Overijssel,VBO,6.295635,52.248172
Nassauplein,1,,,7437XN,Bathmen,Deventer,Overijssel,VBO,6.296992,52.250103
Nassauplein,2,,,7437XN,Bathmen,Deventer,Overijssel,VBO,6.296509,52.249940
Nassauplein,3,,,7437XN,Bathmen,Deventer,Overijssel,VBO,6.297080,52.250102
Nassauplein,4,,,7437XN,Bathmen,Deventer,Overijssel,VBO,6.296599,52.249938
Nassauplein,5,,,7437XN,Bathmen,Deventer,Overijssel,VBO,6.297370,52.249965
Nassauplein,6,,,7437XN,Bathmen,Deventer,Overijssel,VBO,6.296783,52.249889
Nassauplein,8,,,7437XN,Bathmen,Deventer,Overijssel,VBO,6.296882,52.249885
Anna van Burenplein,1,,,7437XP,Bathmen,Deventer,Overijssel,VBO,6.297363,52.248194
Anna van Burenplein,2,,,7437XP,Bathmen,Deventer,Overijssel,VBO,6.297209,52.247917
Anna van Burenplein,3,,,7437XP,Bathmen,Deventer,Overijssel,VBO,6.297466,52.248194
Anna van Burenplein,4,,,7437XP,Bathmen,Deventer,Overijssel,VBO,6.297284,52.247916
Anna van Burenplein,5,,,7437XP,Bathmen,Deventer,Overijssel,VBO,6.297583,52.248184
Anna van Burenplein,6,,,7437XP,Bathmen,Deventer,Overijssel,VBO,6.297372,52.247907
Anna van Burenplein,7,,,7437XP,Bathmen,Deventer,Overijssel,VBO,6.297656,52.248192
Anna van Burenplein,8,,,7437XP,Bathmen,Deventer,Overijssel,VBO,6.297489,52.247906
Anna van Burenplein,9,,,7437XP,Bathmen,Deventer,Overijssel,VBO,6.297803,52.248227
Anna van Burenplein,10,,,7437XP,Bathmen,Deventer,Overijssel,VBO,6.297577,52.247905
Anna van Burenplein,11,,,7437XP,Bathmen,Deventer,Overijssel,VBO,6.297906,52.248217
Anna van Burenplein,12,,,7437XP,Bathmen,Deventer,Overijssel,VBO,6.297650,52.247896
Anna van Burenplein,13,,,7437XP,Bathmen,Deventer,Overijssel,VBO,6.298008,52.248216
Anna van Burenplein,14,,,7437XP,Bathmen,Deventer,Overijssel,VBO,6.297811,52.247903
Anna van Burenplein,15,,,7437XP,Bathmen,Deventer,Overijssel,VBO,6.298111,52.248225
Anna van Burenplein,16,,,7437XP,Bathmen,Deventer,Overijssel,VBO,6.297944,52.247929
Anna van Burenplein,18,,,7437XP,Bathmen,Deventer,Overijssel,VBO,6.298031,52.247929
Anna van Burenplein,20,,,7437XP,Bathmen,Deventer,Overijssel,VBO,6.298105,52.247946
Prins Florisplein,1,,,7437XR,Bathmen,Deventer,Overijssel,VBO,6.297436,52.248877
Prins Florisplein,2,,,7437XR,Bathmen,Deventer,Overijssel,VBO,6.297398,52.248482
Prins Florisplein,3,,,7437XR,Bathmen,Deventer,Overijssel,VBO,6.297538,52.248867
Prins Florisplein,4,,,7437XR,Bathmen,Deventer,Overijssel,VBO,6.297516,52.248490
Prins Florisplein,5,,,7437XR,Bathmen,Deventer,Overijssel,VBO,6.297626,52.248867
Prins Florisplein,6,,,7437XR,Bathmen,Deventer,Overijssel,VBO,6.297604,52.248509
Prins Florisplein,7,,,7437XR,Bathmen,Deventer,Overijssel,VBO,6.297714,52.248866
Prins Florisplein,8,,,7437XR,Bathmen,Deventer,Overijssel,VBO,6.297692,52.248504
Prins Florisplein,9,,,7437XR,Bathmen,Deventer,Overijssel,VBO,6.297859,52.248820
Prins Florisplein,10,,,7437XR,Bathmen,Deventer,Overijssel,VBO,6.297851,52.248546
Prins Florisplein,11,,,7437XR,Bathmen,Deventer,Overijssel,VBO,6.297976,52.248810
Prins Florisplein,12,,,7437XR,Bathmen,Deventer,Overijssel,VBO,6.297944,52.248545
Prins Florisplein,13,,,7437XR,Bathmen,Deventer,Overijssel,VBO,6.298057,52.248808
Prins Florisplein,14,,,7437XR,Bathmen,Deventer,Overijssel,VBO,6.298040,52.248539
Prins Florisplein,15,,,7437XR,Bathmen,Deventer,Overijssel,VBO,6.298137,52.248809
Prins Florisplein,16,,,7437XR,Bathmen,Deventer,Overijssel,VBO,6.298131,52.248537
Koningin Wilhelminalaan,2,,,7437XS,Bathmen,Deventer,Overijssel,VBO,6.296182,52.249277
Koningin Wilhelminalaan,4,,,7437XS,Bathmen,Deventer,Overijssel,VBO,6.296269,52.249281
Koningin Wilhelminalaan,6,,,7437XS,Bathmen,Deventer,Overijssel,VBO,6.296453,52.249219
Koningin Wilhelminalaan,8,,,7437XS,Bathmen,Deventer,Overijssel,VBO,6.296542,52.249217
Koningin Wilhelminalaan,10,,,7437XS,Bathmen,Deventer,Overijssel,VBO,6.296763,52.249262
Koningin Wilhelminalaan,12,,,7437XS,Bathmen,Deventer,Overijssel,VBO,6.297007,52.249260
Koningin Wilhelminalaan,14,,,7437XS,Bathmen,Deventer,Overijssel,VBO,6.296981,52.249023
Koningin Wilhelminalaan,16,,,7437XS,Bathmen,Deventer,Overijssel,VBO,6.296977,52.248966
Koningin Wilhelminalaan,18,,,7437XS,Bathmen,Deventer,Overijssel,VBO,6.296893,52.248850
Koningin Wilhelminalaan,20,,,7437XS,Bathmen,Deventer,Overijssel,VBO,6.296885,52.248795
Koningin Wilhelminalaan,22,,,7437XS,Bathmen,Deventer,Overijssel,VBO,6.296870,52.248610
Koningin Wilhelminalaan,24,,,7437XS,Bathmen,Deventer,Overijssel,VBO,6.296869,52.248553
Koningin Wilhelminalaan,26,,,7437XS,Bathmen,Deventer,Overijssel,VBO,6.296929,52.248430
Koningin Wilhelminalaan,28,,,7437XS,Bathmen,Deventer,Overijssel,VBO,6.296924,52.248371
Koningin Wilhelminalaan,30,,,7437XS,Bathmen,Deventer,Overijssel,VBO,6.296908,52.248144
Koningin Wilhelminalaan,32,,,7437XS,Bathmen,Deventer,Overijssel,VBO,6.296705,52.248208
Koningin Wilhelminalaan,34,,,7437XS,Bathmen,Deventer,Overijssel,VBO,6.296470,52.248219
Koningin Wilhelminalaan,36,,,7437XS,Bathmen,Deventer,Overijssel,VBO,6.296353,52.248229
Koningin Wilhelminalaan,38,,,7437XS,Bathmen,Deventer,Overijssel,VBO,6.296162,52.248177
Koningin Wilhelminalaan,40,,,7437XS,Bathmen,Deventer,Overijssel,VBO,6.296060,52.248177
Willem de Zwijgerlaan,1,,,7437XS,Bathmen,Deventer,Overijssel,VBO,6.295596,52.248406
Koningin Wilhelminalaan,1,,,7437XT,Bathmen,Deventer,Overijssel,VBO,6.296190,52.249525
Koningin Wilhelminalaan,3,,,7437XT,Bathmen,Deventer,Overijssel,VBO,6.296277,52.249524
Koningin Wilhelminalaan,5,,,7437XT,Bathmen,Deventer,Overijssel,VBO,6.296469,52.249568
Koningin Wilhelminalaan,7,,,7437XT,Bathmen,Deventer,Overijssel,VBO,6.296571,52.249567
Koningin Wilhelminalaan,9,,,7437XT,Bathmen,Deventer,Overijssel,VBO,6.296756,52.249512
Koningin Wilhelminalaan,11,,,7437XT,Bathmen,Deventer,Overijssel,VBO,6.296848,52.249511
Koningin Wilhelminalaan,13,,,7437XT,Bathmen,Deventer,Overijssel,VBO,6.297039,52.249536
Koningin Wilhelminalaan,15,,,7437XT,Bathmen,Deventer,Overijssel,VBO,6.297127,52.249535
Koningin Wilhelminalaan,17,,,7437XT,Bathmen,Deventer,Overijssel,VBO,6.297244,52.249535
Koningin Wilhelminalaan,19,,,7437XT,Bathmen,Deventer,Overijssel,VBO,6.297335,52.249534
Koningin Wilhelminalaan,21,,,7437XT,Bathmen,Deventer,Overijssel,VBO,6.296908,52.247797
Prins Johan Frisolaan,1,,,7437XV,Bathmen,Deventer,Overijssel,VBO,6.295767,52.250410
Prins Johan Frisolaan,2,,,7437XV,Bathmen,Deventer,Overijssel,VBO,6.295380,52.250423
Prins Johan Frisolaan,3,,,7437XV,Bathmen,Deventer,Overijssel,VBO,6.295745,52.250325
Prins Johan Frisolaan,4,,,7437XV,Bathmen,Deventer,Overijssel,VBO,6.295360,52.250332
Prins Johan Frisolaan,5,,,7437XV,Bathmen,Deventer,Overijssel,VBO,6.295725,52.250235
Prins Johan Frisolaan,6,,,7437XV,Bathmen,Deventer,Overijssel,VBO,6.295332,52.250243
Prinses Irenelaan,1,,,7437XW,Bathmen,Deventer,Overijssel,VBO,6.296132,52.248851
Prinses Irenelaan,2,,,7437XW,Bathmen,Deventer,Overijssel,VBO,6.296097,52.248591
Prinses Irenelaan,3,,,7437XW,Bathmen,Deventer,Overijssel,VBO,6.296234,52.248850
Prinses Irenelaan,4,,,7437XW,Bathmen,Deventer,Overijssel,VBO,6.296200,52.248590
Prinses Irenelaan,5,,,7437XW,Bathmen,Deventer,Overijssel,VBO,6.296411,52.248894
Prinses Irenelaan,6,,,7437XW,Bathmen,Deventer,Overijssel,VBO,6.296396,52.248544
Prinses Irenelaan,7,,,7437XW,Bathmen,Deventer,Overijssel,VBO,6.296514,52.248893
Prinses Irenelaan,8,,,7437XW,Bathmen,Deventer,Overijssel,VBO,6.296484,52.248546
Oranjelaan,1,,,7437XX,Bathmen,Deventer,Overijssel,VBO,6.296151,52.249768
Oranjelaan,2,,,7437XX,Bathmen,Deventer,Overijssel,VBO,6.295715,52.249942
Oranjelaan,3,,,7437XX,Bathmen,Deventer,Overijssel,VBO,6.296150,52.249714
Oranjelaan,4,,,7437XX,Bathmen,Deventer,Overijssel,VBO,6.295731,52.249871
Oranjelaan,5,,,7437XX,Bathmen,Deventer,Overijssel,VBO,6.296093,52.249076
Oranjelaan,6,,,7437XX,Bathmen,Deventer,Overijssel,VBO,6.295707,52.249760
Oranjelaan,7,,,7437XX,Bathmen,Deventer,Overijssel,VBO,6.296091,52.249022
Oranjelaan,8,,,7437XX,Bathmen,Deventer,Overijssel,VBO,6.295680,52.249690
Oranjelaan,9,,,7437XX,Bathmen,Deventer,Overijssel,VBO,6.296006,52.248421
Oranjelaan,10,,,7437XX,Bathmen,Deventer,Overijssel,VBO,6.295645,52.249412
Oranjelaan,11,,,7437XX,Bathmen,Deventer,Overijssel,VBO,6.296005,52.248358
Oranjelaan,12,,,7437XX,Bathmen,Deventer,Overijssel,VBO,6.295644,52.249322
Oranjelaan,14,,,7437XX,Bathmen,Deventer,Overijssel,VBO,6.295599,52.249219
Oranjelaan,16,,,7437XX,Bathmen,Deventer,Overijssel,VBO,6.295589,52.249164
Oranjelaan,18,A,,7437XX,Bathmen,Deventer,Overijssel,VBO,6.295575,52.248837
Oranjelaan,18,,,7437XX,Bathmen,Deventer,Overijssel,VBO,6.295608,52.248990
Oranjelaan,20,,,7437XX,Bathmen,Deventer,Overijssel,VBO,6.295601,52.248657
Oranjelaan,22,,,7437XX,Bathmen,Deventer,Overijssel,VBO,6.295613,52.248522
Prinses Christinalaan,1,,,7437XZ,Bathmen,Deventer,Overijssel,VBO,6.295042,52.249965
Prinses Christinalaan,2,,,7437XZ,Bathmen,Deventer,Overijssel,VBO,6.294558,52.249969
Prinses Christinalaan,3,,,7437XZ,Bathmen,Deventer,Overijssel,VBO,6.295025,52.249884
Prinses Christinalaan,4,,,7437XZ,Bathmen,Deventer,Overijssel,VBO,6.294557,52.249897
Prinses Christinalaan,5,,,7437XZ,Bathmen,Deventer,Overijssel,VBO,6.295038,52.249785
Prinses Christinalaan,6,,,7437XZ,Bathmen,Deventer,Overijssel,VBO,6.294526,52.249798
Prinses Christinalaan,7,,,7437XZ,Bathmen,Deventer,Overijssel,VBO,6.295022,52.249713
Prinses Christinalaan,8,,,7437XZ,Bathmen,Deventer,Overijssel,VBO,6.294539,52.249717
Prinses Christinalaan,9,,,7437XZ,Bathmen,Deventer,Overijssel,VBO,6.294987,52.249435
Prinses Christinalaan,10,,,7437XZ,Bathmen,Deventer,Overijssel,VBO,6.294539,52.249431
Prinses Christinalaan,11,,,7437XZ,Bathmen,Deventer,Overijssel,VBO,6.294956,52.249354
Prinses Christinalaan,12,,,7437XZ,Bathmen,Deventer,Overijssel,VBO,6.294539,52.249370
Prinses Christinalaan,13,,,7437XZ,Bathmen,Deventer,Overijssel,VBO,6.295041,52.249237
Prinses Christinalaan,14,,,7437XZ,Bathmen,Deventer,Overijssel,VBO,6.294442,52.249260
Prinses Christinalaan,15,,,7437XZ,Bathmen,Deventer,Overijssel,VBO,6.295011,52.249156
Prinses Christinalaan,16,,,7437XZ,Bathmen,Deventer,Overijssel,VBO,6.294425,52.249170
