openbareruimtenaam,huisnummer,huisletter,huisnummertoevoeging,postcode,woonplaatsnaam,gemeentenaam,provincienaam,typeadresseerbaarobject,longitude,latitude
Wiekermaatweg,1,,,7596JA,Rossum,Dinkelland,Overijssel,VBO,6.924592,52.356666
Wiekermaatweg,2,,,7596JA,Rossum,Dinkelland,Overijssel,VBO,6.924217,52.356446
Wiekermaatweg,3,,,7596JA,Rossum,Dinkelland,Overijssel,VBO,6.924897,52.356572
Wiekermaatweg,4,,,7596JA,Rossum,Dinkelland,Overijssel,VBO,6.924417,52.356281
Wiekermaatweg,5,,,7596JA,Rossum,Dinkelland,Overijssel,VBO,6.925178,52.356217
Wiekermaatweg,8,,,7596JA,Rossum,Dinkelland,Overijssel,VBO,6.924760,52.356025
Wiekermaatweg,9,,,7596JA,Rossum,Dinkelland,Overijssel,VBO,6.925623,52.355924
Wiekermaatweg,10,,,7596JA,Rossum,Dinkelland,Overijssel,VBO,6.924824,52.355746
Wiekermaatweg,12,,,7596JA,Rossum,Dinkelland,Overijssel,VBO,6.925119,52.355787
Wiekermaatweg,14,,,7596JA,Rossum,Dinkelland,Overijssel,VBO,6.925371,52.355855
de Weeldbaan,1,,,7596JB,Rossum,Dinkelland,Overijssel,VBO,6.927665,52.350477
de Weeldbaan,3,,,7596JB,Rossum,Dinkelland,Overijssel,VBO,6.927719,52.350333
de Weeldbaan,4,,,7596JB,Rossum,Dinkelland,Overijssel,VBO,6.928283,52.350496
de Weeldbaan,5,,,7596JB,Rossum,Dinkelland,Overijssel,VBO,6.927761,52.350278
de Weeldbaan,6,,,7596JB,Rossum,Dinkelland,Overijssel,VBO,6.928368,52.350405
de Weeldbaan,7,A,,7596JB,Rossum,Dinkelland,Overijssel,VBO,6.928010,52.350209
de Weeldbaan,7,,,7596JB,Rossum,Dinkelland,Overijssel,VBO,6.928057,52.350150
de Weeldbaan,8,,,7596JB,Rossum,Dinkelland,Overijssel,VBO,6.928478,52.350215
de Weeldbaan,9,,TEL,7596JB,Rossum,Dinkelland,Overijssel,VBO,6.927826,52.350026
de Weeldbaan,10,,,7596JB,Rossum,Dinkelland,Overijssel,VBO,6.928521,52.350169
de Weeldbaan,14,,,7596JB,Rossum,Dinkelland,Overijssel,VBO,6.928705,52.349969
de Weeldbaan,16,,,7596JB,Rossum,Dinkelland,Overijssel,VBO,6.928747,52.349933
de Weeldbaan,18,,,7596JB,Rossum,Dinkelland,Overijssel,VBO,6.928904,52.349796
De Leemboer,2,,,7596JC,Rossum,Dinkelland,Overijssel,VBO,6.925551,52.353564
De Leemboer,4,,,7596JC,Rossum,Dinkelland,Overijssel,VBO,6.925813,52.353636
De Leemboer,6,,,7596JC,Rossum,Dinkelland,Overijssel,VBO,6.926029,52.353462
De Leemboer,8,,,7596JC,Rossum,Dinkelland,Overijssel,VBO,6.926130,52.353328
De Leemboer,10,,,7596JC,Rossum,Dinkelland,Overijssel,VBO,6.926161,52.353194
De Leemboer,12,,,7596JC,Rossum,Dinkelland,Overijssel,VBO,6.926305,52.353057
De Leemboer,14,,,7596JC,Rossum,Dinkelland,Overijssel,VBO,6.926380,52.352894
De Leemboer,16,,,7596JC,Rossum,Dinkelland,Overijssel,VBO,6.926437,52.352754
De Leemboer,18,,,7596JC,Rossum,Dinkelland,Overijssel,VBO,6.926314,52.352714
De Leemboer,1,,,7596JD,Rossum,Dinkelland,Overijssel,VBO,6.925595,52.353867
De Leemboer,3,,,7596JD,Rossum,Dinkelland,Overijssel,VBO,6.925813,52.353928
De Leemboer,5,,,7596JD,Rossum,Dinkelland,Overijssel,VBO,6.926129,52.353994
De Leemboer,7,,,7596JD,Rossum,Dinkelland,Overijssel,VBO,6.926356,52.353766
De Leemboer,9,,,7596JD,Rossum,Dinkelland,Overijssel,VBO,6.926553,52.353530
De Leemboer,11,,,7596JD,Rossum,Dinkelland,Overijssel,VBO,6.926637,52.353337
De Leemboer,13,,,7596JD,Rossum,Dinkelland,Overijssel,VBO,6.926781,52.353161
De Leemboer,17,,,7596JD,Rossum,Dinkelland,Overijssel,VBO,6.927211,52.352604
De Leemboer,19,,,7596JD,Rossum,Dinkelland,Overijssel,VBO,6.926888,52.352618
De Leemboer,21,,,7596JD,Rossum,Dinkelland,Overijssel,VBO,6.926591,52.352514
De Leemboer,23,,,7596JD,Rossum,Dinkelland,Overijssel,VBO,6.926286,52.352425
Oldenzaalsestraat,2,,,7596KA,Rossum,Dinkelland,Overijssel,VBO,6.927695,52.352589
Oldenzaalsestraat,4,A,,7596KA,Rossum,Dinkelland,Overijssel,VBO,6.926712,52.348244
Oldenzaalsestraat,4,,,7596KA,Rossum,Dinkelland,Overijssel,VBO,6.926721,52.348338
Oldenzaalsestraat,6,A,,7596KA,Rossum,Dinkelland,Overijssel,VBO,6.928854,52.348340
Oldenzaalsestraat,6,,,7596KA,Rossum,Dinkelland,Overijssel,VBO,6.928753,52.348395
Oldenzaalsestraat,8,,,7596KA,Rossum,Dinkelland,Overijssel,VBO,6.929853,52.347959
Oldenzaalsestraat,10,A,,7596KA,Rossum,Dinkelland,Overijssel,VBO,6.931295,52.347634
Oldenzaalsestraat,10,,,7596KA,Rossum,Dinkelland,Overijssel,VBO,6.931282,52.347679
Oldenzaalsestraat,12,,,7596KA,Rossum,Dinkelland,Overijssel,VBO,6.930365,52.346631
Oldenzaalsestraat,16,,,7596KA,Rossum,Dinkelland,Overijssel,VBO,6.932324,52.337148
Oldenzaalsestraat,18,A,,7596KA,Rossum,Dinkelland,Overijssel,VBO,6.931939,52.336602
Oldenzaalsestraat,18,,,7596KA,Rossum,Dinkelland,Overijssel,VBO,6.932103,52.336561
Oldenzaalsestraat,20,A,,7596KA,Rossum,Dinkelland,Overijssel,VBO,6.932365,52.336213
Oldenzaalsestraat,20,,,7596KA,Rossum,Dinkelland,Overijssel,VBO,6.932408,52.336177
Oldenzaalsestraat,22,,,7596KA,Rossum,Dinkelland,Overijssel,VBO,6.929839,52.334035
Oldenzaalsestraat,26,A,,7596KA,Rossum,Dinkelland,Overijssel,VBO,6.933185,52.333623
Oldenzaalsestraat,26,,,7596KA,Rossum,Dinkelland,Overijssel,VBO,6.933114,52.333704
Oldenzaalsestraat,28,A,,7596KA,Rossum,Dinkelland,Overijssel,VBO,6.933160,52.332904
Oldenzaalsestraat,28,,,7596KA,Rossum,Dinkelland,Overijssel,VBO,6.933207,52.333002
Oldenzaalsestraat,9,,,7596KB,Rossum,Dinkelland,Overijssel,VBO,6.934539,52.340895
Oldenzaalsestraat,11,,,7596KB,Rossum,Dinkelland,Overijssel,VBO,6.934074,52.340182
Oldenzaalsestraat,13,A,,7596KB,Rossum,Dinkelland,Overijssel,VBO,6.933635,52.339397
Oldenzaalsestraat,13,,,7596KB,Rossum,Dinkelland,Overijssel,VBO,6.933653,52.339429
Oldenzaalsestraat,15,,,7596KB,Rossum,Dinkelland,Overijssel,VBO,6.933829,52.338494
Oldenzaalsestraat,17,A,,7596KB,Rossum,Dinkelland,Overijssel,VBO,6.933632,52.337903
Oldenzaalsestraat,17,,,7596KB,Rossum,Dinkelland,Overijssel,VBO,6.933599,52.337932
Oldenzaalsestraat,19,,TRAF,7596KB,Rossum,Dinkelland,Overijssel,VBO,6.933552,52.336171
Oldenzaalsestraat,19,,,7596KB,Rossum,Dinkelland,Overijssel,VBO,6.933297,52.336021
Oldenzaalsestraat,21,A,,7596KB,Rossum,Dinkelland,Overijssel,VBO,6.934060,52.334744
Oldenzaalsestraat,21,,,7596KB,Rossum,Dinkelland,Overijssel,VBO,6.934102,52.334680
Oldenzaalsestraat,23,,,7596KB,Rossum,Dinkelland,Overijssel,VBO,6.934764,52.333890
Grotestraat,1,,,7596KC,Rossum,Dinkelland,Overijssel,VBO,6.928773,52.350660
Grotestraat,5,,,7596KC,Rossum,Dinkelland,Overijssel,VBO,6.928114,52.350705
Grotestraat,9,,TRAF,7596KC,Rossum,Dinkelland,Overijssel,VBO,6.927043,52.350314
Grotestraat,11,,,7596KC,Rossum,Dinkelland,Overijssel,VBO,6.927363,52.350643
Grotestraat,13,,,7596KC,Rossum,Dinkelland,Overijssel,VBO,6.927159,52.350690
Grotestraat,15,,,7596KC,Rossum,Dinkelland,Overijssel,VBO,6.926956,52.350765
Grotestraat,17,,,7596KC,Rossum,Dinkelland,Overijssel,VBO,6.926709,52.350849
Grotestraat,19,,,7596KC,Rossum,Dinkelland,Overijssel,VBO,6.926491,52.350897
Grotestraat,21,A,,7596KC,Rossum,Dinkelland,Overijssel,VBO,6.926288,52.350980
Grotestraat,21,,,7596KC,Rossum,Dinkelland,Overijssel,VBO,6.926345,52.350926
Grotestraat,23,A,,7596KD,Rossum,Dinkelland,Overijssel,VBO,6.925948,52.351365
Grotestraat,23,,,7596KD,Rossum,Dinkelland,Overijssel,VBO,6.926013,52.351339
Grotestraat,25,,,7596KD,Rossum,Dinkelland,Overijssel,VBO,6.925658,52.351861
Grotestraat,27,,,7596KD,Rossum,Dinkelland,Overijssel,VBO,6.925418,52.352124
Grotestraat,29,,,7596KD,Rossum,Dinkelland,Overijssel,VBO,6.925349,52.352251
Grotestraat,31,,,7596KD,Rossum,Dinkelland,Overijssel,VBO,6.925265,52.352369
Grotestraat,33,,,7596KD,Rossum,Dinkelland,Overijssel,VBO,6.925237,52.352423
Grotestraat,35,,,7596KD,Rossum,Dinkelland,Overijssel,VBO,6.925153,52.352532
Grotestraat,37,,,7596KD,Rossum,Dinkelland,Overijssel,VBO,6.925113,52.352659
Grotestraat,39,,,7596KD,Rossum,Dinkelland,Overijssel,VBO,6.925000,52.352777
Grotestraat,41,,,7596KD,Rossum,Dinkelland,Overijssel,VBO,6.924946,52.352904
Grotestraat,43,A,,7596KD,Rossum,Dinkelland,Overijssel,VBO,6.924689,52.353132
Grotestraat,47,,,7596KD,Rossum,Dinkelland,Overijssel,VBO,6.924613,52.353474
Grotestraat,49,,,7596KD,Rossum,Dinkelland,Overijssel,VBO,6.924603,52.353591
Grotestraat,51,,,7596KD,Rossum,Dinkelland,Overijssel,VBO,6.924576,52.353663
Grotestraat,53,,,7596KD,Rossum,Dinkelland,Overijssel,VBO,6.924506,52.353763
Grotestraat,55,,,7596KD,Rossum,Dinkelland,Overijssel,VBO,6.924465,52.353854
Grotestraat,61,,,7596KD,Rossum,Dinkelland,Overijssel,VBO,6.923956,52.354427
Grotestraat,63,,,7596KD,Rossum,Dinkelland,Overijssel,VBO,6.923873,52.354562
Grotestraat,65,,,7596KD,Rossum,Dinkelland,Overijssel,VBO,6.923805,52.354734
Pierikspad,1,,,7596KD,Rossum,Dinkelland,Overijssel,VBO,6.925183,52.355085
Pierikspad,3,A,,7596KD,Rossum,Dinkelland,Overijssel,VBO,6.925312,52.355407
Pierikspad,3,,,7596KD,Rossum,Dinkelland,Overijssel,VBO,6.925434,52.355117
Pierikspad,5,,,7596KD,Rossum,Dinkelland,Overijssel,VBO,6.925940,52.355318
Pierikspad,7,,,7596KD,Rossum,Dinkelland,Overijssel,VBO,6.925726,52.355491
Pierikspad,8,A,,7596KD,Rossum,Dinkelland,Overijssel,VBO,6.925887,52.354586
Pierikspad,8,,,7596KD,Rossum,Dinkelland,Overijssel,VBO,6.926093,52.354604
Pierikspad,10,,,7596KD,Rossum,Dinkelland,Overijssel,VBO,6.926012,52.354867
Grotestraat,2,,,7596KE,Rossum,Dinkelland,Overijssel,VBO,6.927366,52.351578
Grotestraat,4,,,7596KE,Rossum,Dinkelland,Overijssel,VBO,6.926683,52.351362
Grotestraat,6,,,7596KE,Rossum,Dinkelland,Overijssel,VBO,6.926404,52.351779
Grotestraat,8,A,,7596KE,Rossum,Dinkelland,Overijssel,VBO,6.925976,52.352171
Grotestraat,8,,,7596KE,Rossum,Dinkelland,Overijssel,VBO,6.926266,52.352023
Grotestraat,10,,,7596KE,Rossum,Dinkelland,Overijssel,VBO,6.925879,52.352301
Grotestraat,12,,,7596KE,Rossum,Dinkelland,Overijssel,VBO,6.925771,52.352560
Grotestraat,14,,,7596KE,Rossum,Dinkelland,Overijssel,VBO,6.925677,52.352718
Grotestraat,16,,,7596KE,Rossum,Dinkelland,Overijssel,VBO,6.925565,52.352870
Grotestraat,18,,,7596KE,Rossum,Dinkelland,Overijssel,VBO,6.925475,52.353005
Grotestraat,20,A,,7596KE,Rossum,Dinkelland,Overijssel,VBO,6.925316,52.353285
Grotestraat,20,,,7596KE,Rossum,Dinkelland,Overijssel,VBO,6.925417,52.353145
Grotestraat,22,,,7596KE,Rossum,Dinkelland,Overijssel,VBO,6.925251,52.353503
Grotestraat,24,,,7596KE,Rossum,Dinkelland,Overijssel,VBO,6.925065,52.353792
Grotestraat,26,,,7596KE,Rossum,Dinkelland,Overijssel,VBO,6.924925,52.353991
Grotestraat,30,,,7596KE,Rossum,Dinkelland,Overijssel,VBO,6.924518,52.354527
Grotestraat,32,A,,7596KE,Rossum,Dinkelland,Overijssel,VBO,6.924482,52.354824
Grotestraat,32,,,7596KE,Rossum,Dinkelland,Overijssel,VBO,6.924511,52.354770
Grotestraat,36,,,7596KE,Rossum,Dinkelland,Overijssel,VBO,6.924255,52.354989
Grotestraat,38,,,7596KE,Rossum,Dinkelland,Overijssel,VBO,6.924185,52.355107
Grotestraat,40,,,7596KE,Rossum,Dinkelland,Overijssel,VBO,6.924164,52.355332
Grotestraat,42,,,7596KE,Rossum,Dinkelland,Overijssel,VBO,6.924173,52.355610
Grotestraat,44,,,7596KE,Rossum,Dinkelland,Overijssel,VBO,6.923792,52.355615
Grotestraat,46,,,7596KE,Rossum,Dinkelland,Overijssel,VBO,6.923726,52.355841
Grotestraat,48,,,7596KE,Rossum,Dinkelland,Overijssel,VBO,6.923628,52.355968
Grotestraat,50,A,,7596KE,Rossum,Dinkelland,Overijssel,VBO,6.923189,52.356567
Grotestraat,50,,TRAF,7596KE,Rossum,Dinkelland,Overijssel,VBO,6.923104,52.356946
Grotestraat,50,,,7596KE,Rossum,Dinkelland,Overijssel,VBO,6.923282,52.356575
Grotestraat,54,,,7596KE,Rossum,Dinkelland,Overijssel,VBO,6.922434,52.357089
Grotestraat,58,A,,7596KE,Rossum,Dinkelland,Overijssel,VBO,6.921751,52.358087
Grotestraat,58,,,7596KE,Rossum,Dinkelland,Overijssel,VBO,6.921792,52.358050
Grotestraat,62,,,7596KE,Rossum,Dinkelland,Overijssel,VBO,6.920061,52.359338
Kerkpad,1,,,7596KG,Rossum,Dinkelland,Overijssel,VBO,6.929766,52.351642
Kerkpad,2,,,7596KG,Rossum,Dinkelland,Overijssel,VBO,6.930303,52.351198
Kerkpad,3,,,7596KG,Rossum,Dinkelland,Overijssel,VBO,6.929662,52.351579
Thijstraat,1,,,7596KH,Rossum,Dinkelland,Overijssel,VBO,6.926114,52.351019
Thijstraat,3,,,7596KH,Rossum,Dinkelland,Overijssel,VBO,6.925910,52.351084
Thijstraat,5,,,7596KH,Rossum,Dinkelland,Overijssel,VBO,6.925823,52.351112
Thijstraat,7,,,7596KH,Rossum,Dinkelland,Overijssel,VBO,6.925620,52.351187
Thijstraat,9,,,7596KH,Rossum,Dinkelland,Overijssel,VBO,6.925533,52.351215
Thijstraat,11,,,7596KH,Rossum,Dinkelland,Overijssel,VBO,6.925314,52.351254
Thijstraat,13,,,7596KH,Rossum,Dinkelland,Overijssel,VBO,6.925141,52.351328
Thijstraat,15,,,7596KH,Rossum,Dinkelland,Overijssel,VBO,6.925054,52.351356
Thijstraat,17,,,7596KH,Rossum,Dinkelland,Overijssel,VBO,6.924647,52.351469
Thijstraat,19,,,7596KH,Rossum,Dinkelland,Overijssel,VBO,6.924473,52.351543
Thijstraat,21,,,7596KH,Rossum,Dinkelland,Overijssel,VBO,6.924386,52.351571
Thijstraat,23,,,7596KH,Rossum,Dinkelland,Overijssel,VBO,6.924182,52.351610
Thijstraat,25,,,7596KH,Rossum,Dinkelland,Overijssel,VBO,6.924022,52.351666
Thijstraat,27,,,7596KH,Rossum,Dinkelland,Overijssel,VBO,6.923834,52.351731
Thijstraat,29,,,7596KH,Rossum,Dinkelland,Overijssel,VBO,6.923600,52.351779
Thijstraat,31,,,7596KH,Rossum,Dinkelland,Overijssel,VBO,6.923313,52.351954
Thijstraat,33,A,,7596KJ,Rossum,Dinkelland,Overijssel,VBO,6.920883,52.352570
Thijstraat,33,,,7596KJ,Rossum,Dinkelland,Overijssel,VBO,6.921131,52.352540
Thijstraat,35,,,7596KJ,Rossum,Dinkelland,Overijssel,VBO,6.920646,52.352519
Thijstraat,37,,,7596KJ,Rossum,Dinkelland,Overijssel,VBO,6.920350,52.352451
Thijstraat,39,,,7596KJ,Rossum,Dinkelland,Overijssel,VBO,6.920099,52.352400
Thijstraat,41,,,7596KJ,Rossum,Dinkelland,Overijssel,VBO,6.919818,52.352350
Thijstraat,43,,,7596KJ,Rossum,Dinkelland,Overijssel,VBO,6.919567,52.352308
Thijstraat,45,,,7596KJ,Rossum,Dinkelland,Overijssel,VBO,6.919346,52.352284
Thijstraat,47,,,7596KJ,Rossum,Dinkelland,Overijssel,VBO,6.919152,52.352188
de Steg,1,,,7596KK,Rossum,Dinkelland,Overijssel,VBO,6.917980,52.350558
de Steg,3,,,7596KK,Rossum,Dinkelland,Overijssel,VBO,6.918083,52.350557
de Steg,5,,,7596KK,Rossum,Dinkelland,Overijssel,VBO,6.918171,52.350564
de Steg,7,,,7596KK,Rossum,Dinkelland,Overijssel,VBO,6.918259,52.350563
de Steg,9,,,7596KK,Rossum,Dinkelland,Overijssel,VBO,6.918362,52.350571
de Steg,11,,,7596KK,Rossum,Dinkelland,Overijssel,VBO,6.918434,52.350525
de Steg,13,,,7596KK,Rossum,Dinkelland,Overijssel,VBO,6.918537,52.350533
de Steg,15,,,7596KK,Rossum,Dinkelland,Overijssel,VBO,6.918625,52.350532
de Steg,19,,,7596KK,Rossum,Dinkelland,Overijssel,VBO,6.918836,52.350268
de Steg,21,,,7596KK,Rossum,Dinkelland,Overijssel,VBO,6.918701,52.350171
Thijstraat,2,,,7596KL,Rossum,Dinkelland,Overijssel,VBO,6.925864,52.351444
Thijstraat,4,,,7596KL,Rossum,Dinkelland,Overijssel,VBO,6.925545,52.351556
Thijstraat,6,,,7596KL,Rossum,Dinkelland,Overijssel,VBO,6.925356,52.351622
Thijstraat,8,,,7596KL,Rossum,Dinkelland,Overijssel,VBO,6.924993,52.351716
Thijstraat,10,,,7596KL,Rossum,Dinkelland,Overijssel,VBO,6.924730,52.351765
Thijstraat,12,,,7596KL,Rossum,Dinkelland,Overijssel,VBO,6.924542,52.351839
Thijstraat,14,,,7596KL,Rossum,Dinkelland,Overijssel,VBO,6.924396,52.351877
Thijstraat,16,,,7596KL,Rossum,Dinkelland,Overijssel,VBO,6.924165,52.351970
Thijstraat,18,,,7596KL,Rossum,Dinkelland,Overijssel,VBO,6.924006,52.352035
Thijstraat,26,A,,7596KL,Rossum,Dinkelland,Overijssel,VBO,6.921480,52.352859
Thijstraat,28,,,7596KL,Rossum,Dinkelland,Overijssel,VBO,6.921408,52.352896
Thijstraat,34,,,7596KL,Rossum,Dinkelland,Overijssel,VBO,6.918392,52.352701
Thijplein,1,,,7596KM,Rossum,Dinkelland,Overijssel,VBO,6.922784,52.351943
Thijplein,2,,,7596KM,Rossum,Dinkelland,Overijssel,VBO,6.923243,52.352476
Thijplein,3,,,7596KM,Rossum,Dinkelland,Overijssel,VBO,6.922322,52.352183
Thijplein,4,A,,7596KM,Rossum,Dinkelland,Overijssel,VBO,6.923024,52.352524
Thijplein,4,,,7596KM,Rossum,Dinkelland,Overijssel,VBO,6.923156,52.352513
Thijplein,6,A,,7596KM,Rossum,Dinkelland,Overijssel,VBO,6.922944,52.352607
Thijplein,6,B,,7596KM,Rossum,Dinkelland,Overijssel,VBO,6.922990,52.352677
Thijplein,6,C,,7596KM,Rossum,Dinkelland,Overijssel,VBO,6.923032,52.352658
Thijplein,6,,,7596KM,Rossum,Dinkelland,Overijssel,VBO,6.922908,52.352570
Thijplein,8,,,7596KM,Rossum,Dinkelland,Overijssel,VBO,6.922499,52.352603
Thijplein,10,,,7596KM,Rossum,Dinkelland,Overijssel,VBO,6.922198,52.352813
Kerkewei,1,,,7596KN,Rossum,Dinkelland,Overijssel,VBO,6.923367,52.352663
Kerkewei,2,,,7596KN,Rossum,Dinkelland,Overijssel,VBO,6.924065,52.352527
Kerkewei,3,,,7596KN,Rossum,Dinkelland,Overijssel,VBO,6.923369,52.352735
Kerkewei,5,,,7596KN,Rossum,Dinkelland,Overijssel,VBO,6.923415,52.352798
Kerkewei,7,,,7596KN,Rossum,Dinkelland,Overijssel,VBO,6.922696,52.352807
Kerkewei,9,,,7596KN,Rossum,Dinkelland,Overijssel,VBO,6.922757,52.352860
Kerkewei,11,,,7596KN,Rossum,Dinkelland,Overijssel,VBO,6.922892,52.352930
Kerkewei,13,,,7596KN,Rossum,Dinkelland,Overijssel,VBO,6.922952,52.352992
Kerkewei,15,,,7596KN,Rossum,Dinkelland,Overijssel,VBO,6.923219,52.353061
Kerkewei,17,,,7596KN,Rossum,Dinkelland,Overijssel,VBO,6.923321,52.353050
Kerkewei,19,,,7596KN,Rossum,Dinkelland,Overijssel,VBO,6.923408,52.353004
Kerkewei,21,,,7596KN,Rossum,Dinkelland,Overijssel,VBO,6.923525,52.352985
Wilhelminastraat,2,,,7596KP,Rossum,Dinkelland,Overijssel,VBO,6.924448,52.351247
Julianastraat,1,,,7596KR,Rossum,Dinkelland,Overijssel,VBO,6.923800,52.351184
Julianastraat,3,,,7596KR,Rossum,Dinkelland,Overijssel,VBO,6.923902,52.351155
Julianastraat,5,,,7596KR,Rossum,Dinkelland,Overijssel,VBO,6.924047,52.351099
Julianastraat,7,,,7596KR,Rossum,Dinkelland,Overijssel,VBO,6.924149,52.351080
Julianastraat,9,,,7596KR,Rossum,Dinkelland,Overijssel,VBO,6.924294,52.351033
Julianastraat,11,A,,7596KR,Rossum,Dinkelland,Overijssel,VBO,6.924673,52.350974
Julianastraat,11,,,7596KR,Rossum,Dinkelland,Overijssel,VBO,6.924643,52.350939
Julianastraat,13,A,,7596KR,Rossum,Dinkelland,Overijssel,VBO,6.924834,52.350920
Julianastraat,13,,,7596KR,Rossum,Dinkelland,Overijssel,VBO,6.924802,52.350874
Julianastraat,15,,,7596KR,Rossum,Dinkelland,Overijssel,VBO,6.924962,52.350827
Julianastraat,17,,,7596KR,Rossum,Dinkelland,Overijssel,VBO,6.925122,52.350780
Julianastraat,19,,,7596KR,Rossum,Dinkelland,Overijssel,VBO,6.925267,52.350742
Julianastraat,21,,,7596KR,Rossum,Dinkelland,Overijssel,VBO,6.925412,52.350695
Julianastraat,23,,,7596KR,Rossum,Dinkelland,Overijssel,VBO,6.925499,52.350667
Julianastraat,25,,,7596KR,Rossum,Dinkelland,Overijssel,VBO,6.925630,52.350629
Julianastraat,27,,,7596KR,Rossum,Dinkelland,Overijssel,VBO,6.925717,52.350601
Julianastraat,29,,,7596KS,Rossum,Dinkelland,Overijssel,VBO,6.925863,52.350554
Julianastraat,31,,,7596KS,Rossum,Dinkelland,Overijssel,VBO,6.925935,52.350536
Julianastraat,33,,,7596KS,Rossum,Dinkelland,Overijssel,VBO,6.926081,52.350498
Julianastraat,35,,,7596KS,Rossum,Dinkelland,Overijssel,VBO,6.926153,52.350470
Julianastraat,37,,,7596KS,Rossum,Dinkelland,Overijssel,VBO,6.926298,52.350423
Julianastraat,39,,,7596KS,Rossum,Dinkelland,Overijssel,VBO,6.926385,52.350395
Julianastraat,41,,,7596KS,Rossum,Dinkelland,Overijssel,VBO,6.926517,52.350366
Julianastraat,43,,,7596KS,Rossum,Dinkelland,Overijssel,VBO,6.926618,52.350338
Julianastraat,45,,,7596KS,Rossum,Dinkelland,Overijssel,VBO,6.926748,52.350264
Julianastraat,47,,,7596KS,Rossum,Dinkelland,Overijssel,VBO,6.926805,52.350228
Julianastraat,49,,,7596KS,Rossum,Dinkelland,Overijssel,VBO,6.926906,52.350154
Julianastraat,51,,,7596KS,Rossum,Dinkelland,Overijssel,VBO,6.926963,52.350118
Julianastraat,2,A,,7596KT,Rossum,Dinkelland,Overijssel,VBO,6.923980,52.350876
Julianastraat,2,,,7596KT,Rossum,Dinkelland,Overijssel,VBO,6.923761,52.350914
Julianastraat,4,,,7596KT,Rossum,Dinkelland,Overijssel,VBO,6.924037,52.350830
Julianastraat,6,,,7596KT,Rossum,Dinkelland,Overijssel,VBO,6.924386,52.350726
Julianastraat,8,,,7596KT,Rossum,Dinkelland,Overijssel,VBO,6.924517,52.350689
Julianastraat,10,,,7596KT,Rossum,Dinkelland,Overijssel,VBO,6.924677,52.350642
Julianastraat,12,,,7596KT,Rossum,Dinkelland,Overijssel,VBO,6.924821,52.350586
Julianastraat,14,,,7596KT,Rossum,Dinkelland,Overijssel,VBO,6.924967,52.350548
Julianastraat,16,,,7596KT,Rossum,Dinkelland,Overijssel,VBO,6.925112,52.350501
Julianastraat,18,,,7596KT,Rossum,Dinkelland,Overijssel,VBO,6.926332,52.350117
Julianastraat,20,,,7596KT,Rossum,Dinkelland,Overijssel,VBO,6.926433,52.350080
Julianastraat,22,,,7596KT,Rossum,Dinkelland,Overijssel,VBO,6.926503,52.349989
Julianastraat,24,,,7596KT,Rossum,Dinkelland,Overijssel,VBO,6.926591,52.349970
Julianastraat,26,,,7596KT,Rossum,Dinkelland,Overijssel,VBO,6.926676,52.349879
Julianastraat,28,,,7596KT,Rossum,Dinkelland,Overijssel,VBO,6.926763,52.349851
Bernhardstraat,1,,,7596KV,Rossum,Dinkelland,Overijssel,VBO,6.925462,52.350425
Bernhardstraat,3,,,7596KV,Rossum,Dinkelland,Overijssel,VBO,6.925370,52.350318
Bernhardstraat,5,,,7596KV,Rossum,Dinkelland,Overijssel,VBO,6.925322,52.350211
Bernhardstraat,7,,,7596KV,Rossum,Dinkelland,Overijssel,VBO,6.925246,52.350122
Bernhardstraat,9,,,7596KV,Rossum,Dinkelland,Overijssel,VBO,6.925154,52.350024
Irenestraat,1,,,7596KW,Rossum,Dinkelland,Overijssel,VBO,6.924110,52.350379
Irenestraat,2,,,7596KW,Rossum,Dinkelland,Overijssel,VBO,6.924230,52.350045
Irenestraat,3,,,7596KW,Rossum,Dinkelland,Overijssel,VBO,6.924255,52.350324
Irenestraat,4,,,7596KW,Rossum,Dinkelland,Overijssel,VBO,6.924390,52.349998
Irenestraat,5,,,7596KW,Rossum,Dinkelland,Overijssel,VBO,6.924400,52.350277
Irenestraat,6,,,7596KW,Rossum,Dinkelland,Overijssel,VBO,6.924565,52.349960
Irenestraat,7,,,7596KW,Rossum,Dinkelland,Overijssel,VBO,6.924545,52.350230
Irenestraat,8,,,7596KW,Rossum,Dinkelland,Overijssel,VBO,6.924724,52.349895
Irenestraat,9,,,7596KW,Rossum,Dinkelland,Overijssel,VBO,6.924690,52.350183
Irenestraat,10,,,7596KW,Rossum,Dinkelland,Overijssel,VBO,6.924870,52.349857
Irenestraat,11,,,7596KW,Rossum,Dinkelland,Overijssel,VBO,6.924836,52.350145
Irenestraat,12,,,7596KW,Rossum,Dinkelland,Overijssel,VBO,6.924957,52.349829
Irenestraat,14,,,7596KW,Rossum,Dinkelland,Overijssel,VBO,6.925088,52.349800
Irenestraat,16,,,7596KW,Rossum,Dinkelland,Overijssel,VBO,6.925160,52.349773
Irenestraat,18,,,7596KW,Rossum,Dinkelland,Overijssel,VBO,6.925291,52.349726
Irenestraat,20,,,7596KW,Rossum,Dinkelland,Overijssel,VBO,6.925393,52.349707
Irenestraat,22,,,7596KW,Rossum,Dinkelland,Overijssel,VBO,6.925509,52.349660
Irenestraat,24,,,7596KW,Rossum,Dinkelland,Overijssel,VBO,6.925595,52.349623
Beatrixstraat,1,,,7596KX,Rossum,Dinkelland,Overijssel,VBO,6.926163,52.349903
Beatrixstraat,3,,,7596KX,Rossum,Dinkelland,Overijssel,VBO,6.926235,52.349875
Beatrixstraat,5,,,7596KX,Rossum,Dinkelland,Overijssel,VBO,6.926350,52.349784
Beatrixstraat,7,,,7596KX,Rossum,Dinkelland,Overijssel,VBO,6.926422,52.349765
Beatrixstraat,9,,,7596KX,Rossum,Dinkelland,Overijssel,VBO,6.926460,52.349576
Beatrixstraat,11,,,7596KX,Rossum,Dinkelland,Overijssel,VBO,6.926429,52.349522
Beatrixstraat,13,,,7596KX,Rossum,Dinkelland,Overijssel,VBO,6.926205,52.349417
Beatrixstraat,15,,,7596KX,Rossum,Dinkelland,Overijssel,VBO,6.926118,52.349446
Beatrixstraat,17,,,7596KX,Rossum,Dinkelland,Overijssel,VBO,6.925988,52.349510
Beatrixstraat,19,,,7596KX,Rossum,Dinkelland,Overijssel,VBO,6.925915,52.349538
Beatrixstraat,21,,,7596KX,Rossum,Dinkelland,Overijssel,VBO,6.925821,52.349350
Beatrixstraat,23,,,7596KX,Rossum,Dinkelland,Overijssel,VBO,6.925730,52.349262
Beatrixstraat,25,,,7596KX,Rossum,Dinkelland,Overijssel,VBO,6.925608,52.349138
Beatrixstraat,27,,,7596KX,Rossum,Dinkelland,Overijssel,VBO,6.925504,52.349112
Beatrixstraat,29,,,7596KX,Rossum,Dinkelland,Overijssel,VBO,6.925371,52.349087
Beatrixstraat,31,,,7596KX,Rossum,Dinkelland,Overijssel,VBO,6.925268,52.349061
Beatrixstraat,33,,,7596KX,Rossum,Dinkelland,Overijssel,VBO,6.925134,52.349027
Beatrixstraat,35,,,7596KX,Rossum,Dinkelland,Overijssel,VBO,6.925031,52.349001
Beatrixstraat,37,,,7596KX,Rossum,Dinkelland,Overijssel,VBO,6.924882,52.348958
Beatrixstraat,39,,,7596KX,Rossum,Dinkelland,Overijssel,VBO,6.924808,52.348941
Beatrixstraat,2,,,7596KZ,Rossum,Dinkelland,Overijssel,VBO,6.926013,52.350238
Beatrixstraat,4,,,7596KZ,Rossum,Dinkelland,Overijssel,VBO,6.925921,52.350131
Beatrixstraat,6,,,7596KZ,Rossum,Dinkelland,Overijssel,VBO,6.925874,52.350042
Beatrixstraat,8,,,7596KZ,Rossum,Dinkelland,Overijssel,VBO,6.925798,52.349953
Beatrixstraat,10,,,7596KZ,Rossum,Dinkelland,Overijssel,VBO,6.925707,52.349864
Beatrixstraat,12,,,7596KZ,Rossum,Dinkelland,Overijssel,VBO,6.925368,52.349410
Beatrixstraat,14,,,7596KZ,Rossum,Dinkelland,Overijssel,VBO,6.925160,52.349332
Beatrixstraat,16,,,7596KZ,Rossum,Dinkelland,Overijssel,VBO,6.925071,52.349306
Oranjestraat,1,,,7596LA,Rossum,Dinkelland,Overijssel,VBO,6.923255,52.351973
Oranjestraat,2,,,7596LA,Rossum,Dinkelland,Overijssel,VBO,6.922945,52.351509
Oranjestraat,3,,,7596LA,Rossum,Dinkelland,Overijssel,VBO,6.923506,52.351592
Oranjestraat,4,A,,7596LA,Rossum,Dinkelland,Overijssel,VBO,6.923090,52.351202
Oranjestraat,4,B,,7596LA,Rossum,Dinkelland,Overijssel,VBO,6.923114,52.351093
Oranjestraat,4,,,7596LA,Rossum,Dinkelland,Overijssel,VBO,6.923115,52.351297
Oranjestraat,5,,,7596LA,Rossum,Dinkelland,Overijssel,VBO,6.923502,52.351493
Oranjestraat,6,A,,7596LA,Rossum,Dinkelland,Overijssel,VBO,6.923053,52.350836
Oranjestraat,6,B,,7596LA,Rossum,Dinkelland,Overijssel,VBO,6.922970,52.350831
Oranjestraat,6,C,,7596LA,Rossum,Dinkelland,Overijssel,VBO,6.922781,52.350817
Oranjestraat,6,D,,7596LA,Rossum,Dinkelland,Overijssel,VBO,6.922695,52.350809
Oranjestraat,6,,,7596LA,Rossum,Dinkelland,Overijssel,VBO,6.923226,52.350849
Oranjestraat,7,,,7596LA,Rossum,Dinkelland,Overijssel,VBO,6.923557,52.351366
Oranjestraat,8,,,7596LA,Rossum,Dinkelland,Overijssel,VBO,6.923932,52.349483
Oranjestraat,9,,,7596LA,Rossum,Dinkelland,Overijssel,VBO,6.923582,52.351249
Oranjestraat,10,,,7596LA,Rossum,Dinkelland,Overijssel,VBO,6.924141,52.349175
Oranjestraat,11,,,7596LA,Rossum,Dinkelland,Overijssel,VBO,6.923688,52.350906
Oranjestraat,17,,,7596LA,Rossum,Dinkelland,Overijssel,VBO,6.923856,52.350670
Oranjestraat,19,,,7596LA,Rossum,Dinkelland,Overijssel,VBO,6.923981,52.350480
Oranjestraat,21,,,7596LA,Rossum,Dinkelland,Overijssel,VBO,6.924481,52.349665
Oranjestraat,23,,,7596LA,Rossum,Dinkelland,Overijssel,VBO,6.924580,52.349555
Oranjestraat,25,,,7596LA,Rossum,Dinkelland,Overijssel,VBO,6.924608,52.349501
Oranjestraat,27,,,7596LA,Rossum,Dinkelland,Overijssel,VBO,6.924678,52.349410
Oranjestraat,29,,,7596LA,Rossum,Dinkelland,Overijssel,VBO,6.924705,52.349356
Oranjestraat,31,,,7596LA,Rossum,Dinkelland,Overijssel,VBO,6.924776,52.349265
Oranjestraat,33,,,7596LA,Rossum,Dinkelland,Overijssel,VBO,6.924803,52.349211
de Smidse,1,,,7596LB,Rossum,Dinkelland,Overijssel,VBO,6.921300,52.351899
de Smidse,2,,,7596LB,Rossum,Dinkelland,Overijssel,VBO,6.921281,52.352196
de Smidse,3,,,7596LB,Rossum,Dinkelland,Overijssel,VBO,6.921035,52.351885
de Smidse,4,,,7596LB,Rossum,Dinkelland,Overijssel,VBO,6.921031,52.352199
de Smidse,5,,,7596LB,Rossum,Dinkelland,Overijssel,VBO,6.920947,52.351877
de Smidse,6,,,7596LB,Rossum,Dinkelland,Overijssel,VBO,6.920958,52.352200
de Smidse,7,,,7596LB,Rossum,Dinkelland,Overijssel,VBO,6.920756,52.351879
de Smidse,8,,,7596LB,Rossum,Dinkelland,Overijssel,VBO,6.920752,52.352194
de Smidse,9,,,7596LB,Rossum,Dinkelland,Overijssel,VBO,6.920653,52.351872
de Smidse,10,,,7596LB,Rossum,Dinkelland,Overijssel,VBO,6.920678,52.352186
de Smidse,11,,,7596LB,Rossum,Dinkelland,Overijssel,VBO,6.920477,52.351865
de Smidse,12,,,7596LB,Rossum,Dinkelland,Overijssel,VBO,6.920472,52.352171
de Wanne,1,,,7596LC,Rossum,Dinkelland,Overijssel,VBO,6.921340,52.351359
de Wanne,2,,,7596LC,Rossum,Dinkelland,Overijssel,VBO,6.921320,52.351638
de Wanne,3,,,7596LC,Rossum,Dinkelland,Overijssel,VBO,6.921252,52.351360
de Wanne,4,,,7596LC,Rossum,Dinkelland,Overijssel,VBO,6.921100,52.351641
de Wanne,5,,,7596LC,Rossum,Dinkelland,Overijssel,VBO,6.921075,52.351354
de Wanne,6,,,7596LC,Rossum,Dinkelland,Overijssel,VBO,6.920895,52.351644
de Wanne,7,,,7596LC,Rossum,Dinkelland,Overijssel,VBO,6.920987,52.351355
de Wanne,8,,,7596LC,Rossum,Dinkelland,Overijssel,VBO,6.920674,52.351620
de Wanne,9,,,7596LC,Rossum,Dinkelland,Overijssel,VBO,6.920781,52.351340
de Wanne,10,,,7596LC,Rossum,Dinkelland,Overijssel,VBO,6.920498,52.351640
de Wanne,11,,,7596LC,Rossum,Dinkelland,Overijssel,VBO,6.920693,52.351341
de Wanne,13,,,7596LC,Rossum,Dinkelland,Overijssel,VBO,6.920503,52.351343
Kuiperijstraat,1,,,7596LD,Rossum,Dinkelland,Overijssel,VBO,6.920229,52.350223
Kuiperijstraat,2,,,7596LD,Rossum,Dinkelland,Overijssel,VBO,6.919273,52.351871
Kuiperijstraat,3,,,7596LD,Rossum,Dinkelland,Overijssel,VBO,6.920139,52.350170
Kuiperijstraat,4,,,7596LD,Rossum,Dinkelland,Overijssel,VBO,6.919362,52.351888
Kuiperijstraat,6,,,7596LD,Rossum,Dinkelland,Overijssel,VBO,6.919467,52.351959
Kuiperijstraat,8,,,7596LD,Rossum,Dinkelland,Overijssel,VBO,6.919556,52.351985
Kuiperijstraat,10,,,7596LD,Rossum,Dinkelland,Overijssel,VBO,6.919955,52.352069
Kuiperijstraat,12,,,7596LD,Rossum,Dinkelland,Overijssel,VBO,6.919994,52.351925
Kuiperijstraat,14,,,7596LD,Rossum,Dinkelland,Overijssel,VBO,6.920034,52.351799
Kuiperijstraat,16,,TRAF,7596LD,Rossum,Dinkelland,Overijssel,VBO,6.920484,52.351218
Kuiperijstraat,16,,,7596LD,Rossum,Dinkelland,Overijssel,VBO,6.920029,52.351664
Kuiperijstraat,18,,,7596LD,Rossum,Dinkelland,Overijssel,VBO,6.920069,52.351547
Kuiperijstraat,20,,,7596LD,Rossum,Dinkelland,Overijssel,VBO,6.920065,52.351412
Kuiperijstraat,22,,,7596LD,Rossum,Dinkelland,Overijssel,VBO,6.920075,52.351286
Kuiperijstraat,24,,,7596LD,Rossum,Dinkelland,Overijssel,VBO,6.920055,52.351142
Kuiperijstraat,26,,,7596LD,Rossum,Dinkelland,Overijssel,VBO,6.920096,52.351034
Kuiperijstraat,28,,,7596LD,Rossum,Dinkelland,Overijssel,VBO,6.920091,52.350899
Kuiperijstraat,30,,,7596LD,Rossum,Dinkelland,Overijssel,VBO,6.920102,52.350791
Kuiperijstraat,32,,,7596LD,Rossum,Dinkelland,Overijssel,VBO,6.920114,52.350728
Kuiperijstraat,34,,,7596LD,Rossum,Dinkelland,Overijssel,VBO,6.920140,52.350611
Kuiperijstraat,36,,,7596LD,Rossum,Dinkelland,Overijssel,VBO,6.920153,52.350566
de Iemker,1,,,7596LE,Rossum,Dinkelland,Overijssel,VBO,6.921410,52.350837
de Iemker,2,,,7596LE,Rossum,Dinkelland,Overijssel,VBO,6.921375,52.351116
de Iemker,3,,,7596LE,Rossum,Dinkelland,Overijssel,VBO,6.921322,52.350829
de Iemker,4,,,7596LE,Rossum,Dinkelland,Overijssel,VBO,6.921287,52.351108
de Iemker,5,,,7596LE,Rossum,Dinkelland,Overijssel,VBO,6.921145,52.350805
de Iemker,6,,,7596LE,Rossum,Dinkelland,Overijssel,VBO,6.921111,52.351120
de Iemker,7,,,7596LE,Rossum,Dinkelland,Overijssel,VBO,6.921072,52.350832
de Iemker,8,,,7596LE,Rossum,Dinkelland,Overijssel,VBO,6.921038,52.351129
de Iemker,9,,,7596LE,Rossum,Dinkelland,Overijssel,VBO,6.920895,52.350799
de Iemker,10,,,7596LE,Rossum,Dinkelland,Overijssel,VBO,6.920862,52.351114
de Iemker,11,,,7596LE,Rossum,Dinkelland,Overijssel,VBO,6.920807,52.350809
de Iemker,12,,,7596LE,Rossum,Dinkelland,Overijssel,VBO,6.920774,52.351124
de Iemker,13,,,7596LE,Rossum,Dinkelland,Overijssel,VBO,6.920631,52.350820
de Iemker,14,,,7596LE,Rossum,Dinkelland,Overijssel,VBO,6.920596,52.351081
de Iemker,15,,,7596LE,Rossum,Dinkelland,Overijssel,VBO,6.920543,52.350812
de Iemker,16,,,7596LE,Rossum,Dinkelland,Overijssel,VBO,6.920509,52.351091
Father Raatgerstraat,1,,,7596LG,Rossum,Dinkelland,Overijssel,VBO,6.921733,52.352963
Father Raatgerstraat,2,A,,7596LG,Rossum,Dinkelland,Overijssel,VBO,6.922400,52.353143
Father Raatgerstraat,2,,,7596LG,Rossum,Dinkelland,Overijssel,VBO,6.922364,52.352964
Father Raatgerstraat,3,,,7596LG,Rossum,Dinkelland,Overijssel,VBO,6.921817,52.353259
Father Raatgerstraat,4,A,,7596LG,Rossum,Dinkelland,Overijssel,VBO,6.922713,52.353283
Father Raatgerstraat,4,B,,7596LG,Rossum,Dinkelland,Overijssel,VBO,6.922744,52.353346
Father Raatgerstraat,4,,,7596LG,Rossum,Dinkelland,Overijssel,VBO,6.922627,52.353347
Father Raatgerstraat,5,,,7596LG,Rossum,Dinkelland,Overijssel,VBO,6.921896,52.353429
Father Raatgerstraat,6,A,,7596LG,Rossum,Dinkelland,Overijssel,VBO,6.922882,52.353928
Father Raatgerstraat,6,,,7596LG,Rossum,Dinkelland,Overijssel,VBO,6.922818,52.353776
Father Raatgerstraat,7,,,7596LG,Rossum,Dinkelland,Overijssel,VBO,6.922034,52.353607
Father Raatgerstraat,8,A,,7596LG,Rossum,Dinkelland,Overijssel,VBO,6.923051,52.354133
Father Raatgerstraat,8,,,7596LG,Rossum,Dinkelland,Overijssel,VBO,6.922990,52.354071
Father Raatgerstraat,9,A,,7596LG,Rossum,Dinkelland,Overijssel,VBO,6.922089,52.353929
Father Raatgerstraat,9,,,7596LG,Rossum,Dinkelland,Overijssel,VBO,6.922069,52.353768
Father Raatgerstraat,10,,,7596LG,Rossum,Dinkelland,Overijssel,VBO,6.923098,52.354240
Father Raatgerstraat,11,,,7596LG,Rossum,Dinkelland,Overijssel,VBO,6.922169,52.354108
Father Raatgerstraat,12,,,7596LG,Rossum,Dinkelland,Overijssel,VBO,6.923321,52.354318
Father Raatgerstraat,13,,,7596LG,Rossum,Dinkelland,Overijssel,VBO,6.922291,52.354250
Father Raatgerstraat,14,,,7596LG,Rossum,Dinkelland,Overijssel,VBO,6.923412,52.354398
Father Raatgerstraat,16,,,7596LG,Rossum,Dinkelland,Overijssel,VBO,6.923371,52.354470
Father Raatgerstraat,18,,,7596LG,Rossum,Dinkelland,Overijssel,VBO,6.923477,52.354586
Father Raatgerstraat,20,,,7596LG,Rossum,Dinkelland,Overijssel,VBO,6.923453,52.354730
Father Raatgerstraat,22,,,7596LG,Rossum,Dinkelland,Overijssel,VBO,6.923560,52.354854
Meester Plegtstraat,1,,,7596LH,Rossum,Dinkelland,Overijssel,VBO,6.923215,52.353780
Meester Plegtstraat,2,,,7596LH,Rossum,Dinkelland,Overijssel,VBO,6.923885,52.353627
Meester Plegtstraat,3,,,7596LH,Rossum,Dinkelland,Overijssel,VBO,6.923555,52.353856
Meester Plegtstraat,4,,,7596LH,Rossum,Dinkelland,Overijssel,VBO,6.923961,52.353725
Meester Plegtstraat,5,A,,7596LH,Rossum,Dinkelland,Overijssel,VBO,6.923764,52.353962
Meester Plegtstraat,5,,,7596LH,Rossum,Dinkelland,Overijssel,VBO,6.923719,52.353935
Meester Plegtstraat,6,,,7596LH,Rossum,Dinkelland,Overijssel,VBO,6.924008,52.353815
Meester Plegtstraat,7,,,7596LH,Rossum,Dinkelland,Overijssel,VBO,6.923740,52.354106
Meester Plegtstraat,8,,,7596LH,Rossum,Dinkelland,Overijssel,VBO,6.924147,52.354002
Meester Plegtstraat,9,,,7596LH,Rossum,Dinkelland,Overijssel,VBO,6.923833,52.354266
Meester Plegtstraat,10,,,7596LH,Rossum,Dinkelland,Overijssel,VBO,6.924337,52.353972
Korhuislaan,1,,,7596LJ,Rossum,Dinkelland,Overijssel,VBO,6.923853,52.353565
Korhuislaan,2,,TRAF,7596LJ,Rossum,Dinkelland,Overijssel,VBO,6.922694,52.353571
Korhuislaan,2,,,7596LJ,Rossum,Dinkelland,Overijssel,VBO,6.922852,52.353488
Korhuislaan,3,,,7596LJ,Rossum,Dinkelland,Overijssel,VBO,6.924218,52.353506
Korhuislaan,4,A,,7596LJ,Rossum,Dinkelland,Overijssel,VBO,6.923393,52.353409
Korhuislaan,4,,,7596LJ,Rossum,Dinkelland,Overijssel,VBO,6.923172,52.353412
Korhuislaan,6,,,7596LJ,Rossum,Dinkelland,Overijssel,VBO,6.923596,52.353353
Korhuislaan,8,,,7596LJ,Rossum,Dinkelland,Overijssel,VBO,6.923698,52.353333
Korhuislaan,10,,,7596LJ,Rossum,Dinkelland,Overijssel,VBO,6.924004,52.353266
Korhuislaan,12,,,7596LJ,Rossum,Dinkelland,Overijssel,VBO,6.924092,52.353256
Korhuislaan,14,,,7596LJ,Rossum,Dinkelland,Overijssel,VBO,6.924281,52.353209
Korhuislaan,16,,,7596LJ,Rossum,Dinkelland,Overijssel,VBO,6.924485,52.353161
Heermanweg,1,,,7596LK,Rossum,Dinkelland,Overijssel,VBO,6.908012,52.354390
Heermanweg,3,A,,7596LK,Rossum,Dinkelland,Overijssel,VBO,6.907201,52.352989
Heermanweg,3,A,,7596LK,Rossum,Dinkelland,Overijssel,VBO,6.907508,52.352886
Heermanweg,3,,,7596LK,Rossum,Dinkelland,Overijssel,VBO,6.907201,52.352989
Heermanweg,3,,,7596LK,Rossum,Dinkelland,Overijssel,VBO,6.907369,52.352968
Heermanweg,4,A,,7596LK,Rossum,Dinkelland,Overijssel,VBO,6.906504,52.353636
Heermanweg,4,,,7596LK,Rossum,Dinkelland,Overijssel,VBO,6.906427,52.353556
Rossumerveldweg,3,A,,7596LL,Rossum,Dinkelland,Overijssel,VBO,6.897694,52.356194
Rossumerveldweg,3,,,7596LL,Rossum,Dinkelland,Overijssel,VBO,6.897519,52.356205
Rossumerveldweg,4,,,7596LL,Rossum,Dinkelland,Overijssel,VBO,6.897030,52.357371
Haarstraat,37,,,7596LM,Rossum,Dinkelland,Overijssel,VBO,6.885636,52.352563
Haarstraat,39,,,7596LM,Rossum,Dinkelland,Overijssel,VBO,6.886435,52.352733
Haarstraat,41,A,,7596LM,Rossum,Dinkelland,Overijssel,VBO,6.889628,52.353384
Haarstraat,41,,,7596LM,Rossum,Dinkelland,Overijssel,VBO,6.889075,52.353544
Haarstraat,43,A,,7596LM,Rossum,Dinkelland,Overijssel,VBO,6.890574,52.354020
Haarstraat,43,,TRAF,7596LM,Rossum,Dinkelland,Overijssel,VBO,6.890878,52.353908
Haarstraat,43,,,7596LM,Rossum,Dinkelland,Overijssel,VBO,6.890574,52.354020
Haarstraat,45,,,7596LM,Rossum,Dinkelland,Overijssel,VBO,6.891006,52.353771
Haarstraat,47,A,,7596LM,Rossum,Dinkelland,Overijssel,VBO,6.892358,52.354257
Haarstraat,47,,,7596LM,Rossum,Dinkelland,Overijssel,VBO,6.892037,52.354307
Haarstraat,49,A,,7596LM,Rossum,Dinkelland,Overijssel,VBO,6.893056,52.354500
Haarstraat,49,,,7596LM,Rossum,Dinkelland,Overijssel,VBO,6.893056,52.354500
Haarstraat,51,A,,7596LM,Rossum,Dinkelland,Overijssel,VBO,6.894444,52.353853
Haarstraat,51,,,7596LM,Rossum,Dinkelland,Overijssel,VBO,6.894431,52.353916
Haarstraat,55,A,,7596LM,Rossum,Dinkelland,Overijssel,VBO,6.904296,52.356038
Haarstraat,55,,,7596LM,Rossum,Dinkelland,Overijssel,VBO,6.904283,52.356092
Haarstraat,59,A,,7596LM,Rossum,Dinkelland,Overijssel,VBO,6.913209,52.354808
Haarstraat,59,,,7596LM,Rossum,Dinkelland,Overijssel,VBO,6.913078,52.354855
Haarstraat,32,,,7596LN,Rossum,Dinkelland,Overijssel,VBO,6.888602,52.352579
Haarstraat,36,A,,7596LN,Rossum,Dinkelland,Overijssel,VBO,6.895037,52.352309
Haarstraat,36,,,7596LN,Rossum,Dinkelland,Overijssel,VBO,6.895036,52.352282
Haarstraat,38,,,7596LN,Rossum,Dinkelland,Overijssel,VBO,6.896048,52.353545
Haarstraat,40,A,,7596LN,Rossum,Dinkelland,Overijssel,VBO,6.896799,52.353617
Haarstraat,40,,,7596LN,Rossum,Dinkelland,Overijssel,VBO,6.896847,52.353733
Haarstraat,42,,,7596LN,Rossum,Dinkelland,Overijssel,VBO,6.898010,52.353826
Haarstraat,44,,,7596LN,Rossum,Dinkelland,Overijssel,VBO,6.898999,52.353966
Haarstraat,46,,,7596LN,Rossum,Dinkelland,Overijssel,VBO,6.901065,52.354290
Haarstraat,48,,,7596LN,Rossum,Dinkelland,Overijssel,VBO,6.901920,52.354387
Haarstraat,50,,TRAF,7596LN,Rossum,Dinkelland,Overijssel,VBO,6.904497,52.354624
Haarstraat,50,,,7596LN,Rossum,Dinkelland,Overijssel,VBO,6.914557,52.353883
Haarstraat,52,A,,7596LN,Rossum,Dinkelland,Overijssel,VBO,6.915285,52.353712
Haarstraat,52,,,7596LN,Rossum,Dinkelland,Overijssel,VBO,6.915505,52.353700
Haarstraat,54,A,,7596LN,Rossum,Dinkelland,Overijssel,VBO,6.915966,52.353038
Haarstraat,54,,,7596LN,Rossum,Dinkelland,Overijssel,VBO,6.915878,52.353021
Vospeldijk,1,,,7596LP,Rossum,Dinkelland,Overijssel,VBO,6.911057,52.355843
Vospeldijk,3,,,7596LP,Rossum,Dinkelland,Overijssel,VBO,6.910879,52.356232
Vospeldijk,7,A,,7596LP,Rossum,Dinkelland,Overijssel,VBO,6.908646,52.358750
Vospeldijk,7,,,7596LP,Rossum,Dinkelland,Overijssel,VBO,6.908748,52.358731
de Hersmole,2,,,7596LR,Rossum,Dinkelland,Overijssel,VBO,6.918385,52.352072
de Hersmole,4,,,7596LR,Rossum,Dinkelland,Overijssel,VBO,6.918496,52.351900
de Hersmole,6,,,7596LR,Rossum,Dinkelland,Overijssel,VBO,6.918698,52.351798
de Hersmole,8,,,7596LR,Rossum,Dinkelland,Overijssel,VBO,6.918797,52.351698
de Hersmole,10,,,7596LR,Rossum,Dinkelland,Overijssel,VBO,6.918840,52.351652
de Hersmole,12,,,7596LR,Rossum,Dinkelland,Overijssel,VBO,6.918879,52.351517
de Hersmole,14,,,7596LR,Rossum,Dinkelland,Overijssel,VBO,6.918862,52.351454
de Hersmole,16,,,7596LR,Rossum,Dinkelland,Overijssel,VBO,6.918815,52.351347
de Hersmole,18,,,7596LR,Rossum,Dinkelland,Overijssel,VBO,6.918842,52.351293
de Hersmole,20,,,7596LR,Rossum,Dinkelland,Overijssel,VBO,6.918750,52.351177
de Hersmole,22,,,7596LR,Rossum,Dinkelland,Overijssel,VBO,6.918763,52.351123
de Hersmole,24,,,7596LR,Rossum,Dinkelland,Overijssel,VBO,6.918914,52.350824
de Hersmole,26,,,7596LR,Rossum,Dinkelland,Overijssel,VBO,6.918911,52.350744
de Hersmole,28,,,7596LR,Rossum,Dinkelland,Overijssel,VBO,6.918895,52.350690
de Hersmole,30,,,7596LR,Rossum,Dinkelland,Overijssel,VBO,6.918877,52.350609
de Hersmole,32,,,7596LS,Rossum,Dinkelland,Overijssel,VBO,6.918890,52.350564
de Hersmole,34,,,7596LS,Rossum,Dinkelland,Overijssel,VBO,6.919131,52.350318
de Hersmole,36,,,7596LS,Rossum,Dinkelland,Overijssel,VBO,6.919203,52.350272
de Hersmole,38,,,7596LS,Rossum,Dinkelland,Overijssel,VBO,6.919305,52.350235
de Hersmole,40,,,7596LS,Rossum,Dinkelland,Overijssel,VBO,6.919376,52.350189
de Hersmole,42,,,7596LS,Rossum,Dinkelland,Overijssel,VBO,6.919462,52.350125
de Hersmole,44,,,7596LS,Rossum,Dinkelland,Overijssel,VBO,6.919534,52.350088
de Hersmole,46,,,7596LS,Rossum,Dinkelland,Overijssel,VBO,6.919664,52.350006
de Hersmole,48,,,7596LS,Rossum,Dinkelland,Overijssel,VBO,6.919706,52.349960
de Hersmole,50,,,7596LS,Rossum,Dinkelland,Overijssel,VBO,6.919865,52.349877
de Hersmole,52,,,7596LS,Rossum,Dinkelland,Overijssel,VBO,6.919907,52.349832
de Hersmole,54,,,7596LS,Rossum,Dinkelland,Overijssel,VBO,6.920526,52.349464
de Hersmole,56,,,7596LS,Rossum,Dinkelland,Overijssel,VBO,6.920598,52.349427
de Hersmole,60,,,7596LS,Rossum,Dinkelland,Overijssel,VBO,6.920710,52.349282
de Hersmole,62,,,7596LS,Rossum,Dinkelland,Overijssel,VBO,6.920691,52.349165
de Hersmole,64,,,7596LS,Rossum,Dinkelland,Overijssel,VBO,6.920719,52.349111
de Hersmole,66,,,7596LS,Rossum,Dinkelland,Overijssel,VBO,6.920730,52.348994
de Hersmole,3,,,7596LT,Rossum,Dinkelland,Overijssel,VBO,6.919444,52.351707
de Hersmole,5,,,7596LT,Rossum,Dinkelland,Overijssel,VBO,6.919496,52.351536
de Hersmole,7,,,7596LT,Rossum,Dinkelland,Overijssel,VBO,6.919522,52.351428
de Hersmole,9,,,7596LT,Rossum,Dinkelland,Overijssel,VBO,6.919503,52.351302
de Hersmole,11,,,7596LT,Rossum,Dinkelland,Overijssel,VBO,6.919513,52.351167
de Hersmole,13,,,7596LT,Rossum,Dinkelland,Overijssel,VBO,6.919421,52.351043
de Hersmole,15,,,7596LT,Rossum,Dinkelland,Overijssel,VBO,6.919446,52.350925
de Hersmole,17,,,7596LT,Rossum,Dinkelland,Overijssel,VBO,6.919458,52.350862
de Hersmole,19,,,7596LT,Rossum,Dinkelland,Overijssel,VBO,6.919423,52.350701
de Hersmole,23,,,7596LT,Rossum,Dinkelland,Overijssel,VBO,6.919566,52.350573
de Hersmole,25,,,7596LT,Rossum,Dinkelland,Overijssel,VBO,6.919724,52.350490
de Hersmole,27,,,7596LT,Rossum,Dinkelland,Overijssel,VBO,6.919839,52.350408
de Hersmole,29,,,7596LT,Rossum,Dinkelland,Overijssel,VBO,6.919896,52.350362
de Hersmole,35,,,7596LT,Rossum,Dinkelland,Overijssel,VBO,6.920659,52.349930
de Hersmole,37,,,7596LT,Rossum,Dinkelland,Overijssel,VBO,6.920773,52.349839
de Hersmole,39,,,7596LT,Rossum,Dinkelland,Overijssel,VBO,6.920917,52.349738
de Hersmole,41,,,7596LT,Rossum,Dinkelland,Overijssel,VBO,6.921061,52.349655
de Hersmole,43,,,7596LT,Rossum,Dinkelland,Overijssel,VBO,6.921187,52.349492
de Hersmole,47,,,7596LT,Rossum,Dinkelland,Overijssel,VBO,6.921238,52.349266
de Hersmole,49,,,7596LT,Rossum,Dinkelland,Overijssel,VBO,6.921488,52.349281
de Hersmole,51,,,7596LT,Rossum,Dinkelland,Overijssel,VBO,6.921709,52.349305
de Korte Drift,1,,,7596LV,Rossum,Dinkelland,Overijssel,VBO,6.920384,52.349610
de Korte Drift,3,,,7596LV,Rossum,Dinkelland,Overijssel,VBO,6.920309,52.349575
de Korte Drift,5,,,7596LV,Rossum,Dinkelland,Overijssel,VBO,6.920264,52.349548
de Korte Drift,7,,,7596LV,Rossum,Dinkelland,Overijssel,VBO,6.920204,52.349513
de Korte Drift,9,,,7596LV,Rossum,Dinkelland,Overijssel,VBO,6.920055,52.349443
de Korte Drift,11,,,7596LV,Rossum,Dinkelland,Overijssel,VBO,6.919995,52.349408
de Korte Drift,13,,,7596LV,Rossum,Dinkelland,Overijssel,VBO,6.919846,52.349329
de Brei,1,,,7596LW,Rossum,Dinkelland,Overijssel,VBO,6.917836,52.351486
de Brei,2,,,7596LW,Rossum,Dinkelland,Overijssel,VBO,6.918308,52.351120
de Brei,3,,,7596LW,Rossum,Dinkelland,Overijssel,VBO,6.917445,52.351643
de Brei,4,,,7596LW,Rossum,Dinkelland,Overijssel,VBO,6.918295,52.351183
de Brei,5,,,7596LW,Rossum,Dinkelland,Overijssel,VBO,6.917265,52.351547
de Brei,6,,,7596LW,Rossum,Dinkelland,Overijssel,VBO,6.918269,52.351282
de Brei,7,,,7596LW,Rossum,Dinkelland,Overijssel,VBO,6.917071,52.351451
de Brei,8,,,7596LW,Rossum,Dinkelland,Overijssel,VBO,6.918286,52.351345
de Brei,9,,,7596LW,Rossum,Dinkelland,Overijssel,VBO,6.916891,52.351345
de Brei,10,,,7596LW,Rossum,Dinkelland,Overijssel,VBO,6.918261,52.351462
de Brei,11,,,7596LW,Rossum,Dinkelland,Overijssel,VBO,6.917161,52.351081
de Brei,12,,,7596LW,Rossum,Dinkelland,Overijssel,VBO,6.918162,52.351580
de Lange Drift,1,,,7596LX,Rossum,Dinkelland,Overijssel,VBO,6.917669,52.350041
de Lange Drift,2,,,7596LX,Rossum,Dinkelland,Overijssel,VBO,6.917243,52.350037
de Lange Drift,3,,,7596LX,Rossum,Dinkelland,Overijssel,VBO,6.917664,52.349897
de Lange Drift,4,,,7596LX,Rossum,Dinkelland,Overijssel,VBO,6.917266,52.349866
de Lange Drift,5,,,7596LX,Rossum,Dinkelland,Overijssel,VBO,6.917748,52.349779
de Lange Drift,6,,,7596LX,Rossum,Dinkelland,Overijssel,VBO,6.917305,52.349713
de Lange Drift,7,,,7596LX,Rossum,Dinkelland,Overijssel,VBO,6.918125,52.349657
de Lange Drift,8,,,7596LX,Rossum,Dinkelland,Overijssel,VBO,6.917260,52.349264
de Lange Drift,9,,,7596LX,Rossum,Dinkelland,Overijssel,VBO,6.918211,52.349602
de Lange Drift,10,,,7596LX,Rossum,Dinkelland,Overijssel,VBO,6.917441,52.349396
de Lange Drift,11,,,7596LX,Rossum,Dinkelland,Overijssel,VBO,6.918312,52.349538
de Lange Drift,12,,,7596LX,Rossum,Dinkelland,Overijssel,VBO,6.917825,52.349481
de Lange Drift,13,,,7596LX,Rossum,Dinkelland,Overijssel,VBO,6.918427,52.349482
de Lange Drift,14,,,7596LX,Rossum,Dinkelland,Overijssel,VBO,6.917982,52.349353
het Korink,1,,,7596LZ,Rossum,Dinkelland,Overijssel,VBO,6.918827,52.350870
het Korink,2,,,7596LZ,Rossum,Dinkelland,Overijssel,VBO,6.917898,52.351161
het Korink,3,,,7596LZ,Rossum,Dinkelland,Overijssel,VBO,6.918754,52.350871
het Korink,4,,,7596LZ,Rossum,Dinkelland,Overijssel,VBO,6.917737,52.351172
het Korink,5,,,7596LZ,Rossum,Dinkelland,Overijssel,VBO,6.918504,52.350857
het Korink,6,,,7596LZ,Rossum,Dinkelland,Overijssel,VBO,6.917516,52.351157
het Korink,7,,,7596LZ,Rossum,Dinkelland,Overijssel,VBO,6.918415,52.350831
het Korink,8,,,7596LZ,Rossum,Dinkelland,Overijssel,VBO,6.917137,52.350802
het Korink,9,,,7596LZ,Rossum,Dinkelland,Overijssel,VBO,6.918225,52.350842
het Korink,10,,,7596LZ,Rossum,Dinkelland,Overijssel,VBO,6.917132,52.350650
het Korink,11,,,7596LZ,Rossum,Dinkelland,Overijssel,VBO,6.918122,52.350844
het Korink,12,,,7596LZ,Rossum,Dinkelland,Overijssel,VBO,6.917186,52.350523
het Korink,13,,,7596LZ,Rossum,Dinkelland,Overijssel,VBO,6.917947,52.350882
het Korink,14,,,7596LZ,Rossum,Dinkelland,Overijssel,VBO,6.917166,52.350371
het Korink,15,,,7596LZ,Rossum,Dinkelland,Overijssel,VBO,6.917712,52.350867
het Korink,17,,,7596LZ,Rossum,Dinkelland,Overijssel,VBO,6.917520,52.350833
het Korink,18,,,7596LZ,Rossum,Dinkelland,Overijssel,VBO,6.918064,52.350008
het Korink,19,,,7596LZ,Rossum,Dinkelland,Overijssel,VBO,6.917557,52.350635
het Korink,20,,,7596LZ,Rossum,Dinkelland,Overijssel,VBO,6.918371,52.349978
het Korink,21,,,7596LZ,Rossum,Dinkelland,Overijssel,VBO,6.917582,52.350509
het Korink,22,,,7596LZ,Rossum,Dinkelland,Overijssel,VBO,6.918484,52.349859
het Korink,23,,,7596LZ,Rossum,Dinkelland,Overijssel,VBO,6.917604,52.350311
het Korink,24,,,7596LZ,Rossum,Dinkelland,Overijssel,VBO,6.918557,52.349831
het Korink,25,,,7596LZ,Rossum,Dinkelland,Overijssel,VBO,6.917824,52.350281
het Korink,26,,,7596LZ,Rossum,Dinkelland,Overijssel,VBO,6.918715,52.349739
het Korink,28,,,7596LZ,Rossum,Dinkelland,Overijssel,VBO,6.918787,52.349693
het Korink,29,,,7596LZ,Rossum,Dinkelland,Overijssel,VBO,6.918959,52.350015
het Korink,30,,,7596LZ,Rossum,Dinkelland,Overijssel,VBO,6.919014,52.349457
het Korink,31,,,7596LZ,Rossum,Dinkelland,Overijssel,VBO,6.919089,52.349932
het Korink,32,,,7596LZ,Rossum,Dinkelland,Overijssel,VBO,6.919413,52.349137
het Korink,33,,,7596LZ,Rossum,Dinkelland,Overijssel,VBO,6.919160,52.349877
het Korink,34,,,7596LZ,Rossum,Dinkelland,Overijssel,VBO,6.919586,52.349045
het Korink,35,,,7596LZ,Rossum,Dinkelland,Overijssel,VBO,6.919275,52.349804
het Korink,37,,,7596LZ,Rossum,Dinkelland,Overijssel,VBO,6.919362,52.349758
het Korink,39,,,7596LZ,Rossum,Dinkelland,Overijssel,VBO,6.919520,52.349657
het Korink,41,,,7596LZ,Rossum,Dinkelland,Overijssel,VBO,6.919562,52.349612
het Korink,43,,,7596LZ,Rossum,Dinkelland,Overijssel,VBO,6.920238,52.349207
het Korink,45,,,7596LZ,Rossum,Dinkelland,Overijssel,VBO,6.920364,52.349044
Broekmatenweg,4,A,,7596MA,Rossum,Dinkelland,Overijssel,VBO,6.931288,52.387662
Broekmatenweg,4,A,,7596MA,Rossum,Dinkelland,Overijssel,VBO,6.931308,52.387653
Broekmatenweg,4,,,7596MA,Rossum,Dinkelland,Overijssel,VBO,6.931248,52.387609
Kanaalweg N.Z.,1,,,7596MA,Rossum,Dinkelland,Overijssel,VBO,6.937607,52.385027
Broekweg,2,,,7596MB,Rossum,Dinkelland,Overijssel,VBO,6.928721,52.375354
Laarweg,2,,TRAF,7596MC,Rossum,Dinkelland,Overijssel,VBO,6.943657,52.370304
Laarweg,2,,,7596MC,Rossum,Dinkelland,Overijssel,VBO,6.943543,52.370405
Laarweg,3,,,7596MC,Rossum,Dinkelland,Overijssel,VBO,6.940849,52.371896
Laarweg,4,,,7596MC,Rossum,Dinkelland,Overijssel,VBO,6.937549,52.374546
Laarweg,6,,,7596MC,Rossum,Dinkelland,Overijssel,VBO,6.937379,52.375133
Laarweg,7,A,,7596MC,Rossum,Dinkelland,Overijssel,VBO,6.931346,52.376929
Laarweg,7,,,7596MC,Rossum,Dinkelland,Overijssel,VBO,6.931245,52.376993
Twelweg,1,,,7596MD,Rossum,Dinkelland,Overijssel,VBO,6.946161,52.371341
Twelweg,2,,,7596MD,Rossum,Dinkelland,Overijssel,VBO,6.946122,52.379027
Twelweg,3,,,7596MD,Rossum,Dinkelland,Overijssel,VBO,6.944756,52.372330
Twelweg,4,,,7596MD,Rossum,Dinkelland,Overijssel,VBO,6.946105,52.379378
Twelweg,5,,,7596MD,Rossum,Dinkelland,Overijssel,VBO,6.944238,52.371792
Twelweg,7,,,7596MD,Rossum,Dinkelland,Overijssel,VBO,6.944509,52.373241
Twelweg,9,,,7596MD,Rossum,Dinkelland,Overijssel,VBO,6.944808,52.372959
Twelweg,11,A,,7596MD,Rossum,Dinkelland,Overijssel,VBO,6.942956,52.375015
Twelweg,11,,TRAF,7596MD,Rossum,Dinkelland,Overijssel,VBO,6.944533,52.376019
Twelweg,11,,,7596MD,Rossum,Dinkelland,Overijssel,VBO,6.943029,52.375005
Twelweg,15,A,,7596MD,Rossum,Dinkelland,Overijssel,VBO,6.945278,52.378855
Twelweg,15,,,7596MD,Rossum,Dinkelland,Overijssel,VBO,6.945266,52.378904
Ekelhofsveldweg,4,A,,7596ME,Rossum,Dinkelland,Overijssel,VBO,6.957652,52.380640
Ekelhofsveldweg,4,,,7596ME,Rossum,Dinkelland,Overijssel,VBO,6.957521,52.380615
Ekelhofsveldweg,6,,,7596ME,Rossum,Dinkelland,Overijssel,VBO,6.954115,52.380333
Ekelhofsveldweg,8,A,,7596ME,Rossum,Dinkelland,Overijssel,VBO,6.952613,52.384784
Ekelhofsveldweg,8,,,7596ME,Rossum,Dinkelland,Overijssel,VBO,6.953181,52.384660
Ekelhofsveldweg,10,,,7596ME,Rossum,Dinkelland,Overijssel,VBO,6.952061,52.385816
Linderdijk,1,,,7596MG,Rossum,Dinkelland,Overijssel,VBO,6.947325,52.371470
Linderdijk,3,,,7596MG,Rossum,Dinkelland,Overijssel,VBO,6.948140,52.371666
Linderdijk,4,,,7596MG,Rossum,Dinkelland,Overijssel,VBO,6.950357,52.372068
Linderdijk,5,A,,7596MG,Rossum,Dinkelland,Overijssel,VBO,6.950882,52.372798
Linderdijk,5,,,7596MG,Rossum,Dinkelland,Overijssel,VBO,6.950986,52.372823
Linderdijk,6,,,7596MG,Rossum,Dinkelland,Overijssel,VBO,6.955458,52.374274
Linderdijk,10,,,7596MG,Rossum,Dinkelland,Overijssel,VBO,6.959684,52.375836
Scholten Lindeweg,2,,,7596MJ,Rossum,Dinkelland,Overijssel,VBO,6.938767,52.371160
Vogelpoelweg,2,A,,7596MK,Rossum,Dinkelland,Overijssel,VBO,6.959329,52.363337
Vogelpoelweg,2,,,7596MK,Rossum,Dinkelland,Overijssel,VBO,6.959341,52.363247
Vogelpoelweg,4,,,7596MK,Rossum,Dinkelland,Overijssel,VBO,6.962745,52.369378
Vogelpoelweg,8,,,7596MK,Rossum,Dinkelland,Overijssel,VBO,6.959332,52.370590
Mlmansweg,2,A,,7596ML,Rossum,Dinkelland,Overijssel,VBO,6.944410,52.367490
Mlmansweg,2,,,7596ML,Rossum,Dinkelland,Overijssel,VBO,6.944544,52.367560
Schiphorstdijk,3,A,,7596ML,Rossum,Dinkelland,Overijssel,VBO,6.964629,52.380238
Schiphorstdijk,3,,TRAF,7596ML,Rossum,Dinkelland,Overijssel,VBO,6.964665,52.380426
Schiphorstdijk,3,,,7596ML,Rossum,Dinkelland,Overijssel,VBO,6.964485,52.380321
Loosteresweg,1,A,,7596MN,Rossum,Dinkelland,Overijssel,VBO,6.950338,52.359438
Loosteresweg,1,,,7596MN,Rossum,Dinkelland,Overijssel,VBO,6.950482,52.359374
Loosteresweg,4,,,7596MN,Rossum,Dinkelland,Overijssel,VBO,6.947685,52.362485
Loosteresweg,5,,,7596MN,Rossum,Dinkelland,Overijssel,VBO,6.949577,52.359943
Loosteresweg,7,,,7596MN,Rossum,Dinkelland,Overijssel,VBO,6.948392,52.360048
Loosteresweg,9,A,,7596MN,Rossum,Dinkelland,Overijssel,VBO,6.947709,52.360246
Loosteresweg,9,,,7596MN,Rossum,Dinkelland,Overijssel,VBO,6.947795,52.360209
Loosteresweg,11,,,7596MN,Rossum,Dinkelland,Overijssel,VBO,6.947090,52.360614
Loosteresweg,15,A,,7596MN,Rossum,Dinkelland,Overijssel,VBO,6.946711,52.365473
Loosteresweg,15,,,7596MN,Rossum,Dinkelland,Overijssel,VBO,6.946601,52.365492
Everlostraat,3,A,,7596MP,Rossum,Dinkelland,Overijssel,VBO,6.935172,52.347700
Everlostraat,3,,,7596MP,Rossum,Dinkelland,Overijssel,VBO,6.935457,52.347876
Everlostraat,5,,,7596MP,Rossum,Dinkelland,Overijssel,VBO,6.936880,52.353719
Everlostraat,7,,,7596MP,Rossum,Dinkelland,Overijssel,VBO,6.937189,52.353742
Everlostraat,9,,,7596MP,Rossum,Dinkelland,Overijssel,VBO,6.938392,52.354148
Everlostraat,11,A,,7596MP,Rossum,Dinkelland,Overijssel,VBO,6.938845,52.354493
Everlostraat,11,,,7596MP,Rossum,Dinkelland,Overijssel,VBO,6.938817,52.354556
Everlostraat,13,A,,7596MP,Rossum,Dinkelland,Overijssel,VBO,6.940212,52.355805
Everlostraat,13,,,7596MP,Rossum,Dinkelland,Overijssel,VBO,6.939863,52.355495
Everlostraat,15,A,,7596MP,Rossum,Dinkelland,Overijssel,VBO,6.941203,52.356008
Everlostraat,15,,,7596MP,Rossum,Dinkelland,Overijssel,VBO,6.941069,52.355974
Everlostraat,17,A,,7596MP,Rossum,Dinkelland,Overijssel,VBO,6.941586,52.356470
Everlostraat,17,,,7596MP,Rossum,Dinkelland,Overijssel,VBO,6.941539,52.356399
Everlostraat,19,,,7596MP,Rossum,Dinkelland,Overijssel,VBO,6.950828,52.358785
Everlostraat,23,A,,7596MP,Rossum,Dinkelland,Overijssel,VBO,6.953577,52.361522
Everlostraat,23,,,7596MP,Rossum,Dinkelland,Overijssel,VBO,6.953532,52.361595
Everlostraat,25,A,,7596MP,Rossum,Dinkelland,Overijssel,VBO,6.960425,52.361938
Everlostraat,25,,,7596MP,Rossum,Dinkelland,Overijssel,VBO,6.960526,52.361883
Everlostraat,27,,,7596MP,Rossum,Dinkelland,Overijssel,VBO,6.959384,52.361143
Everlostraat,29,A,,7596MP,Rossum,Dinkelland,Overijssel,VBO,6.965330,52.358038
Everlostraat,29,,,7596MP,Rossum,Dinkelland,Overijssel,VBO,6.965273,52.358149
Everlostraat,2,,,7596MR,Rossum,Dinkelland,Overijssel,VBO,6.933796,52.347386
Everlostraat,4,,,7596MR,Rossum,Dinkelland,Overijssel,VBO,6.934782,52.347454
Everlostraat,10,,,7596MR,Rossum,Dinkelland,Overijssel,VBO,6.936623,52.348059
Everlostraat,12,,,7596MR,Rossum,Dinkelland,Overijssel,VBO,6.938352,52.349645
Everlostraat,16,,,7596MR,Rossum,Dinkelland,Overijssel,VBO,6.950493,52.357180
Everlostraat,20,A,,7596MR,Rossum,Dinkelland,Overijssel,VBO,6.955541,52.360421
Everlostraat,20,,TRAF,7596MR,Rossum,Dinkelland,Overijssel,VBO,6.955928,52.360587
Everlostraat,20,,,7596MR,Rossum,Dinkelland,Overijssel,VBO,6.955407,52.360369
Everlostraat,22,,,7596MR,Rossum,Dinkelland,Overijssel,VBO,6.958322,52.359369
Everlostraat,24,,,7596MR,Rossum,Dinkelland,Overijssel,VBO,6.958172,52.359263
Goorweg,3,,,7596MS,Rossum,Dinkelland,Overijssel,VBO,6.950266,52.354495
Goorweg,4,,,7596MS,Rossum,Dinkelland,Overijssel,VBO,6.960140,52.353502
Goorweg,6,,,7596MS,Rossum,Dinkelland,Overijssel,VBO,6.963101,52.354199
Goorweg,7,,,7596MS,Rossum,Dinkelland,Overijssel,VBO,6.964382,52.357598
Goorweg,8,,,7596MS,Rossum,Dinkelland,Overijssel,VBO,6.962995,52.354093
Havezatheweg,3,,,7596MT,Rossum,Dinkelland,Overijssel,VBO,6.941800,52.353789
Havezatheweg,4,,,7596MT,Rossum,Dinkelland,Overijssel,VBO,6.943013,52.351526
Havezatheweg,5,,,7596MT,Rossum,Dinkelland,Overijssel,VBO,6.946254,52.354931
Havezatheweg,6,,TRAF,7596MT,Rossum,Dinkelland,Overijssel,VBO,6.942999,52.352802
Havezatheweg,6,,,7596MT,Rossum,Dinkelland,Overijssel,VBO,6.943259,52.352700
Havezatheweg,8,,,7596MT,Rossum,Dinkelland,Overijssel,VBO,6.943718,52.352653
Havezatheweg,10,,,7596MT,Rossum,Dinkelland,Overijssel,VBO,6.944918,52.354359
Hamsweg,1,A,,7596MV,Rossum,Dinkelland,Overijssel,VBO,6.941819,52.354750
Hamsweg,1,,,7596MV,Rossum,Dinkelland,Overijssel,VBO,6.941803,52.354697
Sandermanweg,1,,,7596MX,Rossum,Dinkelland,Overijssel,VBO,6.934191,52.355345
Pieriksbosweg,2,,,7596MZ,Rossum,Dinkelland,Overijssel,VBO,6.935054,52.342219
Pieriksbosweg,3,A,,7596MZ,Rossum,Dinkelland,Overijssel,VBO,6.936367,52.341968
Pieriksbosweg,3,,,7596MZ,Rossum,Dinkelland,Overijssel,VBO,6.936367,52.341968
Pieriksbosweg,4,,,7596MZ,Rossum,Dinkelland,Overijssel,VBO,6.935179,52.342013
Pieriksbosweg,5,,SCHU,7596MZ,Rossum,Dinkelland,Overijssel,VBO,6.942410,52.338940
Tramweg,1,,,7596NA,Rossum,Dinkelland,Overijssel,VBO,6.935531,52.344100
Tramweg,2,,,7596NA,Rossum,Dinkelland,Overijssel,VBO,6.934733,52.343931
Tramweg,3,,,7596NA,Rossum,Dinkelland,Overijssel,VBO,6.935802,52.343863
Tramweg,4,,,7596NA,Rossum,Dinkelland,Overijssel,VBO,6.935663,52.343262
Tramweg,5,,,7596NA,Rossum,Dinkelland,Overijssel,VBO,6.936045,52.343698
Tramweg,6,,,7596NA,Rossum,Dinkelland,Overijssel,VBO,6.936551,52.343053
Tramweg,8,A,,7596NA,Rossum,Dinkelland,Overijssel,VBO,6.937488,52.342573
Tramweg,8,,,7596NA,Rossum,Dinkelland,Overijssel,VBO,6.937402,52.342610
Tramweg,9,A,,7596NA,Rossum,Dinkelland,Overijssel,VBO,6.939235,52.342772
Tramweg,9,,,7596NA,Rossum,Dinkelland,Overijssel,VBO,6.938227,52.342698
Tramweg,10,A,,7596NA,Rossum,Dinkelland,Overijssel,VBO,6.941255,52.340753
Tramweg,10,,,7596NA,Rossum,Dinkelland,Overijssel,VBO,6.941169,52.340808
Tramweg,11,,,7596NA,Rossum,Dinkelland,Overijssel,VBO,6.944533,52.343398
Tramweg,12,A,,7596NA,Rossum,Dinkelland,Overijssel,VBO,6.943883,52.339936
Tramweg,12,,TRAF,7596NA,Rossum,Dinkelland,Overijssel,VBO,6.944485,52.339937
Tramweg,12,,,7596NA,Rossum,Dinkelland,Overijssel,VBO,6.943883,52.339936
Tramweg,13,,,7596NA,Rossum,Dinkelland,Overijssel,VBO,6.944125,52.342243
Tramweg,14,A,,7596NA,Rossum,Dinkelland,Overijssel,VBO,6.947267,52.338939
Tramweg,14,,,7596NA,Rossum,Dinkelland,Overijssel,VBO,6.947328,52.339001
Tramweg,15,A,,7596NA,Rossum,Dinkelland,Overijssel,VBO,6.941097,52.341267
Tramweg,15,,,7596NA,Rossum,Dinkelland,Overijssel,VBO,6.940997,52.341332
Tramweg,17,,,7596NA,Rossum,Dinkelland,Overijssel,VBO,6.942608,52.340816
Rode Veldweg,1,,TRAF,7596NB,Rossum,Dinkelland,Overijssel,VBO,6.936496,52.347764
Rode Veldweg,4,,,7596NB,Rossum,Dinkelland,Overijssel,VBO,6.940328,52.346959
Rode Veldweg,5,A,,7596NB,Rossum,Dinkelland,Overijssel,VBO,6.937674,52.347056
Rode Veldweg,5,,,7596NB,Rossum,Dinkelland,Overijssel,VBO,6.937775,52.346992
Molenweg,1,A,,7596NC,Rossum,Dinkelland,Overijssel,VBO,6.936421,52.346374
Molenweg,1,,,7596NC,Rossum,Dinkelland,Overijssel,VBO,6.936376,52.346444
Molenweg,4,,,7596NC,Rossum,Dinkelland,Overijssel,VBO,6.934381,52.343522
Molenweg,5,,,7596NC,Rossum,Dinkelland,Overijssel,VBO,6.934768,52.342852
Zoekerstraat,1,,,7596ND,Rossum,Dinkelland,Overijssel,VBO,6.938058,52.364337
Zoekerstraat,3,A,,7596ND,Rossum,Dinkelland,Overijssel,VBO,6.939757,52.363434
Zoekerstraat,3,,,7596ND,Rossum,Dinkelland,Overijssel,VBO,6.939949,52.363430
Zoekerstraat,4,A,,7596ND,Rossum,Dinkelland,Overijssel,VBO,6.940026,52.361103
Zoekerstraat,4,,,7596ND,Rossum,Dinkelland,Overijssel,VBO,6.940062,52.361015
Zoekerstraat,5,A,,7596ND,Rossum,Dinkelland,Overijssel,VBO,6.941655,52.361378
Zoekerstraat,5,,,7596ND,Rossum,Dinkelland,Overijssel,VBO,6.941772,52.361376
Zoekerstraat,6,A,,7596ND,Rossum,Dinkelland,Overijssel,VBO,6.940261,52.359301
Zoekerstraat,6,,,7596ND,Rossum,Dinkelland,Overijssel,VBO,6.940393,52.359300
Zoekerstraat,7,,,7596ND,Rossum,Dinkelland,Overijssel,VBO,6.941339,52.359063
Zoekerstraat,8,A,,7596ND,Rossum,Dinkelland,Overijssel,VBO,6.941470,52.357353
Zoekerstraat,8,,,7596ND,Rossum,Dinkelland,Overijssel,VBO,6.941603,52.357369
Smienkweg,2,A,,7596NG,Rossum,Dinkelland,Overijssel,VBO,6.934839,52.362959
Smienkweg,2,,,7596NG,Rossum,Dinkelland,Overijssel,VBO,6.934781,52.362996
Smienkweg,4,,,7596NG,Rossum,Dinkelland,Overijssel,VBO,6.935815,52.362749
Smienkweg,6,,,7596NG,Rossum,Dinkelland,Overijssel,VBO,6.936897,52.362195
Smienkweg,8,A,,7596NG,Rossum,Dinkelland,Overijssel,VBO,6.937610,52.361601
Smienkweg,8,,,7596NG,Rossum,Dinkelland,Overijssel,VBO,6.937585,52.361710
Wiekerstraat,3,,,7596NH,Rossum,Dinkelland,Overijssel,VBO,6.925663,52.357506
Wiekerstraat,5,A,,7596NH,Rossum,Dinkelland,Overijssel,VBO,6.932424,52.362352
Wiekerstraat,5,,,7596NH,Rossum,Dinkelland,Overijssel,VBO,6.932539,52.362288
Wiekerstraat,7,A,,7596NH,Rossum,Dinkelland,Overijssel,VBO,6.934419,52.364412
Wiekerstraat,7,B,,7596NH,Rossum,Dinkelland,Overijssel,VBO,6.936329,52.364863
Wiekerstraat,7,,,7596NH,Rossum,Dinkelland,Overijssel,VBO,6.934301,52.364386
Wiekerstraat,8,,TRAF,7596NH,Rossum,Dinkelland,Overijssel,VBO,6.935374,52.363563
Wiekerstraat,8,,,7596NH,Rossum,Dinkelland,Overijssel,VBO,6.935428,52.363859
Wiekerstraat,9,,,7596NH,Rossum,Dinkelland,Overijssel,VBO,6.936737,52.365190
Wiekerstraat,10,,,7596NH,Rossum,Dinkelland,Overijssel,VBO,6.943051,52.369235
Wiekerstraat,12,,,7596NH,Rossum,Dinkelland,Overijssel,VBO,6.945427,52.370110
Ensmanweg,2,,,7596NJ,Rossum,Dinkelland,Overijssel,VBO,6.930066,52.359974
Ensmanweg,4,,TRAF,7596NJ,Rossum,Dinkelland,Overijssel,VBO,6.927796,52.361837
Ensmanweg,4,,,7596NJ,Rossum,Dinkelland,Overijssel,VBO,6.928694,52.361484
Ensmanweg,6,A,,7596NJ,Rossum,Dinkelland,Overijssel,VBO,6.925978,52.363183
Ensmanweg,6,,,7596NJ,Rossum,Dinkelland,Overijssel,VBO,6.925770,52.363113
Schreursweg,3,,,7596NK,Rossum,Dinkelland,Overijssel,VBO,6.932519,52.366774
Schreursweg,4,,,7596NK,Rossum,Dinkelland,Overijssel,VBO,6.934804,52.366169
Schreursweg,6,,,7596NK,Rossum,Dinkelland,Overijssel,VBO,6.931887,52.368023
Schreursweg,8,,,7596NK,Rossum,Dinkelland,Overijssel,VBO,6.931180,52.368373
Rikhofsweg,1,,,7596NM,Rossum,Dinkelland,Overijssel,VBO,6.930173,52.362642
Rikhofsweg,2,,,7596NM,Rossum,Dinkelland,Overijssel,VBO,6.929130,52.363483
Esweg,1,A,,7596NN,Rossum,Dinkelland,Overijssel,VBO,6.926350,52.356993
Esweg,1,,,7596NN,Rossum,Dinkelland,Overijssel,VBO,6.926513,52.357018
Esweg,3,A,,7596NN,Rossum,Dinkelland,Overijssel,VBO,6.929593,52.352425
Esweg,3,,,7596NN,Rossum,Dinkelland,Overijssel,VBO,6.929468,52.352355
Reimerweg,2,,,7596NP,Rossum,Dinkelland,Overijssel,VBO,6.922647,52.355190
Reimerweg,5,A,,7596NP,Rossum,Dinkelland,Overijssel,VBO,6.916671,52.355907
Reimerweg,5,,,7596NP,Rossum,Dinkelland,Overijssel,VBO,6.916641,52.355996
Reimerweg,7,,,7596NP,Rossum,Dinkelland,Overijssel,VBO,6.916075,52.357909
Reimerweg,8,,,7596NP,Rossum,Dinkelland,Overijssel,VBO,6.912114,52.361834
Reimerweg,9,,,7596NP,Rossum,Dinkelland,Overijssel,VBO,6.914066,52.358824
Reimerweg,10,,,7596NP,Rossum,Dinkelland,Overijssel,VBO,6.910575,52.362753
Reimerweg,11,,,7596NP,Rossum,Dinkelland,Overijssel,VBO,6.914011,52.358915
Reimerweg,12,,,7596NP,Rossum,Dinkelland,Overijssel,VBO,6.908295,52.364769
Reimerweg,13,A,,7596NP,Rossum,Dinkelland,Overijssel,VBO,6.912420,52.360913
Reimerweg,13,,TRAF,7596NP,Rossum,Dinkelland,Overijssel,VBO,6.912772,52.360813
Reimerweg,13,,,7596NP,Rossum,Dinkelland,Overijssel,VBO,6.912319,52.360941
Reimerweg,17,,,7596NP,Rossum,Dinkelland,Overijssel,VBO,6.905212,52.365231
Vennegoorsteeg,2,,,7596NR,Rossum,Dinkelland,Overijssel,VBO,6.913877,52.363986
Paalmaatsdijk,7,,,7596NS,Rossum,Dinkelland,Overijssel,VBO,6.896810,52.366857
Paalmaatsdijk,8,,,7596NS,Rossum,Dinkelland,Overijssel,VBO,6.908813,52.367027
Paalmaatsdijk,9,,,7596NS,Rossum,Dinkelland,Overijssel,VBO,6.908277,52.367690
Paalmaatsdijk,10,A,,7596NS,Rossum,Dinkelland,Overijssel,VBO,6.909487,52.367423
Paalmaatsdijk,10,,,7596NS,Rossum,Dinkelland,Overijssel,VBO,6.909500,52.367387
Ootmarsumsestraat,7,,TRAF,7596NT,Rossum,Dinkelland,Overijssel,VBO,6.910281,52.366172
Ootmarsumsestraat,7,,,7596NT,Rossum,Dinkelland,Overijssel,VBO,6.910037,52.366337
Ootmarsumsestraat,9,,,7596NT,Rossum,Dinkelland,Overijssel,VBO,6.910099,52.366417
Ootmarsumsestraat,11,,,7596NT,Rossum,Dinkelland,Overijssel,VBO,6.907962,52.370921
Ootmarsumsestraat,16,,TRAF,7596NT,Rossum,Dinkelland,Overijssel,VBO,6.915517,52.364280
Ootmarsumsestraat,16,,,7596NT,Rossum,Dinkelland,Overijssel,VBO,6.915612,52.364045
Ootmarsumsestraat,18,,,7596NT,Rossum,Dinkelland,Overijssel,VBO,6.914922,52.364476
Ootmarsumsestraat,20,,,7596NT,Rossum,Dinkelland,Overijssel,VBO,6.913945,52.365532
Ootmarsumsestraat,24,A,,7596NT,Rossum,Dinkelland,Overijssel,VBO,6.909525,52.370227
Ootmarsumsestraat,24,,TRAF,7596NT,Rossum,Dinkelland,Overijssel,VBO,6.909152,52.369639
Ootmarsumsestraat,24,,,7596NT,Rossum,Dinkelland,Overijssel,VBO,6.909512,52.370290
Ootmarsumsestraat,26,,,7596NT,Rossum,Dinkelland,Overijssel,VBO,6.907888,52.372181
Weustmorsweg,2,,,7596NV,Rossum,Dinkelland,Overijssel,VBO,6.907106,52.369503
Oude Broekweg,3,,,7596NW,Rossum,Dinkelland,Overijssel,VBO,6.910938,52.371602
Oude Broekweg,4,,,7596NW,Rossum,Dinkelland,Overijssel,VBO,6.910944,52.370928
Oude Broekweg,5,,,7596NW,Rossum,Dinkelland,Overijssel,VBO,6.913192,52.373533
Thaborweg,3,,,7596NX,Rossum,Dinkelland,Overijssel,VBO,6.913535,52.368135
Thaborweg,5,,,7596NX,Rossum,Dinkelland,Overijssel,VBO,6.914509,52.368257
Schipweg,2,,,7596NZ,Rossum,Dinkelland,Overijssel,VBO,6.918059,52.361775
Schipweg,4,,,7596NZ,Rossum,Dinkelland,Overijssel,VBO,6.918006,52.361938
Schipweg,5,,,7596NZ,Rossum,Dinkelland,Overijssel,VBO,6.923279,52.365815
Schipweg,7,,,7596NZ,Rossum,Dinkelland,Overijssel,VBO,6.925068,52.364902
Bentertsteeg,5,,,7596PA,Rossum,Dinkelland,Overijssel,VBO,6.905951,52.349931
Bentertsteeg,6,,SCHU,7596PA,Rossum,Dinkelland,Overijssel,VBO,6.892140,52.349958
Bentertsteeg,7,,,7596PA,Rossum,Dinkelland,Overijssel,VBO,6.906268,52.349325
Bentertsteeg,9,,,7596PA,Rossum,Dinkelland,Overijssel,VBO,6.908785,52.350536
Bentertsteeg,10,A,,7596PA,Rossum,Dinkelland,Overijssel,VBO,6.901983,52.349370
Bentertsteeg,10,,,7596PA,Rossum,Dinkelland,Overijssel,VBO,6.901895,52.349381
Bentertsteeg,12,,TRAF,7596PA,Rossum,Dinkelland,Overijssel,VBO,6.907190,52.348387
Bentertsteeg,12,,,7596PA,Rossum,Dinkelland,Overijssel,VBO,6.908113,52.348348
Bentertsteeg,14,A,,7596PA,Rossum,Dinkelland,Overijssel,VBO,6.912114,52.349447
Bentertsteeg,14,,,7596PA,Rossum,Dinkelland,Overijssel,VBO,6.911984,52.349512
Ootmarsumsedijk,21,A,,7596PB,Rossum,Dinkelland,Overijssel,VBO,6.902349,52.351065
Ootmarsumsedijk,21,,,7596PB,Rossum,Dinkelland,Overijssel,VBO,6.902376,52.351001
Ootmarsumsedijk,23,,,7596PB,Rossum,Dinkelland,Overijssel,VBO,6.901614,52.353187
Ootmarsumsedijk,24,,,7596PB,Rossum,Dinkelland,Overijssel,VBO,6.904613,52.351575
Ootmarsumsedijk,25,A,,7596PB,Rossum,Dinkelland,Overijssel,VBO,6.902330,52.356530
Ootmarsumsedijk,25,,,7596PB,Rossum,Dinkelland,Overijssel,VBO,6.902313,52.356441
Ootmarsumsedijk,26,,,7596PB,Rossum,Dinkelland,Overijssel,VBO,6.902613,52.352347
Ootmarsumsedijk,27,A,,7596PB,Rossum,Dinkelland,Overijssel,VBO,6.902775,52.357522
Ootmarsumsedijk,27,,,7596PB,Rossum,Dinkelland,Overijssel,VBO,6.902734,52.357604
Ootmarsumsedijk,29,,,7596PB,Rossum,Dinkelland,Overijssel,VBO,6.903141,52.358327
Ootmarsumsedijk,31,,,7596PB,Rossum,Dinkelland,Overijssel,VBO,6.903031,52.358553
Mansboerweg,3,A,,7596PC,Rossum,Dinkelland,Overijssel,VBO,6.909200,52.347085
Mansboerweg,3,,,7596PC,Rossum,Dinkelland,Overijssel,VBO,6.909129,52.347157
Lemseloseschoolweg,3,,,7596PD,Rossum,Dinkelland,Overijssel,VBO,6.911985,52.345820
Lemseloseschoolweg,6,,,7596PD,Rossum,Dinkelland,Overijssel,VBO,6.910606,52.345718
Lemseloseschoolweg,8,,,7596PD,Rossum,Dinkelland,Overijssel,VBO,6.908672,52.344529
Tiethofweg,1,A,,7596PE,Rossum,Dinkelland,Overijssel,VBO,6.914101,52.344493
Tiethofweg,1,,,7596PE,Rossum,Dinkelland,Overijssel,VBO,6.915409,52.343679
Tiethofweg,3,,,7596PE,Rossum,Dinkelland,Overijssel,VBO,6.915415,52.343350
Tiethofweg,4,,,7596PE,Rossum,Dinkelland,Overijssel,VBO,6.913787,52.343827
Tiethofweg,5,A,,7596PE,Rossum,Dinkelland,Overijssel,VBO,6.915734,52.342029
Tiethofweg,5,,TRAF,7596PE,Rossum,Dinkelland,Overijssel,VBO,6.915061,52.342514
Tiethofweg,5,,,7596PE,Rossum,Dinkelland,Overijssel,VBO,6.915364,52.342141
Tiethofweg,9,,,7596PE,Rossum,Dinkelland,Overijssel,VBO,6.916316,52.341033
Tiethofweg,10,,,7596PE,Rossum,Dinkelland,Overijssel,VBO,6.922658,52.335144
Tiethofweg,11,A,,7596PE,Rossum,Dinkelland,Overijssel,VBO,6.916941,52.340441
Tiethofweg,11,,,7596PE,Rossum,Dinkelland,Overijssel,VBO,6.916764,52.340416
Tiethofweg,12,,,7596PE,Rossum,Dinkelland,Overijssel,VBO,6.924750,52.333283
Tiethofweg,13,,,7596PE,Rossum,Dinkelland,Overijssel,VBO,6.917511,52.339939
Tiethofweg,17,A,,7596PE,Rossum,Dinkelland,Overijssel,VBO,6.922937,52.335599
Tiethofweg,17,,,7596PE,Rossum,Dinkelland,Overijssel,VBO,6.923037,52.335499
Tiethofweg,21,,,7596PE,Rossum,Dinkelland,Overijssel,VBO,6.925964,52.334004
Tiethofweg,23,,,7596PE,Rossum,Dinkelland,Overijssel,VBO,6.926234,52.333336
Klumpersdijk,3,A,,7596PG,Rossum,Dinkelland,Overijssel,VBO,6.921154,52.338355
Klumpersdijk,3,,,7596PG,Rossum,Dinkelland,Overijssel,VBO,6.921182,52.338300
Klumpersdijk,5,,,7596PG,Rossum,Dinkelland,Overijssel,VBO,6.919811,52.338129
Klumpersdijk,6,,,7596PG,Rossum,Dinkelland,Overijssel,VBO,6.917184,52.338550
Boschweg,2,,,7596PH,Rossum,Dinkelland,Overijssel,VBO,6.921216,52.352449
Boschweg,3,A,,7596PH,Rossum,Dinkelland,Overijssel,VBO,6.923189,52.350588
Boschweg,3,,,7596PH,Rossum,Dinkelland,Overijssel,VBO,6.921993,52.350308
Boschweg,4,,,7596PH,Rossum,Dinkelland,Overijssel,VBO,6.920998,52.350594
Boschweg,5,,,7596PH,Rossum,Dinkelland,Overijssel,VBO,6.924737,52.341796
Boschweg,6,,,7596PH,Rossum,Dinkelland,Overijssel,VBO,6.921554,52.349909
Boschweg,7,,TRAF,7596PH,Rossum,Dinkelland,Overijssel,VBO,6.924881,52.341291
Boschweg,7,,,7596PH,Rossum,Dinkelland,Overijssel,VBO,6.925067,52.341567
Boschweg,8,,,7596PH,Rossum,Dinkelland,Overijssel,VBO,6.921581,52.349846
Boschweg,10,,,7596PH,Rossum,Dinkelland,Overijssel,VBO,6.921592,52.349729
Boschweg,11,,,7596PH,Rossum,Dinkelland,Overijssel,VBO,6.926315,52.341173
Boschweg,12,,,7596PH,Rossum,Dinkelland,Overijssel,VBO,6.921605,52.349675
Boschweg,14,,,7596PH,Rossum,Dinkelland,Overijssel,VBO,6.921630,52.349549
Boschweg,16,,,7596PH,Rossum,Dinkelland,Overijssel,VBO,6.921643,52.349504
Boschweg,22,,,7596PH,Rossum,Dinkelland,Overijssel,VBO,6.922675,52.345391
Boschweg,24,,TRAF,7596PH,Rossum,Dinkelland,Overijssel,VBO,6.922024,52.344833
Boschweg,24,,,7596PH,Rossum,Dinkelland,Overijssel,VBO,6.922871,52.345128
Boschweg,28,A,,7596PH,Rossum,Dinkelland,Overijssel,VBO,6.921522,52.344310
Boschweg,28,,,7596PH,Rossum,Dinkelland,Overijssel,VBO,6.921465,52.344355
Boschweg,30,,,7596PH,Rossum,Dinkelland,Overijssel,VBO,6.923741,52.343139
Boschweg,32,,,7596PH,Rossum,Dinkelland,Overijssel,VBO,6.923880,52.341205
Boschweg,36,,,7596PH,Rossum,Dinkelland,Overijssel,VBO,6.921718,52.341071
Boschweg,40,,,7596PH,Rossum,Dinkelland,Overijssel,VBO,6.927218,52.338438
Boschweg,42,,,7596PH,Rossum,Dinkelland,Overijssel,VBO,6.927831,52.338331
Kroezenboomweg,1,,,7596PJ,Rossum,Dinkelland,Overijssel,VBO,6.921343,52.346352
Kroezenboomweg,3,,,7596PJ,Rossum,Dinkelland,Overijssel,VBO,6.919185,52.346353
Hondeborgweg,5,,,7596PK,Rossum,Dinkelland,Overijssel,VBO,6.928152,52.331099
Hondeborgweg,7,,,7596PK,Rossum,Dinkelland,Overijssel,VBO,6.928095,52.331154
Roepenbeltweg,1,A,,7596RA,Rossum,Dinkelland,Overijssel,VBO,6.935685,52.336906
Roepenbeltweg,1,,,7596RA,Rossum,Dinkelland,Overijssel,VBO,6.935603,52.336917
Roepenbeltweg,2,,,7596RA,Rossum,Dinkelland,Overijssel,VBO,6.934236,52.336854
Roepenbeltweg,3,A,,7596RA,Rossum,Dinkelland,Overijssel,VBO,6.939302,52.336095
Roepenbeltweg,3,,,7596RA,Rossum,Dinkelland,Overijssel,VBO,6.939302,52.336095
Roepenbeltweg,5,A,,7596RA,Rossum,Dinkelland,Overijssel,VBO,6.939930,52.335903
Roepenbeltweg,5,,,7596RA,Rossum,Dinkelland,Overijssel,VBO,6.940012,52.335834
Roepenbeltweg,6,A,,7596RA,Rossum,Dinkelland,Overijssel,VBO,6.937377,52.336013
Roepenbeltweg,6,,,7596RA,Rossum,Dinkelland,Overijssel,VBO,6.937525,52.336065
Roepenbeltweg,7,,,7596RA,Rossum,Dinkelland,Overijssel,VBO,6.942624,52.335009
Roepenbeltweg,8,A,,7596RA,Rossum,Dinkelland,Overijssel,VBO,6.938439,52.335870
Roepenbeltweg,8,,,7596RA,Rossum,Dinkelland,Overijssel,VBO,6.938319,52.335900
Roepenbeltweg,8,,,7596RA,Rossum,Dinkelland,Overijssel,VBO,6.938357,52.335919
Roepenbeltweg,9,,,7596RA,Rossum,Dinkelland,Overijssel,VBO,6.942711,52.334981
Roepenbeltweg,11,,,7596RA,Rossum,Dinkelland,Overijssel,VBO,6.943235,52.334848
Roepenbeltweg,12,,,7596RA,Rossum,Dinkelland,Overijssel,VBO,6.941028,52.335111
Roepenbeltweg,13,A,,7596RA,Rossum,Dinkelland,Overijssel,VBO,6.943071,52.334347
Roepenbeltweg,13,,,7596RA,Rossum,Dinkelland,Overijssel,VBO,6.943071,52.334347
Roepenbeltweg,14,A,,7596RA,Rossum,Dinkelland,Overijssel,VBO,6.940961,52.334199
Roepenbeltweg,14,,,7596RA,Rossum,Dinkelland,Overijssel,VBO,6.940954,52.334240
Roepenbeltweg,15,,,7596RA,Rossum,Dinkelland,Overijssel,VBO,6.944773,52.333102
Roepenbeltweg,16,,,7596RA,Rossum,Dinkelland,Overijssel,VBO,6.942355,52.333619
Roepenbeltweg,18,,,7596RA,Rossum,Dinkelland,Overijssel,VBO,6.941898,52.333131
