openbareruimtenaam,huisnummer,huisletter,huisnummertoevoeging,postcode,woonplaatsnaam,gemeentenaam,provincienaam,typeadresseerbaarobject,longitude,latitude
Holscherdijk,2,A,,7597KA,Saasveld,Dinkelland,Overijssel,VBO,6.834873,52.327334
Holscherdijk,2,,,7597KA,Saasveld,Dinkelland,Overijssel,VBO,6.835236,52.327231
Holscherdijk,3,,,7597KA,Saasveld,Dinkelland,Overijssel,VBO,6.837874,52.329401
Holscherdijk,4,,,7597KA,Saasveld,Dinkelland,Overijssel,VBO,6.835728,52.327485
Holscherdijk,5,,,7597KA,Saasveld,Dinkelland,Overijssel,VBO,6.838957,52.330214
Holscherdijk,6,,,7597KA,Saasveld,Dinkelland,Overijssel,VBO,6.836114,52.326276
Holscherdijk,8,,,7597KA,Saasveld,Dinkelland,Overijssel,VBO,6.836610,52.326171
Holscherdijk,10,A,,7597KA,Saasveld,Dinkelland,Overijssel,VBO,6.846835,52.328841
Holscherdijk,10,,,7597KA,Saasveld,Dinkelland,Overijssel,VBO,6.846731,52.328788
Kloppersblokweg,3,A,,7597KB,Saasveld,Dinkelland,Overijssel,VBO,6.848655,52.330194
Kloppersblokweg,3,,,7597KB,Saasveld,Dinkelland,Overijssel,VBO,6.848481,52.330250
Voortsweg,1,,,7597KC,Saasveld,Dinkelland,Overijssel,VBO,6.843515,52.329610
Voortsweg,3,A,,7597KC,Saasveld,Dinkelland,Overijssel,VBO,6.841625,52.328339
Voortsweg,3,,,7597KC,Saasveld,Dinkelland,Overijssel,VBO,6.841670,52.328374
Voortsweg,4,A,,7597KC,Saasveld,Dinkelland,Overijssel,VBO,6.839274,52.328449
Voortsweg,4,,,7597KC,Saasveld,Dinkelland,Overijssel,VBO,6.839978,52.327784
Voortsweg,6,,,7597KC,Saasveld,Dinkelland,Overijssel,VBO,6.839476,52.325893
Postweg,6,,,7597KD,Saasveld,Dinkelland,Overijssel,VBO,6.839558,52.324814
Postweg,8,,,7597KD,Saasveld,Dinkelland,Overijssel,VBO,6.839076,52.324856
Postweg,10,A,,7597KD,Saasveld,Dinkelland,Overijssel,VBO,6.838651,52.324879
Postweg,10,,,7597KD,Saasveld,Dinkelland,Overijssel,VBO,6.838693,52.324833
Postweg,12,,,7597KD,Saasveld,Dinkelland,Overijssel,VBO,6.834458,52.324076
Postweg,16,A,,7597KD,Saasveld,Dinkelland,Overijssel,VBO,6.827408,52.323812
Postweg,16,,,7597KD,Saasveld,Dinkelland,Overijssel,VBO,6.827391,52.323740
Postweg,18,A,,7597KD,Saasveld,Dinkelland,Overijssel,VBO,6.822268,52.323182
Postweg,18,,,7597KD,Saasveld,Dinkelland,Overijssel,VBO,6.822544,52.323116
Postweg,20,,,7597KD,Saasveld,Dinkelland,Overijssel,VBO,6.819569,52.322738
Postweg,22,A,,7597KD,Saasveld,Dinkelland,Overijssel,VBO,6.813683,52.322180
Postweg,22,,,7597KD,Saasveld,Dinkelland,Overijssel,VBO,6.813772,52.322197
Postweg,24,,,7597KD,Saasveld,Dinkelland,Overijssel,VBO,6.812744,52.323100
Postweg,26,A,,7597KD,Saasveld,Dinkelland,Overijssel,VBO,6.808934,52.322309
Postweg,26,,,7597KD,Saasveld,Dinkelland,Overijssel,VBO,6.808960,52.322201
Postweg,28,A,,7597KD,Saasveld,Dinkelland,Overijssel,VBO,6.806068,52.322137
Postweg,28,,,7597KD,Saasveld,Dinkelland,Overijssel,VBO,6.805952,52.322174
Postweg,30,,,7597KD,Saasveld,Dinkelland,Overijssel,VBO,6.802865,52.323820
Postweg,32,,,7597KD,Saasveld,Dinkelland,Overijssel,VBO,6.802033,52.323938
Postweg,34,,,7597KD,Saasveld,Dinkelland,Overijssel,VBO,6.801417,52.324872
Postweg,5,,,7597KE,Saasveld,Dinkelland,Overijssel,VBO,6.833858,52.323661
Postweg,7,,,7597KE,Saasveld,Dinkelland,Overijssel,VBO,6.832120,52.323449
Postweg,9,A,,7597KE,Saasveld,Dinkelland,Overijssel,VBO,6.831022,52.323507
Postweg,9,,,7597KE,Saasveld,Dinkelland,Overijssel,VBO,6.831111,52.323533
Postweg,11,,,7597KE,Saasveld,Dinkelland,Overijssel,VBO,6.830184,52.323454
Postweg,13,A,,7597KE,Saasveld,Dinkelland,Overijssel,VBO,6.825795,52.321787
Postweg,13,B,,7597KE,Saasveld,Dinkelland,Overijssel,VBO,6.825896,52.321713
Postweg,13,,,7597KE,Saasveld,Dinkelland,Overijssel,VBO,6.826297,52.322117
Postweg,15,,,7597KE,Saasveld,Dinkelland,Overijssel,VBO,6.814964,52.321401
Postweg,17,,,7597KE,Saasveld,Dinkelland,Overijssel,VBO,6.806079,52.321562
Postweg,19,A,,7597KE,Saasveld,Dinkelland,Overijssel,VBO,6.803617,52.322095
Postweg,19,,,7597KE,Saasveld,Dinkelland,Overijssel,VBO,6.803748,52.322066
Postweg,21,,,7597KE,Saasveld,Dinkelland,Overijssel,VBO,6.801436,52.322696
Postweg,23,,,7597KE,Saasveld,Dinkelland,Overijssel,VBO,6.800623,52.322975
Darfeldsweg,3,A,,7597KG,Saasveld,Dinkelland,Overijssel,VBO,6.816802,52.323374
Darfeldsweg,3,,,7597KG,Saasveld,Dinkelland,Overijssel,VBO,6.816655,52.323358
Darfeldsweg,4,A,,7597KG,Saasveld,Dinkelland,Overijssel,VBO,6.818437,52.321314
Darfeldsweg,4,,,7597KG,Saasveld,Dinkelland,Overijssel,VBO,6.818498,52.321385
Darfeldsweg,5,,,7597KG,Saasveld,Dinkelland,Overijssel,VBO,6.820792,52.321088
Darfeldsweg,6,A,,7597KG,Saasveld,Dinkelland,Overijssel,VBO,6.823175,52.320394
Darfeldsweg,6,,,7597KG,Saasveld,Dinkelland,Overijssel,VBO,6.823115,52.320331
Darfeldsweg,7,A,,7597KG,Saasveld,Dinkelland,Overijssel,VBO,6.821536,52.320953
Darfeldsweg,7,,,7597KG,Saasveld,Dinkelland,Overijssel,VBO,6.821391,52.321017
Hanenweg,1,A,,7597KH,Saasveld,Dinkelland,Overijssel,VBO,6.799787,52.322573
Hanenweg,1,,,7597KH,Saasveld,Dinkelland,Overijssel,VBO,6.799687,52.322600
Hanenweg,3,,,7597KH,Saasveld,Dinkelland,Overijssel,VBO,6.799920,52.322521
Hanenweg,4,A,,7597KH,Saasveld,Dinkelland,Overijssel,VBO,6.794664,52.317321
Hanenweg,4,,,7597KH,Saasveld,Dinkelland,Overijssel,VBO,6.794794,52.317265
Hanenweg,7,,,7597KH,Saasveld,Dinkelland,Overijssel,VBO,6.803810,52.316196
Hanenweg,8,A,,7597KH,Saasveld,Dinkelland,Overijssel,VBO,6.813271,52.317545
Hanenweg,8,,,7597KH,Saasveld,Dinkelland,Overijssel,VBO,6.813182,52.317548
Hanenweg,9,,,7597KH,Saasveld,Dinkelland,Overijssel,VBO,6.808343,52.316654
Hanenweg,11,A,,7597KH,Saasveld,Dinkelland,Overijssel,VBO,6.812344,52.317028
Hanenweg,11,,,7597KH,Saasveld,Dinkelland,Overijssel,VBO,6.812224,52.316948
Bosvenweg,1,A,,7597KJ,Saasveld,Dinkelland,Overijssel,VBO,6.799408,52.325830
Bosvenweg,1,,,7597KJ,Saasveld,Dinkelland,Overijssel,VBO,6.799469,52.325902
Bosvenweg,4,A,,7597KJ,Saasveld,Dinkelland,Overijssel,VBO,6.786594,52.318474
Bosvenweg,4,,TRAF,7597KJ,Saasveld,Dinkelland,Overijssel,VBO,6.787254,52.317229
Bosvenweg,4,,,7597KJ,Saasveld,Dinkelland,Overijssel,VBO,6.786500,52.318451
Bosvenweg,5,A,,7597KJ,Saasveld,Dinkelland,Overijssel,VBO,6.789720,52.316822
Bosvenweg,5,,,7597KJ,Saasveld,Dinkelland,Overijssel,VBO,6.789675,52.316796
Telgenkamp,2,,,7597KK,Saasveld,Dinkelland,Overijssel,VBO,6.804318,52.333008
Telgenkamp,4,,,7597KK,Saasveld,Dinkelland,Overijssel,VBO,6.804352,52.333169
Lammersboerweg,1,,,7597KL,Saasveld,Dinkelland,Overijssel,VBO,6.790658,52.321908
Beekdorpweg,9,,,7597LA,Saasveld,Dinkelland,Overijssel,VBO,6.819651,52.351637
Beekdorpweg,11,,,7597LA,Saasveld,Dinkelland,Overijssel,VBO,6.819592,52.351628
Beekdorpweg,13,,,7597LA,Saasveld,Dinkelland,Overijssel,VBO,6.817298,52.350164
Beekdorpweg,15,,,7597LA,Saasveld,Dinkelland,Overijssel,VBO,6.815883,52.349048
Beekdorpweg,24,A,,7597LA,Saasveld,Dinkelland,Overijssel,VBO,6.816974,52.351013
Beekdorpweg,24,,,7597LA,Saasveld,Dinkelland,Overijssel,VBO,6.816841,52.351005
Beekdorpweg,26,A,,7597LA,Saasveld,Dinkelland,Overijssel,VBO,6.815905,52.350648
Beekdorpweg,26,,,7597LA,Saasveld,Dinkelland,Overijssel,VBO,6.815877,52.350684
Beekdorpweg,30,A,,7597LA,Saasveld,Dinkelland,Overijssel,VBO,6.813395,52.349735
Beekdorpweg,30,,,7597LA,Saasveld,Dinkelland,Overijssel,VBO,6.813528,52.349778
Broekhuisweg,2,A,,7597LB,Saasveld,Dinkelland,Overijssel,VBO,6.811053,52.352217
Broekhuisweg,2,,,7597LB,Saasveld,Dinkelland,Overijssel,VBO,6.811199,52.352197
Stempelsdijk,3,A,,7597LC,Saasveld,Dinkelland,Overijssel,VBO,6.814105,52.358113
Stempelsdijk,3,,,7597LC,Saasveld,Dinkelland,Overijssel,VBO,6.814076,52.358149
Stempelsdijk,5,,,7597LC,Saasveld,Dinkelland,Overijssel,VBO,6.810862,52.356345
Stempelsdijk,7,,,7597LC,Saasveld,Dinkelland,Overijssel,VBO,6.811236,52.356574
Stempelsdijk,9,A,,7597LC,Saasveld,Dinkelland,Overijssel,VBO,6.804693,52.355781
Stempelsdijk,9,,,7597LC,Saasveld,Dinkelland,Overijssel,VBO,6.804562,52.355809
Kroonweg,1,A,,7597LD,Saasveld,Dinkelland,Overijssel,VBO,6.814976,52.353266
Kroonweg,1,,,7597LD,Saasveld,Dinkelland,Overijssel,VBO,6.815018,52.353203
Kroonweg,3,A,,7597LD,Saasveld,Dinkelland,Overijssel,VBO,6.814495,52.354288
Kroonweg,3,,,7597LD,Saasveld,Dinkelland,Overijssel,VBO,6.814512,52.354350
Kroonweg,4,A,,7597LD,Saasveld,Dinkelland,Overijssel,VBO,6.815053,52.356660
Kroonweg,4,A,,7597LD,Saasveld,Dinkelland,Overijssel,VBO,6.815091,52.356833
Kroonweg,4,,,7597LD,Saasveld,Dinkelland,Overijssel,VBO,6.815060,52.356751
Kroonweg,4,,,7597LD,Saasveld,Dinkelland,Overijssel,VBO,6.815136,52.356869
Akkerhuisweg,1,A,,7597LE,Saasveld,Dinkelland,Overijssel,VBO,6.822601,52.354810
Akkerhuisweg,1,,,7597LE,Saasveld,Dinkelland,Overijssel,VBO,6.822679,52.354935
Weertsweg,1,,,7597LG,Saasveld,Dinkelland,Overijssel,VBO,6.823013,52.352108
Gunnerstraat,28,,TRAF,7597LH,Saasveld,Dinkelland,Overijssel,VBO,6.837001,52.343102
Gunnerstraat,28,,,7597LH,Saasveld,Dinkelland,Overijssel,VBO,6.836729,52.343285
Gunnerstraat,30,,,7597LH,Saasveld,Dinkelland,Overijssel,VBO,6.836559,52.343035
Gunnerstraat,32,A,,7597LH,Saasveld,Dinkelland,Overijssel,VBO,6.836761,52.341576
Gunnerstraat,32,,,7597LH,Saasveld,Dinkelland,Overijssel,VBO,6.835878,52.341506
Gunnerstraat,34,,TRAF,7597LH,Saasveld,Dinkelland,Overijssel,VBO,6.829841,52.339090
Gunnerstraat,34,,,7597LH,Saasveld,Dinkelland,Overijssel,VBO,6.830454,52.339002
Gunnerstraat,38,,,7597LH,Saasveld,Dinkelland,Overijssel,VBO,6.828403,52.340896
Gunnerstraat,40,,,7597LH,Saasveld,Dinkelland,Overijssel,VBO,6.826266,52.338819
Gunnerstraat,42,,TRAF,7597LH,Saasveld,Dinkelland,Overijssel,VBO,6.823040,52.337977
Gunnerstraat,42,,,7597LH,Saasveld,Dinkelland,Overijssel,VBO,6.821987,52.338997
Gunnerstraat,46,,,7597LH,Saasveld,Dinkelland,Overijssel,VBO,6.822662,52.339906
Gunnerstraat,47,,,7597LH,Saasveld,Dinkelland,Overijssel,VBO,6.832169,52.338468
Gunnerstraat,48,,,7597LH,Saasveld,Dinkelland,Overijssel,VBO,6.821128,52.341947
Gunnerstraat,49,A,,7597LH,Saasveld,Dinkelland,Overijssel,VBO,6.824668,52.337424
Gunnerstraat,49,,,7597LH,Saasveld,Dinkelland,Overijssel,VBO,6.824707,52.337355
Gunnerstraat,51,A,,7597LH,Saasveld,Dinkelland,Overijssel,VBO,6.821352,52.337063
Gunnerstraat,51,,,7597LH,Saasveld,Dinkelland,Overijssel,VBO,6.821247,52.336992
Hondeveldsweg,2,A,,7597LJ,Saasveld,Dinkelland,Overijssel,VBO,6.833191,52.338433
Hondeveldsweg,2,,,7597LJ,Saasveld,Dinkelland,Overijssel,VBO,6.833048,52.338442
Hondeveldsweg,4,,CLUB,7597LJ,Saasveld,Dinkelland,Overijssel,VBO,6.834386,52.338513
Weerselerveldweg,31,,,7597LJ,Saasveld,Dinkelland,Overijssel,VBO,6.846483,52.334643
Muldersweg,1,,,7597LK,Saasveld,Dinkelland,Overijssel,VBO,6.789051,52.332794
Muldersweg,2,,,7597LK,Saasveld,Dinkelland,Overijssel,VBO,6.790486,52.333631
Langedijk,2,,,7597LM,Saasveld,Dinkelland,Overijssel,VBO,6.825165,52.333835
Langedijk,5,,,7597LM,Saasveld,Dinkelland,Overijssel,VBO,6.837195,52.334668
Langedijk,6,A,,7597LM,Saasveld,Dinkelland,Overijssel,VBO,6.833156,52.334088
Langedijk,6,,,7597LM,Saasveld,Dinkelland,Overijssel,VBO,6.833159,52.334169
Langedijk,7,,,7597LM,Saasveld,Dinkelland,Overijssel,VBO,6.838485,52.334616
Langedijk,8,,,7597LM,Saasveld,Dinkelland,Overijssel,VBO,6.835846,52.331978
Langedijk,9,A,,7597LM,Saasveld,Dinkelland,Overijssel,VBO,6.843968,52.334027
Langedijk,9,,,7597LM,Saasveld,Dinkelland,Overijssel,VBO,6.844100,52.334016
Langedijk,10,A,,7597LM,Saasveld,Dinkelland,Overijssel,VBO,6.836160,52.333062
Langedijk,10,B,,7597LM,Saasveld,Dinkelland,Overijssel,VBO,6.836402,52.332690
Langedijk,10,,,7597LM,Saasveld,Dinkelland,Overijssel,VBO,6.836441,52.332632
Langedijk,12,,,7597LM,Saasveld,Dinkelland,Overijssel,VBO,6.836060,52.334061
Langedijk,14,,,7597LM,Saasveld,Dinkelland,Overijssel,VBO,6.839064,52.333926
Langedijk,16,A,,7597LM,Saasveld,Dinkelland,Overijssel,VBO,6.839621,52.333892
Langedijk,16,,,7597LM,Saasveld,Dinkelland,Overijssel,VBO,6.839621,52.333892
Zomerdijk,1,,,7597LN,Saasveld,Dinkelland,Overijssel,VBO,6.829865,52.333058
Zomerdijk,3,A,,7597LN,Saasveld,Dinkelland,Overijssel,VBO,6.828751,52.328128
Zomerdijk,3,,,7597LN,Saasveld,Dinkelland,Overijssel,VBO,6.828764,52.328083
Medenpad,4,,,7597LP,Saasveld,Dinkelland,Overijssel,VBO,6.816836,52.329441
Saterslostraat,18,,,7597LP,Saasveld,Dinkelland,Overijssel,VBO,6.827065,52.328607
Saterslostraat,19,,,7597LP,Saasveld,Dinkelland,Overijssel,VBO,6.826637,52.321295
Saterslostraat,21,A,,7597LP,Saasveld,Dinkelland,Overijssel,VBO,6.828340,52.323135
Saterslostraat,21,,,7597LP,Saasveld,Dinkelland,Overijssel,VBO,6.828342,52.323216
Saterslostraat,22,A,,7597LP,Saasveld,Dinkelland,Overijssel,VBO,6.816098,52.333855
Saterslostraat,22,,,7597LP,Saasveld,Dinkelland,Overijssel,VBO,6.816021,52.333757
Saterslostraat,23,,TRAF,7597LP,Saasveld,Dinkelland,Overijssel,VBO,6.828404,52.322865
Saterslostraat,23,,,7597LP,Saasveld,Dinkelland,Overijssel,VBO,6.826729,52.327757
Saterslostraat,25,A,,7597LP,Saasveld,Dinkelland,Overijssel,VBO,6.823616,52.328586
Saterslostraat,27,,,7597LP,Saasveld,Dinkelland,Overijssel,VBO,6.820663,52.327984
Saterslostraat,29,,,7597LP,Saasveld,Dinkelland,Overijssel,VBO,6.818153,52.329794
Saterslostraat,31,,,7597LP,Saasveld,Dinkelland,Overijssel,VBO,6.817124,52.330624
Saterslostraat,33,,,7597LP,Saasveld,Dinkelland,Overijssel,VBO,6.816122,52.332794
Saterslostraat,35,A,,7597LP,Saasveld,Dinkelland,Overijssel,VBO,6.815643,52.332943
Saterslostraat,35,,,7597LP,Saasveld,Dinkelland,Overijssel,VBO,6.815705,52.333041
Saterslostraat,37,,,7597LP,Saasveld,Dinkelland,Overijssel,VBO,6.814071,52.334239
Gravenallee,2,,,7597LR,Saasveld,Dinkelland,Overijssel,VBO,6.806508,52.330393
Gravenallee,3,,,7597LR,Saasveld,Dinkelland,Overijssel,VBO,6.806904,52.329920
Gravenallee,5,A,,7597LR,Saasveld,Dinkelland,Overijssel,VBO,6.806876,52.329749
Gravenallee,5,,,7597LR,Saasveld,Dinkelland,Overijssel,VBO,6.806840,52.329750
Gravenallee,6,A,,7597LR,Saasveld,Dinkelland,Overijssel,VBO,6.806264,52.329640
Gravenallee,6,,,7597LR,Saasveld,Dinkelland,Overijssel,VBO,6.806375,52.329891
Gravenallee,7,,,7597LR,Saasveld,Dinkelland,Overijssel,VBO,6.806763,52.329634
Gravenallee,9,,TRAF,7597LR,Saasveld,Dinkelland,Overijssel,VBO,6.806608,52.329367
Gravenallee,9,,,7597LR,Saasveld,Dinkelland,Overijssel,VBO,6.806684,52.329474
Gravenallee,12,,,7597LR,Saasveld,Dinkelland,Overijssel,VBO,6.794577,52.328000
Gravenallee,13,A,,7597LR,Saasveld,Dinkelland,Overijssel,VBO,6.800948,52.327178
Gravenallee,13,,,7597LR,Saasveld,Dinkelland,Overijssel,VBO,6.801052,52.327231
Hoflaan,4,,,7597LS,Saasveld,Dinkelland,Overijssel,VBO,6.807207,52.330204
Hoflaan,6,,,7597LS,Saasveld,Dinkelland,Overijssel,VBO,6.807556,52.330128
Hoflaan,8,A,,7597LS,Saasveld,Dinkelland,Overijssel,VBO,6.808265,52.330273
Hoflaan,8,,,7597LS,Saasveld,Dinkelland,Overijssel,VBO,6.807983,52.330177
Hoflaan,10,,,7597LS,Saasveld,Dinkelland,Overijssel,VBO,6.808324,52.330290
Hoflaan,12,,,7597LS,Saasveld,Dinkelland,Overijssel,VBO,6.808427,52.330289
Hoflaan,14,,,7597LS,Saasveld,Dinkelland,Overijssel,VBO,6.809895,52.330325
Hoflaan,16,,,7597LS,Saasveld,Dinkelland,Overijssel,VBO,6.809919,52.330594
Hoflaan,18,,,7597LS,Saasveld,Dinkelland,Overijssel,VBO,6.810059,52.330779
van Reedestraat,1,A,,7597LT,Saasveld,Dinkelland,Overijssel,VBO,6.805730,52.329000
van Reedestraat,1,,,7597LT,Saasveld,Dinkelland,Overijssel,VBO,6.805867,52.329142
van Reedestraat,3,,,7597LT,Saasveld,Dinkelland,Overijssel,VBO,6.804876,52.329828
van Reedestraat,5,,,7597LT,Saasveld,Dinkelland,Overijssel,VBO,6.804924,52.329953
van Reedestraat,7,,,7597LT,Saasveld,Dinkelland,Overijssel,VBO,6.804972,52.330078
van Reedestraat,9,,,7597LT,Saasveld,Dinkelland,Overijssel,VBO,6.805020,52.330195
van Reedestraat,13,,,7597LT,Saasveld,Dinkelland,Overijssel,VBO,6.805069,52.330338
van Reedestraat,15,,,7597LT,Saasveld,Dinkelland,Overijssel,VBO,6.805146,52.330463
van Reedestraat,17,,,7597LT,Saasveld,Dinkelland,Overijssel,VBO,6.805136,52.330598
van Reedestraat,19,,,7597LT,Saasveld,Dinkelland,Overijssel,VBO,6.805154,52.330723
van Reedestraat,4,,,7597LV,Saasveld,Dinkelland,Overijssel,VBO,6.806016,52.329679
van Reedestraat,6,,,7597LV,Saasveld,Dinkelland,Overijssel,VBO,6.805811,52.329691
van Reedestraat,8,,,7597LV,Saasveld,Dinkelland,Overijssel,VBO,6.805636,52.329720
van Reedestraat,10,,,7597LV,Saasveld,Dinkelland,Overijssel,VBO,6.805461,52.329749
van Reedestraat,12,,,7597LV,Saasveld,Dinkelland,Overijssel,VBO,6.805286,52.329778
van Reedestraat,14,,,7597LV,Saasveld,Dinkelland,Overijssel,VBO,6.805381,52.330020
van Reedestraat,16,,,7597LV,Saasveld,Dinkelland,Overijssel,VBO,6.805427,52.330082
van Reedestraat,18,,,7597LV,Saasveld,Dinkelland,Overijssel,VBO,6.805459,52.330171
van Reedestraat,20,,,7597LV,Saasveld,Dinkelland,Overijssel,VBO,6.805461,52.330234
van Reedestraat,22,,,7597LV,Saasveld,Dinkelland,Overijssel,VBO,6.805509,52.330333
van Reedestraat,24,,,7597LV,Saasveld,Dinkelland,Overijssel,VBO,6.805525,52.330395
van Reedestraat,26,,,7597LV,Saasveld,Dinkelland,Overijssel,VBO,6.805601,52.330475
van Reedestraat,28,,,7597LV,Saasveld,Dinkelland,Overijssel,VBO,6.805574,52.330557
van Reedestraat,30,,,7597LV,Saasveld,Dinkelland,Overijssel,VBO,6.805550,52.330719
van Reedestraat,32,,,7597LV,Saasveld,Dinkelland,Overijssel,VBO,6.805567,52.330772
van Reedestraat,34,,,7597LV,Saasveld,Dinkelland,Overijssel,VBO,6.805526,52.330890
van Reedestraat,36,,,7597LV,Saasveld,Dinkelland,Overijssel,VBO,6.805543,52.330952
van Reedestraat,38,,,7597LV,Saasveld,Dinkelland,Overijssel,VBO,6.805561,52.331060
Koninksweg,1,,,7597LW,Saasveld,Dinkelland,Overijssel,VBO,6.805656,52.331284
Koninksweg,2,,,7597LW,Saasveld,Dinkelland,Overijssel,VBO,6.805855,52.331542
Koninksweg,3,,,7597LW,Saasveld,Dinkelland,Overijssel,VBO,6.805539,52.331294
Koninksweg,4,,,7597LW,Saasveld,Dinkelland,Overijssel,VBO,6.805557,52.331641
Koninksweg,5,A,,7597LW,Saasveld,Dinkelland,Overijssel,VBO,6.804792,52.331330
Koninksweg,5,,,7597LW,Saasveld,Dinkelland,Overijssel,VBO,6.804792,52.331330
Koninksweg,6,A,,7597LW,Saasveld,Dinkelland,Overijssel,VBO,6.805096,52.331650
Koninksweg,6,,,7597LW,Saasveld,Dinkelland,Overijssel,VBO,6.805303,52.331643
Koninksweg,8,,,7597LW,Saasveld,Dinkelland,Overijssel,VBO,6.804698,52.331601
Koninksweg,10,,,7597LW,Saasveld,Dinkelland,Overijssel,VBO,6.804391,52.331622
Koninksweg,11,,,7597LW,Saasveld,Dinkelland,Overijssel,VBO,6.804088,52.331347
Koninksweg,12,,,7597LW,Saasveld,Dinkelland,Overijssel,VBO,6.804127,52.331635
Koninksweg,13,,,7597LW,Saasveld,Dinkelland,Overijssel,VBO,6.803854,52.331359
Koninksweg,14,,,7597LW,Saasveld,Dinkelland,Overijssel,VBO,6.803936,52.331637
Koninksweg,15,,,7597LW,Saasveld,Dinkelland,Overijssel,VBO,6.803649,52.331362
Koninksweg,16,,,7597LW,Saasveld,Dinkelland,Overijssel,VBO,6.803673,52.331658
Koninksweg,17,,,7597LW,Saasveld,Dinkelland,Overijssel,VBO,6.803340,52.331356
Koninksweg,18,,,7597LW,Saasveld,Dinkelland,Overijssel,VBO,6.802342,52.331782
Koninksweg,19,A,,7597LW,Saasveld,Dinkelland,Overijssel,VBO,6.798751,52.331447
Koninksweg,19,,,7597LW,Saasveld,Dinkelland,Overijssel,VBO,6.798619,52.331449
Koninksweg,20,A,,7597LW,Saasveld,Dinkelland,Overijssel,VBO,6.800388,52.333549
Koninksweg,20,,,7597LW,Saasveld,Dinkelland,Overijssel,VBO,6.800255,52.333515
Koninksweg,22,,,7597LW,Saasveld,Dinkelland,Overijssel,VBO,6.796379,52.331630
Koninksweg,23,A,,7597LW,Saasveld,Dinkelland,Overijssel,VBO,6.788301,52.329495
Koninksweg,23,,,7597LW,Saasveld,Dinkelland,Overijssel,VBO,6.788231,52.329595
Koninksweg,24,A,,7597LW,Saasveld,Dinkelland,Overijssel,VBO,6.791128,52.330491
Koninksweg,24,,,7597LW,Saasveld,Dinkelland,Overijssel,VBO,6.791299,52.330479
Koninksweg,26,A,,7597LW,Saasveld,Dinkelland,Overijssel,VBO,6.790724,52.330473
Koninksweg,26,,,7597LW,Saasveld,Dinkelland,Overijssel,VBO,6.790811,52.330445
Koninksweg,28,,,7597LW,Saasveld,Dinkelland,Overijssel,VBO,6.789987,52.330383
Koninksweg,30,,,7597LW,Saasveld,Dinkelland,Overijssel,VBO,6.789349,52.330166
Koninksweg,32,,,7597LW,Saasveld,Dinkelland,Overijssel,VBO,6.786552,52.329866
Windmolenweg,1,,,7597LX,Saasveld,Dinkelland,Overijssel,VBO,6.789297,52.331308
Windmolenweg,2,,,7597LX,Saasveld,Dinkelland,Overijssel,VBO,6.788532,52.330778
Windmolenweg,3,,TRAF,7597LX,Saasveld,Dinkelland,Overijssel,VBO,6.789045,52.330286
Windmolenweg,3,,,7597LX,Saasveld,Dinkelland,Overijssel,VBO,6.790819,52.331650
Windmolenweg,4,A,,7597LX,Saasveld,Dinkelland,Overijssel,VBO,6.788740,52.329930
Windmolenweg,4,B,,7597LX,Saasveld,Dinkelland,Overijssel,VBO,6.788729,52.330038
Windmolenweg,4,,,7597LX,Saasveld,Dinkelland,Overijssel,VBO,6.788758,52.330038
Windmolenweg,6,,,7597LX,Saasveld,Dinkelland,Overijssel,VBO,6.788772,52.329552
Windmolenweg,8,A,,7597LX,Saasveld,Dinkelland,Overijssel,VBO,6.788925,52.329281
Windmolenweg,8,,,7597LX,Saasveld,Dinkelland,Overijssel,VBO,6.788843,52.329003
Windmolenweg,10,,,7597LX,Saasveld,Dinkelland,Overijssel,VBO,6.788906,52.328661
Looweideweg,2,,,7597LZ,Saasveld,Dinkelland,Overijssel,VBO,6.791574,52.336477
Looweideweg,4,,,7597LZ,Saasveld,Dinkelland,Overijssel,VBO,6.790842,52.335604
Waterhoekweg,3,,,7597MA,Saasveld,Dinkelland,Overijssel,VBO,6.794498,52.337071
Waterhoekweg,4,,,7597MA,Saasveld,Dinkelland,Overijssel,VBO,6.795608,52.337840
Schoolweg,1,,,7597MB,Saasveld,Dinkelland,Overijssel,VBO,6.805635,52.339787
Schoolweg,2,,,7597MB,Saasveld,Dinkelland,Overijssel,VBO,6.801936,52.337917
Huupoolweg,5,A,,7597MC,Saasveld,Dinkelland,Overijssel,VBO,6.801153,52.337336
Huupoolweg,5,,,7597MC,Saasveld,Dinkelland,Overijssel,VBO,6.801140,52.337369
Huupoolweg,6,,,7597MC,Saasveld,Dinkelland,Overijssel,VBO,6.801679,52.337704
Huupoolweg,8,,,7597MC,Saasveld,Dinkelland,Overijssel,VBO,6.801860,52.337837
Huupoolweg,10,A,,7597MC,Saasveld,Dinkelland,Overijssel,VBO,6.801731,52.338427
Huupoolweg,10,,,7597MC,Saasveld,Dinkelland,Overijssel,VBO,6.801744,52.338351
Zoekerdijk,1,,,7597MD,Saasveld,Dinkelland,Overijssel,VBO,6.807283,52.334428
Zoekerdijk,3,,,7597MD,Saasveld,Dinkelland,Overijssel,VBO,6.806865,52.334658
Zoekerdijk,4,,,7597MD,Saasveld,Dinkelland,Overijssel,VBO,6.802989,52.336889
Zoekerdijk,7,A,,7597MD,Saasveld,Dinkelland,Overijssel,VBO,6.800295,52.336175
Zoekerdijk,7,,,7597MD,Saasveld,Dinkelland,Overijssel,VBO,6.800309,52.336130
Zoekerdijk,9,A,,7597MD,Saasveld,Dinkelland,Overijssel,VBO,6.799220,52.336238
Zoekerdijk,9,,,7597MD,Saasveld,Dinkelland,Overijssel,VBO,6.799109,52.336261
Drosteweg,1,A,,7597ME,Saasveld,Dinkelland,Overijssel,VBO,6.806301,52.330809
Drosteweg,1,,,7597ME,Saasveld,Dinkelland,Overijssel,VBO,6.806385,52.330682
Drosteweg,3,,,7597ME,Saasveld,Dinkelland,Overijssel,VBO,6.806232,52.330917
Drosteweg,5,,,7597ME,Saasveld,Dinkelland,Overijssel,VBO,6.806177,52.331044
Drosteweg,7,,,7597ME,Saasveld,Dinkelland,Overijssel,VBO,6.806107,52.331152
Drosteweg,9,,,7597ME,Saasveld,Dinkelland,Overijssel,VBO,6.806037,52.331270
Drosteweg,13,,,7597ME,Saasveld,Dinkelland,Overijssel,VBO,6.805678,52.331949
Drosteweg,15,,,7597ME,Saasveld,Dinkelland,Overijssel,VBO,6.806091,52.332483
Drosteweg,17,,,7597ME,Saasveld,Dinkelland,Overijssel,VBO,6.806198,52.332635
Drosteweg,19,A,,7597ME,Saasveld,Dinkelland,Overijssel,VBO,6.807500,52.333868
Drosteweg,19,,,7597ME,Saasveld,Dinkelland,Overijssel,VBO,6.807437,52.333725
Drosteweg,21,,,7597ME,Saasveld,Dinkelland,Overijssel,VBO,6.807606,52.333975
Drosteweg,23,A,,7597ME,Saasveld,Dinkelland,Overijssel,VBO,6.807663,52.334234
Drosteweg,23,,,7597ME,Saasveld,Dinkelland,Overijssel,VBO,6.807760,52.334198
Drosteweg,25,,TEL,7597ME,Saasveld,Dinkelland,Overijssel,VBO,6.808121,52.334481
Drosteweg,25,,TRAF,7597ME,Saasveld,Dinkelland,Overijssel,VBO,6.808192,52.334417
Drosteweg,25,,,7597ME,Saasveld,Dinkelland,Overijssel,VBO,6.808024,52.334653
Drosteweg,27,A,,7597ME,Saasveld,Dinkelland,Overijssel,VBO,6.811036,52.335246
Drosteweg,27,,,7597ME,Saasveld,Dinkelland,Overijssel,VBO,6.810538,52.335270
Drosteweg,31,,TRAF,7597ME,Saasveld,Dinkelland,Overijssel,VBO,6.812570,52.337322
Drosteweg,2,,TRAF,7597MG,Saasveld,Dinkelland,Overijssel,VBO,6.806311,52.331555
Drosteweg,2,,,7597MG,Saasveld,Dinkelland,Overijssel,VBO,6.806679,52.331137
Drosteweg,4,A,,7597MG,Saasveld,Dinkelland,Overijssel,VBO,6.806557,52.331444
Drosteweg,4,,,7597MG,Saasveld,Dinkelland,Overijssel,VBO,6.806611,52.331317
Drosteweg,6,,,7597MG,Saasveld,Dinkelland,Overijssel,VBO,6.808226,52.333635
Drosteweg,8,,,7597MG,Saasveld,Dinkelland,Overijssel,VBO,6.808192,52.333959
Drosteweg,10,A,,7597MG,Saasveld,Dinkelland,Overijssel,VBO,6.808675,52.334382
Drosteweg,10,,,7597MG,Saasveld,Dinkelland,Overijssel,VBO,6.808588,52.334277
Drosteweg,12,A,,7597MG,Saasveld,Dinkelland,Overijssel,VBO,6.808942,52.334496
Drosteweg,12,,,7597MG,Saasveld,Dinkelland,Overijssel,VBO,6.808879,52.334475
Drosteweg,14,,,7597MG,Saasveld,Dinkelland,Overijssel,VBO,6.809150,52.334532
Drosteweg,16,A,,7597MG,Saasveld,Dinkelland,Overijssel,VBO,6.809695,52.334615
Drosteweg,16,,,7597MG,Saasveld,Dinkelland,Overijssel,VBO,6.809401,52.334583
Drosteweg,18,A,,7597MG,Saasveld,Dinkelland,Overijssel,VBO,6.810548,52.334668
Drosteweg,18,,,7597MG,Saasveld,Dinkelland,Overijssel,VBO,6.809933,52.334702
Drosteweg,20,,,7597MG,Saasveld,Dinkelland,Overijssel,VBO,6.811445,52.334261
Drosteweg,22,,,7597MG,Saasveld,Dinkelland,Overijssel,VBO,6.812276,52.334997
Drosteweg,24,,,7597MG,Saasveld,Dinkelland,Overijssel,VBO,6.815551,52.337367
Drosteweg,26,A,,7597MG,Saasveld,Dinkelland,Overijssel,VBO,6.814849,52.341502
Drosteweg,26,,,7597MG,Saasveld,Dinkelland,Overijssel,VBO,6.814875,52.341447
Drosteweg,28,,,7597MG,Saasveld,Dinkelland,Overijssel,VBO,6.816617,52.337937
het Nijenrode,1,A,,7597MH,Saasveld,Dinkelland,Overijssel,VBO,6.806791,52.330980
het Nijenrode,1,,,7597MH,Saasveld,Dinkelland,Overijssel,VBO,6.806865,52.330982
het Nijenrode,5,A,,7597MH,Saasveld,Dinkelland,Overijssel,VBO,6.807449,52.331126
het Nijenrode,5,,,7597MH,Saasveld,Dinkelland,Overijssel,VBO,6.807295,52.331132
de Esch,1,,,7597MJ,Saasveld,Dinkelland,Overijssel,VBO,6.804179,52.328677
de Esch,2,,,7597MJ,Saasveld,Dinkelland,Overijssel,VBO,6.804293,52.329943
de Esch,3,,,7597MJ,Saasveld,Dinkelland,Overijssel,VBO,6.803415,52.329998
de Esch,4,,,7597MJ,Saasveld,Dinkelland,Overijssel,VBO,6.804089,52.329972
de Esch,6,,,7597MJ,Saasveld,Dinkelland,Overijssel,VBO,6.803885,52.330020
de Esch,7,,,7597MJ,Saasveld,Dinkelland,Overijssel,VBO,6.803675,52.330337
de Esch,9,,,7597MJ,Saasveld,Dinkelland,Overijssel,VBO,6.803782,52.330470
de Esch,10,A,,7597MJ,Saasveld,Dinkelland,Overijssel,VBO,6.804142,52.330268
de Esch,10,,,7597MJ,Saasveld,Dinkelland,Overijssel,VBO,6.804096,52.330206
de Esch,11,,,7597MJ,Saasveld,Dinkelland,Overijssel,VBO,6.803830,52.330604
de Esch,12,,,7597MJ,Saasveld,Dinkelland,Overijssel,VBO,6.804189,52.330366
de Esch,13,,,7597MJ,Saasveld,Dinkelland,Overijssel,VBO,6.803645,52.330769
de Esch,14,,,7597MJ,Saasveld,Dinkelland,Overijssel,VBO,6.804280,52.330464
de Esch,15,,,7597MJ,Saasveld,Dinkelland,Overijssel,VBO,6.803580,52.331039
de Esch,16,,,7597MJ,Saasveld,Dinkelland,Overijssel,VBO,6.804372,52.330571
de Esch,17,,,7597MJ,Saasveld,Dinkelland,Overijssel,VBO,6.803697,52.331029
de Esch,18,,,7597MJ,Saasveld,Dinkelland,Overijssel,VBO,6.804359,52.330643
de Esch,19,,,7597MJ,Saasveld,Dinkelland,Overijssel,VBO,6.803857,52.330991
de Esch,20,,,7597MJ,Saasveld,Dinkelland,Overijssel,VBO,6.804421,52.330732
de Esch,21,,,7597MJ,Saasveld,Dinkelland,Overijssel,VBO,6.804077,52.330988
de Esch,22,,,7597MJ,Saasveld,Dinkelland,Overijssel,VBO,6.804438,52.330804
de Esch,23,,,7597MJ,Saasveld,Dinkelland,Overijssel,VBO,6.804273,52.331156
de Esch,24,,,7597MJ,Saasveld,Dinkelland,Overijssel,VBO,6.804633,52.330954
de Esch,25,,,7597MJ,Saasveld,Dinkelland,Overijssel,VBO,6.804406,52.331173
de Esch,28,,,7597MJ,Saasveld,Dinkelland,Overijssel,VBO,6.804854,52.330979
de Esch,30,,,7597MJ,Saasveld,Dinkelland,Overijssel,VBO,6.804956,52.330960
de Esch,32,,,7597MJ,Saasveld,Dinkelland,Overijssel,VBO,6.805101,52.330904
de Slotweide,1,,,7597MK,Saasveld,Dinkelland,Overijssel,VBO,6.806659,52.331883
de Slotweide,3,,,7597MK,Saasveld,Dinkelland,Overijssel,VBO,6.806684,52.331748
de Slotweide,4,,,7597MK,Saasveld,Dinkelland,Overijssel,VBO,6.806954,52.331484
de Slotweide,5,,,7597MK,Saasveld,Dinkelland,Overijssel,VBO,6.806696,52.331685
de Slotweide,6,,,7597MK,Saasveld,Dinkelland,Overijssel,VBO,6.807042,52.331492
de Slotweide,7,,,7597MK,Saasveld,Dinkelland,Overijssel,VBO,6.807167,52.331724
de Slotweide,8,,,7597MK,Saasveld,Dinkelland,Overijssel,VBO,6.807233,52.331499
de Slotweide,9,,,7597MK,Saasveld,Dinkelland,Overijssel,VBO,6.807255,52.331732
de Slotweide,10,,,7597MK,Saasveld,Dinkelland,Overijssel,VBO,6.807307,52.331498
de Slotweide,11,,,7597MK,Saasveld,Dinkelland,Overijssel,VBO,6.807919,52.331850
de Slotweide,12,,,7597MK,Saasveld,Dinkelland,Overijssel,VBO,6.807482,52.331469
de Slotweide,13,,,7597MK,Saasveld,Dinkelland,Overijssel,VBO,6.807992,52.331831
de Slotweide,14,,,7597MK,Saasveld,Dinkelland,Overijssel,VBO,6.807585,52.331485
de Slotweide,15,,,7597MK,Saasveld,Dinkelland,Overijssel,VBO,6.808137,52.331766
de Slotweide,16,,,7597MK,Saasveld,Dinkelland,Overijssel,VBO,6.807895,52.331536
de Slotweide,17,,,7597MK,Saasveld,Dinkelland,Overijssel,VBO,6.808239,52.331738
de Slotweide,18,,,7597MK,Saasveld,Dinkelland,Overijssel,VBO,6.808159,52.331532
de Slotweide,19,,,7597MK,Saasveld,Dinkelland,Overijssel,VBO,6.808384,52.331700
de Slotweide,20,,,7597MK,Saasveld,Dinkelland,Overijssel,VBO,6.808333,52.331476
de Slotweide,21,,,7597MK,Saasveld,Dinkelland,Overijssel,VBO,6.808486,52.331681
de Hagen,1,,,7597ML,Saasveld,Dinkelland,Overijssel,VBO,6.806716,52.332287
de Hagen,2,,,7597ML,Saasveld,Dinkelland,Overijssel,VBO,6.806809,52.332007
de Hagen,3,,,7597ML,Saasveld,Dinkelland,Overijssel,VBO,6.807162,52.332497
de Hagen,4,,,7597ML,Saasveld,Dinkelland,Overijssel,VBO,6.807046,52.332058
de Hagen,5,,,7597ML,Saasveld,Dinkelland,Overijssel,VBO,6.807415,52.332593
de Hagen,6,,,7597ML,Saasveld,Dinkelland,Overijssel,VBO,6.807239,52.332128
de Hagen,7,,,7597ML,Saasveld,Dinkelland,Overijssel,VBO,6.807652,52.332653
de Hagen,8,,,7597ML,Saasveld,Dinkelland,Overijssel,VBO,6.807584,52.332366
de Hagen,9,,,7597ML,Saasveld,Dinkelland,Overijssel,VBO,6.807957,52.332559
de Hagen,10,,,7597ML,Saasveld,Dinkelland,Overijssel,VBO,6.807744,52.332337
de Hagen,11,,,7597ML,Saasveld,Dinkelland,Overijssel,VBO,6.808255,52.332718
de Hagen,12,,,7597ML,Saasveld,Dinkelland,Overijssel,VBO,6.808497,52.332922
de Hagen,13,,,7597ML,Saasveld,Dinkelland,Overijssel,VBO,6.808113,52.332751
de Hagen,14,,,7597ML,Saasveld,Dinkelland,Overijssel,VBO,6.808780,52.333062
de Hagen,15,,,7597ML,Saasveld,Dinkelland,Overijssel,VBO,6.808097,52.332801
de Hagen,17,,,7597ML,Saasveld,Dinkelland,Overijssel,VBO,6.807823,52.332966
de Hagen,18,,,7597ML,Saasveld,Dinkelland,Overijssel,VBO,6.809037,52.333293
de Hagen,20,,,7597ML,Saasveld,Dinkelland,Overijssel,VBO,6.808993,52.333311
de Hagen,21,,,7597ML,Saasveld,Dinkelland,Overijssel,VBO,6.807973,52.333063
de Hagen,22,,,7597ML,Saasveld,Dinkelland,Overijssel,VBO,6.808921,52.333330
de Hagen,23,,,7597ML,Saasveld,Dinkelland,Overijssel,VBO,6.808048,52.333116
de Hagen,24,,,7597ML,Saasveld,Dinkelland,Overijssel,VBO,6.808789,52.333349
de Hagen,25,,,7597ML,Saasveld,Dinkelland,Overijssel,VBO,6.808154,52.333204
de Hagen,26,,,7597ML,Saasveld,Dinkelland,Overijssel,VBO,6.808716,52.333368
de Hagen,27,,,7597ML,Saasveld,Dinkelland,Overijssel,VBO,6.808200,52.333276
de Hagen,28,,,7597ML,Saasveld,Dinkelland,Overijssel,VBO,6.808658,52.333387
de Hagen,30,,,7597ML,Saasveld,Dinkelland,Overijssel,VBO,6.808600,52.333415
de Hagen,32,,,7597ML,Saasveld,Dinkelland,Overijssel,VBO,6.808528,52.333443
het Vlonder,2,,,7597MN,Saasveld,Dinkelland,Overijssel,VBO,6.808021,52.332280
het Vlonder,4,,,7597MN,Saasveld,Dinkelland,Overijssel,VBO,6.807945,52.332200
het Vlonder,6,,,7597MN,Saasveld,Dinkelland,Overijssel,VBO,6.807674,52.331961
het Vlonder,8,,,7597MN,Saasveld,Dinkelland,Overijssel,VBO,6.807642,52.331898
het Vlonder,10,,,7597MN,Saasveld,Dinkelland,Overijssel,VBO,6.807595,52.331791
het Vlonder,12,,,7597MN,Saasveld,Dinkelland,Overijssel,VBO,6.807593,52.331737
de Bongerd,1,,,7597MP,Saasveld,Dinkelland,Overijssel,VBO,6.808391,52.332383
de Bongerd,2,,,7597MP,Saasveld,Dinkelland,Overijssel,VBO,6.808455,52.331160
de Bongerd,3,,,7597MP,Saasveld,Dinkelland,Overijssel,VBO,6.808463,52.332329
de Bongerd,4,,,7597MP,Saasveld,Dinkelland,Overijssel,VBO,6.808704,52.331139
de Bongerd,5,,,7597MP,Saasveld,Dinkelland,Overijssel,VBO,6.808621,52.332228
de Bongerd,6,,,7597MP,Saasveld,Dinkelland,Overijssel,VBO,6.808997,52.331145
de Bongerd,7,,,7597MP,Saasveld,Dinkelland,Overijssel,VBO,6.808721,52.332137
de Bongerd,8,,,7597MP,Saasveld,Dinkelland,Overijssel,VBO,6.809260,52.331106
de Bongerd,9,,,7597MP,Saasveld,Dinkelland,Overijssel,VBO,6.808865,52.332045
de Bongerd,11,,,7597MP,Saasveld,Dinkelland,Overijssel,VBO,6.809079,52.331854
de Bongerd,13,,,7597MP,Saasveld,Dinkelland,Overijssel,VBO,6.808850,52.331578
de Bongerd,15,,,7597MP,Saasveld,Dinkelland,Overijssel,VBO,6.808683,52.331400
de Bongerd,17,,,7597MP,Saasveld,Dinkelland,Overijssel,VBO,6.808931,52.331361
de Bongerd,19,,,7597MP,Saasveld,Dinkelland,Overijssel,VBO,6.809197,52.331421
de Wingerd,1,,,7597MR,Saasveld,Dinkelland,Overijssel,VBO,6.807854,52.333460
de Wingerd,3,,,7597MR,Saasveld,Dinkelland,Overijssel,VBO,6.807719,52.333371
de Wingerd,5,,,7597MR,Saasveld,Dinkelland,Overijssel,VBO,6.807613,52.333274
de Wingerd,9,,,7597MR,Saasveld,Dinkelland,Overijssel,VBO,6.807506,52.333158
de Wingerd,11,,,7597MR,Saasveld,Dinkelland,Overijssel,VBO,6.807414,52.333033
Diezelkamp,1,,,7597MS,Saasveld,Dinkelland,Overijssel,VBO,6.805802,52.332154
Diezelkamp,3,,,7597MS,Saasveld,Dinkelland,Overijssel,VBO,6.805555,52.332238
Diezelkamp,5,,,7597MS,Saasveld,Dinkelland,Overijssel,VBO,6.805483,52.332284
Diezelkamp,7,,,7597MS,Saasveld,Dinkelland,Overijssel,VBO,6.805353,52.332348
Diezelkamp,9,,,7597MS,Saasveld,Dinkelland,Overijssel,VBO,6.805150,52.332431
Diezelkamp,11,,,7597MS,Saasveld,Dinkelland,Overijssel,VBO,6.804962,52.332497
Diezelkamp,15,,,7597MS,Saasveld,Dinkelland,Overijssel,VBO,6.804393,52.332620
de Burcht,1,,,7597MT,Saasveld,Dinkelland,Overijssel,VBO,6.808657,52.332875
de Burcht,2,,,7597MT,Saasveld,Dinkelland,Overijssel,VBO,6.808604,52.332597
de Burcht,3,,,7597MT,Saasveld,Dinkelland,Overijssel,VBO,6.808743,52.332820
de Burcht,4,,,7597MT,Saasveld,Dinkelland,Overijssel,VBO,6.808820,52.332495
de Burcht,5,,,7597MT,Saasveld,Dinkelland,Overijssel,VBO,6.808976,52.332781
de Burcht,6,,,7597MT,Saasveld,Dinkelland,Overijssel,VBO,6.808892,52.332449
de Burcht,8,,,7597MT,Saasveld,Dinkelland,Overijssel,VBO,6.809051,52.332367
de Burcht,9,,,7597MT,Saasveld,Dinkelland,Overijssel,VBO,6.809265,52.332625
de Burcht,10,,,7597MT,Saasveld,Dinkelland,Overijssel,VBO,6.809255,52.332319
de Burcht,11,,,7597MT,Saasveld,Dinkelland,Overijssel,VBO,6.809327,52.332741
de Burcht,13,,,7597MT,Saasveld,Dinkelland,Overijssel,VBO,6.809344,52.332795
de Burcht,15,,,7597MT,Saasveld,Dinkelland,Overijssel,VBO,6.809246,52.332940
de Burcht,17,,,7597MT,Saasveld,Dinkelland,Overijssel,VBO,6.809279,52.333074
de Burcht,19,,,7597MT,Saasveld,Dinkelland,Overijssel,VBO,6.809486,52.333125
de Snieder,1,,,7597MV,Saasveld,Dinkelland,Overijssel,VBO,6.804879,52.332219
de Snieder,2,,,7597MV,Saasveld,Dinkelland,Overijssel,VBO,6.805078,52.332927
de Snieder,3,,,7597MV,Saasveld,Dinkelland,Overijssel,VBO,6.804797,52.331950
de Snieder,4,,,7597MV,Saasveld,Dinkelland,Overijssel,VBO,6.805141,52.333070
de Snieder,5,,,7597MV,Saasveld,Dinkelland,Overijssel,VBO,6.804807,52.331806
de Snieder,6,,,7597MV,Saasveld,Dinkelland,Overijssel,VBO,6.805220,52.333231
de Snieder,7,,,7597MV,Saasveld,Dinkelland,Overijssel,VBO,6.804829,52.332930
de Snieder,9,,,7597MV,Saasveld,Dinkelland,Overijssel,VBO,6.804877,52.333064
de Snieder,11,,,7597MV,Saasveld,Dinkelland,Overijssel,VBO,6.804925,52.333198
Frankenkamp,1,,,7597MX,Saasveld,Dinkelland,Overijssel,VBO,6.805170,52.332126
Frankenkamp,3,,,7597MX,Saasveld,Dinkelland,Overijssel,VBO,6.805165,52.331964
Frankenkamp,4,,,7597MX,Saasveld,Dinkelland,Overijssel,VBO,6.804220,52.332263
Frankenkamp,5,,,7597MX,Saasveld,Dinkelland,Overijssel,VBO,6.804432,52.331954
Frankenkamp,6,,,7597MX,Saasveld,Dinkelland,Overijssel,VBO,6.804147,52.332273
Frankenkamp,8,,,7597MX,Saasveld,Dinkelland,Overijssel,VBO,6.804060,52.332283
Frankenkamp,9,,,7597MX,Saasveld,Dinkelland,Overijssel,VBO,6.803994,52.332012
Frankenkamp,10,,,7597MX,Saasveld,Dinkelland,Overijssel,VBO,6.803914,52.332302
Frankenkamp,11,,,7597MX,Saasveld,Dinkelland,Overijssel,VBO,6.803869,52.332028
Frankenkamp,12,,,7597MX,Saasveld,Dinkelland,Overijssel,VBO,6.803841,52.332312
Frankenkamp,13,,,7597MX,Saasveld,Dinkelland,Overijssel,VBO,6.803672,52.332044
Frankenkamp,14,,,7597MX,Saasveld,Dinkelland,Overijssel,VBO,6.803753,52.332331
de Maarschalk,1,,,7597MZ,Saasveld,Dinkelland,Overijssel,VBO,6.805499,52.332787
de Maarschalk,2,,,7597MZ,Saasveld,Dinkelland,Overijssel,VBO,6.805715,52.332649
de Maarschalk,3,,,7597MZ,Saasveld,Dinkelland,Overijssel,VBO,6.805621,52.332929
de Maarschalk,4,,,7597MZ,Saasveld,Dinkelland,Overijssel,VBO,6.805807,52.332783
de Maarschalk,5,,,7597MZ,Saasveld,Dinkelland,Overijssel,VBO,6.805758,52.333071
de Maarschalk,6,,,7597MZ,Saasveld,Dinkelland,Overijssel,VBO,6.805943,52.332898
Bellinckhofweg,19,,,7597NA,Saasveld,Dinkelland,Overijssel,VBO,6.792152,52.360290
Bellinckhofweg,21,,,7597NA,Saasveld,Dinkelland,Overijssel,VBO,6.791878,52.360464
Westerikweg,1,,,7597NB,Saasveld,Dinkelland,Overijssel,VBO,6.802311,52.340960
Westerikweg,2,,,7597NB,Saasveld,Dinkelland,Overijssel,VBO,6.802340,52.341409
Westerikweg,3,,,7597NB,Saasveld,Dinkelland,Overijssel,VBO,6.799484,52.340643
Westerikweg,6,A,,7597NB,Saasveld,Dinkelland,Overijssel,VBO,6.799311,52.346731
Westerikweg,6,,,7597NB,Saasveld,Dinkelland,Overijssel,VBO,6.798993,52.346905
Westerikweg,7,,,7597NB,Saasveld,Dinkelland,Overijssel,VBO,6.798256,52.355579
Westerikweg,8,A,,7597NB,Saasveld,Dinkelland,Overijssel,VBO,6.799597,52.348039
Westerikweg,8,B,,7597NB,Saasveld,Dinkelland,Overijssel,VBO,6.799585,52.347968
Westerikweg,8,,TRAF,7597NB,Saasveld,Dinkelland,Overijssel,VBO,6.799547,52.347716
Westerikweg,8,,,7597NB,Saasveld,Dinkelland,Overijssel,VBO,6.799603,52.348084
Westerikweg,9,A,,7597NB,Saasveld,Dinkelland,Overijssel,VBO,6.797983,52.358540
Westerikweg,9,,,7597NB,Saasveld,Dinkelland,Overijssel,VBO,6.798026,52.358494
Westerikweg,11,A,,7597NB,Saasveld,Dinkelland,Overijssel,VBO,6.797215,52.361147
Westerikweg,11,,,7597NB,Saasveld,Dinkelland,Overijssel,VBO,6.797226,52.361048
Westerikweg,12,,,7597NB,Saasveld,Dinkelland,Overijssel,VBO,6.803252,52.351957
Noordijkeresweg,4,,,7597NC,Saasveld,Dinkelland,Overijssel,VBO,6.806649,52.346265
Noordijkeresweg,6,A,,7597NC,Saasveld,Dinkelland,Overijssel,VBO,6.803433,52.346108
Noordijkeresweg,6,,TRAF,7597NC,Saasveld,Dinkelland,Overijssel,VBO,6.804012,52.345973
Noordijkeresweg,6,,,7597NC,Saasveld,Dinkelland,Overijssel,VBO,6.803587,52.346078
Noordijkeresweg,8,A,,7597NC,Saasveld,Dinkelland,Overijssel,VBO,6.802317,52.346209
Noordijkeresweg,8,,,7597NC,Saasveld,Dinkelland,Overijssel,VBO,6.802418,52.346136
Kemermanweg,1,,,7597ND,Saasveld,Dinkelland,Overijssel,VBO,6.826884,52.349257
Kemermanweg,2,,,7597ND,Saasveld,Dinkelland,Overijssel,VBO,6.826298,52.348841
Bornsestraat,22,A,,7597NE,Saasveld,Dinkelland,Overijssel,VBO,6.816176,52.345969
Bornsestraat,24,A,,7597NE,Saasveld,Dinkelland,Overijssel,VBO,6.803601,52.341349
Bornsestraat,24,,,7597NE,Saasveld,Dinkelland,Overijssel,VBO,6.816100,52.345907
Bornsestraat,26,A,,7597NE,Saasveld,Dinkelland,Overijssel,VBO,6.801865,52.339851
Bornsestraat,26,,,7597NE,Saasveld,Dinkelland,Overijssel,VBO,6.803614,52.341322
Bornsestraat,28,,,7597NE,Saasveld,Dinkelland,Overijssel,VBO,6.801723,52.339529
Bornsestraat,30,A,,7597NE,Saasveld,Dinkelland,Overijssel,VBO,6.800123,52.339530
Bornsestraat,30,,,7597NE,Saasveld,Dinkelland,Overijssel,VBO,6.800140,52.339584
Bornsestraat,32,,TRAF,7597NE,Saasveld,Dinkelland,Overijssel,VBO,6.800650,52.338562
Bornsestraat,32,,,7597NE,Saasveld,Dinkelland,Overijssel,VBO,6.800350,52.338368
Bornsestraat,34,A,,7597NE,Saasveld,Dinkelland,Overijssel,VBO,6.799358,52.338065
Bornsestraat,34,B,,7597NE,Saasveld,Dinkelland,Overijssel,VBO,6.799329,52.337625
Bornsestraat,34,,,7597NE,Saasveld,Dinkelland,Overijssel,VBO,6.799787,52.338177
Bornsestraat,36,,,7597NE,Saasveld,Dinkelland,Overijssel,VBO,6.798522,52.337625
Bornsestraat,38,,,7597NE,Saasveld,Dinkelland,Overijssel,VBO,6.798051,52.337110
Bornsestraat,40,,,7597NE,Saasveld,Dinkelland,Overijssel,VBO,6.797599,52.336764
Bornsestraat,42,,,7597NE,Saasveld,Dinkelland,Overijssel,VBO,6.797470,52.336847
Bornsestraat,44,,,7597NE,Saasveld,Dinkelland,Overijssel,VBO,6.796035,52.336019
Bornsestraat,46,,,7597NE,Saasveld,Dinkelland,Overijssel,VBO,6.795947,52.336020
Bornsestraat,48,A,,7597NE,Saasveld,Dinkelland,Overijssel,VBO,6.795545,52.335845
Bornsestraat,48,,,7597NE,Saasveld,Dinkelland,Overijssel,VBO,6.795634,52.335880
Bornsestraat,50,,,7597NE,Saasveld,Dinkelland,Overijssel,VBO,6.795143,52.335661
Bornsestraat,52,A,,7597NG,Saasveld,Dinkelland,Overijssel,VBO,6.794317,52.335527
Bornsestraat,52,,,7597NG,Saasveld,Dinkelland,Overijssel,VBO,6.794369,52.335302
Bornsestraat,54,A,,7597NG,Saasveld,Dinkelland,Overijssel,VBO,6.787607,52.331679
Bornsestraat,54,,,7597NG,Saasveld,Dinkelland,Overijssel,VBO,6.787723,52.331623
Bornsestraat,56,,,7597NG,Saasveld,Dinkelland,Overijssel,VBO,6.787122,52.331199
Bornsestraat,58,,,7597NG,Saasveld,Dinkelland,Overijssel,VBO,6.785559,52.330022
Bornsestraat,60,A,,7597NG,Saasveld,Dinkelland,Overijssel,VBO,6.782114,52.327779
Bornsestraat,60,B,,7597NG,Saasveld,Dinkelland,Overijssel,VBO,6.782187,52.327752
Bornsestraat,60,,TRAF,7597NG,Saasveld,Dinkelland,Overijssel,VBO,6.781417,52.328012
Bornsestraat,60,,,7597NG,Saasveld,Dinkelland,Overijssel,VBO,6.782620,52.327540
Bornsestraat,62,A,,7597NG,Saasveld,Dinkelland,Overijssel,VBO,6.780163,52.328252
Bornsestraat,62,,,7597NG,Saasveld,Dinkelland,Overijssel,VBO,6.780248,52.328143
Bornsestraat,64,,,7597NG,Saasveld,Dinkelland,Overijssel,VBO,6.777627,52.323644
Bornsestraat,66,,,7597NG,Saasveld,Dinkelland,Overijssel,VBO,6.776230,52.320694
Bornsestraat,21,,,7597NH,Saasveld,Dinkelland,Overijssel,VBO,6.823916,52.348735
Bornsestraat,23,,,7597NH,Saasveld,Dinkelland,Overijssel,VBO,6.822723,52.348588
Bornsestraat,25,,TRAF,7597NH,Saasveld,Dinkelland,Overijssel,VBO,6.821070,52.346945
Bornsestraat,25,,,7597NH,Saasveld,Dinkelland,Overijssel,VBO,6.821003,52.347153
Bornsestraat,27,A,,7597NH,Saasveld,Dinkelland,Overijssel,VBO,6.819132,52.346492
Bornsestraat,27,,,7597NH,Saasveld,Dinkelland,Overijssel,VBO,6.819231,52.346365
Bornsestraat,31,,NABY,7597NH,Saasveld,Dinkelland,Overijssel,VBO,6.807140,52.341882
Bornsestraat,31,,,7597NH,Saasveld,Dinkelland,Overijssel,VBO,6.806150,52.341669
Bornsestraat,33,A,,7597NH,Saasveld,Dinkelland,Overijssel,VBO,6.804725,52.341170
Bornsestraat,33,,,7597NH,Saasveld,Dinkelland,Overijssel,VBO,6.804753,52.341119
Bornsestraat,35,,,7597NH,Saasveld,Dinkelland,Overijssel,VBO,6.801080,52.338233
Bornsestraat,37,A,,7597NH,Saasveld,Dinkelland,Overijssel,VBO,6.800226,52.337686
Bornsestraat,37,,,7597NH,Saasveld,Dinkelland,Overijssel,VBO,6.800375,52.337756
Bornsestraat,39,A,,7597NH,Saasveld,Dinkelland,Overijssel,VBO,6.799395,52.337262
Bornsestraat,39,,,7597NH,Saasveld,Dinkelland,Overijssel,VBO,6.799406,52.337203
Bornsestraat,41,A,,7597NH,Saasveld,Dinkelland,Overijssel,VBO,6.796749,52.335858
Bornsestraat,41,,,7597NH,Saasveld,Dinkelland,Overijssel,VBO,6.796645,52.335823
Bornsestraat,43,,,7597NH,Saasveld,Dinkelland,Overijssel,VBO,6.795766,52.335420
Bornsestraat,45,,,7597NH,Saasveld,Dinkelland,Overijssel,VBO,6.794527,52.334752
Bornsestraat,47,,,7597NH,Saasveld,Dinkelland,Overijssel,VBO,6.794021,52.334506
Bornsestraat,49,A,,7597NH,Saasveld,Dinkelland,Overijssel,VBO,6.793219,52.334201
Bornsestraat,49,,,7597NH,Saasveld,Dinkelland,Overijssel,VBO,6.793219,52.334201
Bornsestraat,51,,,7597NH,Saasveld,Dinkelland,Overijssel,VBO,6.791131,52.332843
Bornsestraat,55,A,,7597NH,Saasveld,Dinkelland,Overijssel,VBO,6.781494,52.324838
Bornsestraat,55,,,7597NH,Saasveld,Dinkelland,Overijssel,VBO,6.781101,52.324933
Bornsestraat,57,,,7597NH,Saasveld,Dinkelland,Overijssel,VBO,6.780706,52.324515
Bornsestraat,59,,,7597NH,Saasveld,Dinkelland,Overijssel,VBO,6.780278,52.323963
Bornsestraat,61,,,7597NH,Saasveld,Dinkelland,Overijssel,VBO,6.778405,52.321774
Bornsestraat,63,,,7597NH,Saasveld,Dinkelland,Overijssel,VBO,6.777521,52.320714
Tipweg,1,A,,7597NJ,Saasveld,Dinkelland,Overijssel,VBO,6.782777,52.328831
Tipweg,1,,,7597NJ,Saasveld,Dinkelland,Overijssel,VBO,6.782750,52.328851
Tipweg,2,,,7597NJ,Saasveld,Dinkelland,Overijssel,VBO,6.780558,52.329596
Tipweg,3,A,,7597NJ,Saasveld,Dinkelland,Overijssel,VBO,6.782077,52.328808
Tipweg,3,,,7597NJ,Saasveld,Dinkelland,Overijssel,VBO,6.782030,52.328823
Ankerweg,1,,,7597NK,Saasveld,Dinkelland,Overijssel,VBO,6.796472,52.335007
Molenvenweg,2,,,7597NK,Saasveld,Dinkelland,Overijssel,VBO,6.781537,52.325287
Peddemorsweg,1,,TRAF,7597NL,Saasveld,Dinkelland,Overijssel,VBO,6.782101,52.320813
Peddemorsweg,1,,,7597NL,Saasveld,Dinkelland,Overijssel,VBO,6.781349,52.321146
Peddemorsweg,2,,,7597NL,Saasveld,Dinkelland,Overijssel,VBO,6.780319,52.322929
Peddemorsweg,4,,,7597NL,Saasveld,Dinkelland,Overijssel,VBO,6.780920,52.322436
Peddemorsweg,6,,,7597NL,Saasveld,Dinkelland,Overijssel,VBO,6.782299,52.319633
Peddemorsweg,8,,,7597NL,Saasveld,Dinkelland,Overijssel,VBO,6.781705,52.319665
Broekslagerweg,1,A,,7597NM,Saasveld,Dinkelland,Overijssel,VBO,6.760730,52.337459
Broekslagerweg,1,,,7597NM,Saasveld,Dinkelland,Overijssel,VBO,6.760776,52.337530
Turfschipweg,2,,,7597NN,Saasveld,Dinkelland,Overijssel,VBO,6.764402,52.342315
Hertmerweg,1,,,7597NP,Saasveld,Dinkelland,Overijssel,VBO,6.776512,52.325041
Hertmerweg,2,A,,7597NP,Saasveld,Dinkelland,Overijssel,VBO,6.778616,52.326176
Hertmerweg,2,,,7597NP,Saasveld,Dinkelland,Overijssel,VBO,6.778525,52.326078
Hertmerweg,3,,,7597NP,Saasveld,Dinkelland,Overijssel,VBO,6.776584,52.324977
Hertmerweg,4,,,7597NP,Saasveld,Dinkelland,Overijssel,VBO,6.776963,52.325845
Hertmerweg,5,,,7597NP,Saasveld,Dinkelland,Overijssel,VBO,6.770502,52.323781
Loohavenweg,1,A,,7597NR,Saasveld,Dinkelland,Overijssel,VBO,6.780208,52.338553
Loohavenweg,1,,,7597NR,Saasveld,Dinkelland,Overijssel,VBO,6.780296,52.338543
Loohavenweg,2,,,7597NR,Saasveld,Dinkelland,Overijssel,VBO,6.779079,52.338575
Loohavenweg,3,,SCHU,7597NR,Saasveld,Dinkelland,Overijssel,VBO,6.776512,52.336268
Loohavenweg,3,,,7597NR,Saasveld,Dinkelland,Overijssel,VBO,6.778086,52.337328
Loohavenweg,4,,,7597NR,Saasveld,Dinkelland,Overijssel,VBO,6.779189,52.338340
Loohavenweg,5,,,7597NR,Saasveld,Dinkelland,Overijssel,VBO,6.778012,52.337311
Loohavenweg,8,A,,7597NR,Saasveld,Dinkelland,Overijssel,VBO,6.768428,52.333972
Loohavenweg,8,,,7597NR,Saasveld,Dinkelland,Overijssel,VBO,6.768282,52.333982
Dulderbroekweg,4,,,7597NS,Saasveld,Dinkelland,Overijssel,VBO,6.763705,52.337352
Dulderbroekweg,5,,,7597NS,Saasveld,Dinkelland,Overijssel,VBO,6.763467,52.329661
Dulderbroekweg,6,,,7597NS,Saasveld,Dinkelland,Overijssel,VBO,6.761903,52.336484
Dulderbroekweg,7,,,7597NS,Saasveld,Dinkelland,Overijssel,VBO,6.763528,52.327368
Dulderbroekweg,10,A,,7597NS,Saasveld,Dinkelland,Overijssel,VBO,6.763698,52.335231
Dulderbroekweg,10,,TRAF,7597NS,Saasveld,Dinkelland,Overijssel,VBO,6.764274,52.335818
Dulderbroekweg,10,,,7597NS,Saasveld,Dinkelland,Overijssel,VBO,6.763844,52.335185
Dulderbroekweg,14,,,7597NS,Saasveld,Dinkelland,Overijssel,VBO,6.763546,52.331251
Dulderbroekweg,16,,,7597NS,Saasveld,Dinkelland,Overijssel,VBO,6.763074,52.328803
Zandbongenweg,3,,,7597NT,Saasveld,Dinkelland,Overijssel,VBO,6.771877,52.327891
Zandbongenweg,4,,,7597NT,Saasveld,Dinkelland,Overijssel,VBO,6.771109,52.330066
Loodijk,1,A,,7597NV,Saasveld,Dinkelland,Overijssel,VBO,6.793394,52.336041
Loodijk,1,B,,7597NV,Saasveld,Dinkelland,Overijssel,VBO,6.793437,52.336014
Loodijk,1,,,7597NV,Saasveld,Dinkelland,Overijssel,VBO,6.793410,52.335619
Loodijk,2,,,7597NV,Saasveld,Dinkelland,Overijssel,VBO,6.795106,52.336345
Loodijk,3,,,7597NV,Saasveld,Dinkelland,Overijssel,VBO,6.790803,52.338544
Loodijk,4,,,7597NV,Saasveld,Dinkelland,Overijssel,VBO,6.790580,52.338924
Loodijk,5,,,7597NV,Saasveld,Dinkelland,Overijssel,VBO,6.789294,52.338643
Loodijk,6,,,7597NV,Saasveld,Dinkelland,Overijssel,VBO,6.787653,52.339166
Loodijk,7,A,,7597NV,Saasveld,Dinkelland,Overijssel,VBO,6.788473,52.338662
Loodijk,7,,,7597NV,Saasveld,Dinkelland,Overijssel,VBO,6.788386,52.338690
Loodijk,8,A,,7597NV,Saasveld,Dinkelland,Overijssel,VBO,6.785967,52.339412
Loodijk,8,,,7597NV,Saasveld,Dinkelland,Overijssel,VBO,6.785800,52.339371
Loodijk,9,A,,7597NV,Saasveld,Dinkelland,Overijssel,VBO,6.787492,52.338736
Loodijk,9,,,7597NV,Saasveld,Dinkelland,Overijssel,VBO,6.787434,52.338737
Loodijk,10,,,7597NV,Saasveld,Dinkelland,Overijssel,VBO,6.783449,52.339422
Loodijk,11,A,,7597NV,Saasveld,Dinkelland,Overijssel,VBO,6.784398,52.338852
Loodijk,11,,,7597NV,Saasveld,Dinkelland,Overijssel,VBO,6.784201,52.338894
Loodijk,12,,,7597NV,Saasveld,Dinkelland,Overijssel,VBO,6.780648,52.339491
Loodijk,13,A,,7597NV,Saasveld,Dinkelland,Overijssel,VBO,6.778942,52.339367
Loodijk,13,,TRAF,7597NV,Saasveld,Dinkelland,Overijssel,VBO,6.780044,52.338932
Loodijk,13,,,7597NV,Saasveld,Dinkelland,Overijssel,VBO,6.778955,52.339331
Loodijk,15,A,,7597NV,Saasveld,Dinkelland,Overijssel,VBO,6.773960,52.341502
Loodijk,15,,,7597NV,Saasveld,Dinkelland,Overijssel,VBO,6.773975,52.341484
Loodijk,17,A,,7597NV,Saasveld,Dinkelland,Overijssel,VBO,6.771669,52.342392
Loodijk,17,,,7597NV,Saasveld,Dinkelland,Overijssel,VBO,6.772252,52.342259
Loodijk,19,,,7597NV,Saasveld,Dinkelland,Overijssel,VBO,6.766402,52.342894
Boerenbroekweg,4,,,7597NW,Saasveld,Dinkelland,Overijssel,VBO,6.775196,52.337380
Boerenbroekweg,6,A,,7597NW,Saasveld,Dinkelland,Overijssel,VBO,6.774143,52.337968
Boerenbroekweg,6,,,7597NW,Saasveld,Dinkelland,Overijssel,VBO,6.774146,52.338057
Luttekerveldweg,2,,TRAF,7597NX,Saasveld,Dinkelland,Overijssel,VBO,6.790641,52.342717
Luttekerveldweg,2,,,7597NX,Saasveld,Dinkelland,Overijssel,VBO,6.790544,52.343815
Luttekerveldweg,4,,,7597NX,Saasveld,Dinkelland,Overijssel,VBO,6.782714,52.342199
Molenbeekweg,2,A,,7597NZ,Saasveld,Dinkelland,Overijssel,VBO,6.771525,52.343410
Molenbeekweg,2,,,7597NZ,Saasveld,Dinkelland,Overijssel,VBO,6.771499,52.343500
Molenbeekweg,4,,,7597NZ,Saasveld,Dinkelland,Overijssel,VBO,6.773558,52.344599
Molenbeekweg,6,,,7597NZ,Saasveld,Dinkelland,Overijssel,VBO,6.774679,52.345701
Molenbeekweg,8,A,,7597NZ,Saasveld,Dinkelland,Overijssel,VBO,6.775380,52.346528
Molenbeekweg,8,,,7597NZ,Saasveld,Dinkelland,Overijssel,VBO,6.775423,52.346501
Molenbeekweg,14,A,,7597NZ,Saasveld,Dinkelland,Overijssel,VBO,6.779255,52.350267
Molenbeekweg,14,,,7597NZ,Saasveld,Dinkelland,Overijssel,VBO,6.779354,52.350176
Stopelweg,3,A,,7597PA,Saasveld,Dinkelland,Overijssel,VBO,6.787174,52.342614
Stopelweg,3,,,7597PA,Saasveld,Dinkelland,Overijssel,VBO,6.787177,52.342686
Spikkersweg,1,,,7597PB,Saasveld,Dinkelland,Overijssel,VBO,6.787707,52.336923
Remmertweg,2,A,,7597PC,Saasveld,Dinkelland,Overijssel,VBO,6.793870,52.341467
Remmertweg,2,,,7597PC,Saasveld,Dinkelland,Overijssel,VBO,6.793756,52.341439
Remmertweg,3,A,,7597PC,Saasveld,Dinkelland,Overijssel,VBO,6.793197,52.341869
Remmertweg,3,,,7597PC,Saasveld,Dinkelland,Overijssel,VBO,6.793167,52.341842
Remmertweg,5,,,7597PC,Saasveld,Dinkelland,Overijssel,VBO,6.793856,52.342724
Mnnikweg,2,A,,7597PD,Saasveld,Dinkelland,Overijssel,VBO,6.795925,52.348739
Mnnikweg,2,,,7597PD,Saasveld,Dinkelland,Overijssel,VBO,6.795719,52.348706
Mnnikweg,6,A,,7597PD,Saasveld,Dinkelland,Overijssel,VBO,6.791784,52.347279
Mnnikweg,6,,,7597PD,Saasveld,Dinkelland,Overijssel,VBO,6.791708,52.347199
Mnnikweg,8,A,,7597PD,Saasveld,Dinkelland,Overijssel,VBO,6.794139,52.345290
Mnnikweg,8,,,7597PD,Saasveld,Dinkelland,Overijssel,VBO,6.794056,52.345355
Kooidijk,1,A,,7597PE,Saasveld,Dinkelland,Overijssel,VBO,6.791350,52.349888
Kooidijk,1,,,7597PE,Saasveld,Dinkelland,Overijssel,VBO,6.791176,52.349884
Luchtersweg,2,A,,7597PE,Saasveld,Dinkelland,Overijssel,VBO,6.792334,52.352144
Luchtersweg,2,,,7597PE,Saasveld,Dinkelland,Overijssel,VBO,6.792334,52.352144
Dulderdwarsweg,2,,,7597PG,Saasveld,Dinkelland,Overijssel,VBO,6.761881,52.335022
Dulderdwarsweg,4,,,7597PG,Saasveld,Dinkelland,Overijssel,VBO,6.760261,52.332745
Hollinkweg,2,,,7597PH,Saasveld,Dinkelland,Overijssel,VBO,6.831650,52.347320
Hollinkweg,4,,,7597PH,Saasveld,Dinkelland,Overijssel,VBO,6.831026,52.347094
