openbareruimtenaam,huisnummer,huisletter,huisnummertoevoeging,postcode,woonplaatsnaam,gemeentenaam,provincienaam,typeadresseerbaarobject,longitude,latitude
Singel,2,,,8408CA,Lippenhuizen,Opsterland,Friesland,VBO,6.120594,53.005521
Singel,4,,,8408CA,Lippenhuizen,Opsterland,Friesland,VBO,6.120174,53.005326
Singel,6,,,8408CA,Lippenhuizen,Opsterland,Friesland,VBO,6.119723,53.005104
Singel,8,,,8408CA,Lippenhuizen,Opsterland,Friesland,VBO,6.118493,53.004581
Singel,10,A,,8408CA,Lippenhuizen,Opsterland,Friesland,VBO,6.117008,53.004507
Singel,10,B,,8408CA,Lippenhuizen,Opsterland,Friesland,VBO,6.116903,53.003944
Singel,10,C,,8408CA,Lippenhuizen,Opsterland,Friesland,VBO,6.116482,53.003704
Singel,10,D,,8408CA,Lippenhuizen,Opsterland,Friesland,VBO,6.115653,53.003161
Singel,10,,,8408CA,Lippenhuizen,Opsterland,Friesland,VBO,6.117637,53.004191
Singel,12,,,8408CA,Lippenhuizen,Opsterland,Friesland,VBO,6.115094,53.002670
Singel,14,,,8408CA,Lippenhuizen,Opsterland,Friesland,VBO,6.113069,53.001631
Singel,16,,,8408CA,Lippenhuizen,Opsterland,Friesland,VBO,6.112238,53.002049
Singel,18,,,8408CA,Lippenhuizen,Opsterland,Friesland,VBO,6.110481,53.003911
Singel,22,,,8408CA,Lippenhuizen,Opsterland,Friesland,VBO,6.109938,53.000787
Singel,24,,,8408CA,Lippenhuizen,Opsterland,Friesland,VBO,6.108978,53.000370
Singel,26,,,8408CA,Lippenhuizen,Opsterland,Friesland,VBO,6.108707,53.000201
Singel,28,,,8408CA,Lippenhuizen,Opsterland,Friesland,VBO,6.106136,52.998788
Singel,30,,,8408CA,Lippenhuizen,Opsterland,Friesland,VBO,6.104280,52.997334
Singel,32,,,8408CA,Lippenhuizen,Opsterland,Friesland,VBO,6.102549,52.996713
Singel,34,,,8408CA,Lippenhuizen,Opsterland,Friesland,VBO,6.099994,52.994844
Singel,36,,,8408CA,Lippenhuizen,Opsterland,Friesland,VBO,6.099421,52.994380
Singel,38,,,8408CA,Lippenhuizen,Opsterland,Friesland,VBO,6.099225,52.994255
Singel,40,,,8408CA,Lippenhuizen,Opsterland,Friesland,VBO,6.098608,52.993854
Singel,42,,,8408CA,Lippenhuizen,Opsterland,Friesland,VBO,6.096863,52.993233
Slûsleane,1,,,8408CB,Lippenhuizen,Opsterland,Friesland,VBO,6.105142,53.023381
Slûsleane,2,,,8408CB,Lippenhuizen,Opsterland,Friesland,VBO,6.118636,53.009568
Slûsleane,3,,,8408CB,Lippenhuizen,Opsterland,Friesland,VBO,6.111694,53.016772
Slûsleane,5,,,8408CB,Lippenhuizen,Opsterland,Friesland,VBO,6.122071,53.007426
Compagnonsfeart,1,,,8408CC,Lippenhuizen,Opsterland,Friesland,VBO,6.092908,53.011574
Compagnonsfeart,2,,,8408CC,Lippenhuizen,Opsterland,Friesland,VBO,6.093670,53.011695
Compagnonsfeart,3,,,8408CC,Lippenhuizen,Opsterland,Friesland,VBO,6.094224,53.011889
Compagnonsfeart,4,,,8408CC,Lippenhuizen,Opsterland,Friesland,VBO,6.097900,53.012533
Compagnonsfeart,5,,,8408CC,Lippenhuizen,Opsterland,Friesland,VBO,6.100612,53.013478
Compagnonsfeart,6,,,8408CD,Lippenhuizen,Opsterland,Friesland,VBO,6.107184,53.016197
Compagnonsfeart,7,,,8408CD,Lippenhuizen,Opsterland,Friesland,VBO,6.109764,53.017251
Compagnonsfeart,8,,,8408CD,Lippenhuizen,Opsterland,Friesland,VBO,6.110110,53.017402
Compagnonsfeart,9,,,8408CD,Lippenhuizen,Opsterland,Friesland,VBO,6.110336,53.017589
Compagnonsfeart,11,,TR01,8408CD,Lippenhuizen,Opsterland,Friesland,VBO,6.111370,53.018019
Compagnonsfeart,11,,,8408CD,Lippenhuizen,Opsterland,Friesland,VBO,6.111640,53.018013
Compagnonsfeart,12,,,8408CD,Lippenhuizen,Opsterland,Friesland,VBO,6.111834,53.018020
Compagnonsfeart,13,,,8408CD,Lippenhuizen,Opsterland,Friesland,VBO,6.111911,53.018173
Compagnonsfeart,14,,,8408CD,Lippenhuizen,Opsterland,Friesland,VBO,6.112481,53.018403
Compagnonsfeart,15,,,8408CD,Lippenhuizen,Opsterland,Friesland,VBO,6.113605,53.018810
Compagnonsfeart,16,,,8408CD,Lippenhuizen,Opsterland,Friesland,VBO,6.114072,53.019094
Compagnonsfeart,17,,,8408CD,Lippenhuizen,Opsterland,Friesland,VBO,6.114209,53.019255
Compagnonsfeart,18,,,8408CD,Lippenhuizen,Opsterland,Friesland,VBO,6.114615,53.019459
Compagnonsfeart,19,,,8408CD,Lippenhuizen,Opsterland,Friesland,VBO,6.114809,53.019494
Compagnonsfeart,20,,,8408CD,Lippenhuizen,Opsterland,Friesland,VBO,6.114915,53.019610
Tjalling Harkeswei,1,,,8408CE,Lippenhuizen,Opsterland,Friesland,VBO,6.088224,53.006650
Tjalling Harkeswei,2,,,8408CE,Lippenhuizen,Opsterland,Friesland,VBO,6.089204,53.007363
Tjalling Harkeswei,3,,,8408CE,Lippenhuizen,Opsterland,Friesland,VBO,6.090144,53.010224
Tjalling Harkeswei,4,,,8408CE,Lippenhuizen,Opsterland,Friesland,VBO,6.091121,53.010712
Tjalling Harkeswei,5,,,8408CE,Lippenhuizen,Opsterland,Friesland,VBO,6.092301,53.010912
Tjalling Harkeswei,6,,,8408CE,Lippenhuizen,Opsterland,Friesland,VBO,6.092376,53.010930
Tjalling Harkeswei,7,,,8408CE,Lippenhuizen,Opsterland,Friesland,VBO,6.093895,53.011120
Tjalling Harkeswei,8,,TR01,8408CE,Lippenhuizen,Opsterland,Friesland,VBO,6.096977,53.011792
Tjalling Harkeswei,8,,,8408CE,Lippenhuizen,Opsterland,Friesland,VBO,6.095411,53.011550
Tjalling Harkeswei,9,A,,8408CE,Lippenhuizen,Opsterland,Friesland,VBO,6.100346,53.007243
Tjalling Harkeswei,9,,,8408CE,Lippenhuizen,Opsterland,Friesland,VBO,6.100343,53.007935
Tjalling Harkeswei,12,,,8408CE,Lippenhuizen,Opsterland,Friesland,VBO,6.099836,53.012485
Tjalling Harkeswei,13,,,8408CE,Lippenhuizen,Opsterland,Friesland,VBO,6.101397,53.013159
Tjalling Harkeswei,14,A,,8408CE,Lippenhuizen,Opsterland,Friesland,VBO,6.102056,53.013352
Tjalling Harkeswei,14,,,8408CE,Lippenhuizen,Opsterland,Friesland,VBO,6.102520,53.013520
Tjalling Harkeswei,15,,,8408CG,Lippenhuizen,Opsterland,Friesland,VBO,6.102836,53.013662
Tjalling Harkeswei,16,,,8408CG,Lippenhuizen,Opsterland,Friesland,VBO,6.103079,53.013939
Tjalling Harkeswei,17,,,8408CG,Lippenhuizen,Opsterland,Friesland,VBO,6.104318,53.014121
Tjalling Harkeswei,18,,,8408CG,Lippenhuizen,Opsterland,Friesland,VBO,6.104667,53.014478
Tjalling Harkeswei,19,,,8408CG,Lippenhuizen,Opsterland,Friesland,VBO,6.104862,53.014531
Tjalling Harkeswei,20,,,8408CG,Lippenhuizen,Opsterland,Friesland,VBO,6.104952,53.014566
Tjalling Harkeswei,21,,,8408CG,Lippenhuizen,Opsterland,Friesland,VBO,6.105251,53.014654
Tjalling Harkeswei,22,,,8408CG,Lippenhuizen,Opsterland,Friesland,VBO,6.105853,53.014983
Tjalling Harkeswei,23,,,8408CG,Lippenhuizen,Opsterland,Friesland,VBO,6.106406,53.015133
Tjalling Harkeswei,24,,,8408CG,Lippenhuizen,Opsterland,Friesland,VBO,6.107049,53.015264
Tjalling Harkeswei,25,,,8408CG,Lippenhuizen,Opsterland,Friesland,VBO,6.108700,53.015964
Tjalling Harkeswei,26,,,8408CG,Lippenhuizen,Opsterland,Friesland,VBO,6.110879,53.017092
Tjalling Harkeswei,27,,,8408CH,Lippenhuizen,Opsterland,Friesland,VBO,6.111346,53.017358
Tjalling Harkeswei,28,,,8408CH,Lippenhuizen,Opsterland,Friesland,VBO,6.111711,53.017420
Tjalling Harkeswei,29,,,8408CH,Lippenhuizen,Opsterland,Friesland,VBO,6.112574,53.017719
Tjalling Harkeswei,30,,,8408CH,Lippenhuizen,Opsterland,Friesland,VBO,6.113298,53.018236
Tjalling Harkeswei,31,,,8408CH,Lippenhuizen,Opsterland,Friesland,VBO,6.114093,53.018537
Tjalling Harkeswei,32,,,8408CH,Lippenhuizen,Opsterland,Friesland,VBO,6.114573,53.018741
Tjalling Harkeswei,33,,,8408CH,Lippenhuizen,Opsterland,Friesland,VBO,6.115365,53.018907
Tjalling Harkeswei,34,,,8408CH,Lippenhuizen,Opsterland,Friesland,VBO,6.118960,53.020880
Tjalling Harkeswei,35,,,8408CH,Lippenhuizen,Opsterland,Friesland,VBO,6.120331,53.021752
Tjalling Harkeswei,36,,,8408CH,Lippenhuizen,Opsterland,Friesland,VBO,6.121110,53.021981
Tjalling Harkeswei,37,,,8408CH,Lippenhuizen,Opsterland,Friesland,VBO,6.121971,53.022668
Tjalling Harkeswei,38,,,8408CH,Lippenhuizen,Opsterland,Friesland,VBO,6.122945,53.022976
Tjalling Harkeswei,39,,,8408CH,Lippenhuizen,Opsterland,Friesland,VBO,6.125004,53.023687
Tjalling Harkeswei,40,,,8408CH,Lippenhuizen,Opsterland,Friesland,VBO,6.125928,53.023982
Welgelegen,1,,,8408CJ,Lippenhuizen,Opsterland,Friesland,VBO,6.127900,53.008531
Welgelegen,3,,,8408CJ,Lippenhuizen,Opsterland,Friesland,VBO,6.128378,53.008573
Welgelegen,5,,,8408CJ,Lippenhuizen,Opsterland,Friesland,VBO,6.129364,53.008756
Welgelegen,7,,,8408CJ,Lippenhuizen,Opsterland,Friesland,VBO,6.128673,53.010171
Welgelegen,9,,,8408CJ,Lippenhuizen,Opsterland,Friesland,VBO,6.132256,53.012305
Welgelegen,11,,,8408CJ,Lippenhuizen,Opsterland,Friesland,VBO,6.131708,53.012990
Welgelegen,13,,,8408CJ,Lippenhuizen,Opsterland,Friesland,VBO,6.131260,53.013336
Welgelegen,15,,,8408CJ,Lippenhuizen,Opsterland,Friesland,VBO,6.134171,53.012752
Welgelegen,17,,,8408CJ,Lippenhuizen,Opsterland,Friesland,VBO,6.137149,53.013524
Welgelegen,19,,,8408CJ,Lippenhuizen,Opsterland,Friesland,VBO,6.137368,53.014080
Trijehoek,1,,,8408HA,Lippenhuizen,Opsterland,Friesland,VBO,6.082349,53.015643
Trijehoek,2,,,8408HA,Lippenhuizen,Opsterland,Friesland,VBO,6.081982,53.015960
Trijehoek,3,,,8408HA,Lippenhuizen,Opsterland,Friesland,VBO,6.082020,53.015546
Trijehoek,4,,,8408HA,Lippenhuizen,Opsterland,Friesland,VBO,6.079740,53.015569
Trijehoek,5,,,8408HA,Lippenhuizen,Opsterland,Friesland,VBO,6.081676,53.015486
Trijehoek,6,,,8408HA,Lippenhuizen,Opsterland,Friesland,VBO,6.078709,53.015386
Trijehoek,7,,,8408HA,Lippenhuizen,Opsterland,Friesland,VBO,6.081288,53.015443
Trijehoek,8,,,8408HA,Lippenhuizen,Opsterland,Friesland,VBO,6.078246,53.015299
Trijehoek,9,,TR01,8408HA,Lippenhuizen,Opsterland,Friesland,VBO,6.081237,53.015174
Trijehoek,9,,,8408HA,Lippenhuizen,Opsterland,Friesland,VBO,6.080807,53.015203
Trijehoek,11,,,8408HA,Lippenhuizen,Opsterland,Friesland,VBO,6.080457,53.014823
Trijehoek,13,,,8408HA,Lippenhuizen,Opsterland,Friesland,VBO,6.079356,53.014807
Trijehoek,15,,,8408HA,Lippenhuizen,Opsterland,Friesland,VBO,6.078628,53.014964
Trijehoek,10,,,8408HB,Lippenhuizen,Opsterland,Friesland,VBO,6.078037,53.015264
Trijehoek,12,,,8408HB,Lippenhuizen,Opsterland,Friesland,VBO,6.077075,53.015058
Trijehoek,14,,,8408HB,Lippenhuizen,Opsterland,Friesland,VBO,6.076273,53.014951
Trijehoek,16,,,8408HB,Lippenhuizen,Opsterland,Friesland,VBO,6.075983,53.014926
Trijehoek,17,,,8408HB,Lippenhuizen,Opsterland,Friesland,VBO,6.077743,53.014610
Trijehoek,18,,,8408HB,Lippenhuizen,Opsterland,Friesland,VBO,6.075765,53.014819
Trijehoek,19,,,8408HB,Lippenhuizen,Opsterland,Friesland,VBO,6.076973,53.014537
Trijehoek,20,,,8408HB,Lippenhuizen,Opsterland,Friesland,VBO,6.075095,53.014886
Trijehoek,21,,,8408HB,Lippenhuizen,Opsterland,Friesland,VBO,6.076417,53.014608
Trijehoek,23,,,8408HB,Lippenhuizen,Opsterland,Friesland,VBO,6.076103,53.014547
Trijehoek,25,,,8408HB,Lippenhuizen,Opsterland,Friesland,VBO,6.075567,53.013652
Trijehoek,27,,,8408HB,Lippenhuizen,Opsterland,Friesland,VBO,6.076319,53.013099
Bûtewei,12,A,,8408HC,Lippenhuizen,Opsterland,Friesland,VBO,6.073714,53.021813
Bûtewei,12,,,8408HC,Lippenhuizen,Opsterland,Friesland,VBO,6.072919,53.021476
Bûtewei,14,,,8408HC,Lippenhuizen,Opsterland,Friesland,VBO,6.074028,53.021838
Bûtewei,16,,,8408HC,Lippenhuizen,Opsterland,Friesland,VBO,6.079047,53.022591
Bûtewei,18,,,8408HC,Lippenhuizen,Opsterland,Friesland,VBO,6.079453,53.022795
Bûtewei,20,,,8408HC,Lippenhuizen,Opsterland,Friesland,VBO,6.080619,53.022259
Bûtewei,22,,,8408HC,Lippenhuizen,Opsterland,Friesland,VBO,6.081423,53.022955
Bûtewei,24,,,8408HC,Lippenhuizen,Opsterland,Friesland,VBO,6.082787,53.023450
Bûtewei,26,,,8408HC,Lippenhuizen,Opsterland,Friesland,VBO,6.086488,53.024651
Bûtewei,27,,,8408HC,Lippenhuizen,Opsterland,Friesland,VBO,6.072974,53.022087
Bûtewei,28,,,8408HC,Lippenhuizen,Opsterland,Friesland,VBO,6.093721,53.026756
Bûtewei,29,,,8408HC,Lippenhuizen,Opsterland,Friesland,VBO,6.073197,53.022095
Bûtewei,31,,,8408HC,Lippenhuizen,Opsterland,Friesland,VBO,6.073272,53.022112
Bûtewei,33,,,8408HC,Lippenhuizen,Opsterland,Friesland,VBO,6.073452,53.022174
Bûtewei,35,,,8408HC,Lippenhuizen,Opsterland,Friesland,VBO,6.073780,53.022208
Bûtewei,37,,,8408HC,Lippenhuizen,Opsterland,Friesland,VBO,6.074064,53.022224
Bûtewei,39,,,8408HC,Lippenhuizen,Opsterland,Friesland,VBO,6.074945,53.022363
Bûtewei,41,,TR01,8408HC,Lippenhuizen,Opsterland,Friesland,VBO,6.075862,53.022664
Bûtewei,41,,,8408HC,Lippenhuizen,Opsterland,Friesland,VBO,6.076111,53.022563
Bûtewei,43,,,8408HC,Lippenhuizen,Opsterland,Friesland,VBO,6.076456,53.022678
Bûtewei,45,,,8408HC,Lippenhuizen,Opsterland,Friesland,VBO,6.076964,53.022792
Heidereed,1,,,8408HD,Lippenhuizen,Opsterland,Friesland,VBO,6.073386,53.022696
Heidereed,2,,,8408HD,Lippenhuizen,Opsterland,Friesland,VBO,6.074000,53.022926
Heidereed,3,,,8408HD,Lippenhuizen,Opsterland,Friesland,VBO,6.072047,53.025678
Heidereed,4,,,8408HD,Lippenhuizen,Opsterland,Friesland,VBO,6.073454,53.024196
Heidereed,5,,,8408HD,Lippenhuizen,Opsterland,Friesland,VBO,6.071547,53.026121
Heidereed,7,,,8408HD,Lippenhuizen,Opsterland,Friesland,VBO,6.071211,53.027543
Heidereed,9,,,8408HD,Lippenhuizen,Opsterland,Friesland,VBO,6.070908,53.028120
Heidereed,11,,,8408HD,Lippenhuizen,Opsterland,Friesland,VBO,6.071481,53.029518
Heidereed,13,,,8408HD,Lippenhuizen,Opsterland,Friesland,VBO,6.072771,53.028880
Heidereed,15,,,8408HD,Lippenhuizen,Opsterland,Friesland,VBO,6.072993,53.028970
Sweachsterwei,1,,,8408HE,Lippenhuizen,Opsterland,Friesland,VBO,6.071588,53.031566
Sweachsterwei,2,,,8408HE,Lippenhuizen,Opsterland,Friesland,VBO,6.070709,53.035391
Sweachsterwei,3,,,8408HE,Lippenhuizen,Opsterland,Friesland,VBO,6.069232,53.031526
Sweachsterwei,7,,,8408HE,Lippenhuizen,Opsterland,Friesland,VBO,6.069688,53.034965
Sweachsterwei,9,,,8408HE,Lippenhuizen,Opsterland,Friesland,VBO,6.068534,53.036378
De Buorren,9,,,8408HG,Lippenhuizen,Opsterland,Friesland,VBO,6.082714,53.016064
De Buorren,11,,,8408HG,Lippenhuizen,Opsterland,Friesland,VBO,6.082982,53.016107
De Buorren,12,,,8408HG,Lippenhuizen,Opsterland,Friesland,VBO,6.085349,53.015922
De Buorren,13,,,8408HG,Lippenhuizen,Opsterland,Friesland,VBO,6.083133,53.016178
De Buorren,15,,,8408HG,Lippenhuizen,Opsterland,Friesland,VBO,6.083596,53.016247
De Buorren,17,,,8408HG,Lippenhuizen,Opsterland,Friesland,VBO,6.083819,53.016264
De Buorren,19,,,8408HG,Lippenhuizen,Opsterland,Friesland,VBO,6.084223,53.016360
De Buorren,21,,,8408HG,Lippenhuizen,Opsterland,Friesland,VBO,6.084582,53.016394
De Buorren,23,,,8408HG,Lippenhuizen,Opsterland,Friesland,VBO,6.085359,53.016533
De Buorren,25,,,8408HG,Lippenhuizen,Opsterland,Friesland,VBO,6.085702,53.016558
De Buorren,27,A,,8408HG,Lippenhuizen,Opsterland,Friesland,VBO,6.086046,53.016612
De Buorren,27,,,8408HG,Lippenhuizen,Opsterland,Friesland,VBO,6.085928,53.016746
De Buorren,29,A,,8408HG,Lippenhuizen,Opsterland,Friesland,VBO,6.086659,53.016777
De Buorren,29,,,8408HG,Lippenhuizen,Opsterland,Friesland,VBO,6.086346,53.016743
De Buorren,31,,,8408HG,Lippenhuizen,Opsterland,Friesland,VBO,6.086928,53.016794
De Buorren,33,,,8408HG,Lippenhuizen,Opsterland,Friesland,VBO,6.087196,53.016837
De Buorren,35,,,8408HG,Lippenhuizen,Opsterland,Friesland,VBO,6.087376,53.016872
De Buorren,14,,,8408HH,Lippenhuizen,Opsterland,Friesland,VBO,6.088430,53.016650
De Buorren,16,,,8408HH,Lippenhuizen,Opsterland,Friesland,VBO,6.088936,53.016620
De Buorren,18,,,8408HH,Lippenhuizen,Opsterland,Friesland,VBO,6.089387,53.016860
De Buorren,20,,,8408HH,Lippenhuizen,Opsterland,Friesland,VBO,6.090557,53.015452
De Buorren,22,,,8408HH,Lippenhuizen,Opsterland,Friesland,VBO,6.089924,53.016857
De Buorren,24,,,8408HH,Lippenhuizen,Opsterland,Friesland,VBO,6.090509,53.017078
De Buorren,26,,,8408HH,Lippenhuizen,Opsterland,Friesland,VBO,6.090718,53.017104
De Buorren,30,,,8408HH,Lippenhuizen,Opsterland,Friesland,VBO,6.091896,53.017169
De Buorren,37,,,8408HH,Lippenhuizen,Opsterland,Friesland,VBO,6.087914,53.017004
De Buorren,39,,,8408HH,Lippenhuizen,Opsterland,Friesland,VBO,6.088138,53.017029
De Buorren,41,,,8408HH,Lippenhuizen,Opsterland,Friesland,VBO,6.088692,53.017161
De Buorren,43,,,8408HH,Lippenhuizen,Opsterland,Friesland,VBO,6.089034,53.017141
De Buorren,47,,,8408HH,Lippenhuizen,Opsterland,Friesland,VBO,6.089378,53.017211
De Buorren,32,,,8408HJ,Lippenhuizen,Opsterland,Friesland,VBO,6.092496,53.017435
De Buorren,49,A,,8408HJ,Lippenhuizen,Opsterland,Friesland,VBO,6.090217,53.017494
De Buorren,49,B,,8408HJ,Lippenhuizen,Opsterland,Friesland,VBO,6.090262,53.017502
De Buorren,49,C,,8408HJ,Lippenhuizen,Opsterland,Friesland,VBO,6.090337,53.017520
De Buorren,49,D,,8408HJ,Lippenhuizen,Opsterland,Friesland,VBO,6.090382,53.017537
De Buorren,49,E,,8408HJ,Lippenhuizen,Opsterland,Friesland,VBO,6.090442,53.017555
De Buorren,49,F,,8408HJ,Lippenhuizen,Opsterland,Friesland,VBO,6.090502,53.017573
De Buorren,49,H,,8408HJ,Lippenhuizen,Opsterland,Friesland,VBO,6.090457,53.017591
De Buorren,49,J,,8408HJ,Lippenhuizen,Opsterland,Friesland,VBO,6.090412,53.017573
De Buorren,49,K,,8408HJ,Lippenhuizen,Opsterland,Friesland,VBO,6.090352,53.017565
De Buorren,49,L,,8408HJ,Lippenhuizen,Opsterland,Friesland,VBO,6.090308,53.017556
De Buorren,49,M,,8408HJ,Lippenhuizen,Opsterland,Friesland,VBO,6.090263,53.017538
De Buorren,49,N,,8408HJ,Lippenhuizen,Opsterland,Friesland,VBO,6.090218,53.017520
De Buorren,49,P,,8408HJ,Lippenhuizen,Opsterland,Friesland,VBO,6.090218,53.017538
De Buorren,49,,,8408HJ,Lippenhuizen,Opsterland,Friesland,VBO,6.089797,53.017289
De Buorren,51,A,,8408HJ,Lippenhuizen,Opsterland,Friesland,VBO,6.091277,53.017595
De Buorren,51,,,8408HJ,Lippenhuizen,Opsterland,Friesland,VBO,6.091130,53.017740
De Buorren,53,,,8408HJ,Lippenhuizen,Opsterland,Friesland,VBO,6.091383,53.017738
De Buorren,55,,,8408HJ,Lippenhuizen,Opsterland,Friesland,VBO,6.091605,53.017593
De Buorren,59,A,,8408HJ,Lippenhuizen,Opsterland,Friesland,VBO,6.092432,53.018074
De Buorren,59,B,,8408HJ,Lippenhuizen,Opsterland,Friesland,VBO,6.092110,53.018302
De Buorren,59,,,8408HJ,Lippenhuizen,Opsterland,Friesland,VBO,6.091802,53.017844
De Buorren,34,,,8408HK,Lippenhuizen,Opsterland,Friesland,VBO,6.092740,53.017793
De Buorren,36,,,8408HK,Lippenhuizen,Opsterland,Friesland,VBO,6.092802,53.017919
De Buorren,38,,,8408HK,Lippenhuizen,Opsterland,Friesland,VBO,6.092951,53.017927
De Buorren,40,,,8408HK,Lippenhuizen,Opsterland,Friesland,VBO,6.093057,53.017989
De Buorren,42,,,8408HK,Lippenhuizen,Opsterland,Friesland,VBO,6.093162,53.018051
De Buorren,46,,,8408HK,Lippenhuizen,Opsterland,Friesland,VBO,6.093403,53.018203
De Buorren,61,,,8408HK,Lippenhuizen,Opsterland,Friesland,VBO,6.092746,53.018126
De Buorren,63,,,8408HK,Lippenhuizen,Opsterland,Friesland,VBO,6.092896,53.018215
De Buorren,65,,,8408HK,Lippenhuizen,Opsterland,Friesland,VBO,6.093047,53.018313
De Buorren,69,,,8408HK,Lippenhuizen,Opsterland,Friesland,VBO,6.093272,53.018428
De Buorren,71,,,8408HK,Lippenhuizen,Opsterland,Friesland,VBO,6.093393,53.018526
De Buorren,73,,B001,8408HK,Lippenhuizen,Opsterland,Friesland,VBO,6.093298,53.019037
De Buorren,73,,B002,8408HK,Lippenhuizen,Opsterland,Friesland,VBO,6.093347,53.019052
De Buorren,73,,B003,8408HK,Lippenhuizen,Opsterland,Friesland,VBO,6.093397,53.019070
De Buorren,73,,,8408HK,Lippenhuizen,Opsterland,Friesland,VBO,6.093517,53.018831
De Buorren,77,,,8408HK,Lippenhuizen,Opsterland,Friesland,VBO,6.093800,53.018793
De Buorren,79,,,8408HL,Lippenhuizen,Opsterland,Friesland,VBO,6.093950,53.018837
De Buorren,81,,,8408HL,Lippenhuizen,Opsterland,Friesland,VBO,6.094056,53.018972
De Buorren,85,,,8408HL,Lippenhuizen,Opsterland,Friesland,VBO,6.094461,53.019140
De Buorren,89,,,8408HL,Lippenhuizen,Opsterland,Friesland,VBO,6.094627,53.019238
De Buorren,91,,,8408HL,Lippenhuizen,Opsterland,Friesland,VBO,6.094837,53.019353
De Buorren,93,,,8408HL,Lippenhuizen,Opsterland,Friesland,VBO,6.095018,53.019442
De Buorren,95,,,8408HL,Lippenhuizen,Opsterland,Friesland,VBO,6.095123,53.019504
De Buorren,97,,,8408HL,Lippenhuizen,Opsterland,Friesland,VBO,6.095273,53.019593
De Buorren,99,,,8408HL,Lippenhuizen,Opsterland,Friesland,VBO,6.095379,53.019656
De Buorren,101,,,8408HL,Lippenhuizen,Opsterland,Friesland,VBO,6.095470,53.019754
De Buorren,103,,,8408HL,Lippenhuizen,Opsterland,Friesland,VBO,6.095604,53.019771
De Buorren,105,,,8408HL,Lippenhuizen,Opsterland,Friesland,VBO,6.095651,53.019897
De Buorren,117,,,8408HL,Lippenhuizen,Opsterland,Friesland,VBO,6.096225,53.020352
De Buorren,119,,,8408HL,Lippenhuizen,Opsterland,Friesland,VBO,6.096464,53.020440
De Buorren,123,,,8408HM,Lippenhuizen,Opsterland,Friesland,VBO,6.096719,53.020519
De Buorren,125,,,8408HM,Lippenhuizen,Opsterland,Friesland,VBO,6.096914,53.020590
De Buorren,127,,,8408HM,Lippenhuizen,Opsterland,Friesland,VBO,6.097080,53.020697
De Buorren,131,,,8408HM,Lippenhuizen,Opsterland,Friesland,VBO,6.097306,53.020840
De Buorren,133,,,8408HM,Lippenhuizen,Opsterland,Friesland,VBO,6.097608,53.021080
De Buorren,135,,,8408HM,Lippenhuizen,Opsterland,Friesland,VBO,6.097893,53.021249
De Buorren,137,,,8408HM,Lippenhuizen,Opsterland,Friesland,VBO,6.098196,53.021508
De Buorren,139,,,8408HM,Lippenhuizen,Opsterland,Friesland,VBO,6.098256,53.021544
De Buorren,141,,,8408HM,Lippenhuizen,Opsterland,Friesland,VBO,6.098888,53.021908
De Buorren,143,,,8408HM,Lippenhuizen,Opsterland,Friesland,VBO,6.099464,53.022507
De Buorren,145,,,8408HM,Lippenhuizen,Opsterland,Friesland,VBO,6.100634,53.022994
De Buorren,147,,,8408HM,Lippenhuizen,Opsterland,Friesland,VBO,6.100770,53.023074
De Buorren,149,,,8408HM,Lippenhuizen,Opsterland,Friesland,VBO,6.100821,53.023452
De Buorren,151,,TR01,8408HM,Lippenhuizen,Opsterland,Friesland,VBO,6.101105,53.023574
De Buorren,153,,,8408HM,Lippenhuizen,Opsterland,Friesland,VBO,6.101343,53.023484
De Buorren,155,,,8408HM,Lippenhuizen,Opsterland,Friesland,VBO,6.101447,53.023493
De Buorren,50,,,8408HN,Lippenhuizen,Opsterland,Friesland,VBO,6.094019,53.018496
De Buorren,52,,,8408HN,Lippenhuizen,Opsterland,Friesland,VBO,6.094080,53.018594
De Buorren,54,,,8408HN,Lippenhuizen,Opsterland,Friesland,VBO,6.094156,53.018674
De Buorren,56,,,8408HN,Lippenhuizen,Opsterland,Friesland,VBO,6.094276,53.018764
De Buorren,62,,,8408HN,Lippenhuizen,Opsterland,Friesland,VBO,6.094531,53.018834
De Buorren,64,,,8408HN,Lippenhuizen,Opsterland,Friesland,VBO,6.094548,53.018969
De Buorren,68,,,8408HN,Lippenhuizen,Opsterland,Friesland,VBO,6.094742,53.019003
De Buorren,70,,,8408HN,Lippenhuizen,Opsterland,Friesland,VBO,6.094938,53.019119
De Buorren,72,,TR01,8408HN,Lippenhuizen,Opsterland,Friesland,VBO,6.095390,53.018962
De Buorren,72,,,8408HN,Lippenhuizen,Opsterland,Friesland,VBO,6.095073,53.019190
De Buorren,74,,,8408HN,Lippenhuizen,Opsterland,Friesland,VBO,6.095298,53.019252
De Buorren,80,,,8408HN,Lippenhuizen,Opsterland,Friesland,VBO,6.095704,53.019528
De Buorren,82,,,8408HN,Lippenhuizen,Opsterland,Friesland,VBO,6.095795,53.019608
De Buorren,84,,,8408HN,Lippenhuizen,Opsterland,Friesland,VBO,6.095916,53.019680
De Buorren,88,A,,8408HN,Lippenhuizen,Opsterland,Friesland,VBO,6.096342,53.019816
De Buorren,88,,,8408HN,Lippenhuizen,Opsterland,Friesland,VBO,6.096216,53.019933
De Buorren,90,,,8408HP,Lippenhuizen,Opsterland,Friesland,VBO,6.096458,53.020045
De Buorren,94,,,8408HP,Lippenhuizen,Opsterland,Friesland,VBO,6.096608,53.020134
De Buorren,98,,,8408HP,Lippenhuizen,Opsterland,Friesland,VBO,6.096864,53.020285
De Buorren,100,,,8408HP,Lippenhuizen,Opsterland,Friesland,VBO,6.097104,53.020391
De Buorren,102,,,8408HP,Lippenhuizen,Opsterland,Friesland,VBO,6.097240,53.020480
De Buorren,104,,,8408HP,Lippenhuizen,Opsterland,Friesland,VBO,6.097315,53.020525
De Buorren,106,,,8408HP,Lippenhuizen,Opsterland,Friesland,VBO,6.097466,53.020623
De Buorren,108,,,8408HP,Lippenhuizen,Opsterland,Friesland,VBO,6.097692,53.020765
De Buorren,110,,,8408HP,Lippenhuizen,Opsterland,Friesland,VBO,6.097812,53.020845
De Buorren,112,,,8408HP,Lippenhuizen,Opsterland,Friesland,VBO,6.097888,53.020890
De Buorren,114,,,8408HP,Lippenhuizen,Opsterland,Friesland,VBO,6.098068,53.021006
De Buorren,116,,,8408HP,Lippenhuizen,Opsterland,Friesland,VBO,6.098937,53.020354
De Buorren,118,,,8408HP,Lippenhuizen,Opsterland,Friesland,VBO,6.098234,53.021104
De Buorren,120,,,8408HP,Lippenhuizen,Opsterland,Friesland,VBO,6.098324,53.021148
De Buorren,122,A,,8408HR,Lippenhuizen,Opsterland,Friesland,VBO,6.098775,53.021406
De Buorren,122,,,8408HR,Lippenhuizen,Opsterland,Friesland,VBO,6.098608,53.021209
De Buorren,124,,,8408HR,Lippenhuizen,Opsterland,Friesland,VBO,6.099015,53.021467
De Buorren,126,,,8408HR,Lippenhuizen,Opsterland,Friesland,VBO,6.099211,53.021619
De Buorren,128,,,8408HR,Lippenhuizen,Opsterland,Friesland,VBO,6.099422,53.021753
De Buorren,130,,,8408HR,Lippenhuizen,Opsterland,Friesland,VBO,6.099588,53.021868
De Buorren,132,,,8408HR,Lippenhuizen,Opsterland,Friesland,VBO,6.099738,53.021939
De Buorren,134,,,8408HR,Lippenhuizen,Opsterland,Friesland,VBO,6.099754,53.022029
De Buorren,138,,,8408HR,Lippenhuizen,Opsterland,Friesland,VBO,6.100083,53.022099
De Buorren,140,,,8408HR,Lippenhuizen,Opsterland,Friesland,VBO,6.100992,53.021177
De Buorren,142,,,8408HR,Lippenhuizen,Opsterland,Friesland,VBO,6.100279,53.022251
De Buorren,144,,,8408HR,Lippenhuizen,Opsterland,Friesland,VBO,6.100355,53.022304
De Buorren,146,,,8408HR,Lippenhuizen,Opsterland,Friesland,VBO,6.100460,53.022375
De Buorren,150,,,8408HR,Lippenhuizen,Opsterland,Friesland,VBO,6.100611,53.022473
De Buorren,154,,,8408HR,Lippenhuizen,Opsterland,Friesland,VBO,6.100777,53.022580
De Buorren,158,,,8408HR,Lippenhuizen,Opsterland,Friesland,VBO,6.102868,53.023763
Bûkenhage,1,,,8408HS,Lippenhuizen,Opsterland,Friesland,VBO,6.092159,53.015936
Bûkenhage,2,A,,8408HS,Lippenhuizen,Opsterland,Friesland,VBO,6.091068,53.016689
Bûkenhage,2,B,,8408HS,Lippenhuizen,Opsterland,Friesland,VBO,6.090951,53.016815
Bûkenhage,2,,,8408HS,Lippenhuizen,Opsterland,Friesland,VBO,6.091126,53.016572
Bûkenhage,3,,,8408HS,Lippenhuizen,Opsterland,Friesland,VBO,6.092218,53.015873
Bûkenhage,4,,,8408HS,Lippenhuizen,Opsterland,Friesland,VBO,6.091185,53.016508
Bûkenhage,5,,,8408HS,Lippenhuizen,Opsterland,Friesland,VBO,6.092579,53.015215
Bûkenhage,6,,,8408HS,Lippenhuizen,Opsterland,Friesland,VBO,6.091244,53.016463
Bûkenhage,7,,,8408HS,Lippenhuizen,Opsterland,Friesland,VBO,6.092696,53.015044
Bûkenhage,8,,,8408HS,Lippenhuizen,Opsterland,Friesland,VBO,6.091288,53.016418
Bûkenhage,9,,,8408HS,Lippenhuizen,Opsterland,Friesland,VBO,6.092783,53.014890
Bûkenhage,10,,,8408HS,Lippenhuizen,Opsterland,Friesland,VBO,6.091317,53.016364
Bûkenhage,11,,,8408HS,Lippenhuizen,Opsterland,Friesland,VBO,6.092930,53.014773
Bûkenhage,12,,,8408HS,Lippenhuizen,Opsterland,Friesland,VBO,6.091375,53.016265
Bûkenhage,13,,,8408HS,Lippenhuizen,Opsterland,Friesland,VBO,6.093031,53.014556
Bûkenhage,14,,,8408HS,Lippenhuizen,Opsterland,Friesland,VBO,6.091433,53.016210
Bûkenhage,15,,,8408HS,Lippenhuizen,Opsterland,Friesland,VBO,6.093223,53.014465
Bûkenhage,16,,,8408HS,Lippenhuizen,Opsterland,Friesland,VBO,6.091477,53.016156
Bûkenhage,18,,,8408HS,Lippenhuizen,Opsterland,Friesland,VBO,6.091521,53.016111
Bûkenhage,20,,,8408HS,Lippenhuizen,Opsterland,Friesland,VBO,6.091565,53.016057
Bûkenhage,22,,,8408HS,Lippenhuizen,Opsterland,Friesland,VBO,6.091638,53.015966
Bûkenhage,24,,,8408HS,Lippenhuizen,Opsterland,Friesland,VBO,6.091667,53.015912
Bûkenhage,26,,,8408HS,Lippenhuizen,Opsterland,Friesland,VBO,6.091755,53.015831
Bûkenhage,28,,,8408HS,Lippenhuizen,Opsterland,Friesland,VBO,6.091813,53.015750
Bûkenhage,30,,,8408HS,Lippenhuizen,Opsterland,Friesland,VBO,6.091931,53.015677
Bûkenhage,32,,,8408HS,Lippenhuizen,Opsterland,Friesland,VBO,6.091960,53.015614
Bûkenhage,34,,,8408HS,Lippenhuizen,Opsterland,Friesland,VBO,6.092063,53.015533
Bûkenhage,36,,,8408HS,Lippenhuizen,Opsterland,Friesland,VBO,6.092107,53.015469
Weeme,3,,,8408HT,Lippenhuizen,Opsterland,Friesland,VBO,6.093211,53.017413
Weeme,4,,,8408HT,Lippenhuizen,Opsterland,Friesland,VBO,6.093640,53.016314
Weeme,5,,,8408HT,Lippenhuizen,Opsterland,Friesland,VBO,6.093284,53.017332
Weeme,7,,,8408HT,Lippenhuizen,Opsterland,Friesland,VBO,6.093372,53.017232
Weeme,9,,,8408HT,Lippenhuizen,Opsterland,Friesland,VBO,6.093460,53.017142
Weeme,11,,,8408HT,Lippenhuizen,Opsterland,Friesland,VBO,6.093563,53.017033
Weeme,13,,,8408HT,Lippenhuizen,Opsterland,Friesland,VBO,6.093680,53.016907
Weeme,15,,,8408HT,Lippenhuizen,Opsterland,Friesland,VBO,6.093797,53.016789
Omgong,1,,,8408HV,Lippenhuizen,Opsterland,Friesland,VBO,6.093480,53.016549
Omgong,3,,,8408HV,Lippenhuizen,Opsterland,Friesland,VBO,6.093225,53.016415
Omgong,5,,,8408HV,Lippenhuizen,Opsterland,Friesland,VBO,6.092956,53.016372
Omgong,6,,,8408HV,Lippenhuizen,Opsterland,Friesland,VBO,6.091823,53.016361
Omgong,7,,,8408HV,Lippenhuizen,Opsterland,Friesland,VBO,6.092776,53.016319
Omgong,9,,,8408HV,Lippenhuizen,Opsterland,Friesland,VBO,6.092582,53.016284
Omgong,11,,,8408HV,Lippenhuizen,Opsterland,Friesland,VBO,6.092402,53.016205
Omgong,13,,,8408HV,Lippenhuizen,Opsterland,Friesland,VBO,6.092237,53.016152
Omgong,15,,,8408HV,Lippenhuizen,Opsterland,Friesland,VBO,6.092071,53.016027
't Corso,9,,,8408HW,Lippenhuizen,Opsterland,Friesland,VBO,6.096000,53.016651
't Corso,11,,,8408HW,Lippenhuizen,Opsterland,Friesland,VBO,6.095896,53.016624
't Corso,13,,,8408HW,Lippenhuizen,Opsterland,Friesland,VBO,6.095791,53.016607
't Corso,15,,,8408HW,Lippenhuizen,Opsterland,Friesland,VBO,6.095686,53.016572
't Corso,17,,,8408HW,Lippenhuizen,Opsterland,Friesland,VBO,6.095521,53.016528
't Corso,19,,,8408HW,Lippenhuizen,Opsterland,Friesland,VBO,6.095447,53.016510
't Corso,21,,,8408HW,Lippenhuizen,Opsterland,Friesland,VBO,6.094729,53.016335
't Corso,23,,,8408HW,Lippenhuizen,Opsterland,Friesland,VBO,6.094489,53.016237
't Corso,25,,,8408HW,Lippenhuizen,Opsterland,Friesland,VBO,6.094218,53.016077
't Corso,27,,,8408HW,Lippenhuizen,Opsterland,Friesland,VBO,6.093875,53.016061
't Corso,29,,,8408HW,Lippenhuizen,Opsterland,Friesland,VBO,6.093575,53.015946
't Corso,31,,,8408HW,Lippenhuizen,Opsterland,Friesland,VBO,6.093231,53.015858
't Corso,33,,,8408HW,Lippenhuizen,Opsterland,Friesland,VBO,6.092871,53.015717
't Corso,35,,,8408HW,Lippenhuizen,Opsterland,Friesland,VBO,6.092482,53.015638
't Corso,10,,,8408HX,Lippenhuizen,Opsterland,Friesland,VBO,6.095840,53.016876
't Corso,12,,,8408HX,Lippenhuizen,Opsterland,Friesland,VBO,6.095765,53.016859
't Corso,14,,,8408HX,Lippenhuizen,Opsterland,Friesland,VBO,6.095600,53.016806
't Corso,16,,,8408HX,Lippenhuizen,Opsterland,Friesland,VBO,6.095496,53.016779
't Corso,18,,,8408HX,Lippenhuizen,Opsterland,Friesland,VBO,6.095361,53.016744
't Corso,20,,,8408HX,Lippenhuizen,Opsterland,Friesland,VBO,6.095271,53.016709
't Corso,24,,,8408HX,Lippenhuizen,Opsterland,Friesland,VBO,6.093146,53.016164
't Corso,26,,,8408HX,Lippenhuizen,Opsterland,Friesland,VBO,6.093026,53.016129
't Corso,28,,,8408HX,Lippenhuizen,Opsterland,Friesland,VBO,6.092862,53.016076
't Corso,30,,,8408HX,Lippenhuizen,Opsterland,Friesland,VBO,6.092742,53.016041
't Corso,32,,,8408HX,Lippenhuizen,Opsterland,Friesland,VBO,6.092562,53.015997
't Corso,34,,,8408HX,Lippenhuizen,Opsterland,Friesland,VBO,6.092443,53.015962
Buorsterwyk,1,,,8408HZ,Lippenhuizen,Opsterland,Friesland,VBO,6.093972,53.018361
Buorsterwyk,3,,,8408HZ,Lippenhuizen,Opsterland,Friesland,VBO,6.093999,53.018199
Buorsterwyk,5,,,8408HZ,Lippenhuizen,Opsterland,Friesland,VBO,6.094043,53.018145
Buorsterwyk,7,,,8408HZ,Lippenhuizen,Opsterland,Friesland,VBO,6.094116,53.018091
Buorsterwyk,9,,,8408HZ,Lippenhuizen,Opsterland,Friesland,VBO,6.094129,53.017947
Buorsterwyk,11,,,8408HZ,Lippenhuizen,Opsterland,Friesland,VBO,6.094263,53.017919
Buorsterwyk,13,,,8408HZ,Lippenhuizen,Opsterland,Friesland,VBO,6.094349,53.017721
Buorsterwyk,15,,,8408HZ,Lippenhuizen,Opsterland,Friesland,VBO,6.094378,53.017667
Buorsterwyk,17,,,8408HZ,Lippenhuizen,Opsterland,Friesland,VBO,6.094421,53.017604
Buorsterwyk,19,,,8408HZ,Lippenhuizen,Opsterland,Friesland,VBO,6.094495,53.017558
Buorsterwyk,21,,,8408HZ,Lippenhuizen,Opsterland,Friesland,VBO,6.094584,53.017513
Buorsterwyk,23,,,8408HZ,Lippenhuizen,Opsterland,Friesland,VBO,6.094657,53.017440
Buorsterwyk,25,,,8408HZ,Lippenhuizen,Opsterland,Friesland,VBO,6.094715,53.017350
Buorsterwyk,27,,,8408HZ,Lippenhuizen,Opsterland,Friesland,VBO,6.094788,53.017269
Buorsterwyk,29,,,8408HZ,Lippenhuizen,Opsterland,Friesland,VBO,6.094877,53.017205
Buorsterwyk,31,,,8408HZ,Lippenhuizen,Opsterland,Friesland,VBO,6.094935,53.017124
Buorsterwyk,33,,,8408HZ,Lippenhuizen,Opsterland,Friesland,VBO,6.094993,53.017016
Buorsterwyk,35,,,8408HZ,Lippenhuizen,Opsterland,Friesland,VBO,6.095022,53.016953
Buorsterwyk,2,,,8408JA,Lippenhuizen,Opsterland,Friesland,VBO,6.093461,53.018103
Buorsterwyk,4,,,8408JA,Lippenhuizen,Opsterland,Friesland,VBO,6.093623,53.017995
Buorsterwyk,6,,TR01,8408JA,Lippenhuizen,Opsterland,Friesland,VBO,6.093475,53.017577
Buorsterwyk,6,,,8408JA,Lippenhuizen,Opsterland,Friesland,VBO,6.093768,53.017778
Buorsterwyk,8,,,8408JA,Lippenhuizen,Opsterland,Friesland,VBO,6.093886,53.017679
Buorsterwyk,10,,,8408JA,Lippenhuizen,Opsterland,Friesland,VBO,6.093930,53.017624
Buorsterwyk,12,,,8408JA,Lippenhuizen,Opsterland,Friesland,VBO,6.093989,53.017570
Buorsterwyk,14,,,8408JA,Lippenhuizen,Opsterland,Friesland,VBO,6.094033,53.017525
Buorsterwyk,16,,,8408JA,Lippenhuizen,Opsterland,Friesland,VBO,6.094106,53.017435
Buorsterwyk,18,,,8408JA,Lippenhuizen,Opsterland,Friesland,VBO,6.094164,53.017389
Buorsterwyk,20,,,8408JA,Lippenhuizen,Opsterland,Friesland,VBO,6.094208,53.017299
Buorsterwyk,22,,,8408JA,Lippenhuizen,Opsterland,Friesland,VBO,6.094267,53.017254
Buorsterwyk,24,,,8408JA,Lippenhuizen,Opsterland,Friesland,VBO,6.094325,53.017182
Buorsterwyk,26,,,8408JA,Lippenhuizen,Opsterland,Friesland,VBO,6.094384,53.017127
Buorsterwyk,28,,,8408JA,Lippenhuizen,Opsterland,Friesland,VBO,6.094573,53.016848
Buorsterwyk,30,,,8408JA,Lippenhuizen,Opsterland,Friesland,VBO,6.095027,53.016360
Buorsterwyk,32,,,8408JA,Lippenhuizen,Opsterland,Friesland,VBO,6.095174,53.016191
Buorsterwyk,34,,,8408JA,Lippenhuizen,Opsterland,Friesland,VBO,6.094749,53.015068
Buorsterwyk,34,,,8408JA,Lippenhuizen,Opsterland,Friesland,VBO,6.095197,53.015443
Buorsterwyk,36,,,8408JA,Lippenhuizen,Opsterland,Friesland,VBO,6.095252,53.015624
Buorsterwyk,38,,,8408JA,Lippenhuizen,Opsterland,Friesland,VBO,6.095367,53.015526
Marten Janswei,5,,,8408JB,Lippenhuizen,Opsterland,Friesland,VBO,6.096385,53.018284
Marten Janswei,7,,,8408JB,Lippenhuizen,Opsterland,Friesland,VBO,6.096295,53.018248
Marten Janswei,9,,,8408JB,Lippenhuizen,Opsterland,Friesland,VBO,6.095994,53.018088
Marten Janswei,11,,,8408JB,Lippenhuizen,Opsterland,Friesland,VBO,6.095739,53.018009
Marten Janswei,15,,,8408JB,Lippenhuizen,Opsterland,Friesland,VBO,6.095499,53.017924
Marten Janswei,17,,,8408JB,Lippenhuizen,Opsterland,Friesland,VBO,6.095573,53.017839
Marten Janswei,19,,,8408JB,Lippenhuizen,Opsterland,Friesland,VBO,6.095668,53.017741
Marten Janswei,21,,,8408JB,Lippenhuizen,Opsterland,Friesland,VBO,6.095644,53.017668
Marten Janswei,23,,,8408JB,Lippenhuizen,Opsterland,Friesland,VBO,6.095688,53.017605
Marten Janswei,25,,,8408JB,Lippenhuizen,Opsterland,Friesland,VBO,6.095761,53.017533
Marten Janswei,27,,,8408JB,Lippenhuizen,Opsterland,Friesland,VBO,6.095881,53.017433
Marten Janswei,29,,,8408JB,Lippenhuizen,Opsterland,Friesland,VBO,6.095908,53.017388
Marten Janswei,31,,,8408JB,Lippenhuizen,Opsterland,Friesland,VBO,6.095967,53.017325
Marten Janswei,33,,,8408JB,Lippenhuizen,Opsterland,Friesland,VBO,6.096025,53.017253
Marten Janswei,35,,,8408JB,Lippenhuizen,Opsterland,Friesland,VBO,6.096315,53.017105
Marten Janswei,37,,,8408JB,Lippenhuizen,Opsterland,Friesland,VBO,6.096201,53.017054
Marten Janswei,41,,,8408JB,Lippenhuizen,Opsterland,Friesland,VBO,6.096692,53.017024
Marten Janswei,43,,,8408JB,Lippenhuizen,Opsterland,Friesland,VBO,6.096736,53.016970
Marten Janswei,45,,,8408JB,Lippenhuizen,Opsterland,Friesland,VBO,6.096569,53.016818
Marten Janswei,47,,,8408JB,Lippenhuizen,Opsterland,Friesland,VBO,6.096464,53.016783
Marten Janswei,2,A,,8408JC,Lippenhuizen,Opsterland,Friesland,VBO,6.095548,53.019071
Marten Janswei,2,,,8408JC,Lippenhuizen,Opsterland,Friesland,VBO,6.095489,53.019134
Marten Janswei,4,A,,8408JC,Lippenhuizen,Opsterland,Friesland,VBO,6.095694,53.018917
Marten Janswei,4,,,8408JC,Lippenhuizen,Opsterland,Friesland,VBO,6.095636,53.018971
Marten Janswei,6,,,8408JC,Lippenhuizen,Opsterland,Friesland,VBO,6.095783,53.018836
Marten Janswei,8,,,8408JC,Lippenhuizen,Opsterland,Friesland,VBO,6.095855,53.018727
Marten Janswei,10,,,8408JC,Lippenhuizen,Opsterland,Friesland,VBO,6.095943,53.018601
Marten Janswei,12,,,8408JC,Lippenhuizen,Opsterland,Friesland,VBO,6.096045,53.018493
Marten Janswei,14,,,8408JC,Lippenhuizen,Opsterland,Friesland,VBO,6.095716,53.018414
Marten Janswei,16,,,8408JC,Lippenhuizen,Opsterland,Friesland,VBO,6.094996,53.018130
Marten Janswei,18,,,8408JC,Lippenhuizen,Opsterland,Friesland,VBO,6.095007,53.017879
Marten Janswei,20,,,8408JC,Lippenhuizen,Opsterland,Friesland,VBO,6.095197,53.017680
Marten Janswei,22,,,8408JC,Lippenhuizen,Opsterland,Friesland,VBO,6.095271,53.017625
Marten Janswei,24,,,8408JC,Lippenhuizen,Opsterland,Friesland,VBO,6.095344,53.017535
Marten Janswei,26,,,8408JC,Lippenhuizen,Opsterland,Friesland,VBO,6.095388,53.017472
Marten Janswei,28,,,8408JC,Lippenhuizen,Opsterland,Friesland,VBO,6.095461,53.017400
Marten Janswei,30,,,8408JC,Lippenhuizen,Opsterland,Friesland,VBO,6.095520,53.017336
Marten Janswei,32,,,8408JC,Lippenhuizen,Opsterland,Friesland,VBO,6.095593,53.017255
Marten Janswei,34,,,8408JC,Lippenhuizen,Opsterland,Friesland,VBO,6.095651,53.017183
Marten Janswei,36,,,8408JC,Lippenhuizen,Opsterland,Friesland,VBO,6.095710,53.017120
Marten Janswei,38,,,8408JC,Lippenhuizen,Opsterland,Friesland,VBO,6.095768,53.017047
Boerestreek,1,A,,8408JD,Lippenhuizen,Opsterland,Friesland,VBO,6.102955,53.024562
Boerestreek,1,,,8408JD,Lippenhuizen,Opsterland,Friesland,VBO,6.106179,53.026637
Boerestreek,3,,,8408JD,Lippenhuizen,Opsterland,Friesland,VBO,6.106795,53.026912
Boerestreek,7,,,8408JD,Lippenhuizen,Opsterland,Friesland,VBO,6.107857,53.028954
Boerestreek,9,,,8408JD,Lippenhuizen,Opsterland,Friesland,VBO,6.109954,53.029552
Boerestreek,11,,,8408JD,Lippenhuizen,Opsterland,Friesland,VBO,6.111510,53.029885
Boerestreek,13,,,8408JD,Lippenhuizen,Opsterland,Friesland,VBO,6.111917,53.030197
Boerestreek,15,,,8408JD,Lippenhuizen,Opsterland,Friesland,VBO,6.114117,53.031567
Boerestreek,17,,TR01,8408JD,Lippenhuizen,Opsterland,Friesland,VBO,6.115244,53.031841
Boerestreek,17,,,8408JD,Lippenhuizen,Opsterland,Friesland,VBO,6.115006,53.031672
Boerestreek,19,,,8408JD,Lippenhuizen,Opsterland,Friesland,VBO,6.115717,53.031890
Boerestreek,21,,,8408JD,Lippenhuizen,Opsterland,Friesland,VBO,6.116737,53.032279
Boerestreek,23,,,8408JD,Lippenhuizen,Opsterland,Friesland,VBO,6.118026,53.032277
Bûtewei,47,,,8408JD,Lippenhuizen,Opsterland,Friesland,VBO,6.078398,53.022972
Bûtewei,49,,,8408JD,Lippenhuizen,Opsterland,Friesland,VBO,6.078816,53.023033
Bûtewei,53,,,8408JD,Lippenhuizen,Opsterland,Friesland,VBO,6.083620,53.024281
Bûtewei,55,,,8408JD,Lippenhuizen,Opsterland,Friesland,VBO,6.086552,53.024947
Bûtewei,57,,,8408JD,Lippenhuizen,Opsterland,Friesland,VBO,6.088681,53.025707
Bûtewei,59,A,,8408JD,Lippenhuizen,Opsterland,Friesland,VBO,6.107390,53.037351
Bûtewei,59,,,8408JD,Lippenhuizen,Opsterland,Friesland,VBO,6.106816,53.037183
Rjochtskeamerpaed,1,,,8408JG,Lippenhuizen,Opsterland,Friesland,VBO,6.095350,53.018802
Rjochtskeamerpaed,2,,,8408JG,Lippenhuizen,Opsterland,Friesland,VBO,6.094870,53.018616
Rjochtskeamerpaed,3,,,8408JG,Lippenhuizen,Opsterland,Friesland,VBO,6.095511,53.018613
Rjochtskeamerpaed,4,,,8408JG,Lippenhuizen,Opsterland,Friesland,VBO,6.094777,53.018410
Rjochtskeamerpaed,5,,,8408JG,Lippenhuizen,Opsterland,Friesland,VBO,6.095478,53.018406
Feestlân,2,,,8408JH,Lippenhuizen,Opsterland,Friesland,VBO,6.096502,53.018157
Feestlân,4,,,8408JH,Lippenhuizen,Opsterland,Friesland,VBO,6.096546,53.018103
Feestlân,6,,,8408JH,Lippenhuizen,Opsterland,Friesland,VBO,6.096752,53.017940
Feestlân,8,,,8408JH,Lippenhuizen,Opsterland,Friesland,VBO,6.096662,53.017905
Feestlân,10,,,8408JH,Lippenhuizen,Opsterland,Friesland,VBO,6.096452,53.017870
Feestlân,12,,,8408JH,Lippenhuizen,Opsterland,Friesland,VBO,6.096377,53.017835
Feestlân,14,,,8408JH,Lippenhuizen,Opsterland,Friesland,VBO,6.096241,53.017692
Feestlân,16,,,8408JH,Lippenhuizen,Opsterland,Friesland,VBO,6.096225,53.017629
Feestlân,18,,,8408JH,Lippenhuizen,Opsterland,Friesland,VBO,6.096372,53.017529
Feestlân,20,,,8408JH,Lippenhuizen,Opsterland,Friesland,VBO,6.096356,53.017475
Feestlân,22,,,8408JH,Lippenhuizen,Opsterland,Friesland,VBO,6.096564,53.017402
Feestlân,24,,,8408JH,Lippenhuizen,Opsterland,Friesland,VBO,6.096607,53.017330
Feestlân,26,,,8408JH,Lippenhuizen,Opsterland,Friesland,VBO,6.096696,53.017267
Feestlân,28,,,8408JH,Lippenhuizen,Opsterland,Friesland,VBO,6.096739,53.017185
Feestlân,30,,,8408JH,Lippenhuizen,Opsterland,Friesland,VBO,6.097108,53.016950
Feestlân,32,,,8408JH,Lippenhuizen,Opsterland,Friesland,VBO,6.097152,53.016895
Feestlân,34,,,8408JH,Lippenhuizen,Opsterland,Friesland,VBO,6.097181,53.016850
Feestlân,36,,,8408JH,Lippenhuizen,Opsterland,Friesland,VBO,6.097225,53.016805
Feestlân,38,,,8408JH,Lippenhuizen,Opsterland,Friesland,VBO,6.097357,53.016696
Feestlân,40,,,8408JH,Lippenhuizen,Opsterland,Friesland,VBO,6.097401,53.016651
Feestlân,42,,,8408JJ,Lippenhuizen,Opsterland,Friesland,VBO,6.097057,53.016590
Feestlân,44,,,8408JJ,Lippenhuizen,Opsterland,Friesland,VBO,6.096997,53.016564
Feestlân,46,,,8408JJ,Lippenhuizen,Opsterland,Friesland,VBO,6.096817,53.016502
Feestlân,48,,,8408JJ,Lippenhuizen,Opsterland,Friesland,VBO,6.096728,53.016476
Feestlân,50,,,8408JJ,Lippenhuizen,Opsterland,Friesland,VBO,6.096768,53.016188
Feestlân,52,,,8408JJ,Lippenhuizen,Opsterland,Friesland,VBO,6.096828,53.016205
Feestlân,54,,,8408JJ,Lippenhuizen,Opsterland,Friesland,VBO,6.096902,53.016232
Feestlân,56,,,8408JJ,Lippenhuizen,Opsterland,Friesland,VBO,6.097052,53.016249
Feestlân,58,,,8408JJ,Lippenhuizen,Opsterland,Friesland,VBO,6.097201,53.016284
Feestlân,60,,,8408JJ,Lippenhuizen,Opsterland,Friesland,VBO,6.097406,53.016022
Feestlân,62,,,8408JJ,Lippenhuizen,Opsterland,Friesland,VBO,6.097316,53.015978
Feestlân,64,,,8408JJ,Lippenhuizen,Opsterland,Friesland,VBO,6.097166,53.015961
Feestlân,66,,,8408JJ,Lippenhuizen,Opsterland,Friesland,VBO,6.097076,53.015934
Feestlân,68,A,,8408JJ,Lippenhuizen,Opsterland,Friesland,VBO,6.096612,53.015811
Feestlân,68,B,,8408JJ,Lippenhuizen,Opsterland,Friesland,VBO,6.096342,53.015669
Feestlân,68,,,8408JJ,Lippenhuizen,Opsterland,Friesland,VBO,6.097017,53.015917
Feestlân,70,,,8408JJ,Lippenhuizen,Opsterland,Friesland,VBO,6.097265,53.015637
Feestlân,72,,,8408JJ,Lippenhuizen,Opsterland,Friesland,VBO,6.097431,53.015725
Feestlân,74,,,8408JJ,Lippenhuizen,Opsterland,Friesland,VBO,6.097610,53.015787
Feestlân,1,,,8408JK,Lippenhuizen,Opsterland,Friesland,VBO,6.097488,53.017406
Feestlân,3,,,8408JK,Lippenhuizen,Opsterland,Friesland,VBO,6.097428,53.017361
Feestlân,5,,,8408JK,Lippenhuizen,Opsterland,Friesland,VBO,6.097338,53.017335
Feestlân,7,,,8408JK,Lippenhuizen,Opsterland,Friesland,VBO,6.097528,53.017118
Feestlân,9,,,8408JK,Lippenhuizen,Opsterland,Friesland,VBO,6.097587,53.017064
Feestlân,11,,,8408JK,Lippenhuizen,Opsterland,Friesland,VBO,6.097674,53.016964
Feestlân,13,,,8408JK,Lippenhuizen,Opsterland,Friesland,VBO,6.097718,53.016892
Feestlân,15,,,8408JK,Lippenhuizen,Opsterland,Friesland,VBO,6.097777,53.016847
Feestlân,17,,,8408JK,Lippenhuizen,Opsterland,Friesland,VBO,6.097821,53.016811
Feestlân,19,,,8408JK,Lippenhuizen,Opsterland,Friesland,VBO,6.098028,53.016701
Feestlân,21,,,8408JK,Lippenhuizen,Opsterland,Friesland,VBO,6.098130,53.016602
Feestlân,23,,,8408JK,Lippenhuizen,Opsterland,Friesland,VBO,6.098248,53.016502
Feestlân,25,,,8408JK,Lippenhuizen,Opsterland,Friesland,VBO,6.098365,53.016385
Feestlân,27,A,,8408JK,Lippenhuizen,Opsterland,Friesland,VBO,6.098556,53.016195
Feestlân,27,,,8408JK,Lippenhuizen,Opsterland,Friesland,VBO,6.098240,53.015990
Kobunderleantsje,2,,,8408JL,Lippenhuizen,Opsterland,Friesland,VBO,6.096173,53.016299
Kobunderleantsje,4,,,8408JL,Lippenhuizen,Opsterland,Friesland,VBO,6.096098,53.016273
Kobunderleantsje,6,,,8408JL,Lippenhuizen,Opsterland,Friesland,VBO,6.095904,53.016202
Kobunderleantsje,8,,,8408JL,Lippenhuizen,Opsterland,Friesland,VBO,6.095829,53.016175
Kobunderleantsje,10,,,8408JL,Lippenhuizen,Opsterland,Friesland,VBO,6.095944,53.015968
Kobunderleantsje,12,,,8408JL,Lippenhuizen,Opsterland,Friesland,VBO,6.096124,53.016030
Kobunderleantsje,14,,,8408JL,Lippenhuizen,Opsterland,Friesland,VBO,6.096319,53.016101
Swanneblom,2,,,8408KA,Lippenhuizen,Opsterland,Friesland,VBO,6.089611,53.014809
Swanneblom,6,,,8408KA,Lippenhuizen,Opsterland,Friesland,VBO,6.089839,53.014568
Swanneblom,8,,,8408KA,Lippenhuizen,Opsterland,Friesland,VBO,6.089909,53.014393
Swanneblom,10,,,8408KA,Lippenhuizen,Opsterland,Friesland,VBO,6.090050,53.014253
Swanneblom,25,,TR01,8408KA,Lippenhuizen,Opsterland,Friesland,VBO,6.089844,53.015060
Swanneblom,27,,,8408KA,Lippenhuizen,Opsterland,Friesland,VBO,6.090057,53.014969
Pompeblêd,1,,,8408KB,Lippenhuizen,Opsterland,Friesland,VBO,6.092112,53.014903
Pompeblêd,2,,,8408KB,Lippenhuizen,Opsterland,Friesland,VBO,6.091804,53.015202
Pompeblêd,3,,,8408KB,Lippenhuizen,Opsterland,Friesland,VBO,6.092022,53.014868
Pompeblêd,4,,,8408KB,Lippenhuizen,Opsterland,Friesland,VBO,6.091550,53.015140
Pompeblêd,5,,,8408KB,Lippenhuizen,Opsterland,Friesland,VBO,6.091858,53.014824
Pompeblêd,6,,,8408KB,Lippenhuizen,Opsterland,Friesland,VBO,6.091460,53.015114
Pompeblêd,7,,,8408KB,Lippenhuizen,Opsterland,Friesland,VBO,6.091738,53.014798
Pompeblêd,8,,,8408KB,Lippenhuizen,Opsterland,Friesland,VBO,6.091266,53.015061
Pompeblêd,9,,,8408KB,Lippenhuizen,Opsterland,Friesland,VBO,6.091515,53.014835
Pompeblêd,10,,,8408KB,Lippenhuizen,Opsterland,Friesland,VBO,6.091176,53.015044
Pompeblêd,11,,,8408KB,Lippenhuizen,Opsterland,Friesland,VBO,6.091411,53.014809
Pompeblêd,12,,,8408KB,Lippenhuizen,Opsterland,Friesland,VBO,6.090878,53.015027
Pompeblêd,13,,,8408KB,Lippenhuizen,Opsterland,Friesland,VBO,6.091111,53.014729
Pompeblêd,14,,,8408KB,Lippenhuizen,Opsterland,Friesland,VBO,6.090638,53.014966
Pompeblêd,15,,,8408KB,Lippenhuizen,Opsterland,Friesland,VBO,6.090677,53.014615
Pompeblêd,16,,,8408KB,Lippenhuizen,Opsterland,Friesland,VBO,6.090428,53.014850
Pompeblêd,17,,,8408KB,Lippenhuizen,Opsterland,Friesland,VBO,6.090423,53.014545
Pompeblêd,18,,,8408KB,Lippenhuizen,Opsterland,Friesland,VBO,6.090188,53.014780
Dotterblom,1,,,8408KC,Lippenhuizen,Opsterland,Friesland,VBO,6.092579,53.014342
Dotterblom,2,,,8408KC,Lippenhuizen,Opsterland,Friesland,VBO,6.092398,53.014577
Dotterblom,3,,,8408KC,Lippenhuizen,Opsterland,Friesland,VBO,6.092356,53.014290
Dotterblom,4,,,8408KC,Lippenhuizen,Opsterland,Friesland,VBO,6.092288,53.014551
Dotterblom,5,,,8408KC,Lippenhuizen,Opsterland,Friesland,VBO,6.092150,53.014245
Dotterblom,6,,,8408KC,Lippenhuizen,Opsterland,Friesland,VBO,6.092106,53.014499
Dotterblom,7,,,8408KC,Lippenhuizen,Opsterland,Friesland,VBO,6.091958,53.014197
Dotterblom,8,,,8408KC,Lippenhuizen,Opsterland,Friesland,VBO,6.092031,53.014472
Dotterblom,9,,,8408KC,Lippenhuizen,Opsterland,Friesland,VBO,6.091027,53.014137
Dotterblom,10,,,8408KC,Lippenhuizen,Opsterland,Friesland,VBO,6.091793,53.014483
Dotterblom,11,,,8408KC,Lippenhuizen,Opsterland,Friesland,VBO,6.090910,53.014263
Dotterblom,12,,,8408KC,Lippenhuizen,Opsterland,Friesland,VBO,6.091718,53.014456
Dotterblom,13,,,8408KC,Lippenhuizen,Opsterland,Friesland,VBO,6.090793,53.014372
Dotterblom,14,,,8408KC,Lippenhuizen,Opsterland,Friesland,VBO,6.091373,53.014332
Dotterblom,16,,,8408KC,Lippenhuizen,Opsterland,Friesland,VBO,6.091265,53.014454
Dotterblom,18,,,8408KC,Lippenhuizen,Opsterland,Friesland,VBO,6.091169,53.014585
