openbareruimtenaam,huisnummer,huisletter,huisnummertoevoeging,postcode,woonplaatsnaam,gemeentenaam,provincienaam,typeadresseerbaarobject,longitude,latitude
Saturnus,1,A,,8448CC,Heerenveen,Heerenveen,Friesland,VBO,5.929554,52.970672
Saturnus,1,B,,8448CC,Heerenveen,Heerenveen,Friesland,VBO,5.929304,52.970854
Saturnus,1,C,,8448CC,Heerenveen,Heerenveen,Friesland,VBO,5.929169,52.970925
Saturnus,1,D,,8448CC,Heerenveen,Heerenveen,Friesland,VBO,5.929076,52.970998
Saturnus,1,E,,8448CC,Heerenveen,Heerenveen,Friesland,VBO,5.928886,52.971087
Saturnus,3,,,8448CC,Heerenveen,Heerenveen,Friesland,VBO,5.929920,52.971042
Saturnus,4,,11,8448CC,Heerenveen,Heerenveen,Friesland,VBO,5.932478,52.970806
Saturnus,4,,,8448CC,Heerenveen,Heerenveen,Friesland,VBO,5.932538,52.970887
Saturnus,5,,,8448CC,Heerenveen,Heerenveen,Friesland,VBO,5.930883,52.971682
Saturnus,6,,,8448CC,Heerenveen,Heerenveen,Friesland,VBO,5.933359,52.972402
Saturnus,7,,,8448CC,Heerenveen,Heerenveen,Friesland,VBO,5.930977,52.972615
Saturnus,8,,,8448CC,Heerenveen,Heerenveen,Friesland,VBO,5.934646,52.972610
Saturnus,21,,,8448CC,Heerenveen,Heerenveen,Friesland,VBO,5.946928,52.981530
Saturnus,23,,,8448CC,Heerenveen,Heerenveen,Friesland,VBO,5.950904,52.982237
Jupiter,2,A,,8448CD,Heerenveen,Heerenveen,Friesland,VBO,5.934354,52.968527
Jupiter,2,B,,8448CD,Heerenveen,Heerenveen,Friesland,VBO,5.934670,52.968774
Jupiter,2,C,,8448CD,Heerenveen,Heerenveen,Friesland,VBO,5.934703,52.968981
Jupiter,2,,,8448CD,Heerenveen,Heerenveen,Friesland,VBO,5.934155,52.968398
Jupiter,4,,,8448CD,Heerenveen,Heerenveen,Friesland,VBO,5.935180,52.969041
Jupiter,6,A,,8448CD,Heerenveen,Heerenveen,Friesland,VBO,5.935260,52.969454
Jupiter,6,,,8448CD,Heerenveen,Heerenveen,Friesland,VBO,5.935360,52.969157
Jupiter,8,,,8448CD,Heerenveen,Heerenveen,Friesland,VBO,5.935725,52.969835
Jupiter,10,A,,8448CD,Heerenveen,Heerenveen,Friesland,VBO,5.936370,52.970258
Jupiter,10,B,,8448CD,Heerenveen,Heerenveen,Friesland,VBO,5.936156,52.970118
Jupiter,10,C,,8448CD,Heerenveen,Heerenveen,Friesland,VBO,5.936340,52.970238
Jupiter,10,D,,8448CD,Heerenveen,Heerenveen,Friesland,VBO,5.936116,52.970093
Jupiter,10,E,,8448CD,Heerenveen,Heerenveen,Friesland,VBO,5.936312,52.970211
Jupiter,10,F,,8448CD,Heerenveen,Heerenveen,Friesland,VBO,5.936093,52.970066
Jupiter,10,G,,8448CD,Heerenveen,Heerenveen,Friesland,VBO,5.936314,52.970009
Jupiter,10,H,,8448CD,Heerenveen,Heerenveen,Friesland,VBO,5.936458,52.969909
Jupiter,10,I,,8448CD,Heerenveen,Heerenveen,Friesland,VBO,5.936632,52.969835
Jupiter,10,J,,8448CD,Heerenveen,Heerenveen,Friesland,VBO,5.936775,52.969748
Jupiter,10,K,,8448CD,Heerenveen,Heerenveen,Friesland,VBO,5.936934,52.969675
Jupiter,10,L,,8448CD,Heerenveen,Heerenveen,Friesland,VBO,5.937000,52.969623
Jupiter,10,M,,8448CD,Heerenveen,Heerenveen,Friesland,VBO,5.937258,52.969768
Jupiter,10,N,,8448CD,Heerenveen,Heerenveen,Friesland,VBO,5.937150,52.969788
Jupiter,10,O,,8448CD,Heerenveen,Heerenveen,Friesland,VBO,5.936991,52.969883
Jupiter,10,P,,8448CD,Heerenveen,Heerenveen,Friesland,VBO,5.936842,52.969966
Jupiter,10,Q,,8448CD,Heerenveen,Heerenveen,Friesland,VBO,5.936666,52.970066
Jupiter,10,R,,8448CD,Heerenveen,Heerenveen,Friesland,VBO,5.936517,52.970158
Jupiter,10,,,8448CD,Heerenveen,Heerenveen,Friesland,VBO,5.936249,52.970153
Jupiter,12,,,8448CD,Heerenveen,Heerenveen,Friesland,VBO,5.936762,52.970589
Jupiter,13,,,8448CD,Heerenveen,Heerenveen,Friesland,VBO,5.935928,52.970425
Venus,1,,,8448CE,Heerenveen,Heerenveen,Friesland,VBO,5.934575,52.967094
Venus,3,,,8448CE,Heerenveen,Heerenveen,Friesland,VBO,5.935965,52.968416
Venus,7,A,,8448CE,Heerenveen,Heerenveen,Friesland,VBO,5.937318,52.968586
Venus,7,B,,8448CE,Heerenveen,Heerenveen,Friesland,VBO,5.937445,52.968667
Venus,7,C,,8448CE,Heerenveen,Heerenveen,Friesland,VBO,5.937843,52.968918
Venus,7,D,,8448CE,Heerenveen,Heerenveen,Friesland,VBO,5.937967,52.969183
Venus,9,,,8448CE,Heerenveen,Heerenveen,Friesland,VBO,5.937592,52.969135
Venus,11,,,8448CE,Heerenveen,Heerenveen,Friesland,VBO,5.937356,52.969319
Venus,27,,,8448CE,Heerenveen,Heerenveen,Friesland,VBO,5.927540,52.972910
Venus,29,,,8448CE,Heerenveen,Heerenveen,Friesland,VBO,5.926756,52.973038
Venus,31,,,8448CE,Heerenveen,Heerenveen,Friesland,VBO,5.926535,52.973153
Venus,33,,,8448CE,Heerenveen,Heerenveen,Friesland,VBO,5.926018,52.973244
Venus,35,,,8448CE,Heerenveen,Heerenveen,Friesland,VBO,5.924737,52.973231
Komeet,4,,,8448CG,Heerenveen,Heerenveen,Friesland,VBO,5.942622,52.969713
Komeet,9,,,8448CG,Heerenveen,Heerenveen,Friesland,VBO,5.943116,52.970539
Komeet,10,,,8448CG,Heerenveen,Heerenveen,Friesland,VBO,5.945512,52.969612
Komeet,13,,,8448CG,Heerenveen,Heerenveen,Friesland,VBO,5.946718,52.971546
Vulcanus,7,,,8448CH,Heerenveen,Heerenveen,Friesland,VBO,5.948223,52.976287
Vulcanus,15,,,8448CH,Heerenveen,Heerenveen,Friesland,VBO,5.947981,52.975000
Vulcanus,25,,,8448CH,Heerenveen,Heerenveen,Friesland,VBO,5.948485,52.973509
Vulcanus,26,,,8448CH,Heerenveen,Heerenveen,Friesland,VBO,5.948758,52.971620
Vulcanus,27,,,8448CH,Heerenveen,Heerenveen,Friesland,VBO,5.948647,52.973391
Vulcanus,29,,,8448CH,Heerenveen,Heerenveen,Friesland,VBO,5.948668,52.973105
Vulcanus,41,,,8448CH,Heerenveen,Heerenveen,Friesland,VBO,5.949392,52.972273
Icarus,9,,,8448CJ,Heerenveen,Heerenveen,Friesland,VBO,5.932397,52.975066
Icarus,11,,,8448CJ,Heerenveen,Heerenveen,Friesland,VBO,5.932252,52.975336
Icarus,12,,,8448CJ,Heerenveen,Heerenveen,Friesland,VBO,5.933764,52.975885
Icarus,13,,,8448CJ,Heerenveen,Heerenveen,Friesland,VBO,5.932106,52.975615
Icarus,14,,,8448CJ,Heerenveen,Heerenveen,Friesland,VBO,5.933076,52.976361
Icarus,15,,,8448CJ,Heerenveen,Heerenveen,Friesland,VBO,5.932327,52.976197
Icarus,16,,,8448CJ,Heerenveen,Heerenveen,Friesland,VBO,5.932942,52.976598
Icarus,17,,,8448CJ,Heerenveen,Heerenveen,Friesland,VBO,5.932212,52.976405
Icarus,18,,,8448CJ,Heerenveen,Heerenveen,Friesland,VBO,5.933316,52.976625
Icarus,19,,,8448CJ,Heerenveen,Heerenveen,Friesland,VBO,5.932087,52.976618
Icarus,21,,,8448CJ,Heerenveen,Heerenveen,Friesland,VBO,5.931922,52.976837
Icarus,30,,,8448CJ,Heerenveen,Heerenveen,Friesland,VBO,5.931969,52.978353
Hermes,2,,,8448CK,Heerenveen,Heerenveen,Friesland,VBO,5.937172,52.977084
Hermes,4,,,8448CK,Heerenveen,Heerenveen,Friesland,VBO,5.936889,52.977112
Hermes,6,A,,8448CK,Heerenveen,Heerenveen,Friesland,VBO,5.935938,52.977034
Hermes,6,,,8448CK,Heerenveen,Heerenveen,Friesland,VBO,5.936477,52.977140
Hermes,8,,,8448CK,Heerenveen,Heerenveen,Friesland,VBO,5.935459,52.977074
Hermes,10,,,8448CK,Heerenveen,Heerenveen,Friesland,VBO,5.935084,52.976992
Hermes,12,,,8448CK,Heerenveen,Heerenveen,Friesland,VBO,5.934579,52.976884
Hermes,14,,,8448CK,Heerenveen,Heerenveen,Friesland,VBO,5.934094,52.976799
Hermes,16,,,8448CK,Heerenveen,Heerenveen,Friesland,VBO,5.933720,52.976575
Hermes,18,,,8448CK,Heerenveen,Heerenveen,Friesland,VBO,5.933389,52.976407
Apollo,1,,,8448CL,Heerenveen,Heerenveen,Friesland,VBO,5.936222,52.977684
Apollo,2,,,8448CL,Heerenveen,Heerenveen,Friesland,VBO,5.936367,52.978247
Apollo,3,,,8448CL,Heerenveen,Heerenveen,Friesland,VBO,5.935797,52.977488
Apollo,7,,,8448CL,Heerenveen,Heerenveen,Friesland,VBO,5.934983,52.977168
Apollo,9,,,8448CL,Heerenveen,Heerenveen,Friesland,VBO,5.934478,52.977069
Apollo,11,,,8448CL,Heerenveen,Heerenveen,Friesland,VBO,5.933998,52.976972
Apollo,15,,,8448CL,Heerenveen,Heerenveen,Friesland,VBO,5.933127,52.977045
Apollo,25,,,8448CL,Heerenveen,Heerenveen,Friesland,VBO,5.931151,52.976581
Apollo,27,,,8448CL,Heerenveen,Heerenveen,Friesland,VBO,5.930942,52.976537
Pluto,1,A,,8448CM,Heerenveen,Heerenveen,Friesland,VBO,5.937730,52.975939
Pluto,1,,,8448CM,Heerenveen,Heerenveen,Friesland,VBO,5.937349,52.975701
Pluto,3,,,8448CM,Heerenveen,Heerenveen,Friesland,VBO,5.937100,52.976609
Pluto,4,,,8448CM,Heerenveen,Heerenveen,Friesland,VBO,5.938874,52.976190
Pluto,5,,,8448CM,Heerenveen,Heerenveen,Friesland,VBO,5.937069,52.977183
Pluto,6,,,8448CM,Heerenveen,Heerenveen,Friesland,VBO,5.938493,52.976774
Pluto,7,,,8448CM,Heerenveen,Heerenveen,Friesland,VBO,5.936787,52.977292
Pluto,8,,,8448CM,Heerenveen,Heerenveen,Friesland,VBO,5.938185,52.977477
Pluto,9,A,,8448CM,Heerenveen,Heerenveen,Friesland,VBO,5.936821,52.977795
Pluto,9,,,8448CM,Heerenveen,Heerenveen,Friesland,VBO,5.936935,52.977596
Pluto,10,,,8448CM,Heerenveen,Heerenveen,Friesland,VBO,5.937798,52.977974
Pluto,11,,,8448CM,Heerenveen,Heerenveen,Friesland,VBO,5.936131,52.978374
Pluto,12,,,8448CM,Heerenveen,Heerenveen,Friesland,VBO,5.937600,52.978306
Pluto,13,,,8448CM,Heerenveen,Heerenveen,Friesland,VBO,5.936073,52.978509
Neptunus,2,,,8448CN,Heerenveen,Heerenveen,Friesland,VBO,5.941147,52.974516
Neptunus,7,,,8448CN,Heerenveen,Heerenveen,Friesland,VBO,5.944072,52.975363
Neptunus,11,,1,8448CN,Heerenveen,Heerenveen,Friesland,VBO,5.944425,52.974308
Neptunus,11,,10,8448CN,Heerenveen,Heerenveen,Friesland,VBO,5.945166,52.974458
Neptunus,11,,11,8448CN,Heerenveen,Heerenveen,Friesland,VBO,5.945246,52.974475
Neptunus,11,,12,8448CN,Heerenveen,Heerenveen,Friesland,VBO,5.945319,52.974491
Neptunus,11,,13,8448CN,Heerenveen,Heerenveen,Friesland,VBO,5.945440,52.974514
Neptunus,11,,14,8448CN,Heerenveen,Heerenveen,Friesland,VBO,5.944484,52.974213
Neptunus,11,,15,8448CN,Heerenveen,Heerenveen,Friesland,VBO,5.944579,52.974233
Neptunus,11,,16,8448CN,Heerenveen,Heerenveen,Friesland,VBO,5.944672,52.974248
Neptunus,11,,17,8448CN,Heerenveen,Heerenveen,Friesland,VBO,5.944748,52.974259
Neptunus,11,,18,8448CN,Heerenveen,Heerenveen,Friesland,VBO,5.944821,52.974274
Neptunus,11,,19,8448CN,Heerenveen,Heerenveen,Friesland,VBO,5.944901,52.974293
Neptunus,11,,2,8448CN,Heerenveen,Heerenveen,Friesland,VBO,5.944528,52.974334
Neptunus,11,,20,8448CN,Heerenveen,Heerenveen,Friesland,VBO,5.944978,52.974308
Neptunus,11,,21,8448CN,Heerenveen,Heerenveen,Friesland,VBO,5.945062,52.974322
Neptunus,11,,22,8448CN,Heerenveen,Heerenveen,Friesland,VBO,5.945141,52.974336
Neptunus,11,,23,8448CN,Heerenveen,Heerenveen,Friesland,VBO,5.945225,52.974352
Neptunus,11,,24,8448CN,Heerenveen,Heerenveen,Friesland,VBO,5.945300,52.974373
Neptunus,11,,25,8448CN,Heerenveen,Heerenveen,Friesland,VBO,5.945382,52.974387
Neptunus,11,,26,8448CN,Heerenveen,Heerenveen,Friesland,VBO,5.945487,52.974413
Neptunus,11,,3,8448CN,Heerenveen,Heerenveen,Friesland,VBO,5.944598,52.974355
Neptunus,11,,4,8448CN,Heerenveen,Heerenveen,Friesland,VBO,5.944689,52.974365
Neptunus,11,,5,8448CN,Heerenveen,Heerenveen,Friesland,VBO,5.944767,52.974378
Neptunus,11,,6,8448CN,Heerenveen,Heerenveen,Friesland,VBO,5.944850,52.974392
Neptunus,11,,7,8448CN,Heerenveen,Heerenveen,Friesland,VBO,5.944934,52.974414
Neptunus,11,,8,8448CN,Heerenveen,Heerenveen,Friesland,VBO,5.945001,52.974431
Neptunus,11,,9,8448CN,Heerenveen,Heerenveen,Friesland,VBO,5.945085,52.974448
Neptunus,12,,,8448CN,Heerenveen,Heerenveen,Friesland,VBO,5.944850,52.971440
Neptunus,51,,1,8448CN,Heerenveen,Heerenveen,Friesland,VBO,5.946853,52.970129
Neptunus,51,,10,8448CN,Heerenveen,Heerenveen,Friesland,VBO,5.947120,52.970091
Neptunus,51,,11,8448CN,Heerenveen,Heerenveen,Friesland,VBO,5.947224,52.970198
Neptunus,51,,12,8448CN,Heerenveen,Heerenveen,Friesland,VBO,5.947210,52.970105
Neptunus,51,,13,8448CN,Heerenveen,Heerenveen,Friesland,VBO,5.947256,52.970216
Neptunus,51,,14,8448CN,Heerenveen,Heerenveen,Friesland,VBO,5.947273,52.970098
Neptunus,51,,15,8448CN,Heerenveen,Heerenveen,Friesland,VBO,5.947310,52.970229
Neptunus,51,,16,8448CN,Heerenveen,Heerenveen,Friesland,VBO,5.947298,52.970133
Neptunus,51,,17,8448CN,Heerenveen,Heerenveen,Friesland,VBO,5.947364,52.970244
Neptunus,51,,18,8448CN,Heerenveen,Heerenveen,Friesland,VBO,5.947355,52.970143
Neptunus,51,,19,8448CN,Heerenveen,Heerenveen,Friesland,VBO,5.947430,52.970252
Neptunus,51,,2,8448CN,Heerenveen,Heerenveen,Friesland,VBO,5.946845,52.970037
Neptunus,51,,20,8448CN,Heerenveen,Heerenveen,Friesland,VBO,5.947415,52.970153
Neptunus,51,,21,8448CN,Heerenveen,Heerenveen,Friesland,VBO,5.947490,52.970267
Neptunus,51,,22,8448CN,Heerenveen,Heerenveen,Friesland,VBO,5.947480,52.970164
Neptunus,51,,23,8448CN,Heerenveen,Heerenveen,Friesland,VBO,5.947562,52.970284
Neptunus,51,,24,8448CN,Heerenveen,Heerenveen,Friesland,VBO,5.947555,52.970182
Neptunus,51,,25,8448CN,Heerenveen,Heerenveen,Friesland,VBO,5.947643,52.970296
Neptunus,51,,26,8448CN,Heerenveen,Heerenveen,Friesland,VBO,5.947661,52.970164
Neptunus,51,,27,8448CN,Heerenveen,Heerenveen,Friesland,VBO,5.947739,52.970314
Neptunus,51,,28,8448CN,Heerenveen,Heerenveen,Friesland,VBO,5.947713,52.970071
Neptunus,51,,29,8448CN,Heerenveen,Heerenveen,Friesland,VBO,5.947767,52.970262
Neptunus,51,,3,8448CN,Heerenveen,Heerenveen,Friesland,VBO,5.946954,52.970152
Neptunus,51,,30,8448CN,Heerenveen,Heerenveen,Friesland,VBO,5.947659,52.970024
Neptunus,51,,31,8448CN,Heerenveen,Heerenveen,Friesland,VBO,5.947781,52.970215
Neptunus,51,,32,8448CN,Heerenveen,Heerenveen,Friesland,VBO,5.947621,52.970019
Neptunus,51,,33,8448CN,Heerenveen,Heerenveen,Friesland,VBO,5.947802,52.970166
Neptunus,51,,34,8448CN,Heerenveen,Heerenveen,Friesland,VBO,5.947573,52.970011
Neptunus,51,,35,8448CN,Heerenveen,Heerenveen,Friesland,VBO,5.947828,52.970118
Neptunus,51,,36,8448CN,Heerenveen,Heerenveen,Friesland,VBO,5.947532,52.970001
Neptunus,51,,37,8448CN,Heerenveen,Heerenveen,Friesland,VBO,5.947868,52.970059
Neptunus,51,,38,8448CN,Heerenveen,Heerenveen,Friesland,VBO,5.947497,52.969991
Neptunus,51,,39,8448CN,Heerenveen,Heerenveen,Friesland,VBO,5.947908,52.969984
Neptunus,51,,4,8448CN,Heerenveen,Heerenveen,Friesland,VBO,5.946937,52.970055
Neptunus,51,,40,8448CN,Heerenveen,Heerenveen,Friesland,VBO,5.947457,52.969987
Neptunus,51,,41,8448CN,Heerenveen,Heerenveen,Friesland,VBO,5.947770,52.969975
Neptunus,51,,42,8448CN,Heerenveen,Heerenveen,Friesland,VBO,5.947414,52.969961
Neptunus,51,,43,8448CN,Heerenveen,Heerenveen,Friesland,VBO,5.947682,52.969945
Neptunus,51,,44,8448CN,Heerenveen,Heerenveen,Friesland,VBO,5.947370,52.969950
Neptunus,51,,45,8448CN,Heerenveen,Heerenveen,Friesland,VBO,5.947616,52.969925
Neptunus,51,,46,8448CN,Heerenveen,Heerenveen,Friesland,VBO,5.947306,52.969934
Neptunus,51,,47,8448CN,Heerenveen,Heerenveen,Friesland,VBO,5.947550,52.969912
Neptunus,51,,48,8448CN,Heerenveen,Heerenveen,Friesland,VBO,5.947215,52.969930
Neptunus,51,,49,8448CN,Heerenveen,Heerenveen,Friesland,VBO,5.947493,52.969904
Neptunus,51,,5,8448CN,Heerenveen,Heerenveen,Friesland,VBO,5.947012,52.970162
Neptunus,51,,50,8448CN,Heerenveen,Heerenveen,Friesland,VBO,5.947150,52.969908
Neptunus,51,,51,8448CN,Heerenveen,Heerenveen,Friesland,VBO,5.947465,52.969900
Neptunus,51,,52,8448CN,Heerenveen,Heerenveen,Friesland,VBO,5.947092,52.969902
Neptunus,51,,53,8448CN,Heerenveen,Heerenveen,Friesland,VBO,5.947412,52.969879
Neptunus,51,,54,8448CN,Heerenveen,Heerenveen,Friesland,VBO,5.947025,52.969889
Neptunus,51,,55,8448CN,Heerenveen,Heerenveen,Friesland,VBO,5.947346,52.969872
Neptunus,51,,57,8448CN,Heerenveen,Heerenveen,Friesland,VBO,5.947255,52.969854
Neptunus,51,,59,8448CN,Heerenveen,Heerenveen,Friesland,VBO,5.947195,52.969835
Neptunus,51,,6,8448CN,Heerenveen,Heerenveen,Friesland,VBO,5.947003,52.970069
Neptunus,51,,61,8448CN,Heerenveen,Heerenveen,Friesland,VBO,5.947131,52.969828
Neptunus,51,,63,8448CN,Heerenveen,Heerenveen,Friesland,VBO,5.947068,52.969812
Neptunus,51,,65,8448CN,Heerenveen,Heerenveen,Friesland,VBO,5.946952,52.969828
Neptunus,51,,7,8448CN,Heerenveen,Heerenveen,Friesland,VBO,5.947074,52.970183
Neptunus,51,,8,8448CN,Heerenveen,Heerenveen,Friesland,VBO,5.947056,52.970080
Neptunus,51,,9,8448CN,Heerenveen,Heerenveen,Friesland,VBO,5.947166,52.970184
Neptunus,53,,1,8448CN,Heerenveen,Heerenveen,Friesland,VBO,5.947080,52.969624
Neptunus,53,,10,8448CN,Heerenveen,Heerenveen,Friesland,VBO,5.947467,52.969622
Neptunus,53,,11,8448CN,Heerenveen,Heerenveen,Friesland,VBO,5.947319,52.969695
Neptunus,53,,12,8448CN,Heerenveen,Heerenveen,Friesland,VBO,5.947542,52.969640
Neptunus,53,,13,8448CN,Heerenveen,Heerenveen,Friesland,VBO,5.947349,52.969704
Neptunus,53,,14,8448CN,Heerenveen,Heerenveen,Friesland,VBO,5.947587,52.969649
Neptunus,53,,15,8448CN,Heerenveen,Heerenveen,Friesland,VBO,5.947409,52.969703
Neptunus,53,,16,8448CN,Heerenveen,Heerenveen,Friesland,VBO,5.947661,52.969666
Neptunus,53,,17,8448CN,Heerenveen,Heerenveen,Friesland,VBO,5.947483,52.969712
Neptunus,53,,18,8448CN,Heerenveen,Heerenveen,Friesland,VBO,5.947736,52.969675
Neptunus,53,,19,8448CN,Heerenveen,Heerenveen,Friesland,VBO,5.947558,52.969730
Neptunus,53,,2,8448CN,Heerenveen,Heerenveen,Friesland,VBO,5.947124,52.969552
Neptunus,53,,20,8448CN,Heerenveen,Heerenveen,Friesland,VBO,5.947796,52.969693
Neptunus,53,,21,8448CN,Heerenveen,Heerenveen,Friesland,VBO,5.947618,52.969747
Neptunus,53,,22,8448CN,Heerenveen,Heerenveen,Friesland,VBO,5.947870,52.969701
Neptunus,53,,23,8448CN,Heerenveen,Heerenveen,Friesland,VBO,5.947692,52.969756
Neptunus,53,,24,8448CN,Heerenveen,Heerenveen,Friesland,VBO,5.947930,52.969719
Neptunus,53,,25,8448CN,Heerenveen,Heerenveen,Friesland,VBO,5.947752,52.969774
Neptunus,53,,26,8448CN,Heerenveen,Heerenveen,Friesland,VBO,5.947990,52.969728
Neptunus,53,,27,8448CN,Heerenveen,Heerenveen,Friesland,VBO,5.947812,52.969782
Neptunus,53,,28,8448CN,Heerenveen,Heerenveen,Friesland,VBO,5.948120,52.969699
Neptunus,53,,29,8448CN,Heerenveen,Heerenveen,Friesland,VBO,5.947886,52.969800
Neptunus,53,,3,8448CN,Heerenveen,Heerenveen,Friesland,VBO,5.947140,52.969660
Neptunus,53,,30,8448CN,Heerenveen,Heerenveen,Friesland,VBO,5.948109,52.969736
Neptunus,53,,31,8448CN,Heerenveen,Heerenveen,Friesland,VBO,5.947946,52.969809
Neptunus,53,,32,8448CN,Heerenveen,Heerenveen,Friesland,VBO,5.948080,52.969781
Neptunus,53,,34,8448CN,Heerenveen,Heerenveen,Friesland,VBO,5.948065,52.969817
Neptunus,53,,36,8448CN,Heerenveen,Heerenveen,Friesland,VBO,5.948036,52.969862
Neptunus,53,,4,8448CN,Heerenveen,Heerenveen,Friesland,VBO,5.947214,52.969588
Neptunus,53,,5,8448CN,Heerenveen,Heerenveen,Friesland,VBO,5.947185,52.969669
Neptunus,53,,6,8448CN,Heerenveen,Heerenveen,Friesland,VBO,5.947303,52.969605
Neptunus,53,,7,8448CN,Heerenveen,Heerenveen,Friesland,VBO,5.947230,52.969677
Neptunus,53,,8,8448CN,Heerenveen,Heerenveen,Friesland,VBO,5.947378,52.969623
Neptunus,53,,9,8448CN,Heerenveen,Heerenveen,Friesland,VBO,5.947275,52.969686
Mars,10,,,8448CP,Heerenveen,Heerenveen,Friesland,VBO,5.930850,52.978341
Mars,22,,,8448CP,Heerenveen,Heerenveen,Friesland,VBO,5.936859,52.979704
Mars,24,,,8448CP,Heerenveen,Heerenveen,Friesland,VBO,5.938252,52.979888
Mars,26,,,8448CP,Heerenveen,Heerenveen,Friesland,VBO,5.938998,52.980034
Mars,33,,,8448CP,Heerenveen,Heerenveen,Friesland,VBO,5.942832,52.980890
Mars,35,,,8448CP,Heerenveen,Heerenveen,Friesland,VBO,5.946928,52.981530
Mars,37,,,8448CP,Heerenveen,Heerenveen,Friesland,VBO,5.950904,52.982237
Uranus,6,,,8448CR,Heerenveen,Heerenveen,Friesland,VBO,5.944747,52.976869
Uranus,7,,,8448CR,Heerenveen,Heerenveen,Friesland,VBO,5.946433,52.977219
Uranus,8,,,8448CR,Heerenveen,Heerenveen,Friesland,VBO,5.946883,52.977425
Uranus,9,,,8448CR,Heerenveen,Heerenveen,Friesland,VBO,5.947587,52.977519
Minerva,2,,,8448CS,Heerenveen,Heerenveen,Friesland,VBO,5.947725,52.976850
Minerva,36,,,8448CS,Heerenveen,Heerenveen,Friesland,VBO,5.949734,52.973444
Minerva,42,,,8448CS,Heerenveen,Heerenveen,Friesland,VBO,5.950063,52.972369
Minerva,44,,,8448CS,Heerenveen,Heerenveen,Friesland,VBO,5.950716,52.972240
Minerva,46,,,8448CS,Heerenveen,Heerenveen,Friesland,VBO,5.950774,52.972087
Minerva,1,,,8448CT,Heerenveen,Heerenveen,Friesland,VBO,5.950333,52.977214
Minerva,9,,,8448CT,Heerenveen,Heerenveen,Friesland,VBO,5.951353,52.972676
Minerva,11,,,8448CT,Heerenveen,Heerenveen,Friesland,VBO,5.951492,52.972393
Hector,1,,,8448CV,Heerenveen,Heerenveen,Friesland,VBO,5.941786,52.978416
Ceres,10,,,8448CW,Heerenveen,Heerenveen,Friesland,VBO,5.940115,52.978999
Pallas,9,,,8448CX,Heerenveen,Heerenveen,Friesland,VBO,5.941415,52.977897
Stadionweg,11,,,8448EA,Heerenveen,Heerenveen,Friesland,VBO,5.931648,52.965130
K R Poststraat,131,A,,8448EB,Heerenveen,Heerenveen,Friesland,VBO,5.930036,52.964687
K R Poststraat,131,,,8448EB,Heerenveen,Heerenveen,Friesland,VBO,5.930435,52.964570
K R Poststraat,143,,,8448EB,Heerenveen,Heerenveen,Friesland,VBO,5.937158,52.965321
Dalhuysenstraat,10,,,8448EW,Heerenveen,Heerenveen,Friesland,VBO,5.937245,52.958830
Dalhuysenstraat,11,,,8448EW,Heerenveen,Heerenveen,Friesland,VBO,5.937381,52.958594
Dalhuysenstraat,15,,,8448EW,Heerenveen,Heerenveen,Friesland,VBO,5.936695,52.959206
Dalhuysenstraat,16,,,8448EW,Heerenveen,Heerenveen,Friesland,VBO,5.936483,52.959416
Dalhuysenstraat,17,,,8448EW,Heerenveen,Heerenveen,Friesland,VBO,5.937134,52.958761
Dalhuysenstraat,20,,,8448EW,Heerenveen,Heerenveen,Friesland,VBO,5.937242,52.958708
Dalhuysenstraat,21,,,8448EW,Heerenveen,Heerenveen,Friesland,VBO,5.936545,52.959278
Dalhuysenstraat,22,,,8448EW,Heerenveen,Heerenveen,Friesland,VBO,5.936782,52.959196
Dalhuysenstraat,23,,,8448EW,Heerenveen,Heerenveen,Friesland,VBO,5.936555,52.959399
Dalhuysenstraat,24,,,8448EW,Heerenveen,Heerenveen,Friesland,VBO,5.936633,52.959353
Dalhuysenstraat,26,,,8448EW,Heerenveen,Heerenveen,Friesland,VBO,5.936723,52.959276
Dalhuysenstraat,27,,,8448EW,Heerenveen,Heerenveen,Friesland,VBO,5.936766,52.959244
Dalhuysenstraat,30,,,8448EW,Heerenveen,Heerenveen,Friesland,VBO,5.936546,52.959339
Dalhuysenstraat,32,,,8448EW,Heerenveen,Heerenveen,Friesland,VBO,5.937480,52.958639
Dalhuysenstraat,33,,,8448EW,Heerenveen,Heerenveen,Friesland,VBO,5.937394,52.958707
Dalhuysenstraat,34,,,8448EW,Heerenveen,Heerenveen,Friesland,VBO,5.937130,52.958920
Dalhuysenstraat,35,,,8448EW,Heerenveen,Heerenveen,Friesland,VBO,5.936493,52.959364
Dalhuysenstraat,36,,,8448EW,Heerenveen,Heerenveen,Friesland,VBO,5.937449,52.958667
Dalhuysenstraat,37,,,8448EW,Heerenveen,Heerenveen,Friesland,VBO,5.936622,52.959170
Dalhuysenstraat,38,,,8448EW,Heerenveen,Heerenveen,Friesland,VBO,5.936725,52.959237
Dalhuysenstraat,39,,,8448EW,Heerenveen,Heerenveen,Friesland,VBO,5.936834,52.959163
Dalhuysenstraat,50,,,8448EW,Heerenveen,Heerenveen,Friesland,VBO,5.936396,52.959363
Veldschans,1,,,8448EX,Heerenveen,Heerenveen,Friesland,VBO,5.932425,52.959474
Veldschans,3,,,8448EX,Heerenveen,Heerenveen,Friesland,VBO,5.932415,52.959483
Veldschans,5,,,8448EX,Heerenveen,Heerenveen,Friesland,VBO,5.932404,52.959492
Veldschans,7,,,8448EX,Heerenveen,Heerenveen,Friesland,VBO,5.932393,52.959501
Veldschans,9,,,8448EX,Heerenveen,Heerenveen,Friesland,VBO,5.932383,52.959510
Veldschans,11,,,8448EX,Heerenveen,Heerenveen,Friesland,VBO,5.932372,52.959520
Veldschans,13,,,8448EX,Heerenveen,Heerenveen,Friesland,VBO,5.932361,52.959529
Veldschans,15,,,8448EX,Heerenveen,Heerenveen,Friesland,VBO,5.932351,52.959538
Veldschans,17,,,8448EX,Heerenveen,Heerenveen,Friesland,VBO,5.932340,52.959547
Veldschans,19,,,8448EX,Heerenveen,Heerenveen,Friesland,VBO,5.932329,52.959556
Veldschans,21,,,8448EX,Heerenveen,Heerenveen,Friesland,VBO,5.932319,52.959565
Veldschans,23,,,8448EX,Heerenveen,Heerenveen,Friesland,VBO,5.932308,52.959574
Veldschans,25,,,8448EX,Heerenveen,Heerenveen,Friesland,VBO,5.932297,52.959583
Veldschans,27,,,8448EX,Heerenveen,Heerenveen,Friesland,VBO,5.932287,52.959592
Veldschans,29,,,8448EX,Heerenveen,Heerenveen,Friesland,VBO,5.932276,52.959601
Veldschans,31,,,8448EX,Heerenveen,Heerenveen,Friesland,VBO,5.932265,52.959610
Veldschans,33,,,8448EX,Heerenveen,Heerenveen,Friesland,VBO,5.932255,52.959619
Veldschans,35,,,8448EX,Heerenveen,Heerenveen,Friesland,VBO,5.932244,52.959628
Veldschans,37,,,8448EX,Heerenveen,Heerenveen,Friesland,VBO,5.932233,52.959637
Veldschans,39,,,8448EX,Heerenveen,Heerenveen,Friesland,VBO,5.932223,52.959646
Veldschans,41,,,8448EX,Heerenveen,Heerenveen,Friesland,VBO,5.932212,52.959655
Veldschans,43,,,8448EX,Heerenveen,Heerenveen,Friesland,VBO,5.932201,52.959664
Veldschans,45,,,8448EX,Heerenveen,Heerenveen,Friesland,VBO,5.932191,52.959673
Veldschans,47,,,8448EX,Heerenveen,Heerenveen,Friesland,VBO,5.932180,52.959682
Veldschans,49,,,8448EX,Heerenveen,Heerenveen,Friesland,VBO,5.932169,52.959691
Veldschans,51,,,8448EX,Heerenveen,Heerenveen,Friesland,VBO,5.932159,52.959700
Veldschans,53,,,8448EX,Heerenveen,Heerenveen,Friesland,VBO,5.932148,52.959709
Veldschans,55,,,8448EX,Heerenveen,Heerenveen,Friesland,VBO,5.932137,52.959718
Veldschans,57,,,8448EX,Heerenveen,Heerenveen,Friesland,VBO,5.932127,52.959727
Veldschans,59,,,8448EX,Heerenveen,Heerenveen,Friesland,VBO,5.932116,52.959736
Veldschans,61,,,8448EX,Heerenveen,Heerenveen,Friesland,VBO,5.932105,52.959745
Veldschans,63,,,8448EX,Heerenveen,Heerenveen,Friesland,VBO,5.932095,52.959754
Veldschans,65,,,8448EX,Heerenveen,Heerenveen,Friesland,VBO,5.932084,52.959763
Veldschans,67,,,8448EX,Heerenveen,Heerenveen,Friesland,VBO,5.932073,52.959773
Veldschans,69,,,8448EX,Heerenveen,Heerenveen,Friesland,VBO,5.932063,52.959782
Veldschans,71,,,8448EX,Heerenveen,Heerenveen,Friesland,VBO,5.932052,52.959791
Veldschans,73,,,8448EX,Heerenveen,Heerenveen,Friesland,VBO,5.932041,52.959800
Veldschans,75,,,8448EX,Heerenveen,Heerenveen,Friesland,VBO,5.932031,52.959809
Veldschans,77,,,8448EX,Heerenveen,Heerenveen,Friesland,VBO,5.932020,52.959818
Veldschans,79,,,8448EX,Heerenveen,Heerenveen,Friesland,VBO,5.932009,52.959827
Veldschans,81,,,8448EX,Heerenveen,Heerenveen,Friesland,VBO,5.931999,52.959836
Veldschans,83,,,8448EX,Heerenveen,Heerenveen,Friesland,VBO,5.931988,52.959845
Veldschans,85,,,8448EX,Heerenveen,Heerenveen,Friesland,VBO,5.931977,52.959854
Veldschans,87,,,8448EX,Heerenveen,Heerenveen,Friesland,VBO,5.931967,52.959863
Veldschans,89,,,8448EX,Heerenveen,Heerenveen,Friesland,VBO,5.931956,52.959872
Veldschans,91,,,8448EX,Heerenveen,Heerenveen,Friesland,VBO,5.931945,52.959881
Veldschans,93,,,8448EX,Heerenveen,Heerenveen,Friesland,VBO,5.931935,52.959890
Veldschans,95,,,8448EX,Heerenveen,Heerenveen,Friesland,VBO,5.931924,52.959899
Veldschans,97,,,8448EX,Heerenveen,Heerenveen,Friesland,VBO,5.931913,52.959908
Veldschans,99,,,8448EX,Heerenveen,Heerenveen,Friesland,VBO,5.931903,52.959917
Veldschans,101,,,8448EX,Heerenveen,Heerenveen,Friesland,VBO,5.931892,52.959926
Veldschans,103,,,8448EX,Heerenveen,Heerenveen,Friesland,VBO,5.931881,52.959935
Veldschans,105,,,8448EX,Heerenveen,Heerenveen,Friesland,VBO,5.931871,52.959944
Veldschans,107,,,8448EX,Heerenveen,Heerenveen,Friesland,VBO,5.931860,52.959953
Veldschans,109,,,8448EX,Heerenveen,Heerenveen,Friesland,VBO,5.931849,52.959962
Veldschans,111,,,8448EX,Heerenveen,Heerenveen,Friesland,VBO,5.931839,52.959971
Veldschans,113,,,8448EX,Heerenveen,Heerenveen,Friesland,VBO,5.931828,52.959980
Veldschans,115,,,8448EX,Heerenveen,Heerenveen,Friesland,VBO,5.931817,52.959989
Atalantastraat,11,,,8448EZ,Heerenveen,Heerenveen,Friesland,VBO,5.932082,52.959413
Atalantastraat,13,,,8448EZ,Heerenveen,Heerenveen,Friesland,VBO,5.932082,52.959422
Atalantastraat,15,,,8448EZ,Heerenveen,Heerenveen,Friesland,VBO,5.932082,52.959431
Atalantastraat,17,,,8448EZ,Heerenveen,Heerenveen,Friesland,VBO,5.932082,52.959440
Atalantastraat,19,,,8448EZ,Heerenveen,Heerenveen,Friesland,VBO,5.932083,52.959449
Atalantastraat,21,,,8448EZ,Heerenveen,Heerenveen,Friesland,VBO,5.932083,52.959458
Atalantastraat,23,,,8448EZ,Heerenveen,Heerenveen,Friesland,VBO,5.932083,52.959467
Atalantastraat,25,,,8448EZ,Heerenveen,Heerenveen,Friesland,VBO,5.932083,52.959476
Atalantastraat,27,,,8448EZ,Heerenveen,Heerenveen,Friesland,VBO,5.932083,52.959485
Atalantastraat,29,,,8448EZ,Heerenveen,Heerenveen,Friesland,VBO,5.932083,52.959494
Atalantastraat,30,,,8448EZ,Heerenveen,Heerenveen,Friesland,VBO,5.932383,52.959067
Atalantastraat,31,,,8448EZ,Heerenveen,Heerenveen,Friesland,VBO,5.932083,52.959512
Atalantastraat,33,,,8448EZ,Heerenveen,Heerenveen,Friesland,VBO,5.932083,52.959521
het Meer,1,,,8448GA,Heerenveen,Heerenveen,Friesland,VBO,5.932154,52.962756
het Meer,3,,,8448GA,Heerenveen,Heerenveen,Friesland,VBO,5.932081,52.962918
het Meer,5,,,8448GA,Heerenveen,Heerenveen,Friesland,VBO,5.932038,52.962999
het Meer,7,,,8448GA,Heerenveen,Heerenveen,Friesland,VBO,5.932009,52.963062
het Meer,9,,,8448GA,Heerenveen,Heerenveen,Friesland,VBO,5.931965,52.963143
het Meer,13,,,8448GA,Heerenveen,Heerenveen,Friesland,VBO,5.931863,52.963323
het Meer,15,,,8448GA,Heerenveen,Heerenveen,Friesland,VBO,5.932347,52.962728
het Meer,17,,,8448GA,Heerenveen,Heerenveen,Friesland,VBO,5.932586,52.962808
het Meer,19,,,8448GA,Heerenveen,Heerenveen,Friesland,VBO,5.932855,52.962869
het Meer,21,,,8448GA,Heerenveen,Heerenveen,Friesland,VBO,5.933213,52.962966
het Meer,23,,,8448GA,Heerenveen,Heerenveen,Friesland,VBO,5.933377,52.963020
het Meer,25,,,8448GA,Heerenveen,Heerenveen,Friesland,VBO,5.933321,52.963263
het Meer,27,,,8448GA,Heerenveen,Heerenveen,Friesland,VBO,5.933571,52.963064
het Meer,29,,,8448GA,Heerenveen,Heerenveen,Friesland,VBO,5.933736,52.963117
het Meer,31,,,8448GA,Heerenveen,Heerenveen,Friesland,VBO,5.933840,52.963143
het Meer,33,,,8448GA,Heerenveen,Heerenveen,Friesland,VBO,5.933900,52.963152
het Meer,35,,,8448GA,Heerenveen,Heerenveen,Friesland,VBO,5.933975,52.963179
het Meer,39,,,8448GB,Heerenveen,Heerenveen,Friesland,VBO,5.934199,52.963250
het Meer,67,,,8448GB,Heerenveen,Heerenveen,Friesland,VBO,5.936156,52.963863
het Meer,75,A,,8448GB,Heerenveen,Heerenveen,Friesland,VBO,5.936864,52.964504
het Meer,75,,,8448GB,Heerenveen,Heerenveen,Friesland,VBO,5.936948,52.964109
het Meer,77,,,8448GB,Heerenveen,Heerenveen,Friesland,VBO,5.937216,52.964098
het Meer,81,,,8448GC,Heerenveen,Heerenveen,Friesland,VBO,5.937321,52.964134
het Meer,85,,,8448GC,Heerenveen,Heerenveen,Friesland,VBO,5.937440,52.964169
het Meer,89,A,,8448GC,Heerenveen,Heerenveen,Friesland,VBO,5.937396,52.964402
het Meer,89,,,8448GC,Heerenveen,Heerenveen,Friesland,VBO,5.937590,52.964213
het Meer,91,,,8448GC,Heerenveen,Heerenveen,Friesland,VBO,5.937694,52.964231
het Meer,93,,,8448GC,Heerenveen,Heerenveen,Friesland,VBO,5.937873,52.964293
het Meer,95,,,8448GC,Heerenveen,Heerenveen,Friesland,VBO,5.937963,52.964320
het Meer,97,,,8448GC,Heerenveen,Heerenveen,Friesland,VBO,5.938052,52.964337
het Meer,99,,,8448GC,Heerenveen,Heerenveen,Friesland,VBO,5.938217,52.964381
het Meer,101,,,8448GC,Heerenveen,Heerenveen,Friesland,VBO,5.938306,52.964399
het Meer,103,,,8448GC,Heerenveen,Heerenveen,Friesland,VBO,5.938396,52.964434
het Meer,105,,,8448GC,Heerenveen,Heerenveen,Friesland,VBO,5.938486,52.964461
het Meer,107,,,8448GC,Heerenveen,Heerenveen,Friesland,VBO,5.938635,52.964496
het Meer,109,,,8448GC,Heerenveen,Heerenveen,Friesland,VBO,5.938739,52.964523
het Meer,111,,,8448GC,Heerenveen,Heerenveen,Friesland,VBO,5.938844,52.964549
het Meer,115,,,8448GC,Heerenveen,Heerenveen,Friesland,VBO,5.938934,52.964585
het Meer,117,,,8448GC,Heerenveen,Heerenveen,Friesland,VBO,5.939023,52.964602
het Meer,119,,,8448GC,Heerenveen,Heerenveen,Friesland,VBO,5.939174,52.964718
het Meer,121,,,8448GC,Heerenveen,Heerenveen,Friesland,VBO,5.939353,52.964754
het Meer,123,,,8448GD,Heerenveen,Heerenveen,Friesland,VBO,5.939442,52.964789
het Meer,125,,,8448GD,Heerenveen,Heerenveen,Friesland,VBO,5.939562,52.964824
het Meer,127,,,8448GD,Heerenveen,Heerenveen,Friesland,VBO,5.939696,52.964851
het Meer,129,A,,8448GD,Heerenveen,Heerenveen,Friesland,VBO,5.939536,52.965121
het Meer,129,,,8448GD,Heerenveen,Heerenveen,Friesland,VBO,5.939580,52.965067
het Meer,131,,,8448GD,Heerenveen,Heerenveen,Friesland,VBO,5.939434,52.965301
het Meer,135,,,8448GD,Heerenveen,Heerenveen,Friesland,VBO,5.939702,52.965300
het Meer,137,,,8448GD,Heerenveen,Heerenveen,Friesland,VBO,5.939995,52.964939
het Meer,141,,,8448GD,Heerenveen,Heerenveen,Friesland,VBO,5.940174,52.964947
het Meer,143,,,8448GD,Heerenveen,Heerenveen,Friesland,VBO,5.940398,52.965009
het Meer,145,,,8448GD,Heerenveen,Heerenveen,Friesland,VBO,5.940168,52.965675
het Meer,147,,,8448GD,Heerenveen,Heerenveen,Friesland,VBO,5.940489,52.965144
het Meer,149,,,8448GD,Heerenveen,Heerenveen,Friesland,VBO,5.940741,52.965107
het Meer,151,,,8448GD,Heerenveen,Heerenveen,Friesland,VBO,5.940906,52.965160
het Meer,153,,,8448GD,Heerenveen,Heerenveen,Friesland,VBO,5.940980,52.965186
het Meer,159,,,8448GD,Heerenveen,Heerenveen,Friesland,VBO,5.940868,52.965672
het Meer,161,,,8448GD,Heerenveen,Heerenveen,Friesland,VBO,5.941371,52.965463
het Meer,165,,,8448GE,Heerenveen,Heerenveen,Friesland,VBO,5.941652,52.965363
het Meer,167,,,8448GE,Heerenveen,Heerenveen,Friesland,VBO,5.941742,52.965407
het Meer,169,,,8448GE,Heerenveen,Heerenveen,Friesland,VBO,5.941847,52.965425
het Meer,173,,,8448GE,Heerenveen,Heerenveen,Friesland,VBO,5.941966,52.965451
het Meer,175,,,8448GE,Heerenveen,Heerenveen,Friesland,VBO,5.942100,52.965478
het Meer,177,,,8448GE,Heerenveen,Heerenveen,Friesland,VBO,5.942190,52.965504
het Meer,179,,,8448GE,Heerenveen,Heerenveen,Friesland,VBO,5.942280,52.965522
het Meer,181,,,8448GE,Heerenveen,Heerenveen,Friesland,VBO,5.941914,52.966018
het Meer,183,,,8448GE,Heerenveen,Heerenveen,Friesland,VBO,5.941839,52.966009
het Meer,185,,,8448GE,Heerenveen,Heerenveen,Friesland,VBO,5.942400,52.965647
het Meer,193,,,8448GE,Heerenveen,Heerenveen,Friesland,VBO,5.942893,52.965744
het Meer,195,,,8448GE,Heerenveen,Heerenveen,Friesland,VBO,5.943131,52.965769
het Meer,197,,,8448GE,Heerenveen,Heerenveen,Friesland,VBO,5.943443,52.965741
het Meer,199,,,8448GE,Heerenveen,Heerenveen,Friesland,VBO,5.944279,52.965890
het Meer,201,,,8448GE,Heerenveen,Heerenveen,Friesland,VBO,5.944466,52.965969
het Meer,203,,,8448GE,Heerenveen,Heerenveen,Friesland,VBO,5.944711,52.965960
het Meer,205,,,8448GE,Heerenveen,Heerenveen,Friesland,VBO,5.944771,52.965977
het Meer,207,,,8448GG,Heerenveen,Heerenveen,Friesland,VBO,5.945041,52.966147
het Meer,209,,,8448GG,Heerenveen,Heerenveen,Friesland,VBO,5.945473,52.966190
het Meer,211,A,,8448GG,Heerenveen,Heerenveen,Friesland,VBO,5.945787,52.966278
het Meer,211,B,,8448GG,Heerenveen,Heerenveen,Friesland,VBO,5.946264,52.966348
het Meer,211,C,,8448GG,Heerenveen,Heerenveen,Friesland,VBO,5.946577,52.966391
het Meer,211,D,,8448GG,Heerenveen,Heerenveen,Friesland,VBO,5.946831,52.966453
het Meer,211,E,,8448GG,Heerenveen,Heerenveen,Friesland,VBO,5.947100,52.966506
het Meer,211,,,8448GG,Heerenveen,Heerenveen,Friesland,VBO,5.945563,52.966207
het Meer,213,,,8448GG,Heerenveen,Heerenveen,Friesland,VBO,5.947650,52.966494
het Meer,215,,,8448GG,Heerenveen,Heerenveen,Friesland,VBO,5.947785,52.966521
het Meer,217,,,8448GG,Heerenveen,Heerenveen,Friesland,VBO,5.947889,52.966538
het Meer,219,,,8448GG,Heerenveen,Heerenveen,Friesland,VBO,5.947964,52.966556
het Meer,221,,,8448GG,Heerenveen,Heerenveen,Friesland,VBO,5.948336,52.966590
het Meer,223,A,,8448GG,Heerenveen,Heerenveen,Friesland,VBO,5.949218,52.966873
het Meer,223,B,,8448GG,Heerenveen,Heerenveen,Friesland,VBO,5.949636,52.966943
het Meer,223,C,,8448GG,Heerenveen,Heerenveen,Friesland,VBO,5.950009,52.966995
het Meer,223,,,8448GG,Heerenveen,Heerenveen,Friesland,VBO,5.948507,52.967146
het Meer,225,,,8448GG,Heerenveen,Heerenveen,Friesland,VBO,5.950634,52.967055
het Meer,227,,,8448GG,Heerenveen,Heerenveen,Friesland,VBO,5.950918,52.967099
het Meer,229,,,8448GG,Heerenveen,Heerenveen,Friesland,VBO,5.951052,52.967125
het Meer,231,,,8448GG,Heerenveen,Heerenveen,Friesland,VBO,5.951127,52.967143
het Meer,235,A,,8448GG,Heerenveen,Heerenveen,Friesland,VBO,5.952587,52.967298
het Meer,235,,,8448GG,Heerenveen,Heerenveen,Friesland,VBO,5.951369,52.967447
het Meer,237,,,8448GH,Heerenveen,Heerenveen,Friesland,VBO,5.952811,52.967306
het Meer,239,A,,8448GH,Heerenveen,Heerenveen,Friesland,VBO,5.953214,52.967367
het Meer,239,,,8448GH,Heerenveen,Heerenveen,Friesland,VBO,5.953109,52.967349
het Meer,243,A,,8448GH,Heerenveen,Heerenveen,Friesland,VBO,5.953826,52.967525
het Meer,243,B,,8448GH,Heerenveen,Heerenveen,Friesland,VBO,5.954049,52.967542
het Meer,243,C,,8448GH,Heerenveen,Heerenveen,Friesland,VBO,5.954154,52.967542
het Meer,243,D,,8448GH,Heerenveen,Heerenveen,Friesland,VBO,5.954362,52.967577
het Meer,243,E,,8448GH,Heerenveen,Heerenveen,Friesland,VBO,5.954481,52.967576
het Meer,243,F,,8448GH,Heerenveen,Heerenveen,Friesland,VBO,5.954705,52.967611
het Meer,243,G,,8448GH,Heerenveen,Heerenveen,Friesland,VBO,5.954795,52.967629
het Meer,243,H,,8448GH,Heerenveen,Heerenveen,Friesland,VBO,5.954965,52.967623
het Meer,243,J,,8448GH,Heerenveen,Heerenveen,Friesland,VBO,5.955103,52.967722
het Meer,243,,,8448GH,Heerenveen,Heerenveen,Friesland,VBO,5.953616,52.967437
het Meer,245,A,,8448GH,Heerenveen,Heerenveen,Friesland,VBO,5.956635,52.968169
het Meer,245,,,8448GH,Heerenveen,Heerenveen,Friesland,VBO,5.957227,52.968084
het Meer,247,,,8448GH,Heerenveen,Heerenveen,Friesland,VBO,5.957435,52.968092
het Meer,249,,,8448GH,Heerenveen,Heerenveen,Friesland,VBO,5.957659,52.968118
het Meer,251,,,8448GH,Heerenveen,Heerenveen,Friesland,VBO,5.958107,52.968224
het Meer,253,,,8448GH,Heerenveen,Heerenveen,Friesland,VBO,5.958420,52.968294
het Meer,255,,,8448GH,Heerenveen,Heerenveen,Friesland,VBO,5.958733,52.968311
het Meer,257,,,8448GH,Heerenveen,Heerenveen,Friesland,VBO,5.958972,52.968337
het Meer,259,,,8448GH,Heerenveen,Heerenveen,Friesland,VBO,5.959390,52.968425
het Meer,2,,,8448GJ,Heerenveen,Heerenveen,Friesland,VBO,5.933073,52.962473
het Meer,4,,,8448GJ,Heerenveen,Heerenveen,Friesland,VBO,5.933521,52.962615
het Meer,6,,,8448GJ,Heerenveen,Heerenveen,Friesland,VBO,5.933596,52.962641
het Meer,8,,,8448GJ,Heerenveen,Heerenveen,Friesland,VBO,5.933685,52.962659
het Meer,10,,,8448GJ,Heerenveen,Heerenveen,Friesland,VBO,5.933760,52.962685
het Meer,12,,,8448GJ,Heerenveen,Heerenveen,Friesland,VBO,5.933880,52.962730
het Meer,14,,,8448GJ,Heerenveen,Heerenveen,Friesland,VBO,5.933999,52.962756
het Meer,16,,,8448GJ,Heerenveen,Heerenveen,Friesland,VBO,5.934119,52.962801
het Meer,18,,,8448GJ,Heerenveen,Heerenveen,Friesland,VBO,5.934223,52.962836
het Meer,20,,,8448GJ,Heerenveen,Heerenveen,Friesland,VBO,5.934313,52.962872
het Meer,22,,,8448GJ,Heerenveen,Heerenveen,Friesland,VBO,5.934463,52.962925
het Meer,24,,,8448GJ,Heerenveen,Heerenveen,Friesland,VBO,5.934537,52.962942
Domela Nieuwenhuisweg,1,,,8448GK,Heerenveen,Heerenveen,Friesland,VBO,5.939150,52.963115
Domela Nieuwenhuisweg,3,,,8448GK,Heerenveen,Heerenveen,Friesland,VBO,5.939674,52.962205
Domela Nieuwenhuisweg,5,,,8448GK,Heerenveen,Heerenveen,Friesland,VBO,5.940896,52.961255
Domela Nieuwenhuisweg,7,,,8448GK,Heerenveen,Heerenveen,Friesland,VBO,5.941238,52.961328
Domela Nieuwenhuisweg,17,,,8448GK,Heerenveen,Heerenveen,Friesland,VBO,5.942825,52.961520
Domela Nieuwenhuisweg,19,,,8448GK,Heerenveen,Heerenveen,Friesland,VBO,5.944478,52.961879
Domela Nieuwenhuisweg,21,,,8448GK,Heerenveen,Heerenveen,Friesland,VBO,5.944550,52.961902
Domela Nieuwenhuisweg,23,,,8448GK,Heerenveen,Heerenveen,Friesland,VBO,5.944621,52.961925
Domela Nieuwenhuisweg,25,,,8448GK,Heerenveen,Heerenveen,Friesland,VBO,5.944691,52.961948
Domela Nieuwenhuisweg,27,,,8448GK,Heerenveen,Heerenveen,Friesland,VBO,5.944761,52.961971
Domela Nieuwenhuisweg,29,,,8448GK,Heerenveen,Heerenveen,Friesland,VBO,5.944831,52.961994
Domela Nieuwenhuisweg,31,,,8448GK,Heerenveen,Heerenveen,Friesland,VBO,5.944902,52.962017
Domela Nieuwenhuisweg,33,,,8448GK,Heerenveen,Heerenveen,Friesland,VBO,5.944972,52.962039
Domela Nieuwenhuisweg,35,,,8448GK,Heerenveen,Heerenveen,Friesland,VBO,5.945042,52.962062
Domela Nieuwenhuisweg,37,A,,8448GK,Heerenveen,Heerenveen,Friesland,VBO,5.945184,52.962109
Domela Nieuwenhuisweg,37,,,8448GK,Heerenveen,Heerenveen,Friesland,VBO,5.945112,52.962085
Domela Nieuwenhuisweg,39,,,8448GK,Heerenveen,Heerenveen,Friesland,VBO,5.947296,52.962799
Domela Nieuwenhuisweg,41,,,8448GK,Heerenveen,Heerenveen,Friesland,VBO,5.947359,52.962818
Domela Nieuwenhuisweg,43,,,8448GK,Heerenveen,Heerenveen,Friesland,VBO,5.947437,52.962845
Domela Nieuwenhuisweg,45,,,8448GK,Heerenveen,Heerenveen,Friesland,VBO,5.947531,52.962870
Domela Nieuwenhuisweg,47,,,8448GK,Heerenveen,Heerenveen,Friesland,VBO,5.947614,52.962893
Domela Nieuwenhuisweg,49,,,8448GK,Heerenveen,Heerenveen,Friesland,VBO,5.947676,52.962920
Domela Nieuwenhuisweg,51,,,8448GK,Heerenveen,Heerenveen,Friesland,VBO,5.947757,52.962944
Domela Nieuwenhuisweg,53,,,8448GK,Heerenveen,Heerenveen,Friesland,VBO,5.947826,52.962971
het Meer,32,,,8448GK,Heerenveen,Heerenveen,Friesland,VBO,5.936256,52.963501
het Meer,34,,,8448GK,Heerenveen,Heerenveen,Friesland,VBO,5.936331,52.963518
het Meer,36,,,8448GK,Heerenveen,Heerenveen,Friesland,VBO,5.936405,52.963536
het Meer,46,,,8448GK,Heerenveen,Heerenveen,Friesland,VBO,5.937315,52.963676
het Meer,50,,,8448GK,Heerenveen,Heerenveen,Friesland,VBO,5.937212,52.963784
het Meer,52,,,8448GK,Heerenveen,Heerenveen,Friesland,VBO,5.937346,52.963819
het Meer,54,,,8448GK,Heerenveen,Heerenveen,Friesland,VBO,5.937465,52.963810
het Meer,56,A,,8448GK,Heerenveen,Heerenveen,Friesland,VBO,5.937883,52.963862
het Meer,56,,,8448GK,Heerenveen,Heerenveen,Friesland,VBO,5.937511,52.963872
het Meer,58,A,,8448GK,Heerenveen,Heerenveen,Friesland,VBO,5.938106,52.963843
het Meer,58,B,,8448GK,Heerenveen,Heerenveen,Friesland,VBO,5.938255,52.963869
het Meer,58,C,,8448GK,Heerenveen,Heerenveen,Friesland,VBO,5.938106,52.963843
het Meer,58,D,,8448GK,Heerenveen,Heerenveen,Friesland,VBO,5.938255,52.963869
het Meer,58,E,,8448GK,Heerenveen,Heerenveen,Friesland,VBO,5.938269,52.963770
het Meer,58,F,,8448GK,Heerenveen,Heerenveen,Friesland,VBO,5.938327,52.963689
het Meer,58,G,,8448GK,Heerenveen,Heerenveen,Friesland,VBO,5.938400,52.963599
het Meer,60,,,8448GK,Heerenveen,Heerenveen,Friesland,VBO,5.938646,52.964164
het Meer,62,A,,8448GK,Heerenveen,Heerenveen,Friesland,VBO,5.939600,52.964303
het Meer,62,B,,8448GK,Heerenveen,Heerenveen,Friesland,VBO,5.940443,52.963895
het Meer,62,,,8448GK,Heerenveen,Heerenveen,Friesland,VBO,5.938840,52.964217
het Meer,64,,,8448GK,Heerenveen,Heerenveen,Friesland,VBO,5.940333,52.964569
het Meer,80,,,8448GL,Heerenveen,Heerenveen,Friesland,VBO,5.940827,52.964801
het Meer,82,,,8448GL,Heerenveen,Heerenveen,Friesland,VBO,5.940886,52.964818
het Meer,90,,,8448GL,Heerenveen,Heerenveen,Friesland,VBO,5.941185,52.964907
het Meer,92,,,8448GL,Heerenveen,Heerenveen,Friesland,VBO,5.941409,52.964960
het Meer,94,,,8448GL,Heerenveen,Heerenveen,Friesland,VBO,5.941529,52.964986
het Meer,96,,,8448GL,Heerenveen,Heerenveen,Friesland,VBO,5.941663,52.965030
het Meer,98,,,8448GL,Heerenveen,Heerenveen,Friesland,VBO,5.941768,52.965066
het Meer,102,,,8448GL,Heerenveen,Heerenveen,Friesland,VBO,5.941992,52.965128
het Meer,106,,,8448GM,Heerenveen,Heerenveen,Friesland,VBO,5.942484,52.965197
het Meer,108,A,,8448GM,Heerenveen,Heerenveen,Friesland,VBO,5.944902,52.965544
het Meer,108,,,8448GM,Heerenveen,Heerenveen,Friesland,VBO,5.942574,52.965260
het Meer,110,,,8448GM,Heerenveen,Heerenveen,Friesland,VBO,5.945497,52.965731
het Meer,112,,,8448GM,Heerenveen,Heerenveen,Friesland,VBO,5.945855,52.965802
het Meer,114,,,8448GM,Heerenveen,Heerenveen,Friesland,VBO,5.946646,52.965951
het Meer,116,A,,8448GM,Heerenveen,Heerenveen,Friesland,VBO,5.947814,52.966072
het Meer,116,B,,8448GM,Heerenveen,Heerenveen,Friesland,VBO,5.948112,52.966117
het Meer,116,C,,8448GM,Heerenveen,Heerenveen,Friesland,VBO,5.948410,52.966171
het Meer,116,D,,8448GM,Heerenveen,Heerenveen,Friesland,VBO,5.948703,52.966229
het Meer,116,,,8448GM,Heerenveen,Heerenveen,Friesland,VBO,5.947241,52.965912
het Meer,118,,,8448GM,Heerenveen,Heerenveen,Friesland,VBO,5.952359,52.966903
het Meer,120,,,8448GM,Heerenveen,Heerenveen,Friesland,VBO,5.952643,52.966983
het Meer,122,A,,8448GM,Heerenveen,Heerenveen,Friesland,VBO,5.953894,52.967058
het Meer,122,,,8448GM,Heerenveen,Heerenveen,Friesland,VBO,5.952986,52.967026
het Meer,124,A,,8448GM,Heerenveen,Heerenveen,Friesland,VBO,5.955611,52.967418
het Meer,124,,,8448GM,Heerenveen,Heerenveen,Friesland,VBO,5.954806,52.967359
het Meer,126,,,8448GM,Heerenveen,Heerenveen,Friesland,VBO,5.956104,52.967578
het Meer,128,,,8448GM,Heerenveen,Heerenveen,Friesland,VBO,5.956507,52.967665
het Meer,130,,,8448GM,Heerenveen,Heerenveen,Friesland,VBO,5.956835,52.967718
het Meer,132,,,8448GM,Heerenveen,Heerenveen,Friesland,VBO,5.957624,52.967723
het Meer,134,,,8448GM,Heerenveen,Heerenveen,Friesland,VBO,5.958087,52.967865
het Meer,136,,,8448GM,Heerenveen,Heerenveen,Friesland,VBO,5.958192,52.967882
het Meer,138,,,8448GM,Heerenveen,Heerenveen,Friesland,VBO,5.959354,52.967993
Veensluis,11,,,8448GN,Heerenveen,Heerenveen,Friesland,VBO,5.952302,52.969366
Veensluis,13,,,8448GN,Heerenveen,Heerenveen,Friesland,VBO,5.952838,52.968276
Veensluis,15,,,8448GN,Heerenveen,Heerenveen,Friesland,VBO,5.953256,52.968319
Veensluis,17,,,8448GN,Heerenveen,Heerenveen,Friesland,VBO,5.953479,52.968345
Veensluis,19,A,,8448GN,Heerenveen,Heerenveen,Friesland,VBO,5.954014,52.968270
Veensluis,19,,,8448GN,Heerenveen,Heerenveen,Friesland,VBO,5.953791,52.968307
Veensluis,21,A,,8448GN,Heerenveen,Heerenveen,Friesland,VBO,5.955304,52.968134
Veensluis,21,,,8448GN,Heerenveen,Heerenveen,Friesland,VBO,5.954890,52.968096
Veensluis,23,,,8448GN,Heerenveen,Heerenveen,Friesland,VBO,5.955559,52.968003
Veensluis,2,,,8448GP,Heerenveen,Heerenveen,Friesland,VBO,5.952276,52.967353
Veensluis,6,,,8448GP,Heerenveen,Heerenveen,Friesland,VBO,5.952636,52.967594
Veensluis,8,,,8448GP,Heerenveen,Heerenveen,Friesland,VBO,5.952877,52.967782
Veensluis,10,,,8448GP,Heerenveen,Heerenveen,Friesland,VBO,5.952966,52.967808
Veensluis,12,,,8448GP,Heerenveen,Heerenveen,Friesland,VBO,5.953102,52.967933
Veensluis,14,,,8448GP,Heerenveen,Heerenveen,Friesland,VBO,5.953191,52.967960
Veensluis,16,,,8448GP,Heerenveen,Heerenveen,Friesland,VBO,5.953491,52.968066
Veensluis,18,A,,8448GP,Heerenveen,Heerenveen,Friesland,VBO,5.953668,52.967976
Veensluis,18,,,8448GP,Heerenveen,Heerenveen,Friesland,VBO,5.953609,52.968057
Veensluis,20,A,,8448GP,Heerenveen,Heerenveen,Friesland,VBO,5.953836,52.968037
Veensluis,20,,,8448GP,Heerenveen,Heerenveen,Friesland,VBO,5.953849,52.967985
Veensluis,22,,,8448GP,Heerenveen,Heerenveen,Friesland,VBO,5.954218,52.967937
Veensluis,24,,,8448GP,Heerenveen,Heerenveen,Friesland,VBO,5.954411,52.967918
Veensluis,26,,,8448GP,Heerenveen,Heerenveen,Friesland,VBO,5.954656,52.967875
Veensluis,28,,,8448GP,Heerenveen,Heerenveen,Friesland,VBO,5.955226,52.967736
Zestienroeden,1,,,8448GR,Heerenveen,Heerenveen,Friesland,VBO,5.954150,52.968405
Zestienroeden,3,,,8448GR,Heerenveen,Heerenveen,Friesland,VBO,5.954226,52.968521
Zestienroeden,5,,,8448GR,Heerenveen,Heerenveen,Friesland,VBO,5.954317,52.968691
Zestienroeden,7,,,8448GR,Heerenveen,Heerenveen,Friesland,VBO,5.954395,52.968916
Zestienroeden,11,,,8448GR,Heerenveen,Heerenveen,Friesland,VBO,5.954560,52.969032
Zestienroeden,13,,,8448GR,Heerenveen,Heerenveen,Friesland,VBO,5.954605,52.969094
Zestienroeden,15,,,8448GR,Heerenveen,Heerenveen,Friesland,VBO,5.954636,52.969175
Zestienroeden,17,,,8448GR,Heerenveen,Heerenveen,Friesland,VBO,5.954712,52.969265
Zestienroeden,19,,,8448GR,Heerenveen,Heerenveen,Friesland,VBO,5.954743,52.969372
Zestienroeden,21,,,8448GR,Heerenveen,Heerenveen,Friesland,VBO,5.954804,52.969462
Zestienroeden,23,,,8448GR,Heerenveen,Heerenveen,Friesland,VBO,5.954865,52.969587
Zestienroeden,25,,,8448GR,Heerenveen,Heerenveen,Friesland,VBO,5.954926,52.969686
Zestienroeden,27,A,,8448GR,Heerenveen,Heerenveen,Friesland,VBO,5.955109,52.970009
Zestienroeden,27,,,8448GR,Heerenveen,Heerenveen,Friesland,VBO,5.954986,52.969767
Zestienroeden,29,,,8448GR,Heerenveen,Heerenveen,Friesland,VBO,5.955246,52.970269
Zestienroeden,31,,,8448GR,Heerenveen,Heerenveen,Friesland,VBO,5.955297,52.970772
Zestienroeden,33,,,8448GR,Heerenveen,Heerenveen,Friesland,VBO,5.955611,52.970842
Zestienroeden,35,,,8448GR,Heerenveen,Heerenveen,Friesland,VBO,5.955912,52.971146
Zestienroeden,37,,,8448GR,Heerenveen,Heerenveen,Friesland,VBO,5.955988,52.971227
Zestienroeden,39,,,8448GR,Heerenveen,Heerenveen,Friesland,VBO,5.956153,52.971370
Zestienroeden,2,,,8448GS,Heerenveen,Heerenveen,Friesland,VBO,5.957484,52.972909
Zestienroeden,4,,,8448GS,Heerenveen,Heerenveen,Friesland,VBO,5.957831,52.973285
Nijeleane,1,,,8448GT,Heerenveen,Heerenveen,Friesland,VBO,5.958675,52.974062
Nijeleane,3,,,8448GT,Heerenveen,Heerenveen,Friesland,VBO,5.960724,52.975931
Nijeleane,5,,,8448GT,Heerenveen,Heerenveen,Friesland,VBO,5.962350,52.977316
de Opslach,1,,,8448GV,Heerenveen,Heerenveen,Friesland,VBO,5.933659,52.962107
de Opslach,3,A,,8448GV,Heerenveen,Heerenveen,Friesland,VBO,5.934422,52.962071
de Opslach,3,B,,8448GV,Heerenveen,Heerenveen,Friesland,VBO,5.934527,52.962116
de Opslach,3,,,8448GV,Heerenveen,Heerenveen,Friesland,VBO,5.934084,52.961960
de Opslach,5,,,8448GV,Heerenveen,Heerenveen,Friesland,VBO,5.934060,52.961642
de Opslach,7,,,8448GV,Heerenveen,Heerenveen,Friesland,VBO,5.934239,52.961704
de Opslach,9,,,8448GV,Heerenveen,Heerenveen,Friesland,VBO,5.934404,52.961784
de Opslach,11,,,8448GV,Heerenveen,Heerenveen,Friesland,VBO,5.934688,52.961881
de Opslach,21,,,8448GV,Heerenveen,Heerenveen,Friesland,VBO,5.934146,52.961390
de Opslach,23,A,,8448GV,Heerenveen,Heerenveen,Friesland,VBO,5.934383,52.961344
de Opslach,23,,,8448GV,Heerenveen,Heerenveen,Friesland,VBO,5.934385,52.961469
de Opslach,25,,,8448GV,Heerenveen,Heerenveen,Friesland,VBO,5.934936,52.961539
de Opslach,51,,,8448GV,Heerenveen,Heerenveen,Friesland,VBO,5.935237,52.960617
de Opslach,53,,,8448GV,Heerenveen,Heerenveen,Friesland,VBO,5.935306,52.960553
de Opslach,55,,,8448GV,Heerenveen,Heerenveen,Friesland,VBO,5.935547,52.960908
de Opslach,57,,,8448GV,Heerenveen,Heerenveen,Friesland,VBO,5.935610,52.960885
de Opslach,59,,,8448GV,Heerenveen,Heerenveen,Friesland,VBO,5.935698,52.960850
de Opslach,61,,,8448GV,Heerenveen,Heerenveen,Friesland,VBO,5.935779,52.960828
de Opslach,63,,,8448GV,Heerenveen,Heerenveen,Friesland,VBO,5.935843,52.960805
de Opslach,65,,,8448GV,Heerenveen,Heerenveen,Friesland,VBO,5.935892,52.960766
de Opslach,69,,,8448GV,Heerenveen,Heerenveen,Friesland,VBO,5.935689,52.961209
de Opslach,71,,,8448GV,Heerenveen,Heerenveen,Friesland,VBO,5.935747,52.961213
de Opslach,73,,,8448GV,Heerenveen,Heerenveen,Friesland,VBO,5.935807,52.961221
de Opslach,75,,,8448GV,Heerenveen,Heerenveen,Friesland,VBO,5.935884,52.961237
de Opslach,77,,,8448GV,Heerenveen,Heerenveen,Friesland,VBO,5.935960,52.961246
de Opslach,79,,,8448GV,Heerenveen,Heerenveen,Friesland,VBO,5.936024,52.961258
Venus,2,A,,8448GW,Heerenveen,Heerenveen,Friesland,VBO,5.938292,52.968138
Venus,2,,,8448GW,Heerenveen,Heerenveen,Friesland,VBO,5.937702,52.967205
Venus,4,,,8448GW,Heerenveen,Heerenveen,Friesland,VBO,5.940396,52.967755
Venus,6,,,8448GW,Heerenveen,Heerenveen,Friesland,VBO,5.938649,52.968900
Venus,8,,,8448GW,Heerenveen,Heerenveen,Friesland,VBO,5.938545,52.969161
Venus,10,,,8448GW,Heerenveen,Heerenveen,Friesland,VBO,5.938245,52.970133
Venus,12,,,8448GW,Heerenveen,Heerenveen,Friesland,VBO,5.937920,52.970350
Venus,14,,,8448GW,Heerenveen,Heerenveen,Friesland,VBO,5.937729,52.970708
Venus,18,,,8448GW,Heerenveen,Heerenveen,Friesland,VBO,5.936994,52.972448
Venus,20,A,,8448GW,Heerenveen,Heerenveen,Friesland,VBO,5.936409,52.972994
Venus,20,,,8448GW,Heerenveen,Heerenveen,Friesland,VBO,5.936543,52.972931
Venus,100,,,8448GW,Heerenveen,Heerenveen,Friesland,VBO,5.930195,52.974693
Venus,102,,,8448GW,Heerenveen,Heerenveen,Friesland,VBO,5.930236,52.975134
Venus,106,,,8448GW,Heerenveen,Heerenveen,Friesland,VBO,5.930017,52.975431
Venus,110,,,8448GW,Heerenveen,Heerenveen,Friesland,VBO,5.929701,52.975787
Mercurius,6,,,8448GX,Heerenveen,Heerenveen,Friesland,VBO,5.936447,52.966622
Mercurius,12,,,8448GX,Heerenveen,Heerenveen,Friesland,VBO,5.933422,52.967764
Mercurius,14,,,8448GX,Heerenveen,Heerenveen,Friesland,VBO,5.931424,52.969265
Mercurius,16,A,,8448GX,Heerenveen,Heerenveen,Friesland,VBO,5.927986,52.970306
Mercurius,16,B,,8448GX,Heerenveen,Heerenveen,Friesland,VBO,5.927430,52.970762
Mercurius,16,C,,8448GX,Heerenveen,Heerenveen,Friesland,VBO,5.927910,52.970513
Mercurius,16,,,8448GX,Heerenveen,Heerenveen,Friesland,VBO,5.928409,52.970457
Mercurius,17,A,,8448GX,Heerenveen,Heerenveen,Friesland,VBO,5.927172,52.971361
Mercurius,17,,,8448GX,Heerenveen,Heerenveen,Friesland,VBO,5.927442,52.971213
Mercurius,18,,,8448GX,Heerenveen,Heerenveen,Friesland,VBO,5.926943,52.971491
Mercurius,19,,,8448GX,Heerenveen,Heerenveen,Friesland,VBO,5.926730,52.971857
Mercurius,20,,,8448GX,Heerenveen,Heerenveen,Friesland,VBO,5.926158,52.972169
Mercurius,22,,,8448GX,Heerenveen,Heerenveen,Friesland,VBO,5.924130,52.972658
Woudsterweg,2,,,8448HA,Heerenveen,Heerenveen,Friesland,VBO,5.958384,52.967800
Woudsterweg,4,A,,8448HA,Heerenveen,Heerenveen,Friesland,VBO,5.958616,52.967341
Woudsterweg,4,,1,8448HA,Heerenveen,Heerenveen,Friesland,VBO,5.958374,52.967582
Woudsterweg,4,,,8448HA,Heerenveen,Heerenveen,Friesland,VBO,5.958484,52.967503
Woudsterweg,6,,,8448HA,Heerenveen,Heerenveen,Friesland,VBO,5.958704,52.967215
Woudsterweg,8,,,8448HA,Heerenveen,Heerenveen,Friesland,VBO,5.958733,52.967143
Woudsterweg,10,,,8448HA,Heerenveen,Heerenveen,Friesland,VBO,5.958806,52.967061
Woudsterweg,12,,,8448HA,Heerenveen,Heerenveen,Friesland,VBO,5.958864,52.966953
Woudsterweg,14,,,8448HA,Heerenveen,Heerenveen,Friesland,VBO,5.958908,52.966908
Woudsterweg,16,,,8448HA,Heerenveen,Heerenveen,Friesland,VBO,5.958937,52.966818
Woudsterweg,18,A,,8448HA,Heerenveen,Heerenveen,Friesland,VBO,5.959083,52.966611
Woudsterweg,18,,,8448HA,Heerenveen,Heerenveen,Friesland,VBO,5.959069,52.966656
Woudsterweg,20,,,8448HA,Heerenveen,Heerenveen,Friesland,VBO,5.959156,52.966503
Woudsterweg,22,,,8448HA,Heerenveen,Heerenveen,Friesland,VBO,5.959229,52.966394
Woudsterweg,24,,,8448HA,Heerenveen,Heerenveen,Friesland,VBO,5.959302,52.966286
Woudsterweg,26,A,,8448HA,Heerenveen,Heerenveen,Friesland,VBO,5.959507,52.966007
Woudsterweg,26,,,8448HA,Heerenveen,Heerenveen,Friesland,VBO,5.959404,52.966151
Woudsterweg,28,,,8448HA,Heerenveen,Heerenveen,Friesland,VBO,5.959668,52.965799
Woudsterweg,30,,,8448HA,Heerenveen,Heerenveen,Friesland,VBO,5.959770,52.965637
Woudsterweg,32,,,8448HA,Heerenveen,Heerenveen,Friesland,VBO,5.959901,52.965448
Woudsterweg,34,,,8448HB,Heerenveen,Heerenveen,Friesland,VBO,5.960004,52.965321
Woudsterweg,36,,,8448HB,Heerenveen,Heerenveen,Friesland,VBO,5.960033,52.965267
Woudsterweg,38,,,8448HB,Heerenveen,Heerenveen,Friesland,VBO,5.960106,52.965159
Woudsterweg,40,A,,8448HB,Heerenveen,Heerenveen,Friesland,VBO,5.960354,52.964816
Woudsterweg,40,,,8448HB,Heerenveen,Heerenveen,Friesland,VBO,5.960179,52.965051
Woudsterweg,42,,,8448HB,Heerenveen,Heerenveen,Friesland,VBO,5.960500,52.964591
Woudsterweg,44,,,8448HB,Heerenveen,Heerenveen,Friesland,VBO,5.960617,52.964429
Woudsterweg,46,,,8448HB,Heerenveen,Heerenveen,Friesland,VBO,5.960836,52.964122
Woudsterweg,48,A,,8448HB,Heerenveen,Heerenveen,Friesland,VBO,5.961216,52.963581
Woudsterweg,48,,,8448HB,Heerenveen,Heerenveen,Friesland,VBO,5.961041,52.963834
Woudsterweg,50,,,8448HB,Heerenveen,Heerenveen,Friesland,VBO,5.961464,52.963220
Woudsterweg,52,,,8448HB,Heerenveen,Heerenveen,Friesland,VBO,5.961590,52.962984
Woudsterweg,54,A,,8448HB,Heerenveen,Heerenveen,Friesland,VBO,5.961858,52.962598
Woudsterweg,54,,,8448HB,Heerenveen,Heerenveen,Friesland,VBO,5.961742,52.962842
Woudsterweg,56,,,8448HB,Heerenveen,Heerenveen,Friesland,VBO,5.962019,52.962409
Woudsterweg,58,A,,8448HB,Heerenveen,Heerenveen,Friesland,VBO,5.962370,52.961949
Woudsterweg,58,,,8448HB,Heerenveen,Heerenveen,Friesland,VBO,5.962224,52.962147
Woudsterweg,60,,,8448HB,Heerenveen,Heerenveen,Friesland,VBO,5.962487,52.961760
Woudsterweg,62,,,8448HB,Heerenveen,Heerenveen,Friesland,VBO,5.962633,52.961552
Abe Lenstra boulevard,17,,,8448JA,Heerenveen,Heerenveen,Friesland,VBO,5.934929,52.958625
Abe Lenstra boulevard,19,,,8448JA,Heerenveen,Heerenveen,Friesland,VBO,5.935226,52.958304
Abe Lenstra boulevard,21,,,8448JA,Heerenveen,Heerenveen,Friesland,VBO,5.935578,52.958088
Abe Lenstra boulevard,23,A,,8448JA,Heerenveen,Heerenveen,Friesland,VBO,5.936600,52.957748
Abe Lenstra boulevard,23,B,,8448JA,Heerenveen,Heerenveen,Friesland,VBO,5.936705,52.957801
Abe Lenstra boulevard,23,C,,8448JA,Heerenveen,Heerenveen,Friesland,VBO,5.936811,52.957918
Abe Lenstra boulevard,23,D,,8448JA,Heerenveen,Heerenveen,Friesland,VBO,5.936975,52.957980
Abe Lenstra boulevard,23,E,,8448JA,Heerenveen,Heerenveen,Friesland,VBO,5.937094,52.958006
Abe Lenstra boulevard,23,F,,8448JA,Heerenveen,Heerenveen,Friesland,VBO,5.937229,52.958068
Abe Lenstra boulevard,23,G,,8448JA,Heerenveen,Heerenveen,Friesland,VBO,5.937379,52.958113
Abe Lenstra boulevard,23,H,,8448JA,Heerenveen,Heerenveen,Friesland,VBO,5.937123,52.957898
Abe Lenstra boulevard,23,N,,8448JA,Heerenveen,Heerenveen,Friesland,VBO,5.937265,52.957358
Abe Lenstra boulevard,23,O,,8448JA,Heerenveen,Heerenveen,Friesland,VBO,5.937173,52.957179
Abe Lenstra boulevard,23,P,,8448JA,Heerenveen,Heerenveen,Friesland,VBO,5.937278,52.957197
Abe Lenstra boulevard,23,Q,,8448JA,Heerenveen,Heerenveen,Friesland,VBO,5.937323,52.957232
Abe Lenstra boulevard,23,,,8448JA,Heerenveen,Heerenveen,Friesland,VBO,5.936716,52.957478
Abe Lenstra boulevard,25,,,8448JA,Heerenveen,Heerenveen,Friesland,VBO,5.936697,52.957518
Abe Lenstra boulevard,27,,,8448JA,Heerenveen,Heerenveen,Friesland,VBO,5.936706,52.957250
Abe Lenstra boulevard,29,,,8448JA,Heerenveen,Heerenveen,Friesland,VBO,5.937262,52.956878
Abe Lenstra boulevard,2,,,8448JB,Heerenveen,Heerenveen,Friesland,VBO,5.932697,52.959177
Abe Lenstra boulevard,4,,6,8448JB,Heerenveen,Heerenveen,Friesland,VBO,5.932708,52.959211
Abe Lenstra boulevard,4,,8,8448JB,Heerenveen,Heerenveen,Friesland,VBO,5.932847,52.959087
Abe Lenstra boulevard,4,,,8448JB,Heerenveen,Heerenveen,Friesland,VBO,5.932807,52.959095
Abe Lenstra boulevard,8,,,8448JB,Heerenveen,Heerenveen,Friesland,VBO,5.932652,52.959086
Abe Lenstra boulevard,10,,,8448JB,Heerenveen,Heerenveen,Friesland,VBO,5.933174,52.958802
Abe Lenstra boulevard,18,A,,8448JB,Heerenveen,Heerenveen,Friesland,VBO,5.934111,52.958631
Abe Lenstra boulevard,18,,1,8448JB,Heerenveen,Heerenveen,Friesland,VBO,5.933441,52.958580
Abe Lenstra boulevard,18,,10,8448JB,Heerenveen,Heerenveen,Friesland,VBO,5.933677,52.958297
Abe Lenstra boulevard,18,,2,8448JB,Heerenveen,Heerenveen,Friesland,VBO,5.933707,52.958408
Abe Lenstra boulevard,18,,3,8448JB,Heerenveen,Heerenveen,Friesland,VBO,5.933676,52.958372
Abe Lenstra boulevard,18,,4,8448JB,Heerenveen,Heerenveen,Friesland,VBO,5.933588,52.958427
Abe Lenstra boulevard,18,,5,8448JB,Heerenveen,Heerenveen,Friesland,VBO,5.933618,52.958453
Abe Lenstra boulevard,18,,6,8448JB,Heerenveen,Heerenveen,Friesland,VBO,5.933632,52.958426
Abe Lenstra boulevard,18,,7,8448JB,Heerenveen,Heerenveen,Friesland,VBO,5.933647,52.958390
Abe Lenstra boulevard,18,,8,8448JB,Heerenveen,Heerenveen,Friesland,VBO,5.933706,52.958399
Abe Lenstra boulevard,18,,9,8448JB,Heerenveen,Heerenveen,Friesland,VBO,5.933564,52.958378
Abe Lenstra boulevard,34,,,8448JB,Heerenveen,Heerenveen,Friesland,VBO,5.933815,52.957846
Abe Lenstra boulevard,36,,,8448JB,Heerenveen,Heerenveen,Friesland,VBO,5.933729,52.957842
Abe Lenstra boulevard,38,,,8448JB,Heerenveen,Heerenveen,Friesland,VBO,5.933655,52.957842
Abe Lenstra boulevard,42,,,8448JB,Heerenveen,Heerenveen,Friesland,VBO,5.934177,52.957948
Abe Lenstra boulevard,44,,,8448JB,Heerenveen,Heerenveen,Friesland,VBO,5.934177,52.957948
Abe Lenstra boulevard,50,,1,8448JB,Heerenveen,Heerenveen,Friesland,VBO,5.934412,52.957713
Abe Lenstra boulevard,50,,10,8448JB,Heerenveen,Heerenveen,Friesland,VBO,5.934487,52.957740
Abe Lenstra boulevard,50,,2,8448JB,Heerenveen,Heerenveen,Friesland,VBO,5.934502,52.957721
Abe Lenstra boulevard,50,,3,8448JB,Heerenveen,Heerenveen,Friesland,VBO,5.934486,52.957695
Abe Lenstra boulevard,50,,4,8448JB,Heerenveen,Heerenveen,Friesland,VBO,5.934546,52.957685
Abe Lenstra boulevard,50,,5,8448JB,Heerenveen,Heerenveen,Friesland,VBO,5.934501,52.957659
Abe Lenstra boulevard,50,,6,8448JB,Heerenveen,Heerenveen,Friesland,VBO,5.934575,52.957676
Abe Lenstra boulevard,50,,7,8448JB,Heerenveen,Heerenveen,Friesland,VBO,5.934545,52.957631
Abe Lenstra boulevard,50,,8,8448JB,Heerenveen,Heerenveen,Friesland,VBO,5.934619,52.957631
Abe Lenstra boulevard,50,,9,8448JB,Heerenveen,Heerenveen,Friesland,VBO,5.934574,52.957568
Abe Lenstra boulevard,50,,,8448JB,Heerenveen,Heerenveen,Friesland,VBO,5.934619,52.957586
Abe Lenstra boulevard,52,,1,8448JB,Heerenveen,Heerenveen,Friesland,VBO,5.934927,52.957252
Abe Lenstra boulevard,52,,10,8448JB,Heerenveen,Heerenveen,Friesland,VBO,5.934987,52.957288
Abe Lenstra boulevard,52,,2,8448JB,Heerenveen,Heerenveen,Friesland,VBO,5.934957,52.957243
Abe Lenstra boulevard,52,,3,8448JB,Heerenveen,Heerenveen,Friesland,VBO,5.935017,52.957279
Abe Lenstra boulevard,52,,4,8448JB,Heerenveen,Heerenveen,Friesland,VBO,5.934942,52.957270
Abe Lenstra boulevard,52,,5,8448JB,Heerenveen,Heerenveen,Friesland,VBO,5.935002,52.957306
Abe Lenstra boulevard,52,,6,8448JB,Heerenveen,Heerenveen,Friesland,VBO,5.935046,52.957225
Abe Lenstra boulevard,52,,7,8448JB,Heerenveen,Heerenveen,Friesland,VBO,5.935002,52.957252
Abe Lenstra boulevard,52,,8,8448JB,Heerenveen,Heerenveen,Friesland,VBO,5.935061,52.957216
Abe Lenstra boulevard,52,,9,8448JB,Heerenveen,Heerenveen,Friesland,VBO,5.934987,52.957270
Abe Lenstra boulevard,52,,,8448JB,Heerenveen,Heerenveen,Friesland,VBO,5.934928,52.957324
Abe Lenstra boulevard,58,,1,8448JB,Heerenveen,Heerenveen,Friesland,VBO,5.934672,52.957065
Abe Lenstra boulevard,58,,2,8448JB,Heerenveen,Heerenveen,Friesland,VBO,5.934627,52.957020
Abe Lenstra boulevard,58,,3,8448JB,Heerenveen,Heerenveen,Friesland,VBO,5.934731,52.957037
Abe Lenstra boulevard,58,,,8448JB,Heerenveen,Heerenveen,Friesland,VBO,5.934672,52.957065
Abe Lenstra boulevard,62,,1,8448JB,Heerenveen,Heerenveen,Friesland,VBO,5.935099,52.956703
Abe Lenstra boulevard,62,,2,8448JB,Heerenveen,Heerenveen,Friesland,VBO,5.935100,52.956757
Abe Lenstra boulevard,62,,3,8448JB,Heerenveen,Heerenveen,Friesland,VBO,5.935039,52.956677
Abe Lenstra boulevard,62,,,8448JB,Heerenveen,Heerenveen,Friesland,VBO,5.935099,52.956703
Abe Lenstra boulevard,100,,,8448JB,Heerenveen,Heerenveen,Friesland,VBO,5.936734,52.955247
het Palet,1,,,8448JB,Heerenveen,Heerenveen,Friesland,VBO,5.938552,52.956563
Willem de Zwijgerlaan,18,,,8448MA,Heerenveen,Heerenveen,Friesland,VBO,5.946558,52.957421
Willem de Zwijgerlaan,20,,,8448MA,Heerenveen,Heerenveen,Friesland,VBO,5.946675,52.957296
Willem de Zwijgerlaan,22,,,8448MA,Heerenveen,Heerenveen,Friesland,VBO,5.947138,52.956737
Willem de Zwijgerlaan,24,,,8448MA,Heerenveen,Heerenveen,Friesland,VBO,5.947240,52.956593
Willem de Zwijgerlaan,26,,,8448MA,Heerenveen,Heerenveen,Friesland,VBO,5.947313,52.956485
Willem de Zwijgerlaan,28,,,8448MA,Heerenveen,Heerenveen,Friesland,VBO,5.947430,52.956314
Willem de Zwijgerlaan,30,,,8448MA,Heerenveen,Heerenveen,Friesland,VBO,5.947577,52.956196
Willem de Zwijgerlaan,32,,,8448MA,Heerenveen,Heerenveen,Friesland,VBO,5.947710,52.956079
Willem de Zwijgerlaan,34,,,8448MA,Heerenveen,Heerenveen,Friesland,VBO,5.947871,52.955880
Willem de Zwijgerlaan,36,,,8448MA,Heerenveen,Heerenveen,Friesland,VBO,5.947929,52.955736
Willem de Zwijgerlaan,38,,,8448MA,Heerenveen,Heerenveen,Friesland,VBO,5.948076,52.955601
Willem de Zwijgerlaan,40,,,8448MA,Heerenveen,Heerenveen,Friesland,VBO,5.948148,52.955456
Willem de Zwijgerlaan,42,,,8448MA,Heerenveen,Heerenveen,Friesland,VBO,5.948296,52.955339
Willem de Zwijgerlaan,44,,,8448MA,Heerenveen,Heerenveen,Friesland,VBO,5.948383,52.955186
Willem de Zwijgerlaan,46,A,,8448MA,Heerenveen,Heerenveen,Friesland,VBO,5.948545,52.955068
Willem de Zwijgerlaan,46,,,8448MA,Heerenveen,Heerenveen,Friesland,VBO,5.948440,52.955033
Willem de Zwijgerlaan,48,,,8448MB,Heerenveen,Heerenveen,Friesland,VBO,5.948988,52.954444
Willem de Zwijgerlaan,50,,,8448MB,Heerenveen,Heerenveen,Friesland,VBO,5.949161,52.954337
Willem de Zwijgerlaan,52,,,8448MB,Heerenveen,Heerenveen,Friesland,VBO,5.949249,52.954247
Willem de Zwijgerlaan,54,,,8448MB,Heerenveen,Heerenveen,Friesland,VBO,5.949350,52.954049
Willem de Zwijgerlaan,56,,,8448MB,Heerenveen,Heerenveen,Friesland,VBO,5.949437,52.953887
Willem de Zwijgerlaan,58,,,8448MB,Heerenveen,Heerenveen,Friesland,VBO,5.949644,52.953769
Willem de Zwijgerlaan,60,,,8448MB,Heerenveen,Heerenveen,Friesland,VBO,5.949717,52.953616
Willem de Zwijgerlaan,62,,,8448MB,Heerenveen,Heerenveen,Friesland,VBO,5.949879,52.953498
Willem de Zwijgerlaan,64,,,8448MB,Heerenveen,Heerenveen,Friesland,VBO,5.949921,52.953345
Willem de Zwijgerlaan,66,,,8448MB,Heerenveen,Heerenveen,Friesland,VBO,5.950317,52.952885
Willem de Zwijgerlaan,68,,,8448MB,Heerenveen,Heerenveen,Friesland,VBO,5.950405,52.952741
Willem de Zwijgerlaan,70,,,8448MB,Heerenveen,Heerenveen,Friesland,VBO,5.950522,52.952588
Willem de Zwijgerlaan,72,,,8448MB,Heerenveen,Heerenveen,Friesland,VBO,5.950713,52.952443
Willem de Zwijgerlaan,74,,,8448MB,Heerenveen,Heerenveen,Friesland,VBO,5.950786,52.952317
Willem de Zwijgerlaan,76,,,8448MB,Heerenveen,Heerenveen,Friesland,VBO,5.951081,52.952118
Willem de Zwijgerlaan,78,,,8448MB,Heerenveen,Heerenveen,Friesland,VBO,5.951154,52.951965
Willem de Zwijgerlaan,80,,,8448MB,Heerenveen,Heerenveen,Friesland,VBO,5.951241,52.951811
Willem de Zwijgerlaan,82,,,8448MB,Heerenveen,Heerenveen,Friesland,VBO,5.951388,52.951685
Willem de Zwijgerlaan,84,,,8448MB,Heerenveen,Heerenveen,Friesland,VBO,5.951490,52.951550
Willem de Zwijgerlaan,86,,,8448MB,Heerenveen,Heerenveen,Friesland,VBO,5.951578,52.951405
Willem de Zwijgerlaan,88,,,8448MB,Heerenveen,Heerenveen,Friesland,VBO,5.951695,52.951288
Willem de Zwijgerlaan,90,,,8448MB,Heerenveen,Heerenveen,Friesland,VBO,5.951989,52.950999
Willem de Zwijgerlaan,92,,,8448MB,Heerenveen,Heerenveen,Friesland,VBO,5.951961,52.950851
Willem de Zwijgerlaan,94,,,8448MB,Heerenveen,Heerenveen,Friesland,VBO,5.952149,52.950720
Willem de Zwijgerlaan,96,,,8448MB,Heerenveen,Heerenveen,Friesland,VBO,5.952311,52.950584
Willem de Zwijgerlaan,98,,,8448MB,Heerenveen,Heerenveen,Friesland,VBO,5.952384,52.950440
Willem de Zwijgerlaan,100,,,8448MB,Heerenveen,Heerenveen,Friesland,VBO,5.952531,52.950323
Willem de Zwijgerlaan,102,,,8448MB,Heerenveen,Heerenveen,Friesland,VBO,5.952663,52.950205
Willem de Zwijgerlaan,1,,,8448MC,Heerenveen,Heerenveen,Friesland,VBO,5.946705,52.957800
Willem de Zwijgerlaan,3,,,8448MC,Heerenveen,Heerenveen,Friesland,VBO,5.946734,52.957746
Willem de Zwijgerlaan,5,,,8448MC,Heerenveen,Heerenveen,Friesland,VBO,5.946778,52.957692
Willem de Zwijgerlaan,7,,,8448MC,Heerenveen,Heerenveen,Friesland,VBO,5.946808,52.957664
Willem de Zwijgerlaan,9,,,8448MC,Heerenveen,Heerenveen,Friesland,VBO,5.946852,52.957619
Willem de Zwijgerlaan,11,,,8448MC,Heerenveen,Heerenveen,Friesland,VBO,5.946881,52.957565
Willem de Zwijgerlaan,13,,,8448MC,Heerenveen,Heerenveen,Friesland,VBO,5.947658,52.956699
Willem de Zwijgerlaan,15,,,8448MC,Heerenveen,Heerenveen,Friesland,VBO,5.947687,52.956645
Willem de Zwijgerlaan,17,,,8448MC,Heerenveen,Heerenveen,Friesland,VBO,5.947760,52.956546
Willem de Zwijgerlaan,19,,,8448MC,Heerenveen,Heerenveen,Friesland,VBO,5.947878,52.956437
Willem de Zwijgerlaan,21,,,8448MC,Heerenveen,Heerenveen,Friesland,VBO,5.947922,52.956383
Willem de Zwijgerlaan,23,,,8448MC,Heerenveen,Heerenveen,Friesland,VBO,5.947995,52.956284
Willem de Zwijgerlaan,25,,,8448MC,Heerenveen,Heerenveen,Friesland,VBO,5.948303,52.955905
Willem de Zwijgerlaan,27,,,8448MC,Heerenveen,Heerenveen,Friesland,VBO,5.948406,52.955806
Willem de Zwijgerlaan,29,,,8448MC,Heerenveen,Heerenveen,Friesland,VBO,5.948435,52.955752
Willem de Zwijgerlaan,31,,,8448MC,Heerenveen,Heerenveen,Friesland,VBO,5.948508,52.955661
Willem de Zwijgerlaan,33,,,8448MC,Heerenveen,Heerenveen,Friesland,VBO,5.948625,52.955526
Willem de Zwijgerlaan,35,,,8448MC,Heerenveen,Heerenveen,Friesland,VBO,5.948655,52.955499
Willem de Zwijgerlaan,37,,,8448MC,Heerenveen,Heerenveen,Friesland,VBO,5.948772,52.955373
Willem de Zwijgerlaan,39,,,8448MC,Heerenveen,Heerenveen,Friesland,VBO,5.948801,52.955328
Willem de Zwijgerlaan,41,,,8448MC,Heerenveen,Heerenveen,Friesland,VBO,5.948845,52.955265
Willem de Zwijgerlaan,43,,,8448MC,Heerenveen,Heerenveen,Friesland,VBO,5.948889,52.955219
Willem de Zwijgerlaan,45,,,8448MC,Heerenveen,Heerenveen,Friesland,VBO,5.948933,52.955174
Willem de Zwijgerlaan,47,,,8448MC,Heerenveen,Heerenveen,Friesland,VBO,5.949007,52.955093
Willem de Zwijgerlaan,49,,,8448MD,Heerenveen,Heerenveen,Friesland,VBO,5.949432,52.954606
Willem de Zwijgerlaan,51,,,8448MD,Heerenveen,Heerenveen,Friesland,VBO,5.949490,52.954534
Willem de Zwijgerlaan,53,,,8448MD,Heerenveen,Heerenveen,Friesland,VBO,5.949534,52.954470
Willem de Zwijgerlaan,55,,,8448MD,Heerenveen,Heerenveen,Friesland,VBO,5.949593,52.954425
Willem de Zwijgerlaan,57,,,8448MD,Heerenveen,Heerenveen,Friesland,VBO,5.949622,52.954380
Willem de Zwijgerlaan,59,,,8448MD,Heerenveen,Heerenveen,Friesland,VBO,5.949666,52.954335
Willem de Zwijgerlaan,61,A,,8448MD,Heerenveen,Heerenveen,Friesland,VBO,5.949769,52.954182
Willem de Zwijgerlaan,61,,,8448MD,Heerenveen,Heerenveen,Friesland,VBO,5.949739,52.954218
Willem de Zwijgerlaan,63,A,,8448MD,Heerenveen,Heerenveen,Friesland,VBO,5.949886,52.954073
Willem de Zwijgerlaan,63,,,8448MD,Heerenveen,Heerenveen,Friesland,VBO,5.949842,52.954119
Willem de Zwijgerlaan,65,A,,8448MD,Heerenveen,Heerenveen,Friesland,VBO,5.949959,52.953965
Willem de Zwijgerlaan,65,,,8448MD,Heerenveen,Heerenveen,Friesland,VBO,5.949930,52.954001
Willem de Zwijgerlaan,67,A,,8448MD,Heerenveen,Heerenveen,Friesland,VBO,5.950062,52.953857
Willem de Zwijgerlaan,67,,,8448MD,Heerenveen,Heerenveen,Friesland,VBO,5.950003,52.953893
Willem de Zwijgerlaan,69,,,8448MD,Heerenveen,Heerenveen,Friesland,VBO,5.950121,52.953785
Willem de Zwijgerlaan,71,,,8448MD,Heerenveen,Heerenveen,Friesland,VBO,5.950150,52.953749
Willem de Zwijgerlaan,73,,,8448MD,Heerenveen,Heerenveen,Friesland,VBO,5.950208,52.953676
Willem de Zwijgerlaan,75,,,8448MD,Heerenveen,Heerenveen,Friesland,VBO,5.950253,52.953640
Willem de Zwijgerlaan,77,,,8448MD,Heerenveen,Heerenveen,Friesland,VBO,5.950296,52.953568
Willem de Zwijgerlaan,79,,,8448MD,Heerenveen,Heerenveen,Friesland,VBO,5.950311,52.953523
Willem de Zwijgerlaan,81,,,8448MD,Heerenveen,Heerenveen,Friesland,VBO,5.950534,52.953513
Willem de Zwijgerlaan,83,,,8448MD,Heerenveen,Heerenveen,Friesland,VBO,5.950578,52.953468
Frederik Hendriklaan,2,,,8448ME,Heerenveen,Heerenveen,Friesland,VBO,5.947542,52.958056
Frederik Hendriklaan,4,,,8448ME,Heerenveen,Heerenveen,Friesland,VBO,5.947571,52.958002
Frederik Hendriklaan,6,A,,8448ME,Heerenveen,Heerenveen,Friesland,VBO,5.947554,52.957950
Frederik Hendriklaan,6,,,8448ME,Heerenveen,Heerenveen,Friesland,VBO,5.947615,52.957948
Frederik Hendriklaan,8,A,,8448ME,Heerenveen,Heerenveen,Friesland,VBO,5.947575,52.957909
Frederik Hendriklaan,8,,,8448ME,Heerenveen,Heerenveen,Friesland,VBO,5.947644,52.957912
Frederik Hendriklaan,10,A,,8448ME,Heerenveen,Heerenveen,Friesland,VBO,5.947644,52.957876
Frederik Hendriklaan,10,,,8448ME,Heerenveen,Heerenveen,Friesland,VBO,5.947673,52.957867
Frederik Hendriklaan,12,A,,8448ME,Heerenveen,Heerenveen,Friesland,VBO,5.947658,52.957840
Frederik Hendriklaan,12,B,,8448ME,Heerenveen,Heerenveen,Friesland,VBO,5.948033,52.957422
Frederik Hendriklaan,12,,,8448ME,Heerenveen,Heerenveen,Friesland,VBO,5.947717,52.957831
Frederik Hendriklaan,14,,,8448ME,Heerenveen,Heerenveen,Friesland,VBO,5.948405,52.956929
Frederik Hendriklaan,16,,,8448ME,Heerenveen,Heerenveen,Friesland,VBO,5.948449,52.956884
Frederik Hendriklaan,18,,,8448ME,Heerenveen,Heerenveen,Friesland,VBO,5.948522,52.956776
Frederik Hendriklaan,20,,,8448ME,Heerenveen,Heerenveen,Friesland,VBO,5.948625,52.956658
Frederik Hendriklaan,22,,,8448ME,Heerenveen,Heerenveen,Friesland,VBO,5.948654,52.956613
Frederik Hendriklaan,24,,,8448ME,Heerenveen,Heerenveen,Friesland,VBO,5.948742,52.956505
Frederik Hendriklaan,26,,,8448ME,Heerenveen,Heerenveen,Friesland,VBO,5.949050,52.956135
Frederik Hendriklaan,28,,,8448ME,Heerenveen,Heerenveen,Friesland,VBO,5.949138,52.956036
Frederik Hendriklaan,30,,,8448ME,Heerenveen,Heerenveen,Friesland,VBO,5.949182,52.955982
Frederik Hendriklaan,32,,,8448ME,Heerenveen,Heerenveen,Friesland,VBO,5.949255,52.955883
Frederik Hendriklaan,34,,,8448ME,Heerenveen,Heerenveen,Friesland,VBO,5.949358,52.955765
Frederik Hendriklaan,36,,,8448ME,Heerenveen,Heerenveen,Friesland,VBO,5.949402,52.955720
Frederik Hendriklaan,38,,,8448ME,Heerenveen,Heerenveen,Friesland,VBO,5.949504,52.955585
Frederik Hendriklaan,40,,,8448ME,Heerenveen,Heerenveen,Friesland,VBO,5.949548,52.955540
Frederik Hendriklaan,42,,,8448ME,Heerenveen,Heerenveen,Friesland,VBO,5.949592,52.955504
Frederik Hendriklaan,44,,,8448ME,Heerenveen,Heerenveen,Friesland,VBO,5.949636,52.955441
Frederik Hendriklaan,46,,,8448ME,Heerenveen,Heerenveen,Friesland,VBO,5.949680,52.955395
Frederik Hendriklaan,48,,,8448ME,Heerenveen,Heerenveen,Friesland,VBO,5.949753,52.955314
Frederik Hendriklaan,50,,,8448MG,Heerenveen,Heerenveen,Friesland,VBO,5.950197,52.954808
Frederik Hendriklaan,52,,,8448MG,Heerenveen,Heerenveen,Friesland,VBO,5.950235,52.954739
Frederik Hendriklaan,54,,,8448MG,Heerenveen,Heerenveen,Friesland,VBO,5.950266,52.954701
Frederik Hendriklaan,56,,,8448MG,Heerenveen,Heerenveen,Friesland,VBO,5.950310,52.954647
Frederik Hendriklaan,58,,,8448MG,Heerenveen,Heerenveen,Friesland,VBO,5.950339,52.954601
Frederik Hendriklaan,60,,,8448MG,Heerenveen,Heerenveen,Friesland,VBO,5.950383,52.954547
Frederik Hendriklaan,62,A,,8448MG,Heerenveen,Heerenveen,Friesland,VBO,5.950530,52.954403
Frederik Hendriklaan,62,,,8448MG,Heerenveen,Heerenveen,Friesland,VBO,5.950486,52.954448
Frederik Hendriklaan,64,A,,8448MG,Heerenveen,Heerenveen,Friesland,VBO,5.950603,52.954295
Frederik Hendriklaan,64,,,8448MG,Heerenveen,Heerenveen,Friesland,VBO,5.950544,52.954340
Frederik Hendriklaan,66,A,,8448MG,Heerenveen,Heerenveen,Friesland,VBO,5.950706,52.954186
Frederik Hendriklaan,66,,,8448MG,Heerenveen,Heerenveen,Friesland,VBO,5.950662,52.954223
Frederik Hendriklaan,68,A,,8448MG,Heerenveen,Heerenveen,Friesland,VBO,5.950779,52.954069
Frederik Hendriklaan,68,,,8448MG,Heerenveen,Heerenveen,Friesland,VBO,5.950765,52.954114
Frederik Hendriklaan,70,,,8448MG,Heerenveen,Heerenveen,Friesland,VBO,5.950838,52.954006
Frederik Hendriklaan,72,,,8448MG,Heerenveen,Heerenveen,Friesland,VBO,5.950867,52.953961
Frederik Hendriklaan,74,,,8448MG,Heerenveen,Heerenveen,Friesland,VBO,5.950911,52.953889
Frederik Hendriklaan,76,,,8448MG,Heerenveen,Heerenveen,Friesland,VBO,5.950940,52.953844
Frederik Hendriklaan,78,,,8448MG,Heerenveen,Heerenveen,Friesland,VBO,5.951028,52.953789
Frederik Hendriklaan,80,,,8448MG,Heerenveen,Heerenveen,Friesland,VBO,5.951058,52.953753
Frederik Hendriklaan,82,,,8448MG,Heerenveen,Heerenveen,Friesland,VBO,5.950952,52.953637
Frederik Hendriklaan,84,,,8448MG,Heerenveen,Heerenveen,Friesland,VBO,5.950966,52.953592
Willem de Zwijgerlaan,85,,,8448MJ,Heerenveen,Heerenveen,Friesland,VBO,5.951340,52.952584
Willem de Zwijgerlaan,87,,,8448MJ,Heerenveen,Heerenveen,Friesland,VBO,5.951308,52.952404
Willem de Zwijgerlaan,89,,,8448MJ,Heerenveen,Heerenveen,Friesland,VBO,5.951337,52.952359
Willem de Zwijgerlaan,91,,,8448MJ,Heerenveen,Heerenveen,Friesland,VBO,5.951410,52.952269
Willem de Zwijgerlaan,93,,,8448MJ,Heerenveen,Heerenveen,Friesland,VBO,5.951484,52.952188
Willem de Zwijgerlaan,95,,,8448MJ,Heerenveen,Heerenveen,Friesland,VBO,5.951513,52.952143
Willem de Zwijgerlaan,97,,,8448MJ,Heerenveen,Heerenveen,Friesland,VBO,5.951586,52.952061
Willem de Zwijgerlaan,99,,,8448MJ,Heerenveen,Heerenveen,Friesland,VBO,5.951630,52.952016
Willem de Zwijgerlaan,101,,,8448MJ,Heerenveen,Heerenveen,Friesland,VBO,5.951704,52.951935
Willem de Zwijgerlaan,103,,,8448MJ,Heerenveen,Heerenveen,Friesland,VBO,5.951762,52.951845
Willem de Zwijgerlaan,105,,,8448MJ,Heerenveen,Heerenveen,Friesland,VBO,5.951806,52.951800
Willem de Zwijgerlaan,107,,,8448MJ,Heerenveen,Heerenveen,Friesland,VBO,5.952073,52.951709
Willem de Zwijgerlaan,109,,,8448MJ,Heerenveen,Heerenveen,Friesland,VBO,5.952040,52.951511
Willem de Zwijgerlaan,111,,,8448MJ,Heerenveen,Heerenveen,Friesland,VBO,5.952085,52.951475
Willem de Zwijgerlaan,113,,,8448MJ,Heerenveen,Heerenveen,Friesland,VBO,5.952114,52.951439
Willem de Zwijgerlaan,115,,,8448MJ,Heerenveen,Heerenveen,Friesland,VBO,5.952143,52.951394
Willem de Zwijgerlaan,117,,,8448MJ,Heerenveen,Heerenveen,Friesland,VBO,5.952172,52.951358
Willem de Zwijgerlaan,119,,,8448MJ,Heerenveen,Heerenveen,Friesland,VBO,5.952216,52.951313
Willem de Zwijgerlaan,121,,,8448MJ,Heerenveen,Heerenveen,Friesland,VBO,5.952246,52.951267
Willem de Zwijgerlaan,123,,,8448MJ,Heerenveen,Heerenveen,Friesland,VBO,5.952275,52.951231
Willem de Zwijgerlaan,125,,,8448MJ,Heerenveen,Heerenveen,Friesland,VBO,5.952304,52.951195
Willem de Zwijgerlaan,127,,,8448MJ,Heerenveen,Heerenveen,Friesland,VBO,5.952348,52.951150
Willem de Zwijgerlaan,129,,,8448MJ,Heerenveen,Heerenveen,Friesland,VBO,5.952362,52.951105
Willem de Zwijgerlaan,131,,,8448MJ,Heerenveen,Heerenveen,Friesland,VBO,5.952797,52.950770
Willem de Zwijgerlaan,133,,,8448MJ,Heerenveen,Heerenveen,Friesland,VBO,5.952872,52.950613
Willem de Zwijgerlaan,135,,,8448MJ,Heerenveen,Heerenveen,Friesland,VBO,5.952965,52.950500
Willem de Zwijgerlaan,137,,,8448MJ,Heerenveen,Heerenveen,Friesland,VBO,5.953079,52.950350
Burggraaf,1,,,8448MK,Heerenveen,Heerenveen,Friesland,VBO,5.954826,52.952936
Burggraaf,2,,,8448MK,Heerenveen,Heerenveen,Friesland,VBO,5.954900,52.952863
Burggraaf,3,,,8448MK,Heerenveen,Heerenveen,Friesland,VBO,5.954914,52.952792
Burggraaf,4,,,8448MK,Heerenveen,Heerenveen,Friesland,VBO,5.955061,52.952638
Burggraaf,5,,,8448MK,Heerenveen,Heerenveen,Friesland,VBO,5.955134,52.952575
Burggraaf,6,,,8448MK,Heerenveen,Heerenveen,Friesland,VBO,5.955178,52.952503
Burggraaf,7,,,8448MK,Heerenveen,Heerenveen,Friesland,VBO,5.955192,52.952449
Burggraaf,8,,,8448MK,Heerenveen,Heerenveen,Friesland,VBO,5.955281,52.952385
Burggraaf,9,,,8448MK,Heerenveen,Heerenveen,Friesland,VBO,5.955309,52.952304
Burggraaf,10,,,8448MK,Heerenveen,Heerenveen,Friesland,VBO,5.955411,52.952151
Burggraaf,11,,,8448MK,Heerenveen,Heerenveen,Friesland,VBO,5.955485,52.952088
Burggraaf,12,,,8448MK,Heerenveen,Heerenveen,Friesland,VBO,5.955529,52.952007
Burggraaf,13,,,8448MK,Heerenveen,Heerenveen,Friesland,VBO,5.955631,52.951853
Burggraaf,14,,,8448MK,Heerenveen,Heerenveen,Friesland,VBO,5.955719,52.951790
Burggraaf,15,,,8448MK,Heerenveen,Heerenveen,Friesland,VBO,5.955748,52.951709
Burggraaf,16,,,8448MK,Heerenveen,Heerenveen,Friesland,VBO,5.955850,52.951556
Burggraaf,17,,,8448MK,Heerenveen,Heerenveen,Friesland,VBO,5.955938,52.951493
Burggraaf,18,,,8448MK,Heerenveen,Heerenveen,Friesland,VBO,5.955967,52.951412
Burggraaf,19,,,8448MK,Heerenveen,Heerenveen,Friesland,VBO,5.956069,52.951267
Burggraaf,20,,,8448MK,Heerenveen,Heerenveen,Friesland,VBO,5.956158,52.951195
Burggraaf,21,,,8448MK,Heerenveen,Heerenveen,Friesland,VBO,5.956186,52.951114
Burggraaf,22,,,8448MK,Heerenveen,Heerenveen,Friesland,VBO,5.956231,52.951069
Burggraaf,23,,,8448MK,Heerenveen,Heerenveen,Friesland,VBO,5.956289,52.951015
Burggraaf,24,,,8448MK,Heerenveen,Heerenveen,Friesland,VBO,5.956348,52.950924
Burggraaf,25,,,8448MK,Heerenveen,Heerenveen,Friesland,VBO,5.956450,52.950771
Burggraaf,26,,,8448MK,Heerenveen,Heerenveen,Friesland,VBO,5.956523,52.950708
Burggraaf,27,,,8448MK,Heerenveen,Heerenveen,Friesland,VBO,5.956567,52.950627
Landgraaf,1,,,8448ML,Heerenveen,Heerenveen,Friesland,VBO,5.953184,52.952476
Landgraaf,2,,,8448ML,Heerenveen,Heerenveen,Friesland,VBO,5.953212,52.952395
Landgraaf,3,,,8448ML,Heerenveen,Heerenveen,Friesland,VBO,5.953301,52.952332
Landgraaf,4,,,8448ML,Heerenveen,Heerenveen,Friesland,VBO,5.953418,52.952179
Landgraaf,5,,,8448ML,Heerenveen,Heerenveen,Friesland,VBO,5.953447,52.952098
Landgraaf,6,,,8448ML,Heerenveen,Heerenveen,Friesland,VBO,5.953520,52.952034
Landgraaf,7,,,8448ML,Heerenveen,Heerenveen,Friesland,VBO,5.953564,52.951989
Landgraaf,8,,,8448ML,Heerenveen,Heerenveen,Friesland,VBO,5.953608,52.951917
Landgraaf,9,,,8448ML,Heerenveen,Heerenveen,Friesland,VBO,5.953682,52.951854
Landgraaf,10,,,8448ML,Heerenveen,Heerenveen,Friesland,VBO,5.953813,52.951700
Landgraaf,11,,,8448ML,Heerenveen,Heerenveen,Friesland,VBO,5.953842,52.951619
Landgraaf,12,,,8448ML,Heerenveen,Heerenveen,Friesland,VBO,5.953931,52.951556
Landgraaf,13,,,8448ML,Heerenveen,Heerenveen,Friesland,VBO,5.954048,52.951412
Landgraaf,14,,,8448ML,Heerenveen,Heerenveen,Friesland,VBO,5.954091,52.951331
Landgraaf,15,,,8448ML,Heerenveen,Heerenveen,Friesland,VBO,5.954165,52.951267
Landgraaf,16,,,8448ML,Heerenveen,Heerenveen,Friesland,VBO,5.954297,52.951114
Landgraaf,17,,,8448ML,Heerenveen,Heerenveen,Friesland,VBO,5.954326,52.951042
Landgraaf,18,,,8448ML,Heerenveen,Heerenveen,Friesland,VBO,5.954414,52.950979
Landgraaf,19,,,8448ML,Heerenveen,Heerenveen,Friesland,VBO,5.954531,52.950825
Landgraaf,20,,,8448ML,Heerenveen,Heerenveen,Friesland,VBO,5.954575,52.950753
Landgraaf,21,,,8448ML,Heerenveen,Heerenveen,Friesland,VBO,5.954633,52.950681
Landgraaf,22,,,8448ML,Heerenveen,Heerenveen,Friesland,VBO,5.954677,52.950636
Landgraaf,23,,,8448ML,Heerenveen,Heerenveen,Friesland,VBO,5.954721,52.950564
Landgraaf,24,,,8448ML,Heerenveen,Heerenveen,Friesland,VBO,5.954795,52.950501
Landgraaf,25,,,8448ML,Heerenveen,Heerenveen,Friesland,VBO,5.954927,52.950347
Landgraaf,26,,,8448ML,Heerenveen,Heerenveen,Friesland,VBO,5.954955,52.950275
Landgraaf,27,,,8448ML,Heerenveen,Heerenveen,Friesland,VBO,5.955044,52.950203
Frederik Hendriklaan,86,,,8448MN,Heerenveen,Heerenveen,Friesland,VBO,5.951699,52.952690
Frederik Hendriklaan,88,,,8448MN,Heerenveen,Heerenveen,Friesland,VBO,5.951980,52.952608
Frederik Hendriklaan,90,,,8448MN,Heerenveen,Heerenveen,Friesland,VBO,5.952009,52.952563
Frederik Hendriklaan,92,,,8448MN,Heerenveen,Heerenveen,Friesland,VBO,5.952083,52.952481
Frederik Hendriklaan,94,,,8448MN,Heerenveen,Heerenveen,Friesland,VBO,5.952156,52.952391
Frederik Hendriklaan,96,,,8448MN,Heerenveen,Heerenveen,Friesland,VBO,5.952200,52.952346
Frederik Hendriklaan,98,,,8448MN,Heerenveen,Heerenveen,Friesland,VBO,5.952243,52.952256
Frederik Hendriklaan,100,,,8448MN,Heerenveen,Heerenveen,Friesland,VBO,5.952303,52.952220
Frederik Hendriklaan,102,,,8448MN,Heerenveen,Heerenveen,Friesland,VBO,5.952361,52.952130
Frederik Hendriklaan,104,,,8448MN,Heerenveen,Heerenveen,Friesland,VBO,5.952434,52.952048
Frederik Hendriklaan,106,,,8448MN,Heerenveen,Heerenveen,Friesland,VBO,5.952463,52.952003
Frederik Hendriklaan,108,,,8448MN,Heerenveen,Heerenveen,Friesland,VBO,5.952446,52.951824
Frederik Hendriklaan,110,,,8448MN,Heerenveen,Heerenveen,Friesland,VBO,5.952713,52.951715
Frederik Hendriklaan,112,,,8448MN,Heerenveen,Heerenveen,Friesland,VBO,5.952727,52.951670
Frederik Hendriklaan,114,,,8448MN,Heerenveen,Heerenveen,Friesland,VBO,5.952756,52.951633
Frederik Hendriklaan,116,,,8448MN,Heerenveen,Heerenveen,Friesland,VBO,5.952800,52.951597
Frederik Hendriklaan,118,,,8448MN,Heerenveen,Heerenveen,Friesland,VBO,5.952830,52.951552
Frederik Hendriklaan,120,,,8448MN,Heerenveen,Heerenveen,Friesland,VBO,5.952859,52.951507
Frederik Hendriklaan,122,,,8448MN,Heerenveen,Heerenveen,Friesland,VBO,5.952903,52.951462
Frederik Hendriklaan,124,,,8448MN,Heerenveen,Heerenveen,Friesland,VBO,5.952932,52.951426
Frederik Hendriklaan,126,,,8448MN,Heerenveen,Heerenveen,Friesland,VBO,5.952961,52.951381
Frederik Hendriklaan,128,,,8448MN,Heerenveen,Heerenveen,Friesland,VBO,5.953005,52.951345
Frederik Hendriklaan,130,,,8448MN,Heerenveen,Heerenveen,Friesland,VBO,5.953050,52.951309
Frederik Hendriklaan,132,,,8448MN,Heerenveen,Heerenveen,Friesland,VBO,5.953170,52.951059
Frederik Hendriklaan,134,,,8448MN,Heerenveen,Heerenveen,Friesland,VBO,5.953286,52.950905
Frederik Hendriklaan,136,,,8448MN,Heerenveen,Heerenveen,Friesland,VBO,5.953373,52.950786
Frederik Hendriklaan,138,,,8448MN,Heerenveen,Heerenveen,Friesland,VBO,5.953517,52.950659
Frederik Hendriklaan,31,,,8448MP,Heerenveen,Heerenveen,Friesland,VBO,5.948281,52.957676
Frederik Hendriklaan,33,,,8448MP,Heerenveen,Heerenveen,Friesland,VBO,5.948340,52.957603
Frederik Hendriklaan,35,,,8448MP,Heerenveen,Heerenveen,Friesland,VBO,5.948471,52.957441
Frederik Hendriklaan,37,,,8448MP,Heerenveen,Heerenveen,Friesland,VBO,5.948545,52.957351
Frederik Hendriklaan,39,,,8448MP,Heerenveen,Heerenveen,Friesland,VBO,5.948750,52.957098
Frederik Hendriklaan,41,,,8448MP,Heerenveen,Heerenveen,Friesland,VBO,5.948896,52.956927
Frederik Hendriklaan,43,,,8448MP,Heerenveen,Heerenveen,Friesland,VBO,5.948970,52.956864
Frederik Hendriklaan,45,,,8448MP,Heerenveen,Heerenveen,Friesland,VBO,5.949057,52.956719
Frederik Hendriklaan,47,,,8448MP,Heerenveen,Heerenveen,Friesland,VBO,5.949233,52.956530
Frederik Hendriklaan,49,,,8448MP,Heerenveen,Heerenveen,Friesland,VBO,5.949366,52.956394
Frederik Hendriklaan,51,,,8448MP,Heerenveen,Heerenveen,Friesland,VBO,5.949424,52.956304
Frederik Hendriklaan,53,,,8448MP,Heerenveen,Heerenveen,Friesland,VBO,5.949600,52.956097
Frederik Hendriklaan,55,,,8448MP,Heerenveen,Heerenveen,Friesland,VBO,5.949659,52.956034
Frederik Hendriklaan,57,,,8448MP,Heerenveen,Heerenveen,Friesland,VBO,5.949790,52.955871
Frederik Hendriklaan,59,,,8448MP,Heerenveen,Heerenveen,Friesland,VBO,5.949922,52.955691
Frederik Hendriklaan,61,,,8448MP,Heerenveen,Heerenveen,Friesland,VBO,5.950740,52.954974
Frederik Hendriklaan,63,,,8448MP,Heerenveen,Heerenveen,Friesland,VBO,5.950989,52.955023
Frederik Hendriklaan,65,,,8448MP,Heerenveen,Heerenveen,Friesland,VBO,5.950732,52.954945
Frederik Hendriklaan,67,,,8448MP,Heerenveen,Heerenveen,Friesland,VBO,5.950828,52.955015
Frederik Hendriklaan,69,,,8448MP,Heerenveen,Heerenveen,Friesland,VBO,5.951031,52.955049
Frederik Hendriklaan,71,,,8448MP,Heerenveen,Heerenveen,Friesland,VBO,5.950750,52.954927
Frederik Hendriklaan,73,,,8448MP,Heerenveen,Heerenveen,Friesland,VBO,5.950872,52.955012
Frederik Hendriklaan,75,,,8448MP,Heerenveen,Heerenveen,Friesland,VBO,5.951044,52.955028
Frederik Hendriklaan,77,,,8448MP,Heerenveen,Heerenveen,Friesland,VBO,5.950902,52.954667
Frederik Hendriklaan,79,,,8448MP,Heerenveen,Heerenveen,Friesland,VBO,5.951058,52.954446
Frederik Hendriklaan,81,,,8448MP,Heerenveen,Heerenveen,Friesland,VBO,5.951301,52.954166
Frederik Hendriklaan,83,,,8448MP,Heerenveen,Heerenveen,Friesland,VBO,5.951462,52.953922
Frederik Hendriklaan,85,,,8448MP,Heerenveen,Heerenveen,Friesland,VBO,5.951697,52.953732
Frederik Hendriklaan,87,,,8448MP,Heerenveen,Heerenveen,Friesland,VBO,5.951992,52.953506
Frederik Hendriklaan,89,,,8448MP,Heerenveen,Heerenveen,Friesland,VBO,5.952283,52.953002
Frederik Hendriklaan,91,A,,8448MP,Heerenveen,Heerenveen,Friesland,VBO,5.952515,52.952551
Frederik Hendriklaan,91,,,8448MP,Heerenveen,Heerenveen,Friesland,VBO,5.952467,52.952770
Ernst Casimirlaan,1,,,8448MR,Heerenveen,Heerenveen,Friesland,VBO,5.949367,52.957899
Ernst Casimirlaan,2,,,8448MR,Heerenveen,Heerenveen,Friesland,VBO,5.949158,52.957617
Ernst Casimirlaan,3,,,8448MR,Heerenveen,Heerenveen,Friesland,VBO,5.949460,52.957781
Ernst Casimirlaan,4,,,8448MR,Heerenveen,Heerenveen,Friesland,VBO,5.949216,52.957509
Ernst Casimirlaan,5,,,8448MR,Heerenveen,Heerenveen,Friesland,VBO,5.950827,52.956135
Ernst Casimirlaan,6,,,8448MR,Heerenveen,Heerenveen,Friesland,VBO,5.949290,52.957419
Ernst Casimirlaan,7,,,8448MR,Heerenveen,Heerenveen,Friesland,VBO,5.950919,52.956023
Ernst Casimirlaan,8,,,8448MR,Heerenveen,Heerenveen,Friesland,VBO,5.949422,52.957302
Ernst Casimirlaan,9,,,8448MR,Heerenveen,Heerenveen,Friesland,VBO,5.951207,52.955683
Ernst Casimirlaan,10,,,8448MR,Heerenveen,Heerenveen,Friesland,VBO,5.949657,52.957031
Ernst Casimirlaan,12,,,8448MR,Heerenveen,Heerenveen,Friesland,VBO,5.949730,52.956950
Sergeant,1,A,,8448MS,Heerenveen,Heerenveen,Friesland,VBO,5.947731,52.958310
Sergeant,1,,,8448MS,Heerenveen,Heerenveen,Friesland,VBO,5.947828,52.958289
Sergeant,2,,,8448MS,Heerenveen,Heerenveen,Friesland,VBO,5.948166,52.957887
Sergeant,3,,,8448MS,Heerenveen,Heerenveen,Friesland,VBO,5.948216,52.958386
Sergeant,4,,,8448MS,Heerenveen,Heerenveen,Friesland,VBO,5.948258,52.957923
Sergeant,5,,,8448MS,Heerenveen,Heerenveen,Friesland,VBO,5.948395,52.958430
Sergeant,6,,,8448MS,Heerenveen,Heerenveen,Friesland,VBO,5.948443,52.957966
Sergeant,8,,,8448MS,Heerenveen,Heerenveen,Friesland,VBO,5.948523,52.958000
Sergeant,10,,,8448MS,Heerenveen,Heerenveen,Friesland,VBO,5.948722,52.958057
Sergeant,12,,,8448MS,Heerenveen,Heerenveen,Friesland,VBO,5.948803,52.958094
Oranje Nassaulaan,1,,,8448MT,Heerenveen,Heerenveen,Friesland,VBO,5.935275,52.950496
Oranje Nassaulaan,10,A,,8448MT,Heerenveen,Heerenveen,Friesland,VBO,5.946123,52.953333
Oranje Nassaulaan,10,,,8448MT,Heerenveen,Heerenveen,Friesland,VBO,5.939129,52.951769
Oranje Nassaulaan,12,,,8448MT,Heerenveen,Heerenveen,Friesland,VBO,5.961951,52.957933
Oranje Nassaulaan,21,,,8448MT,Heerenveen,Heerenveen,Friesland,VBO,5.944697,52.955572
Rentmeester,1,,1,8448NA,Heerenveen,Heerenveen,Friesland,VBO,5.946663,52.957980
Rentmeester,1,,2,8448NA,Heerenveen,Heerenveen,Friesland,VBO,5.946618,52.957989
Rentmeester,1,,,8448NA,Heerenveen,Heerenveen,Friesland,VBO,5.946707,52.957970
Rentmeester,2,,1,8448NA,Heerenveen,Heerenveen,Friesland,VBO,5.946738,52.958060
Rentmeester,2,,2,8448NA,Heerenveen,Heerenveen,Friesland,VBO,5.946694,52.958078
Rentmeester,2,,,8448NA,Heerenveen,Heerenveen,Friesland,VBO,5.946768,52.958042
Rentmeester,3,,1,8448NA,Heerenveen,Heerenveen,Friesland,VBO,5.946843,52.958123
Rentmeester,3,,2,8448NA,Heerenveen,Heerenveen,Friesland,VBO,5.946814,52.958150
Rentmeester,3,,,8448NA,Heerenveen,Heerenveen,Friesland,VBO,5.946873,52.958105
Rentmeester,4,,1,8448NA,Heerenveen,Heerenveen,Friesland,VBO,5.947007,52.958167
Rentmeester,4,,2,8448NA,Heerenveen,Heerenveen,Friesland,VBO,5.946978,52.958194
Rentmeester,4,,,8448NA,Heerenveen,Heerenveen,Friesland,VBO,5.947022,52.958149
Rentmeester,5,,1,8448NA,Heerenveen,Heerenveen,Friesland,VBO,5.947172,52.958193
Rentmeester,5,,2,8448NA,Heerenveen,Heerenveen,Friesland,VBO,5.947172,52.958220
Rentmeester,5,,,8448NA,Heerenveen,Heerenveen,Friesland,VBO,5.947171,52.958166
Rentmeester,6,,1,8448NA,Heerenveen,Heerenveen,Friesland,VBO,5.947335,52.958183
Rentmeester,6,,2,8448NA,Heerenveen,Heerenveen,Friesland,VBO,5.947350,52.958210
Rentmeester,6,,,8448NA,Heerenveen,Heerenveen,Friesland,VBO,5.947320,52.958156
Rentmeester,7,,,8448NA,Heerenveen,Heerenveen,Friesland,VBO,5.947873,52.958360
Rentmeester,8,,,8448NA,Heerenveen,Heerenveen,Friesland,VBO,5.948097,52.958395
Rentmeester,9,,,8448NA,Heerenveen,Heerenveen,Friesland,VBO,5.948426,52.958502
Stalmeester,1,,,8448NB,Heerenveen,Heerenveen,Friesland,VBO,5.947176,52.957393
Stalmeester,2,,,8448NB,Heerenveen,Heerenveen,Friesland,VBO,5.947236,52.957411
Stalmeester,3,,,8448NB,Heerenveen,Heerenveen,Friesland,VBO,5.947296,52.957429
Stalmeester,4,,,8448NB,Heerenveen,Heerenveen,Friesland,VBO,5.947385,52.957455
Stalmeester,5,,,8448NB,Heerenveen,Heerenveen,Friesland,VBO,5.947464,52.957475
Stalmeester,6,,,8448NB,Heerenveen,Heerenveen,Friesland,VBO,5.947535,52.957508
Stalmeester,7,,,8448NB,Heerenveen,Heerenveen,Friesland,VBO,5.947594,52.957526
Stalmeester,8,,,8448NB,Heerenveen,Heerenveen,Friesland,VBO,5.947669,52.957553
Stalmeester,9,A,,8448NB,Heerenveen,Heerenveen,Friesland,VBO,5.947715,52.957606
Stalmeester,9,,,8448NB,Heerenveen,Heerenveen,Friesland,VBO,5.947744,52.957570
Stalmeester,10,A,,8448NB,Heerenveen,Heerenveen,Friesland,VBO,5.947789,52.957624
Stalmeester,10,,,8448NB,Heerenveen,Heerenveen,Friesland,VBO,5.947819,52.957588
Bottelier,1,,,8448NC,Heerenveen,Heerenveen,Friesland,VBO,5.947542,52.956942
Bottelier,2,,,8448NC,Heerenveen,Heerenveen,Friesland,VBO,5.947617,52.956969
Bottelier,3,,,8448NC,Heerenveen,Heerenveen,Friesland,VBO,5.947692,52.956986
Bottelier,4,,,8448NC,Heerenveen,Heerenveen,Friesland,VBO,5.947766,52.957013
Bottelier,5,,,8448NC,Heerenveen,Heerenveen,Friesland,VBO,5.947826,52.957022
Bottelier,6,,,8448NC,Heerenveen,Heerenveen,Friesland,VBO,5.947901,52.957048
Bottelier,7,,,8448NC,Heerenveen,Heerenveen,Friesland,VBO,5.947975,52.957066
Bottelier,8,,,8448NC,Heerenveen,Heerenveen,Friesland,VBO,5.948050,52.957092
Bottelier,9,,,8448NC,Heerenveen,Heerenveen,Friesland,VBO,5.948125,52.957119
Bottelier,10,,,8448NC,Heerenveen,Heerenveen,Friesland,VBO,5.948200,52.957137
Hofnar,1,,,8448ND,Heerenveen,Heerenveen,Friesland,VBO,5.948366,52.956228
Hofnar,2,,,8448ND,Heerenveen,Heerenveen,Friesland,VBO,5.948424,52.956093
Hofnar,3,,,8448ND,Heerenveen,Heerenveen,Friesland,VBO,5.948665,52.956335
Hofnar,4,,,8448ND,Heerenveen,Heerenveen,Friesland,VBO,5.948753,52.956191
Kamenier,1,,,8448NE,Heerenveen,Heerenveen,Friesland,VBO,5.949123,52.955117
Kamenier,2,,,8448NE,Heerenveen,Heerenveen,Friesland,VBO,5.949240,52.955158
Kamenier,3,,,8448NE,Heerenveen,Heerenveen,Friesland,VBO,5.949309,52.955238
Kamenier,4,,,8448NE,Heerenveen,Heerenveen,Friesland,VBO,5.949415,52.955268
Kamenier,5,,,8448NE,Heerenveen,Heerenveen,Friesland,VBO,5.949547,52.955255
Kamenier,6,,,8448NE,Heerenveen,Heerenveen,Friesland,VBO,5.949674,52.955294
Markies,1,,,8448NG,Heerenveen,Heerenveen,Friesland,VBO,5.949523,52.954642
Markies,2,,,8448NG,Heerenveen,Heerenveen,Friesland,VBO,5.949640,52.954676
Markies,3,,,8448NG,Heerenveen,Heerenveen,Friesland,VBO,5.949791,52.954664
Markies,4,,,8448NG,Heerenveen,Heerenveen,Friesland,VBO,5.949844,52.954739
Markies,5,,,8448NG,Heerenveen,Heerenveen,Friesland,VBO,5.949938,52.954768
Markies,6,,,8448NG,Heerenveen,Heerenveen,Friesland,VBO,5.950068,52.954802
Hertog,2,,,8448NH,Heerenveen,Heerenveen,Friesland,VBO,5.950694,52.953234
Hertog,4,,,8448NH,Heerenveen,Heerenveen,Friesland,VBO,5.950724,52.953297
Hertog,6,,,8448NH,Heerenveen,Heerenveen,Friesland,VBO,5.950784,52.953341
Hertog,8,,,8448NH,Heerenveen,Heerenveen,Friesland,VBO,5.950859,52.953386
Hertog,10,,,8448NH,Heerenveen,Heerenveen,Friesland,VBO,5.950949,52.953403
Hertog,12,,,8448NH,Heerenveen,Heerenveen,Friesland,VBO,5.951038,52.953421
Hertog,14,,,8448NH,Heerenveen,Heerenveen,Friesland,VBO,5.951143,52.953420
Hertog,16,,,8448NH,Heerenveen,Heerenveen,Friesland,VBO,5.951217,52.953402
Hertog,18,,,8448NH,Heerenveen,Heerenveen,Friesland,VBO,5.951320,52.953366
Hertog,20,,,8448NH,Heerenveen,Heerenveen,Friesland,VBO,5.951379,52.953329
Hertog,22,,,8448NH,Heerenveen,Heerenveen,Friesland,VBO,5.951423,52.953275
Graaf,1,,,8448NJ,Heerenveen,Heerenveen,Friesland,VBO,5.950898,52.952918
Graaf,2,,,8448NJ,Heerenveen,Heerenveen,Friesland,VBO,5.950927,52.952855
Graaf,3,,,8448NJ,Heerenveen,Heerenveen,Friesland,VBO,5.950971,52.952810
Graaf,4,,,8448NJ,Heerenveen,Heerenveen,Friesland,VBO,5.951045,52.952774
Graaf,5,,,8448NJ,Heerenveen,Heerenveen,Friesland,VBO,5.951134,52.952747
Graaf,6,,,8448NJ,Heerenveen,Heerenveen,Friesland,VBO,5.951238,52.952737
Graaf,7,,,8448NJ,Heerenveen,Heerenveen,Friesland,VBO,5.951327,52.952746
Graaf,8,,,8448NJ,Heerenveen,Heerenveen,Friesland,VBO,5.951432,52.952754
Graaf,9,,,8448NJ,Heerenveen,Heerenveen,Friesland,VBO,5.951492,52.952790
Graaf,10,,,8448NJ,Heerenveen,Heerenveen,Friesland,VBO,5.951566,52.952825
Graaf,11,,,8448NJ,Heerenveen,Heerenveen,Friesland,VBO,5.951612,52.952879
Graaf,12,,,8448NJ,Heerenveen,Heerenveen,Friesland,VBO,5.951627,52.952942
Graaf,13,,,8448NJ,Heerenveen,Heerenveen,Friesland,VBO,5.951628,52.952996
Baron,2,,,8448NK,Heerenveen,Heerenveen,Friesland,VBO,5.952280,52.951600
Baron,4,,,8448NK,Heerenveen,Heerenveen,Friesland,VBO,5.952444,52.951644
Ridder,1,,,8448NL,Heerenveen,Heerenveen,Friesland,VBO,5.952646,52.951176
Ridder,2,,,8448NL,Heerenveen,Heerenveen,Friesland,VBO,5.952640,52.950865
Ridder,3,,,8448NL,Heerenveen,Heerenveen,Friesland,VBO,5.952810,52.951229
Edelman,1,,,8448NM,Heerenveen,Heerenveen,Friesland,VBO,5.953630,52.950487
Hopman,1,,,8448NN,Heerenveen,Heerenveen,Friesland,VBO,5.948654,52.957728
Hopman,2,,,8448NN,Heerenveen,Heerenveen,Friesland,VBO,5.948800,52.957547
Hopman,3,,,8448NN,Heerenveen,Heerenveen,Friesland,VBO,5.948758,52.957745
Hopman,5,,,8448NN,Heerenveen,Heerenveen,Friesland,VBO,5.948922,52.957798
Hopman,7,,,8448NN,Heerenveen,Heerenveen,Friesland,VBO,5.949027,52.957825
Vaandrig,1,,,8448NP,Heerenveen,Heerenveen,Friesland,VBO,5.948976,52.957340
Vaandrig,2,,,8448NP,Heerenveen,Heerenveen,Friesland,VBO,5.949211,52.957060
Lijfwacht,1,,,8448NR,Heerenveen,Heerenveen,Friesland,VBO,5.949416,52.956825
Lijfwacht,2,,,8448NR,Heerenveen,Heerenveen,Friesland,VBO,5.949547,52.956591
Lijfwacht,4,,,8448NR,Heerenveen,Heerenveen,Friesland,VBO,5.949726,52.956662
Lijfwacht,6,,,8448NR,Heerenveen,Heerenveen,Friesland,VBO,5.949875,52.956697
Majoor,1,,,8448NS,Heerenveen,Heerenveen,Friesland,VBO,5.949767,52.956383
Majoor,2,,,8448NS,Heerenveen,Heerenveen,Friesland,VBO,5.949884,52.956212
Majoor,3,,,8448NS,Heerenveen,Heerenveen,Friesland,VBO,5.949857,52.956410
Majoor,4,,,8448NS,Heerenveen,Heerenveen,Friesland,VBO,5.949989,52.956248
Majoor,5,,,8448NS,Heerenveen,Heerenveen,Friesland,VBO,5.950036,52.956472
Majoor,6,,,8448NS,Heerenveen,Heerenveen,Friesland,VBO,5.950168,52.956292
Majoor,7,,,8448NS,Heerenveen,Heerenveen,Friesland,VBO,5.950126,52.956499
Majoor,8,,,8448NS,Heerenveen,Heerenveen,Friesland,VBO,5.950257,52.956318
Kapitein,1,,,8448NT,Heerenveen,Heerenveen,Friesland,VBO,5.950134,52.955950
Kapitein,2,,,8448NT,Heerenveen,Heerenveen,Friesland,VBO,5.950251,52.955806
Kapitein,3,,,8448NT,Heerenveen,Heerenveen,Friesland,VBO,5.950223,52.955986
Kapitein,4,,,8448NT,Heerenveen,Heerenveen,Friesland,VBO,5.950340,52.955824
Kapitein,5,,,8448NT,Heerenveen,Heerenveen,Friesland,VBO,5.950403,52.956039
Kapitein,6,,,8448NT,Heerenveen,Heerenveen,Friesland,VBO,5.950520,52.955877
Kapitein,7,,,8448NT,Heerenveen,Heerenveen,Friesland,VBO,5.950492,52.956057
Kapitein,8,,,8448NT,Heerenveen,Heerenveen,Friesland,VBO,5.950594,52.955903
Generaal,1,,,8448NV,Heerenveen,Heerenveen,Friesland,VBO,5.950157,52.955420
Generaal,2,,,8448NV,Heerenveen,Heerenveen,Friesland,VBO,5.950246,52.955447
Generaal,3,,,8448NV,Heerenveen,Heerenveen,Friesland,VBO,5.950455,52.955509
Generaal,4,,,8448NV,Heerenveen,Heerenveen,Friesland,VBO,5.950545,52.955535
Generaal,5,,,8448NV,Heerenveen,Heerenveen,Friesland,VBO,5.950739,52.955597
Generaal,6,,,8448NV,Heerenveen,Heerenveen,Friesland,VBO,5.950844,52.955633
Page,1,,,8448NW,Heerenveen,Heerenveen,Friesland,VBO,5.951070,52.958193
Page,2,,,8448NW,Heerenveen,Heerenveen,Friesland,VBO,5.950968,52.958355
Page,3,,,8448NW,Heerenveen,Heerenveen,Friesland,VBO,5.950996,52.958184
Page,4,,,8448NW,Heerenveen,Heerenveen,Friesland,VBO,5.950879,52.958328
Page,5,,,8448NW,Heerenveen,Heerenveen,Friesland,VBO,5.950742,52.958104
Page,6,,,8448NW,Heerenveen,Heerenveen,Friesland,VBO,5.950610,52.958258
Jonker,1,,,8448NX,Heerenveen,Heerenveen,Friesland,VBO,5.951392,52.957778
Jonker,2,,,8448NX,Heerenveen,Heerenveen,Friesland,VBO,5.951275,52.957913
Jonker,3,,,8448NX,Heerenveen,Heerenveen,Friesland,VBO,5.951318,52.957751
Jonker,4,,,8448NX,Heerenveen,Heerenveen,Friesland,VBO,5.951201,52.957904
Jonker,5,,,8448NX,Heerenveen,Heerenveen,Friesland,VBO,5.951049,52.957680
Jonker,6,,,8448NX,Heerenveen,Heerenveen,Friesland,VBO,5.950932,52.957834
Lakei,1,,,8448NZ,Heerenveen,Heerenveen,Friesland,VBO,5.951669,52.957291
Lakei,2,,,8448NZ,Heerenveen,Heerenveen,Friesland,VBO,5.951597,52.957489
Lakei,4,,,8448NZ,Heerenveen,Heerenveen,Friesland,VBO,5.951522,52.957472
Lakei,6,,,8448NZ,Heerenveen,Heerenveen,Friesland,VBO,5.951268,52.957392
Regent,1,,,8448PA,Heerenveen,Heerenveen,Friesland,VBO,5.952402,52.956434
Regent,2,,,8448PA,Heerenveen,Heerenveen,Friesland,VBO,5.952299,52.956560
Regent,3,,,8448PA,Heerenveen,Heerenveen,Friesland,VBO,5.952312,52.956407
Regent,4,,,8448PA,Heerenveen,Heerenveen,Friesland,VBO,5.952210,52.956534
Regent,5,,,8448PA,Heerenveen,Heerenveen,Friesland,VBO,5.952163,52.956363
Regent,6,,,8448PA,Heerenveen,Heerenveen,Friesland,VBO,5.952045,52.956490
Regent,7,,,8448PA,Heerenveen,Heerenveen,Friesland,VBO,5.952073,52.956337
Regent,8,,,8448PA,Heerenveen,Heerenveen,Friesland,VBO,5.951971,52.956472
Gouverneur,1,,,8448PB,Heerenveen,Heerenveen,Friesland,VBO,5.952961,52.955952
Gouverneur,2,,,8448PB,Heerenveen,Heerenveen,Friesland,VBO,5.952949,52.956207
Gouverneur,3,,,8448PB,Heerenveen,Heerenveen,Friesland,VBO,5.952668,52.955880
Gouverneur,4,,,8448PB,Heerenveen,Heerenveen,Friesland,VBO,5.952755,52.956154
Gouverneur,5,,,8448PB,Heerenveen,Heerenveen,Friesland,VBO,5.952980,52.955933
Gouverneur,6,,,8448PB,Heerenveen,Heerenveen,Friesland,VBO,5.952681,52.956136
Gouverneur,7,,,8448PB,Heerenveen,Heerenveen,Friesland,VBO,5.952867,52.955897
Gouverneur,8,,,8448PB,Heerenveen,Heerenveen,Friesland,VBO,5.952516,52.956083
Gouverneur,9,,,8448PB,Heerenveen,Heerenveen,Friesland,VBO,5.952704,52.955883
Gouverneur,10,,,8448PB,Heerenveen,Heerenveen,Friesland,VBO,5.952442,52.956065
Gouverneur,11,,,8448PB,Heerenveen,Heerenveen,Friesland,VBO,5.952904,52.955897
Gouverneur,12,,,8448PB,Heerenveen,Heerenveen,Friesland,VBO,5.952263,52.956021
Gouverneur,13,,,8448PB,Heerenveen,Heerenveen,Friesland,VBO,5.952683,52.955864
Luitenant,1,,,8448PC,Heerenveen,Heerenveen,Friesland,VBO,5.952079,52.956795
Luitenant,2,,,8448PC,Heerenveen,Heerenveen,Friesland,VBO,5.951859,52.957066
Willem Frederiklaan,1,,,8448PD,Heerenveen,Heerenveen,Friesland,VBO,5.951504,52.957211
Willem Frederiklaan,2,,,8448PD,Heerenveen,Heerenveen,Friesland,VBO,5.950273,52.958145
Willem Frederiklaan,3,,,8448PD,Heerenveen,Heerenveen,Friesland,VBO,5.951532,52.957094
Willem Frederiklaan,4,,,8448PD,Heerenveen,Heerenveen,Friesland,VBO,5.950354,52.958027
Willem Frederiklaan,5,,,8448PD,Heerenveen,Heerenveen,Friesland,VBO,5.951708,52.956851
Willem Frederiklaan,6,,,8448PD,Heerenveen,Heerenveen,Friesland,VBO,5.951613,52.956361
Willem Frederiklaan,7,,,8448PD,Heerenveen,Heerenveen,Friesland,VBO,5.951810,52.956724
Willem Frederiklaan,8,,,8448PD,Heerenveen,Heerenveen,Friesland,VBO,5.951698,52.956247
Willem Frederiklaan,10,,,8448PD,Heerenveen,Heerenveen,Friesland,VBO,5.951964,52.955891
Mauritslaan,2,,,8448PE,Heerenveen,Heerenveen,Friesland,VBO,5.951209,52.958551
Mauritslaan,4,,,8448PE,Heerenveen,Heerenveen,Friesland,VBO,5.951297,52.958434
Mauritslaan,6,,,8448PE,Heerenveen,Heerenveen,Friesland,VBO,5.951414,52.958290
Mauritslaan,8,,,8448PE,Heerenveen,Heerenveen,Friesland,VBO,5.951487,52.958191
Mauritslaan,10,,,8448PE,Heerenveen,Heerenveen,Friesland,VBO,5.951531,52.958137
Mauritslaan,12,,,8448PE,Heerenveen,Heerenveen,Friesland,VBO,5.951619,52.958019
Mauritslaan,14,,,8448PE,Heerenveen,Heerenveen,Friesland,VBO,5.951736,52.957857
Mauritslaan,16,,,8448PE,Heerenveen,Heerenveen,Friesland,VBO,5.951824,52.957749
Mauritslaan,18,,,8448PE,Heerenveen,Heerenveen,Friesland,VBO,5.951868,52.957695
Mauritslaan,20,,,8448PE,Heerenveen,Heerenveen,Friesland,VBO,5.951941,52.957595
Mauritslaan,22,,,8448PE,Heerenveen,Heerenveen,Friesland,VBO,5.952072,52.957406
Mauritslaan,24,,,8448PE,Heerenveen,Heerenveen,Friesland,VBO,5.952160,52.957289
Mauritslaan,26,,,8448PE,Heerenveen,Heerenveen,Friesland,VBO,5.952233,52.957190
Mauritslaan,28,,,8448PE,Heerenveen,Heerenveen,Friesland,VBO,5.952262,52.957136
Mauritslaan,30,,,8448PE,Heerenveen,Heerenveen,Friesland,VBO,5.952365,52.957027
Mauritslaan,32,,,8448PE,Heerenveen,Heerenveen,Friesland,VBO,5.952540,52.956784
Mauritslaan,34,,,8448PE,Heerenveen,Heerenveen,Friesland,VBO,5.952628,52.956658
Mauritslaan,36,,,8448PE,Heerenveen,Heerenveen,Friesland,VBO,5.952745,52.956504
Mauritslaan,38,,,8448PE,Heerenveen,Heerenveen,Friesland,VBO,5.952833,52.956387
Mauritslaan,42,,,8448PE,Heerenveen,Heerenveen,Friesland,VBO,5.953451,52.955367
Mauritslaan,44,,,8448PE,Heerenveen,Heerenveen,Friesland,VBO,5.953522,52.955093
Mauritslaan,46,,,8448PE,Heerenveen,Heerenveen,Friesland,VBO,5.953733,52.954895
Mauritslaan,48,,,8448PE,Heerenveen,Heerenveen,Friesland,VBO,5.953936,52.954645
Mauritslaan,50,,,8448PE,Heerenveen,Heerenveen,Friesland,VBO,5.954074,52.954382
Mauritslaan,52,A,,8448PE,Heerenveen,Heerenveen,Friesland,VBO,5.954415,52.954143
Mauritslaan,52,,,8448PE,Heerenveen,Heerenveen,Friesland,VBO,5.954307,52.954207
Mauritslaan,54,A,,8448PE,Heerenveen,Heerenveen,Friesland,VBO,5.955159,52.953303
Mauritslaan,54,,,8448PE,Heerenveen,Heerenveen,Friesland,VBO,5.954893,52.953466
Willem Lodewijklaan,1,,,8448PG,Heerenveen,Heerenveen,Friesland,VBO,5.952411,52.959417
Willem Lodewijklaan,3,,,8448PG,Heerenveen,Heerenveen,Friesland,VBO,5.952650,52.959524
Willem Lodewijklaan,5,,,8448PG,Heerenveen,Heerenveen,Friesland,VBO,5.953024,52.959666
Willem Lodewijklaan,7,,,8448PG,Heerenveen,Heerenveen,Friesland,VBO,5.953293,52.959746
Willem Lodewijklaan,9,,,8448PG,Heerenveen,Heerenveen,Friesland,VBO,5.952661,52.959201
Willem Lodewijklaan,11,,,8448PG,Heerenveen,Heerenveen,Friesland,VBO,5.953019,52.959253
Willem Lodewijklaan,13,,,8448PG,Heerenveen,Heerenveen,Friesland,VBO,5.953213,52.959297
Willem Lodewijklaan,15,,,8448PG,Heerenveen,Heerenveen,Friesland,VBO,5.953467,52.959358
Willem Lodewijklaan,17,,,8448PG,Heerenveen,Heerenveen,Friesland,VBO,5.953537,52.959026
Willem Lodewijklaan,19,,,8448PG,Heerenveen,Heerenveen,Friesland,VBO,5.953195,52.959036
Willem Lodewijklaan,21,,,8448PG,Heerenveen,Heerenveen,Friesland,VBO,5.952911,52.958984
Willem Lodewijklaan,23,,,8448PG,Heerenveen,Heerenveen,Friesland,VBO,5.952805,52.958795
Willem Lodewijklaan,25,,,8448PG,Heerenveen,Heerenveen,Friesland,VBO,5.953011,52.958642
Willem Lodewijklaan,27,,,8448PG,Heerenveen,Heerenveen,Friesland,VBO,5.953202,52.958488
Willem Lodewijklaan,29,,,8448PG,Heerenveen,Heerenveen,Friesland,VBO,5.953487,52.958648
Willem Lodewijklaan,31,,,8448PG,Heerenveen,Heerenveen,Friesland,VBO,5.953832,52.958845
Willem Lodewijklaan,33,A,,8448PG,Heerenveen,Heerenveen,Friesland,VBO,5.954066,52.958547
Willem Lodewijklaan,33,B,,8448PG,Heerenveen,Heerenveen,Friesland,VBO,5.954170,52.958510
Willem Lodewijklaan,33,,,8448PG,Heerenveen,Heerenveen,Friesland,VBO,5.954141,52.958591
Willem Lodewijklaan,35,,,8448PG,Heerenveen,Heerenveen,Friesland,VBO,5.953812,52.958458
Willem Lodewijklaan,37,,,8448PG,Heerenveen,Heerenveen,Friesland,VBO,5.953528,52.958379
Willem Lodewijklaan,39,,,8448PG,Heerenveen,Heerenveen,Friesland,VBO,5.953334,52.958281
Willem Lodewijklaan,41,,,8448PG,Heerenveen,Heerenveen,Friesland,VBO,5.953405,52.958047
Willem Lodewijklaan,43,,,8448PG,Heerenveen,Heerenveen,Friesland,VBO,5.953882,52.958134
Willem Lodewijklaan,45,,,8448PG,Heerenveen,Heerenveen,Friesland,VBO,5.953998,52.957900
Willem Lodewijklaan,47,,,8448PG,Heerenveen,Heerenveen,Friesland,VBO,5.953595,52.957821
Willem Lodewijklaan,49,,,8448PG,Heerenveen,Heerenveen,Friesland,VBO,5.953756,52.957578
Willem Lodewijklaan,51,,,8448PG,Heerenveen,Heerenveen,Friesland,VBO,5.953962,52.957424
Willem Lodewijklaan,53,,,8448PG,Heerenveen,Heerenveen,Friesland,VBO,5.954306,52.957566
Willem Lodewijklaan,55,,,8448PG,Heerenveen,Heerenveen,Friesland,VBO,5.954516,52.957682
Willem Lodewijklaan,57,,,8448PG,Heerenveen,Heerenveen,Friesland,VBO,5.955079,52.957491
Willem Lodewijklaan,59,,,8448PG,Heerenveen,Heerenveen,Friesland,VBO,5.954767,52.957510
Willem Lodewijklaan,61,,,8448PG,Heerenveen,Heerenveen,Friesland,VBO,5.954498,52.957422
Willem Lodewijklaan,63,,,8448PG,Heerenveen,Heerenveen,Friesland,VBO,5.954243,52.957288
Willem Lodewijklaan,65,,,8448PG,Heerenveen,Heerenveen,Friesland,VBO,5.954256,52.957090
Willem Lodewijklaan,67,,,8448PG,Heerenveen,Heerenveen,Friesland,VBO,5.954532,52.957125
Willem Lodewijklaan,69,,,8448PG,Heerenveen,Heerenveen,Friesland,VBO,5.954823,52.957249
Willem Lodewijklaan,71,,,8448PG,Heerenveen,Heerenveen,Friesland,VBO,5.955149,52.957140
Willem Lodewijklaan,73,,,8448PG,Heerenveen,Heerenveen,Friesland,VBO,5.955373,52.957220
Willem Lodewijklaan,75,,,8448PG,Heerenveen,Heerenveen,Friesland,VBO,5.955505,52.956922
Willem Lodewijklaan,77,,,8448PG,Heerenveen,Heerenveen,Friesland,VBO,5.955131,52.956879
Willem Lodewijklaan,79,,,8448PG,Heerenveen,Heerenveen,Friesland,VBO,5.954758,52.956836
Willem Lodewijklaan,81,,,8448PG,Heerenveen,Heerenveen,Friesland,VBO,5.954401,52.956802
Willem Lodewijklaan,83,,,8448PG,Heerenveen,Heerenveen,Friesland,VBO,5.954428,52.956595
Willem Lodewijklaan,85,,,8448PG,Heerenveen,Heerenveen,Friesland,VBO,5.954588,52.956370
Willem Lodewijklaan,87,,,8448PG,Heerenveen,Heerenveen,Friesland,VBO,5.954873,52.956485
Willem Lodewijklaan,89,,,8448PH,Heerenveen,Heerenveen,Friesland,VBO,5.955072,52.955765
Willem Lodewijklaan,91,,,8448PH,Heerenveen,Heerenveen,Friesland,VBO,5.955483,52.955823
Willem Lodewijklaan,93,,,8448PH,Heerenveen,Heerenveen,Friesland,VBO,5.955743,52.955879
Willem Lodewijklaan,95,,,8448PH,Heerenveen,Heerenveen,Friesland,VBO,5.955375,52.955544
Willem Lodewijklaan,97,,,8448PH,Heerenveen,Heerenveen,Friesland,VBO,5.955695,52.955619
Willem Lodewijklaan,99,,,8448PH,Heerenveen,Heerenveen,Friesland,VBO,5.955992,52.955626
Willem Lodewijklaan,101,,,8448PH,Heerenveen,Heerenveen,Friesland,VBO,5.956204,52.955669
Willem Lodewijklaan,103,,,8448PH,Heerenveen,Heerenveen,Friesland,VBO,5.956227,52.955382
Willem Lodewijklaan,105,,,8448PH,Heerenveen,Heerenveen,Friesland,VBO,5.955944,52.955366
Willem Lodewijklaan,107,,,8448PH,Heerenveen,Heerenveen,Friesland,VBO,5.955513,52.955341
Willem Lodewijklaan,109,,,8448PH,Heerenveen,Heerenveen,Friesland,VBO,5.955495,52.955161
Willem Lodewijklaan,111,,,8448PH,Heerenveen,Heerenveen,Friesland,VBO,5.955642,52.955008
Willem Lodewijklaan,113,,,8448PH,Heerenveen,Heerenveen,Friesland,VBO,5.955985,52.955069
Willem Lodewijklaan,115,,,8448PH,Heerenveen,Heerenveen,Friesland,VBO,5.956065,52.954350
Willem Lodewijklaan,117,,,8448PH,Heerenveen,Heerenveen,Friesland,VBO,5.956363,52.954384
Willem Lodewijklaan,119,,,8448PH,Heerenveen,Heerenveen,Friesland,VBO,5.956676,52.954437
Willem Lodewijklaan,121,,,8448PH,Heerenveen,Heerenveen,Friesland,VBO,5.956358,52.953989
Willem Lodewijklaan,123,,,8448PH,Heerenveen,Heerenveen,Friesland,VBO,5.956568,52.954087
Willem Lodewijklaan,125,,,8448PH,Heerenveen,Heerenveen,Friesland,VBO,5.956897,52.954247
Willem Lodewijklaan,127,,,8448PH,Heerenveen,Heerenveen,Friesland,VBO,5.957192,52.954021
Willem Lodewijklaan,129,,,8448PH,Heerenveen,Heerenveen,Friesland,VBO,5.956848,52.953924
Willem Lodewijklaan,131,,,8448PH,Heerenveen,Heerenveen,Friesland,VBO,5.956668,52.953808
Willem Lodewijklaan,133,,,8448PH,Heerenveen,Heerenveen,Friesland,VBO,5.956754,52.953583
Willem Lodewijklaan,135,,,8448PH,Heerenveen,Heerenveen,Friesland,VBO,5.957052,52.953554
Willem Lodewijklaan,137,,,8448PH,Heerenveen,Heerenveen,Friesland,VBO,5.957276,52.953634
Willem Lodewijklaan,139,,,8448PH,Heerenveen,Heerenveen,Friesland,VBO,5.957558,52.953597
Willem Lodewijklaan,141,,,8448PH,Heerenveen,Heerenveen,Friesland,VBO,5.958517,52.952765
Willem Lodewijklaan,143,,,8448PH,Heerenveen,Heerenveen,Friesland,VBO,5.958479,52.952710
Willem Lodewijklaan,145,,,8448PH,Heerenveen,Heerenveen,Friesland,VBO,5.958430,52.952655
Willem Lodewijklaan,147,,,8448PH,Heerenveen,Heerenveen,Friesland,VBO,5.958399,52.952609
Willem Lodewijklaan,149,,,8448PH,Heerenveen,Heerenveen,Friesland,VBO,5.958376,52.952551
Willem Lodewijklaan,151,,,8448PH,Heerenveen,Heerenveen,Friesland,VBO,5.958349,52.952492
Willem Lodewijklaan,153,,,8448PH,Heerenveen,Heerenveen,Friesland,VBO,5.958329,52.952440
Willem Lodewijklaan,155,,,8448PH,Heerenveen,Heerenveen,Friesland,VBO,5.958341,52.952386
Willem Lodewijklaan,157,,,8448PH,Heerenveen,Heerenveen,Friesland,VBO,5.958354,52.952333
Willem Lodewijklaan,159,,,8448PH,Heerenveen,Heerenveen,Friesland,VBO,5.958376,52.952272
Willem Lodewijklaan,161,,,8448PH,Heerenveen,Heerenveen,Friesland,VBO,5.958398,52.952218
Willem Lodewijklaan,163,,,8448PH,Heerenveen,Heerenveen,Friesland,VBO,5.958470,52.952175
Willem Lodewijklaan,165,,,8448PH,Heerenveen,Heerenveen,Friesland,VBO,5.958457,52.952108
Willem Lodewijklaan,167,,,8448PH,Heerenveen,Heerenveen,Friesland,VBO,5.958545,52.952082
Willem Lodewijklaan,169,,,8448PH,Heerenveen,Heerenveen,Friesland,VBO,5.958554,52.952017
Willem Lodewijklaan,171,,,8448PH,Heerenveen,Heerenveen,Friesland,VBO,5.958669,52.951997
Willem Lodewijklaan,173,,,8448PH,Heerenveen,Heerenveen,Friesland,VBO,5.958703,52.951921
Willem Lodewijklaan,175,,,8448PH,Heerenveen,Heerenveen,Friesland,VBO,5.958784,52.951914
Willem Lodewijklaan,177,,,8448PH,Heerenveen,Heerenveen,Friesland,VBO,5.958839,52.951860
Willem Lodewijklaan,179,,,8448PH,Heerenveen,Heerenveen,Friesland,VBO,5.958940,52.951857
Willem Lodewijklaan,181,,,8448PH,Heerenveen,Heerenveen,Friesland,VBO,5.959019,52.951827
Willem Lodewijklaan,183,,,8448PH,Heerenveen,Heerenveen,Friesland,VBO,5.959118,52.951826
Willem Lodewijklaan,185,,,8448PH,Heerenveen,Heerenveen,Friesland,VBO,5.959223,52.951820
Willem Lodewijklaan,2,,,8448PJ,Heerenveen,Heerenveen,Friesland,VBO,5.952065,52.959158
Willem Lodewijklaan,4,,,8448PJ,Heerenveen,Heerenveen,Friesland,VBO,5.952079,52.959104
Willem Lodewijklaan,6,,,8448PJ,Heerenveen,Heerenveen,Friesland,VBO,5.952197,52.958996
Willem Lodewijklaan,8,,,8448PJ,Heerenveen,Heerenveen,Friesland,VBO,5.952226,52.958951
Willem Lodewijklaan,10,,,8448PJ,Heerenveen,Heerenveen,Friesland,VBO,5.952299,52.958834
Willem Lodewijklaan,12,,,8448PJ,Heerenveen,Heerenveen,Friesland,VBO,5.952343,52.958789
Willem Lodewijklaan,14,,,8448PJ,Heerenveen,Heerenveen,Friesland,VBO,5.952416,52.958663
Willem Lodewijklaan,16,,,8448PJ,Heerenveen,Heerenveen,Friesland,VBO,5.952445,52.958617
Willem Lodewijklaan,18,,,8448PJ,Heerenveen,Heerenveen,Friesland,VBO,5.952533,52.958500
Willem Lodewijklaan,20,,,8448PJ,Heerenveen,Heerenveen,Friesland,VBO,5.952577,52.958455
Willem Lodewijklaan,22,,,8448PJ,Heerenveen,Heerenveen,Friesland,VBO,5.952913,52.958004
Willem Lodewijklaan,24,,,8448PJ,Heerenveen,Heerenveen,Friesland,VBO,5.952942,52.957950
Willem Lodewijklaan,26,,,8448PJ,Heerenveen,Heerenveen,Friesland,VBO,5.953015,52.957851
Willem Lodewijklaan,28,,,8448PJ,Heerenveen,Heerenveen,Friesland,VBO,5.953059,52.957797
Willem Lodewijklaan,30,,,8448PJ,Heerenveen,Heerenveen,Friesland,VBO,5.953133,52.957707
Willem Lodewijklaan,32,,,8448PJ,Heerenveen,Heerenveen,Friesland,VBO,5.953162,52.957653
Willem Lodewijklaan,34,,,8448PJ,Heerenveen,Heerenveen,Friesland,VBO,5.953235,52.957553
Willem Lodewijklaan,36,,,8448PJ,Heerenveen,Heerenveen,Friesland,VBO,5.953264,52.957508
Willem Lodewijklaan,38,,,8448PJ,Heerenveen,Heerenveen,Friesland,VBO,5.953922,52.956589
Willem Lodewijklaan,40,,,8448PJ,Heerenveen,Heerenveen,Friesland,VBO,5.953951,52.956552
Willem Lodewijklaan,42,,,8448PJ,Heerenveen,Heerenveen,Friesland,VBO,5.953995,52.956498
Willem Lodewijklaan,44,,,8448PJ,Heerenveen,Heerenveen,Friesland,VBO,5.954024,52.956462
Willem Lodewijklaan,46,,,8448PJ,Heerenveen,Heerenveen,Friesland,VBO,5.954068,52.956408
Willem Lodewijklaan,48,,,8448PJ,Heerenveen,Heerenveen,Friesland,VBO,5.954112,52.956372
Pfeifferstraat,1,,,8448PK,Heerenveen,Heerenveen,Friesland,VBO,5.955847,52.953502
Pfeifferstraat,2,,,8448PK,Heerenveen,Heerenveen,Friesland,VBO,5.955969,52.953471
Pfeifferstraat,3,,,8448PK,Heerenveen,Heerenveen,Friesland,VBO,5.955939,52.953532
Pfeifferstraat,4,,,8448PK,Heerenveen,Heerenveen,Friesland,VBO,5.955938,52.953427
Pfeifferstraat,5,,,8448PK,Heerenveen,Heerenveen,Friesland,VBO,5.955839,52.953405
Pfeifferstraat,6,,,8448PK,Heerenveen,Heerenveen,Friesland,VBO,5.955741,52.953462
Willem Lodewijklaan,50,,,8448PK,Heerenveen,Heerenveen,Friesland,VBO,5.954589,52.955488
Willem Lodewijklaan,52,,,8448PK,Heerenveen,Heerenveen,Friesland,VBO,5.954621,52.955444
Willem Lodewijklaan,54,,,8448PK,Heerenveen,Heerenveen,Friesland,VBO,5.954693,52.955343
Willem Lodewijklaan,56,,,8448PK,Heerenveen,Heerenveen,Friesland,VBO,5.954721,52.955298
Willem Lodewijklaan,58,,,8448PK,Heerenveen,Heerenveen,Friesland,VBO,5.954800,52.955196
Willem Lodewijklaan,60,,,8448PK,Heerenveen,Heerenveen,Friesland,VBO,5.954837,52.955150
Willem Lodewijklaan,62,,,8448PK,Heerenveen,Heerenveen,Friesland,VBO,5.954910,52.955045
Willem Lodewijklaan,64,,,8448PK,Heerenveen,Heerenveen,Friesland,VBO,5.954944,52.954998
Willem Lodewijklaan,66,,,8448PK,Heerenveen,Heerenveen,Friesland,VBO,5.955019,52.954901
Willem Lodewijklaan,68,,,8448PK,Heerenveen,Heerenveen,Friesland,VBO,5.955053,52.954851
Willem Lodewijklaan,70,,,8448PK,Heerenveen,Heerenveen,Friesland,VBO,5.955125,52.954748
Willem Lodewijklaan,72,,,8448PK,Heerenveen,Heerenveen,Friesland,VBO,5.955158,52.954701
Willem Lodewijklaan,74,,,8448PK,Heerenveen,Heerenveen,Friesland,VBO,5.955115,52.954543
Willem Lodewijklaan,76,,,8448PK,Heerenveen,Heerenveen,Friesland,VBO,5.955408,52.954164
Willem Lodewijklaan,78,,,8448PK,Heerenveen,Heerenveen,Friesland,VBO,5.955671,52.954074
Willem Lodewijklaan,80,,,8448PK,Heerenveen,Heerenveen,Friesland,VBO,5.955770,52.953918
Willem Lodewijklaan,82,,,8448PK,Heerenveen,Heerenveen,Friesland,VBO,5.955896,52.953752
Willem Lodewijklaan,88,,,8448PK,Heerenveen,Heerenveen,Friesland,VBO,5.956290,52.953333
Willem Lodewijklaan,90,,,8448PK,Heerenveen,Heerenveen,Friesland,VBO,5.956319,52.953288
Willem Lodewijklaan,92,,,8448PK,Heerenveen,Heerenveen,Friesland,VBO,5.956378,52.953243
Willem Lodewijklaan,94,,,8448PK,Heerenveen,Heerenveen,Friesland,VBO,5.956422,52.953189
Willem Lodewijklaan,96,,,8448PK,Heerenveen,Heerenveen,Friesland,VBO,5.956466,52.953144
Willem Lodewijklaan,98,,,8448PK,Heerenveen,Heerenveen,Friesland,VBO,5.956510,52.953089
Willem Lodewijklaan,100,,,8448PK,Heerenveen,Heerenveen,Friesland,VBO,5.956554,52.953044
Willem Lodewijklaan,102,,,8448PK,Heerenveen,Heerenveen,Friesland,VBO,5.956568,52.952990
Willem Lodewijklaan,104,,,8448PK,Heerenveen,Heerenveen,Friesland,VBO,5.956597,52.952936
Willem Lodewijklaan,106,,,8448PK,Heerenveen,Heerenveen,Friesland,VBO,5.956626,52.952891
Willem Lodewijklaan,108,,,8448PK,Heerenveen,Heerenveen,Friesland,VBO,5.956641,52.952846
Willem Lodewijklaan,116,,,8448PK,Heerenveen,Heerenveen,Friesland,VBO,5.956872,52.952379
Willem Lodewijklaan,118,,,8448PK,Heerenveen,Heerenveen,Friesland,VBO,5.957016,52.952201
Willem Lodewijklaan,120,,,8448PK,Heerenveen,Heerenveen,Friesland,VBO,5.957173,52.951979
Willem Lodewijklaan,122,,,8448PK,Heerenveen,Heerenveen,Friesland,VBO,5.957314,52.951726
Willem Lodewijklaan,124,,,8448PK,Heerenveen,Heerenveen,Friesland,VBO,5.957493,52.951429
Mauritslaan,1,,,8448PL,Heerenveen,Heerenveen,Friesland,VBO,5.951378,52.958973
Mauritslaan,3,,,8448PL,Heerenveen,Heerenveen,Friesland,VBO,5.951407,52.958919
Mauritslaan,5,,,8448PL,Heerenveen,Heerenveen,Friesland,VBO,5.951495,52.958811
Mauritslaan,7,,,8448PL,Heerenveen,Heerenveen,Friesland,VBO,5.951539,52.958766
Mauritslaan,9,,,8448PL,Heerenveen,Heerenveen,Friesland,VBO,5.951627,52.958648
Mauritslaan,11,,,8448PL,Heerenveen,Heerenveen,Friesland,VBO,5.951656,52.958594
Mauritslaan,13,,,8448PL,Heerenveen,Heerenveen,Friesland,VBO,5.951744,52.958486
Mauritslaan,15,,,8448PL,Heerenveen,Heerenveen,Friesland,VBO,5.951788,52.958441
Mauritslaan,17,,,8448PL,Heerenveen,Heerenveen,Friesland,VBO,5.951876,52.958324
Mauritslaan,19,,,8448PL,Heerenveen,Heerenveen,Friesland,VBO,5.951905,52.958270
Mauritslaan,21,,,8448PL,Heerenveen,Heerenveen,Friesland,VBO,5.952256,52.957819
Mauritslaan,23,,,8448PL,Heerenveen,Heerenveen,Friesland,VBO,5.952285,52.957764
Mauritslaan,25,,,8448PL,Heerenveen,Heerenveen,Friesland,VBO,5.952358,52.957665
Mauritslaan,27,,,8448PL,Heerenveen,Heerenveen,Friesland,VBO,5.952402,52.957620
Mauritslaan,29,,,8448PL,Heerenveen,Heerenveen,Friesland,VBO,5.952475,52.957521
Mauritslaan,31,,,8448PL,Heerenveen,Heerenveen,Friesland,VBO,5.952505,52.957476
Mauritslaan,33,,,8448PL,Heerenveen,Heerenveen,Friesland,VBO,5.952578,52.957377
Mauritslaan,35,A,,8448PL,Heerenveen,Heerenveen,Friesland,VBO,5.952970,52.956840
Mauritslaan,35,,,8448PL,Heerenveen,Heerenveen,Friesland,VBO,5.952622,52.957332
Mauritslaan,37,,,8448PL,Heerenveen,Heerenveen,Friesland,VBO,5.953280,52.956412
Mauritslaan,39,,,8448PL,Heerenveen,Heerenveen,Friesland,VBO,5.953323,52.956358
Mauritslaan,41,,,8448PL,Heerenveen,Heerenveen,Friesland,VBO,5.953353,52.956322
Mauritslaan,43,,,8448PL,Heerenveen,Heerenveen,Friesland,VBO,5.953382,52.956277
Mauritslaan,45,,,8448PL,Heerenveen,Heerenveen,Friesland,VBO,5.953426,52.956231
Mauritslaan,47,,,8448PL,Heerenveen,Heerenveen,Friesland,VBO,5.953440,52.956195
Mauritslaan,49,,,8448PM,Heerenveen,Heerenveen,Friesland,VBO,5.954172,52.955378
Mauritslaan,51,,,8448PM,Heerenveen,Heerenveen,Friesland,VBO,5.954216,52.955335
Mauritslaan,53,,,8448PM,Heerenveen,Heerenveen,Friesland,VBO,5.954288,52.955234
Mauritslaan,55,,,8448PM,Heerenveen,Heerenveen,Friesland,VBO,5.954329,52.955186
Mauritslaan,57,,,8448PM,Heerenveen,Heerenveen,Friesland,VBO,5.954401,52.955092
Mauritslaan,59,,,8448PM,Heerenveen,Heerenveen,Friesland,VBO,5.954436,52.955038
Mauritslaan,61,,,8448PM,Heerenveen,Heerenveen,Friesland,VBO,5.954513,52.954939
Mauritslaan,63,,,8448PM,Heerenveen,Heerenveen,Friesland,VBO,5.954551,52.954887
Mauritslaan,65,,,8448PM,Heerenveen,Heerenveen,Friesland,VBO,5.954628,52.954791
Mauritslaan,67,,,8448PM,Heerenveen,Heerenveen,Friesland,VBO,5.954660,52.954740
Mauritslaan,69,,,8448PM,Heerenveen,Heerenveen,Friesland,VBO,5.954728,52.954641
Mauritslaan,71,,,8448PM,Heerenveen,Heerenveen,Friesland,VBO,5.954777,52.954597
Mauritslaan,73,,,8448PM,Heerenveen,Heerenveen,Friesland,VBO,5.954981,52.954517
Mauritslaan,75,,,8448PM,Heerenveen,Heerenveen,Friesland,VBO,5.955259,52.954129
Mauritslaan,77,,,8448PM,Heerenveen,Heerenveen,Friesland,VBO,5.955204,52.953951
Mauritslaan,79,,,8448PM,Heerenveen,Heerenveen,Friesland,VBO,5.955320,52.953795
Mauritslaan,81,,,8448PM,Heerenveen,Heerenveen,Friesland,VBO,5.955461,52.953640
Mauritslaan,87,,,8448PM,Heerenveen,Heerenveen,Friesland,VBO,5.955722,52.953183
Mauritslaan,89,,,8448PM,Heerenveen,Heerenveen,Friesland,VBO,5.955737,52.953147
Mauritslaan,91,,,8448PM,Heerenveen,Heerenveen,Friesland,VBO,5.955766,52.953093
Mauritslaan,93,,,8448PM,Heerenveen,Heerenveen,Friesland,VBO,5.955795,52.953039
Mauritslaan,95,,,8448PM,Heerenveen,Heerenveen,Friesland,VBO,5.955824,52.952985
Mauritslaan,97,,,8448PM,Heerenveen,Heerenveen,Friesland,VBO,5.955853,52.952931
Mauritslaan,99,,,8448PM,Heerenveen,Heerenveen,Friesland,VBO,5.955897,52.952886
Mauritslaan,101,,,8448PM,Heerenveen,Heerenveen,Friesland,VBO,5.955941,52.952841
Mauritslaan,103,,,8448PM,Heerenveen,Heerenveen,Friesland,VBO,5.955970,52.952795
Mauritslaan,105,,,8448PM,Heerenveen,Heerenveen,Friesland,VBO,5.956014,52.952750
Mauritslaan,107,,,8448PM,Heerenveen,Heerenveen,Friesland,VBO,5.956088,52.952687
Mauritslaan,115,,,8448PM,Heerenveen,Heerenveen,Friesland,VBO,5.956504,52.952293
Mauritslaan,117,,,8448PM,Heerenveen,Heerenveen,Friesland,VBO,5.956637,52.952097
Mauritslaan,119,,,8448PM,Heerenveen,Heerenveen,Friesland,VBO,5.956787,52.951901
Mauritslaan,121,,,8448PM,Heerenveen,Heerenveen,Friesland,VBO,5.957018,52.951647
Mauritslaan,123,,,8448PM,Heerenveen,Heerenveen,Friesland,VBO,5.957269,52.951367
Tammingastraat,1,,,8448PM,Heerenveen,Heerenveen,Friesland,VBO,5.956503,52.952535
Tammingastraat,2,,,8448PM,Heerenveen,Heerenveen,Friesland,VBO,5.956587,52.952664
Tammingastraat,3,,,8448PM,Heerenveen,Heerenveen,Friesland,VBO,5.956659,52.952593
Tammingastraat,4,,,8448PM,Heerenveen,Heerenveen,Friesland,VBO,5.956662,52.952533
Tammingastraat,5,,,8448PM,Heerenveen,Heerenveen,Friesland,VBO,5.956445,52.952496
Tammingastraat,6,,,8448PM,Heerenveen,Heerenveen,Friesland,VBO,5.956366,52.952573
Tammingastraat,7,,,8448PM,Heerenveen,Heerenveen,Friesland,VBO,5.956611,52.952630
Tammingastraat,8,,,8448PM,Heerenveen,Heerenveen,Friesland,VBO,5.956666,52.952562
van Aerssenstraat,1,,,8448PN,Heerenveen,Heerenveen,Friesland,VBO,5.951291,52.959162
van Aerssenstraat,2,,,8448PN,Heerenveen,Heerenveen,Friesland,VBO,5.951500,52.959215
van Aerssenstraat,3,,,8448PN,Heerenveen,Heerenveen,Friesland,VBO,5.951650,52.959295
van Aerssenstraat,4,,,8448PN,Heerenveen,Heerenveen,Friesland,VBO,5.951859,52.959312
van Aerssenstraat,5,,,8448PN,Heerenveen,Heerenveen,Friesland,VBO,5.950709,52.959048
van Aerssenstraat,6,,,8448PN,Heerenveen,Heerenveen,Friesland,VBO,5.950501,52.959004
van Aerssenstraat,7,,,8448PN,Heerenveen,Heerenveen,Friesland,VBO,5.950144,52.958918
Arnoldistraat,1,,,8448PP,Heerenveen,Heerenveen,Friesland,VBO,5.952246,52.958187
Arnoldistraat,2,,,8448PP,Heerenveen,Heerenveen,Friesland,VBO,5.952377,52.957998
Arnoldistraat,3,,,8448PP,Heerenveen,Heerenveen,Friesland,VBO,5.952440,52.958222
Arnoldistraat,4,,,8448PP,Heerenveen,Heerenveen,Friesland,VBO,5.952557,52.958042
van Berkenstraat,1,,,8448PR,Heerenveen,Heerenveen,Friesland,VBO,5.952768,52.957133
van Berkenstraat,2,,,8448PR,Heerenveen,Heerenveen,Friesland,VBO,5.952888,52.957169
van Berkenstraat,3,,,8448PR,Heerenveen,Heerenveen,Friesland,VBO,5.953007,52.957204
van Berkenstraat,4,,,8448PR,Heerenveen,Heerenveen,Friesland,VBO,5.953156,52.957194
van Berkenstraat,5,,,8448PR,Heerenveen,Heerenveen,Friesland,VBO,5.953276,52.957275
van Berkenstraat,6,,,8448PR,Heerenveen,Heerenveen,Friesland,VBO,5.953380,52.957292
van Burmaniastraat,1,,,8448PS,Heerenveen,Heerenveen,Friesland,VBO,5.953152,52.956649
van Burmaniastraat,2,,,8448PS,Heerenveen,Heerenveen,Friesland,VBO,5.953221,52.956660
van Burmaniastraat,3,,,8448PS,Heerenveen,Heerenveen,Friesland,VBO,5.953223,52.956632
van Burmaniastraat,4,,,8448PS,Heerenveen,Heerenveen,Friesland,VBO,5.953332,52.956659
van Burmaniastraat,5,,,8448PS,Heerenveen,Heerenveen,Friesland,VBO,5.953328,52.956690
van Burmaniastraat,6,,,8448PS,Heerenveen,Heerenveen,Friesland,VBO,5.953415,52.956711
van Burmaniastraat,7,,,8448PS,Heerenveen,Heerenveen,Friesland,VBO,5.953477,52.956728
van Burmaniastraat,8,,,8448PS,Heerenveen,Heerenveen,Friesland,VBO,5.953570,52.956750
van Burmaniastraat,9,,,8448PS,Heerenveen,Heerenveen,Friesland,VBO,5.953589,52.956726
van Burmaniastraat,10,,,8448PS,Heerenveen,Heerenveen,Friesland,VBO,5.953714,52.956750
van Burmaniastraat,11,,,8448PS,Heerenveen,Heerenveen,Friesland,VBO,5.953687,52.956778
van Burmaniastraat,12,,,8448PS,Heerenveen,Heerenveen,Friesland,VBO,5.953757,52.956800
Homanstraat,1,,,8448PT,Heerenveen,Heerenveen,Friesland,VBO,5.953608,52.955969
Homanstraat,2,,,8448PT,Heerenveen,Heerenveen,Friesland,VBO,5.953712,52.955992
Homanstraat,3,,,8448PT,Heerenveen,Heerenveen,Friesland,VBO,5.953609,52.956020
Homanstraat,4,,,8448PT,Heerenveen,Heerenveen,Friesland,VBO,5.953761,52.956053
Homanstraat,5,,,8448PT,Heerenveen,Heerenveen,Friesland,VBO,5.953827,52.956020
Homanstraat,6,,,8448PT,Heerenveen,Heerenveen,Friesland,VBO,5.953904,52.956040
Homanstraat,7,,,8448PT,Heerenveen,Heerenveen,Friesland,VBO,5.953982,52.956061
Homanstraat,8,,,8448PT,Heerenveen,Heerenveen,Friesland,VBO,5.954051,52.956080
Homanstraat,9,,,8448PT,Heerenveen,Heerenveen,Friesland,VBO,5.954056,52.956120
Homanstraat,10,,,8448PT,Heerenveen,Heerenveen,Friesland,VBO,5.954191,52.956153
Homanstraat,11,,,8448PT,Heerenveen,Heerenveen,Friesland,VBO,5.954182,52.956115
Homanstraat,12,,,8448PT,Heerenveen,Heerenveen,Friesland,VBO,5.954262,52.956135
Marotstraat,1,,,8448PV,Heerenveen,Heerenveen,Friesland,VBO,5.953938,52.955546
Marotstraat,2,,,8448PV,Heerenveen,Heerenveen,Friesland,VBO,5.954057,52.955581
Marotstraat,3,,,8448PV,Heerenveen,Heerenveen,Friesland,VBO,5.954192,52.955617
Marotstraat,4,,,8448PV,Heerenveen,Heerenveen,Friesland,VBO,5.954326,52.955643
Marotstraat,5,,,8448PV,Heerenveen,Heerenveen,Friesland,VBO,5.954445,52.955669
Marotstraat,6,,,8448PV,Heerenveen,Heerenveen,Friesland,VBO,5.954565,52.955714
Korporaal,1,,,8448PW,Heerenveen,Heerenveen,Friesland,VBO,5.950995,52.958713
Korporaal,2,,,8448PW,Heerenveen,Heerenveen,Friesland,VBO,5.950813,52.959030
Korporaal,3,,,8448PW,Heerenveen,Heerenveen,Friesland,VBO,5.950925,52.958686
Korporaal,4,,,8448PW,Heerenveen,Heerenveen,Friesland,VBO,5.950455,52.958941
Korporaal,5,,,8448PW,Heerenveen,Heerenveen,Friesland,VBO,5.950742,52.958637
Korporaal,6,,,8448PW,Heerenveen,Heerenveen,Friesland,VBO,5.950261,52.958888
Korporaal,7,,,8448PW,Heerenveen,Heerenveen,Friesland,VBO,5.950654,52.958612
Korporaal,9,,,8448PW,Heerenveen,Heerenveen,Friesland,VBO,5.950484,52.958567
Korporaal,11,,,8448PW,Heerenveen,Heerenveen,Friesland,VBO,5.950401,52.958547
Stadhouderlaan,30,,,8448PX,Heerenveen,Heerenveen,Friesland,VBO,5.955812,52.960062
Stadhouderlaan,32,,,8448PX,Heerenveen,Heerenveen,Friesland,VBO,5.955848,52.959996
Stadhouderlaan,46,,,8448PX,Heerenveen,Heerenveen,Friesland,VBO,5.956342,52.959215
Stadhouderlaan,48,,,8448PX,Heerenveen,Heerenveen,Friesland,VBO,5.956395,52.959134
Stadhouderlaan,50,,,8448PX,Heerenveen,Heerenveen,Friesland,VBO,5.956437,52.959069
Stadhouderlaan,52,,,8448PX,Heerenveen,Heerenveen,Friesland,VBO,5.956490,52.958989
Stadhouderlaan,54,,,8448PX,Heerenveen,Heerenveen,Friesland,VBO,5.956533,52.958925
Stadhouderlaan,56,,,8448PX,Heerenveen,Heerenveen,Friesland,VBO,5.956587,52.958844
Stadhouderlaan,58,,,8448PX,Heerenveen,Heerenveen,Friesland,VBO,5.956744,52.958606
Stadhouderlaan,60,,,8448PX,Heerenveen,Heerenveen,Friesland,VBO,5.956797,52.958525
Stadhouderlaan,62,,,8448PX,Heerenveen,Heerenveen,Friesland,VBO,5.956839,52.958461
Stadhouderlaan,64,,,8448PX,Heerenveen,Heerenveen,Friesland,VBO,5.956892,52.958380
Stadhouderlaan,66,,,8448PX,Heerenveen,Heerenveen,Friesland,VBO,5.956935,52.958316
Stadhouderlaan,68,,,8448PX,Heerenveen,Heerenveen,Friesland,VBO,5.956989,52.958235
Stadhouderlaan,70,,,8448PX,Heerenveen,Heerenveen,Friesland,VBO,5.957168,52.958024
Stadhouderlaan,72,,,8448PX,Heerenveen,Heerenveen,Friesland,VBO,5.957202,52.957973
Stadhouderlaan,74,,,8448PX,Heerenveen,Heerenveen,Friesland,VBO,5.957233,52.957927
Stadhouderlaan,76,,,8448PX,Heerenveen,Heerenveen,Friesland,VBO,5.957263,52.957880
Stadhouderlaan,78,,,8448PX,Heerenveen,Heerenveen,Friesland,VBO,5.957290,52.957831
Stadhouderlaan,80,,,8448PX,Heerenveen,Heerenveen,Friesland,VBO,5.957325,52.957785
Stadhouderlaan,82,,,8448PX,Heerenveen,Heerenveen,Friesland,VBO,5.957363,52.957738
Stadhouderlaan,84,,,8448PX,Heerenveen,Heerenveen,Friesland,VBO,5.957392,52.957685
Stadhouderlaan,86,,,8448PX,Heerenveen,Heerenveen,Friesland,VBO,5.957584,52.957448
Stadhouderlaan,88,,,8448PX,Heerenveen,Heerenveen,Friesland,VBO,5.957617,52.957402
Stadhouderlaan,92,,,8448PX,Heerenveen,Heerenveen,Friesland,VBO,5.958400,52.956092
Stadhouderlaan,182,,,8448PX,Heerenveen,Heerenveen,Friesland,VBO,5.959199,52.952949
Stadhouderlaan,184,,,8448PX,Heerenveen,Heerenveen,Friesland,VBO,5.959306,52.952931
Stadhouderlaan,186,,,8448PX,Heerenveen,Heerenveen,Friesland,VBO,5.959392,52.952912
Stadhouderlaan,188,,,8448PX,Heerenveen,Heerenveen,Friesland,VBO,5.959483,52.952886
Stadhouderlaan,190,,,8448PX,Heerenveen,Heerenveen,Friesland,VBO,5.959567,52.952863
Stadhouderlaan,192,,,8448PX,Heerenveen,Heerenveen,Friesland,VBO,5.959651,52.952841
Stadhouderlaan,194,,,8448PX,Heerenveen,Heerenveen,Friesland,VBO,5.959725,52.952806
Stadhouderlaan,196,,,8448PX,Heerenveen,Heerenveen,Friesland,VBO,5.959790,52.952766
Stadhouderlaan,198,,,8448PX,Heerenveen,Heerenveen,Friesland,VBO,5.959848,52.952725
Stadhouderlaan,200,,,8448PX,Heerenveen,Heerenveen,Friesland,VBO,5.959899,52.952678
Stadhouderlaan,202,,,8448PX,Heerenveen,Heerenveen,Friesland,VBO,5.959966,52.952633
Stadhouderlaan,204,,,8448PX,Heerenveen,Heerenveen,Friesland,VBO,5.959980,52.952577
Stadhouderlaan,206,,,8448PX,Heerenveen,Heerenveen,Friesland,VBO,5.960057,52.952532
Stadhouderlaan,208,,,8448PX,Heerenveen,Heerenveen,Friesland,VBO,5.960009,52.952474
Stadhouderlaan,210,,,8448PX,Heerenveen,Heerenveen,Friesland,VBO,5.960096,52.952424
Stadhouderlaan,212,,,8448PX,Heerenveen,Heerenveen,Friesland,VBO,5.960038,52.952369
Stadhouderlaan,214,,,8448PX,Heerenveen,Heerenveen,Friesland,VBO,5.960109,52.952305
Stadhouderlaan,216,,,8448PX,Heerenveen,Heerenveen,Friesland,VBO,5.960037,52.952251
Stadhouderlaan,218,,,8448PX,Heerenveen,Heerenveen,Friesland,VBO,5.960075,52.952191
Stadhouderlaan,220,,,8448PX,Heerenveen,Heerenveen,Friesland,VBO,5.959990,52.952150
Stadhouderlaan,222,,,8448PX,Heerenveen,Heerenveen,Friesland,VBO,5.960029,52.952071
Stadhouderlaan,224,,,8448PX,Heerenveen,Heerenveen,Friesland,VBO,5.959939,52.952049
Stadhouderlaan,226,,,8448PX,Heerenveen,Heerenveen,Friesland,VBO,5.959898,52.951993
Stadhouderlaan,1,,,8448PZ,Heerenveen,Heerenveen,Friesland,VBO,5.956167,52.960368
Stadhouderlaan,3,,,8448PZ,Heerenveen,Heerenveen,Friesland,VBO,5.956197,52.960322
Stadhouderlaan,5,,,8448PZ,Heerenveen,Heerenveen,Friesland,VBO,5.956227,52.960276
Stadhouderlaan,7,,,8448PZ,Heerenveen,Heerenveen,Friesland,VBO,5.956257,52.960231
Stadhouderlaan,9,,,8448PZ,Heerenveen,Heerenveen,Friesland,VBO,5.956286,52.960186
Stadhouderlaan,11,,,8448PZ,Heerenveen,Heerenveen,Friesland,VBO,5.956316,52.960141
Stadhouderlaan,13,,,8448PZ,Heerenveen,Heerenveen,Friesland,VBO,5.956346,52.960095
Stadhouderlaan,15,,,8448PZ,Heerenveen,Heerenveen,Friesland,VBO,5.956502,52.959925
Stadhouderlaan,17,,,8448PZ,Heerenveen,Heerenveen,Friesland,VBO,5.956545,52.959859
Stadhouderlaan,19,,,8448PZ,Heerenveen,Heerenveen,Friesland,VBO,5.956620,52.959755
Stadhouderlaan,21,,,8448PZ,Heerenveen,Heerenveen,Friesland,VBO,5.956663,52.959690
Stadhouderlaan,23,,,8448PZ,Heerenveen,Heerenveen,Friesland,VBO,5.956726,52.959583
Stadhouderlaan,25,,,8448PZ,Heerenveen,Heerenveen,Friesland,VBO,5.956770,52.959517
Stadhouderlaan,27,,,8448PZ,Heerenveen,Heerenveen,Friesland,VBO,5.956934,52.959339
Stadhouderlaan,29,,,8448PZ,Heerenveen,Heerenveen,Friesland,VBO,5.956969,52.959287
Stadhouderlaan,31,,,8448PZ,Heerenveen,Heerenveen,Friesland,VBO,5.957009,52.959228
Stadhouderlaan,33,,,8448PZ,Heerenveen,Heerenveen,Friesland,VBO,5.957046,52.959172
Stadhouderlaan,35,,,8448PZ,Heerenveen,Heerenveen,Friesland,VBO,5.957094,52.959112
Stadhouderlaan,37,,,8448PZ,Heerenveen,Heerenveen,Friesland,VBO,5.957134,52.959052
Stadhouderlaan,39,,,8448PZ,Heerenveen,Heerenveen,Friesland,VBO,5.957373,52.958693
Stadhouderlaan,41,,,8448PZ,Heerenveen,Heerenveen,Friesland,VBO,5.957410,52.958636
Stadhouderlaan,43,,,8448PZ,Heerenveen,Heerenveen,Friesland,VBO,5.957443,52.958576
Stadhouderlaan,45,,,8448PZ,Heerenveen,Heerenveen,Friesland,VBO,5.957481,52.958522
Stadhouderlaan,47,,,8448PZ,Heerenveen,Heerenveen,Friesland,VBO,5.957518,52.958460
Stadhouderlaan,49,,,8448PZ,Heerenveen,Heerenveen,Friesland,VBO,5.957561,52.958401
Stadhouderlaan,51,,,8448PZ,Heerenveen,Heerenveen,Friesland,VBO,5.957626,52.958234
Stadhouderlaan,53,,,8448PZ,Heerenveen,Heerenveen,Friesland,VBO,5.957671,52.958167
Stadhouderlaan,55,,,8448PZ,Heerenveen,Heerenveen,Friesland,VBO,5.957716,52.958062
Stadhouderlaan,57,,,8448PZ,Heerenveen,Heerenveen,Friesland,VBO,5.957747,52.958016
Stadhouderlaan,59,,,8448PZ,Heerenveen,Heerenveen,Friesland,VBO,5.957777,52.957971
Stadhouderlaan,61,,,8448PZ,Heerenveen,Heerenveen,Friesland,VBO,5.957807,52.957926
Stadhouderlaan,63,,,8448PZ,Heerenveen,Heerenveen,Friesland,VBO,5.957838,52.957881
Stadhouderlaan,65,,,8448PZ,Heerenveen,Heerenveen,Friesland,VBO,5.957915,52.957766
Stadhouderlaan,67,,,8448PZ,Heerenveen,Heerenveen,Friesland,VBO,5.957946,52.957720
Stadhouderlaan,69,,,8448PZ,Heerenveen,Heerenveen,Friesland,VBO,5.957976,52.957675
Stadhouderlaan,71,,,8448PZ,Heerenveen,Heerenveen,Friesland,VBO,5.958006,52.957630
Stadhouderlaan,73,,,8448PZ,Heerenveen,Heerenveen,Friesland,VBO,5.958037,52.957584
Domela Nieuwenhuisweg,42,,,8448RD,Heerenveen,Heerenveen,Friesland,VBO,5.943730,52.961229
Domela Nieuwenhuisweg,44,,,8448RD,Heerenveen,Heerenveen,Friesland,VBO,5.943872,52.961260
Domela Nieuwenhuisweg,46,,,8448RD,Heerenveen,Heerenveen,Friesland,VBO,5.944042,52.961295
Domela Nieuwenhuisweg,48,,,8448RD,Heerenveen,Heerenveen,Friesland,VBO,5.944173,52.961344
Domela Nieuwenhuisweg,50,,,8448RD,Heerenveen,Heerenveen,Friesland,VBO,5.944979,52.961521
Domela Nieuwenhuisweg,52,,,8448RD,Heerenveen,Heerenveen,Friesland,VBO,5.945058,52.961544
Domela Nieuwenhuisweg,54,,,8448RD,Heerenveen,Heerenveen,Friesland,VBO,5.945128,52.961565
Domela Nieuwenhuisweg,56,,,8448RD,Heerenveen,Heerenveen,Friesland,VBO,5.945189,52.961588
Domela Nieuwenhuisweg,58,,,8448RD,Heerenveen,Heerenveen,Friesland,VBO,5.945257,52.961615
Domela Nieuwenhuisweg,60,,,8448RD,Heerenveen,Heerenveen,Friesland,VBO,5.945324,52.961637
Domela Nieuwenhuisweg,62,,,8448RD,Heerenveen,Heerenveen,Friesland,VBO,5.945396,52.961658
Domela Nieuwenhuisweg,64,,,8448RD,Heerenveen,Heerenveen,Friesland,VBO,5.947741,52.962475
Domela Nieuwenhuisweg,66,,,8448RD,Heerenveen,Heerenveen,Friesland,VBO,5.947824,52.962496
Domela Nieuwenhuisweg,68,,,8448RD,Heerenveen,Heerenveen,Friesland,VBO,5.947889,52.962519
Domela Nieuwenhuisweg,70,,,8448RD,Heerenveen,Heerenveen,Friesland,VBO,5.947956,52.962542
Domela Nieuwenhuisweg,72,,,8448RD,Heerenveen,Heerenveen,Friesland,VBO,5.948013,52.962569
Anna Giezenweg,22,,,8448RE,Heerenveen,Heerenveen,Friesland,VBO,5.945473,52.959305
Anna Giezenweg,23,,,8448RE,Heerenveen,Heerenveen,Friesland,VBO,5.945580,52.959344
Anna Giezenweg,24,,,8448RE,Heerenveen,Heerenveen,Friesland,VBO,5.945742,52.959397
Anna Giezenweg,25,,,8448RE,Heerenveen,Heerenveen,Friesland,VBO,5.945862,52.959446
Anna Giezenweg,26,,,8448RE,Heerenveen,Heerenveen,Friesland,VBO,5.946466,52.959660
Anna Giezenweg,27,,,8448RE,Heerenveen,Heerenveen,Friesland,VBO,5.946536,52.959688
Anna Giezenweg,28,,,8448RE,Heerenveen,Heerenveen,Friesland,VBO,5.946629,52.959720
Anna Giezenweg,29,,,8448RE,Heerenveen,Heerenveen,Friesland,VBO,5.946716,52.959741
Anna Giezenweg,30,,,8448RE,Heerenveen,Heerenveen,Friesland,VBO,5.946666,52.959800
Anna Giezenweg,31,,,8448RE,Heerenveen,Heerenveen,Friesland,VBO,5.946850,52.959862
Anna Giezenweg,32,,,8448RE,Heerenveen,Heerenveen,Friesland,VBO,5.946908,52.959805
Anna Giezenweg,33,,,8448RE,Heerenveen,Heerenveen,Friesland,VBO,5.946989,52.959835
Anna Giezenweg,34,,,8448RE,Heerenveen,Heerenveen,Friesland,VBO,5.947069,52.959870
Anna Giezenweg,35,,,8448RE,Heerenveen,Heerenveen,Friesland,VBO,5.947170,52.959878
Trui Jentinkweg,1,,,8448RG,Heerenveen,Heerenveen,Friesland,VBO,5.942399,52.964256
Trui Jentinkweg,2,,,8448RG,Heerenveen,Heerenveen,Friesland,VBO,5.942636,52.964303
Trui Jentinkweg,3,,,8448RG,Heerenveen,Heerenveen,Friesland,VBO,5.942852,52.964368
Trui Jentinkweg,4,,,8448RG,Heerenveen,Heerenveen,Friesland,VBO,5.943031,52.964455
Tjeerd Stienstraweg,1,,,8448RH,Heerenveen,Heerenveen,Friesland,VBO,5.943848,52.961016
Tjeerd Stienstraweg,3,,,8448RH,Heerenveen,Heerenveen,Friesland,VBO,5.943888,52.960956
Tjeerd Stienstraweg,5,,,8448RH,Heerenveen,Heerenveen,Friesland,VBO,5.943979,52.960849
Tjeerd Stienstraweg,7,,,8448RH,Heerenveen,Heerenveen,Friesland,VBO,5.944028,52.960792
Tjeerd Stienstraweg,9,,,8448RH,Heerenveen,Heerenveen,Friesland,VBO,5.944126,52.960687
Tjeerd Stienstraweg,11,,,8448RH,Heerenveen,Heerenveen,Friesland,VBO,5.944183,52.960634
Tjeerd Stienstraweg,13,,,8448RH,Heerenveen,Heerenveen,Friesland,VBO,5.944272,52.960524
Tjeerd Stienstraweg,15,,,8448RH,Heerenveen,Heerenveen,Friesland,VBO,5.944326,52.960471
Tjeerd Stienstraweg,17,,,8448RH,Heerenveen,Heerenveen,Friesland,VBO,5.944419,52.960364
Tjeerd Stienstraweg,19,,,8448RH,Heerenveen,Heerenveen,Friesland,VBO,5.944470,52.960310
Tjeerd Stienstraweg,21,,,8448RH,Heerenveen,Heerenveen,Friesland,VBO,5.944606,52.960158
Tjeerd Stienstraweg,23,,,8448RH,Heerenveen,Heerenveen,Friesland,VBO,5.944653,52.960101
Tjeerd Stienstraweg,25,,,8448RH,Heerenveen,Heerenveen,Friesland,VBO,5.944752,52.959995
Tjeerd Stienstraweg,27,,,8448RH,Heerenveen,Heerenveen,Friesland,VBO,5.944806,52.959940
Tjeerd Stienstraweg,29,,,8448RH,Heerenveen,Heerenveen,Friesland,VBO,5.944899,52.959830
Tjeerd Stienstraweg,31,,,8448RH,Heerenveen,Heerenveen,Friesland,VBO,5.944944,52.959774
Tjeerd Stienstraweg,33,,,8448RH,Heerenveen,Heerenveen,Friesland,VBO,5.945038,52.959669
Tjeerd Stienstraweg,35,,,8448RH,Heerenveen,Heerenveen,Friesland,VBO,5.945095,52.959615
Tjeerd Stienstraweg,37,,,8448RH,Heerenveen,Heerenveen,Friesland,VBO,5.945190,52.959507
Tjeerd Stienstraweg,39,,,8448RH,Heerenveen,Heerenveen,Friesland,VBO,5.945238,52.959451
Rindert van Zinderen Bakkerweg,1,,,8448RJ,Heerenveen,Heerenveen,Friesland,VBO,5.941609,52.963888
Rindert van Zinderen Bakkerweg,2,,,8448RJ,Heerenveen,Heerenveen,Friesland,VBO,5.941664,52.963831
Rindert van Zinderen Bakkerweg,3,,,8448RJ,Heerenveen,Heerenveen,Friesland,VBO,5.941839,52.963629
Rindert van Zinderen Bakkerweg,4,,,8448RJ,Heerenveen,Heerenveen,Friesland,VBO,5.941892,52.963571
Rindert van Zinderen Bakkerweg,5,,,8448RJ,Heerenveen,Heerenveen,Friesland,VBO,5.942076,52.963365
Rindert van Zinderen Bakkerweg,6,,,8448RJ,Heerenveen,Heerenveen,Friesland,VBO,5.942134,52.963309
Rindert van Zinderen Bakkerweg,7,,,8448RJ,Heerenveen,Heerenveen,Friesland,VBO,5.942329,52.963068
Rindert van Zinderen Bakkerweg,8,,,8448RJ,Heerenveen,Heerenveen,Friesland,VBO,5.942388,52.963014
Rindert van Zinderen Bakkerweg,9,,,8448RJ,Heerenveen,Heerenveen,Friesland,VBO,5.942575,52.962810
Rindert van Zinderen Bakkerweg,10,,,8448RJ,Heerenveen,Heerenveen,Friesland,VBO,5.942645,52.962741
Rindert van Zinderen Bakkerweg,11,,,8448RJ,Heerenveen,Heerenveen,Friesland,VBO,5.942808,52.962547
Rindert van Zinderen Bakkerweg,12,,,8448RJ,Heerenveen,Heerenveen,Friesland,VBO,5.942867,52.962485
Rindert van Zinderen Bakkerweg,13,,,8448RJ,Heerenveen,Heerenveen,Friesland,VBO,5.943078,52.962244
Rindert van Zinderen Bakkerweg,14,,,8448RJ,Heerenveen,Heerenveen,Friesland,VBO,5.943257,52.962043
Rindert van Zinderen Bakkerweg,15,,,8448RJ,Heerenveen,Heerenveen,Friesland,VBO,5.943317,52.961980
Rindert van Zinderen Bakkerweg,16,,,8448RJ,Heerenveen,Heerenveen,Friesland,VBO,5.943495,52.961775
Rindert van Zinderen Bakkerweg,17,,,8448RJ,Heerenveen,Heerenveen,Friesland,VBO,5.943537,52.961723
Oebele Stellingwerfweg,1,,,8448RK,Heerenveen,Heerenveen,Friesland,VBO,5.942574,52.964037
Oebele Stellingwerfweg,2,,,8448RK,Heerenveen,Heerenveen,Friesland,VBO,5.942617,52.963988
Oebele Stellingwerfweg,3,,,8448RK,Heerenveen,Heerenveen,Friesland,VBO,5.942759,52.963871
Oebele Stellingwerfweg,4,,,8448RK,Heerenveen,Heerenveen,Friesland,VBO,5.942817,52.963807
Oebele Stellingwerfweg,5,,,8448RK,Heerenveen,Heerenveen,Friesland,VBO,5.942884,52.963674
Oebele Stellingwerfweg,6,,,8448RK,Heerenveen,Heerenveen,Friesland,VBO,5.942934,52.963624
Oebele Stellingwerfweg,7,,,8448RK,Heerenveen,Heerenveen,Friesland,VBO,5.943055,52.963487
Oebele Stellingwerfweg,8,,,8448RK,Heerenveen,Heerenveen,Friesland,VBO,5.943107,52.963441
Oebele Stellingwerfweg,9,,,8448RK,Heerenveen,Heerenveen,Friesland,VBO,5.943232,52.963311
Oebele Stellingwerfweg,10,A,,8448RK,Heerenveen,Heerenveen,Friesland,VBO,5.943310,52.963223
Oebele Stellingwerfweg,10,,,8448RK,Heerenveen,Heerenveen,Friesland,VBO,5.943271,52.963267
Oebele Stellingwerfweg,11,,,8448RK,Heerenveen,Heerenveen,Friesland,VBO,5.943387,52.963119
Oebele Stellingwerfweg,12,,,8448RK,Heerenveen,Heerenveen,Friesland,VBO,5.943435,52.963079
Oebele Stellingwerfweg,13,,,8448RK,Heerenveen,Heerenveen,Friesland,VBO,5.943469,52.963035
Oebele Stellingwerfweg,14,,,8448RK,Heerenveen,Heerenveen,Friesland,VBO,5.943503,52.962995
Oebele Stellingwerfweg,15,,,8448RK,Heerenveen,Heerenveen,Friesland,VBO,5.943534,52.962953
Oebele Stellingwerfweg,16,,,8448RK,Heerenveen,Heerenveen,Friesland,VBO,5.943578,52.962907
Oebele Stellingwerfweg,17,,,8448RK,Heerenveen,Heerenveen,Friesland,VBO,5.943620,52.962865
Oebele Stellingwerfweg,18,,,8448RK,Heerenveen,Heerenveen,Friesland,VBO,5.943713,52.962771
Oebele Stellingwerfweg,19,,,8448RK,Heerenveen,Heerenveen,Friesland,VBO,5.943752,52.962728
Oebele Stellingwerfweg,20,,,8448RK,Heerenveen,Heerenveen,Friesland,VBO,5.943791,52.962684
Oebele Stellingwerfweg,21,,,8448RK,Heerenveen,Heerenveen,Friesland,VBO,5.943934,52.962556
Oebele Stellingwerfweg,22,,,8448RK,Heerenveen,Heerenveen,Friesland,VBO,5.943992,52.962491
Oebele Stellingwerfweg,23,,,8448RK,Heerenveen,Heerenveen,Friesland,VBO,5.944102,52.962367
Oebele Stellingwerfweg,24,,,8448RK,Heerenveen,Heerenveen,Friesland,VBO,5.944160,52.962303
Oebele Stellingwerfweg,25,,,8448RK,Heerenveen,Heerenveen,Friesland,VBO,5.944270,52.962179
Oebele Stellingwerfweg,26,,,8448RK,Heerenveen,Heerenveen,Friesland,VBO,5.944328,52.962114
Geert van der Zwaagweg,1,,,8448RL,Heerenveen,Heerenveen,Friesland,VBO,5.941732,52.964031
Geert van der Zwaagweg,2,,,8448RL,Heerenveen,Heerenveen,Friesland,VBO,5.941914,52.963819
Geert van der Zwaagweg,3,,,8448RL,Heerenveen,Heerenveen,Friesland,VBO,5.941966,52.963761
Geert van der Zwaagweg,4,,,8448RL,Heerenveen,Heerenveen,Friesland,VBO,5.942146,52.963557
Geert van der Zwaagweg,5,,,8448RL,Heerenveen,Heerenveen,Friesland,VBO,5.942198,52.963500
Geert van der Zwaagweg,6,,,8448RL,Heerenveen,Heerenveen,Friesland,VBO,5.942378,52.963297
Geert van der Zwaagweg,7,,,8448RL,Heerenveen,Heerenveen,Friesland,VBO,5.942644,52.963001
Geert van der Zwaagweg,8,,,8448RL,Heerenveen,Heerenveen,Friesland,VBO,5.942700,52.962941
Geert van der Zwaagweg,9,,,8448RL,Heerenveen,Heerenveen,Friesland,VBO,5.942876,52.962737
Geert van der Zwaagweg,10,,,8448RL,Heerenveen,Heerenveen,Friesland,VBO,5.942943,52.962674
Geert van der Zwaagweg,11,,,8448RL,Heerenveen,Heerenveen,Friesland,VBO,5.943118,52.962469
Geert van der Zwaagweg,12,,,8448RL,Heerenveen,Heerenveen,Friesland,VBO,5.943338,52.962223
Geert van der Zwaagweg,13,,,8448RL,Heerenveen,Heerenveen,Friesland,VBO,5.943382,52.962174
Geert van der Zwaagweg,14,,,8448RL,Heerenveen,Heerenveen,Friesland,VBO,5.943571,52.961965
Geert van der Zwaagweg,15,,,8448RL,Heerenveen,Heerenveen,Friesland,VBO,5.943616,52.961913
Geert van der Zwaagweg,16,,,8448RL,Heerenveen,Heerenveen,Friesland,VBO,5.943816,52.961713
Geert van der Zwaagweg,17,,,8448RM,Heerenveen,Heerenveen,Friesland,VBO,5.944323,52.961192
Geert van der Zwaagweg,18,,,8448RM,Heerenveen,Heerenveen,Friesland,VBO,5.944393,52.961110
Geert van der Zwaagweg,19,,,8448RM,Heerenveen,Heerenveen,Friesland,VBO,5.944460,52.961026
Geert van der Zwaagweg,20,,,8448RM,Heerenveen,Heerenveen,Friesland,VBO,5.944535,52.960948
Geert van der Zwaagweg,21,,,8448RM,Heerenveen,Heerenveen,Friesland,VBO,5.944588,52.960861
Geert van der Zwaagweg,22,,,8448RM,Heerenveen,Heerenveen,Friesland,VBO,5.944672,52.960786
Geert van der Zwaagweg,23,,,8448RM,Heerenveen,Heerenveen,Friesland,VBO,5.944746,52.960707
Geert van der Zwaagweg,24,,,8448RM,Heerenveen,Heerenveen,Friesland,VBO,5.944820,52.960632
Geert van der Zwaagweg,25,,,8448RM,Heerenveen,Heerenveen,Friesland,VBO,5.944885,52.960554
Geert van der Zwaagweg,26,,,8448RM,Heerenveen,Heerenveen,Friesland,VBO,5.944965,52.960466
Geert van der Zwaagweg,27,,,8448RM,Heerenveen,Heerenveen,Friesland,VBO,5.945097,52.960308
Geert van der Zwaagweg,28,,,8448RM,Heerenveen,Heerenveen,Friesland,VBO,5.945166,52.960227
Geert van der Zwaagweg,29,,,8448RM,Heerenveen,Heerenveen,Friesland,VBO,5.945236,52.960147
Geert van der Zwaagweg,30,,,8448RM,Heerenveen,Heerenveen,Friesland,VBO,5.945307,52.960068
Geert van der Zwaagweg,31,,,8448RM,Heerenveen,Heerenveen,Friesland,VBO,5.945361,52.959988
Geert van der Zwaagweg,32,,,8448RM,Heerenveen,Heerenveen,Friesland,VBO,5.945429,52.959906
Geert van der Zwaagweg,33,,,8448RM,Heerenveen,Heerenveen,Friesland,VBO,5.945514,52.959834
Geert van der Zwaagweg,34,,,8448RM,Heerenveen,Heerenveen,Friesland,VBO,5.945587,52.959753
Geert van der Zwaagweg,35,,,8448RM,Heerenveen,Heerenveen,Friesland,VBO,5.945659,52.959668
Geert van der Zwaagweg,36,,,8448RM,Heerenveen,Heerenveen,Friesland,VBO,5.945725,52.959598
Oebele Stellingwerfweg,31,,,8448RN,Heerenveen,Heerenveen,Friesland,VBO,5.944836,52.961475
Oebele Stellingwerfweg,32,,,8448RN,Heerenveen,Heerenveen,Friesland,VBO,5.944892,52.961405
Oebele Stellingwerfweg,33,,,8448RN,Heerenveen,Heerenveen,Friesland,VBO,5.945076,52.961294
Oebele Stellingwerfweg,34,,,8448RN,Heerenveen,Heerenveen,Friesland,VBO,5.945131,52.961249
Oebele Stellingwerfweg,35,,,8448RN,Heerenveen,Heerenveen,Friesland,VBO,5.945148,52.961140
Oebele Stellingwerfweg,36,,,8448RN,Heerenveen,Heerenveen,Friesland,VBO,5.945182,52.961095
Oebele Stellingwerfweg,37,,,8448RN,Heerenveen,Heerenveen,Friesland,VBO,5.945266,52.961004
Oebele Stellingwerfweg,38,,,8448RN,Heerenveen,Heerenveen,Friesland,VBO,5.945300,52.960960
Oebele Stellingwerfweg,39,,,8448RN,Heerenveen,Heerenveen,Friesland,VBO,5.945390,52.960870
Oebele Stellingwerfweg,40,,,8448RN,Heerenveen,Heerenveen,Friesland,VBO,5.945447,52.960818
Oebele Stellingwerfweg,41,,,8448RN,Heerenveen,Heerenveen,Friesland,VBO,5.945470,52.960770
Oebele Stellingwerfweg,42,,,8448RN,Heerenveen,Heerenveen,Friesland,VBO,5.945528,52.960717
Oebele Stellingwerfweg,43,,,8448RN,Heerenveen,Heerenveen,Friesland,VBO,5.945568,52.960668
Oebele Stellingwerfweg,44,,,8448RN,Heerenveen,Heerenveen,Friesland,VBO,5.945606,52.960624
Oebele Stellingwerfweg,45,,,8448RN,Heerenveen,Heerenveen,Friesland,VBO,5.945715,52.960508
Oebele Stellingwerfweg,46,,,8448RN,Heerenveen,Heerenveen,Friesland,VBO,5.945752,52.960458
Oebele Stellingwerfweg,47,,,8448RN,Heerenveen,Heerenveen,Friesland,VBO,5.945808,52.960407
Oebele Stellingwerfweg,48,,,8448RN,Heerenveen,Heerenveen,Friesland,VBO,5.945850,52.960361
Oebele Stellingwerfweg,49,,,8448RN,Heerenveen,Heerenveen,Friesland,VBO,5.945896,52.960306
Oebele Stellingwerfweg,50,,,8448RN,Heerenveen,Heerenveen,Friesland,VBO,5.945944,52.960264
Oebele Stellingwerfweg,51,,,8448RN,Heerenveen,Heerenveen,Friesland,VBO,5.946071,52.960181
Oebele Stellingwerfweg,52,,,8448RN,Heerenveen,Heerenveen,Friesland,VBO,5.946115,52.960142
Oebele Stellingwerfweg,53,,,8448RN,Heerenveen,Heerenveen,Friesland,VBO,5.946197,52.960047
Oebele Stellingwerfweg,54,,,8448RN,Heerenveen,Heerenveen,Friesland,VBO,5.946239,52.960003
Oebele Stellingwerfweg,55,,,8448RN,Heerenveen,Heerenveen,Friesland,VBO,5.946312,52.959916
Oebele Stellingwerfweg,56,,,8448RN,Heerenveen,Heerenveen,Friesland,VBO,5.946364,52.959871
Oebele Stellingwerfweg,57,,,8448RN,Heerenveen,Heerenveen,Friesland,VBO,5.946409,52.959722
Schoterplein,1,,,8448RP,Heerenveen,Heerenveen,Friesland,VBO,5.948525,52.959228
Schoterplein,2,,,8448RP,Heerenveen,Heerenveen,Friesland,VBO,5.948156,52.959192
Schoterplein,3,,,8448RP,Heerenveen,Heerenveen,Friesland,VBO,5.947773,52.959129
Schoterplein,4,,,8448RP,Heerenveen,Heerenveen,Friesland,VBO,5.948446,52.959338
Schoterplein,5,,,8448RP,Heerenveen,Heerenveen,Friesland,VBO,5.948465,52.959586
Schoterplein,8,,,8448RP,Heerenveen,Heerenveen,Friesland,VBO,5.948482,52.959196
Schoterplein,9,,,8448RP,Heerenveen,Heerenveen,Friesland,VBO,5.948447,52.959274
Schoterplein,10,,,8448RP,Heerenveen,Heerenveen,Friesland,VBO,5.948404,52.959332
Schoterplein,11,,,8448RP,Heerenveen,Heerenveen,Friesland,VBO,5.948354,52.959423
Schoterplein,12,,,8448RP,Heerenveen,Heerenveen,Friesland,VBO,5.948412,52.959499
Schoterplein,13,,,8448RP,Heerenveen,Heerenveen,Friesland,VBO,5.948406,52.959587
Schoterplein,14,,,8448RP,Heerenveen,Heerenveen,Friesland,VBO,5.948461,52.959662
Schoterplein,15,,,8448RP,Heerenveen,Heerenveen,Friesland,VBO,5.948553,52.959192
Schoterplein,16,,,8448RP,Heerenveen,Heerenveen,Friesland,VBO,5.948532,52.959288
Schoterplein,17,,,8448RP,Heerenveen,Heerenveen,Friesland,VBO,5.948524,52.959360
Schoterplein,18,,,8448RP,Heerenveen,Heerenveen,Friesland,VBO,5.948429,52.959443
Schoterplein,19,,,8448RP,Heerenveen,Heerenveen,Friesland,VBO,5.948483,52.959495
Schoterplein,20,,,8448RP,Heerenveen,Heerenveen,Friesland,VBO,5.948481,52.959552
Schoterplein,21,,,8448RP,Heerenveen,Heerenveen,Friesland,VBO,5.948523,52.959661
Schoterplein,22,,,8448RP,Heerenveen,Heerenveen,Friesland,VBO,5.948611,52.959234
Schoterplein,23,,,8448RP,Heerenveen,Heerenveen,Friesland,VBO,5.948439,52.959402
Schoterplein,24,,,8448RP,Heerenveen,Heerenveen,Friesland,VBO,5.948196,52.959479
Schoterplein,25,,,8448RP,Heerenveen,Heerenveen,Friesland,VBO,5.948201,52.959551
Schoterplein,26,,,8448RP,Heerenveen,Heerenveen,Friesland,VBO,5.948515,52.959628
Schoterplein,27,,,8448RP,Heerenveen,Heerenveen,Friesland,VBO,5.948872,52.959709
Schoterplein,28,,,8448RP,Heerenveen,Heerenveen,Friesland,VBO,5.949328,52.960017
Schoterplein,29,,,8448RP,Heerenveen,Heerenveen,Friesland,VBO,5.949775,52.959750
Schoterplein,30,,,8448RP,Heerenveen,Heerenveen,Friesland,VBO,5.949524,52.959536
Schoterplein,31,,,8448RP,Heerenveen,Heerenveen,Friesland,VBO,5.949451,52.959606
Schoterplein,32,,,8448RP,Heerenveen,Heerenveen,Friesland,VBO,5.949369,52.959666
Schoterplein,33,,,8448RP,Heerenveen,Heerenveen,Friesland,VBO,5.949273,52.959720
Schoterplein,34,,,8448RP,Heerenveen,Heerenveen,Friesland,VBO,5.949166,52.959765
Schoterplein,35,,,8448RP,Heerenveen,Heerenveen,Friesland,VBO,5.949046,52.959797
Schoterplein,36,,,8448RP,Heerenveen,Heerenveen,Friesland,VBO,5.948903,52.959817
Schoterplein,37,,,8448RP,Heerenveen,Heerenveen,Friesland,VBO,5.949459,52.959521
Schoterplein,38,,,8448RP,Heerenveen,Heerenveen,Friesland,VBO,5.949419,52.959579
Schoterplein,39,,,8448RP,Heerenveen,Heerenveen,Friesland,VBO,5.949338,52.959638
Schoterplein,40,,,8448RP,Heerenveen,Heerenveen,Friesland,VBO,5.949249,52.959694
Schoterplein,41,,,8448RP,Heerenveen,Heerenveen,Friesland,VBO,5.949135,52.959733
Schoterplein,42,,,8448RP,Heerenveen,Heerenveen,Friesland,VBO,5.949026,52.959762
Schoterplein,43,,,8448RP,Heerenveen,Heerenveen,Friesland,VBO,5.948897,52.959782
Schoterplein,44,,,8448RP,Heerenveen,Heerenveen,Friesland,VBO,5.949564,52.959473
Schoterplein,45,,,8448RP,Heerenveen,Heerenveen,Friesland,VBO,5.950087,52.959266
Schoterplein,46,,,8448RP,Heerenveen,Heerenveen,Friesland,VBO,5.949801,52.959391
Schoterplein,47,,,8448RP,Heerenveen,Heerenveen,Friesland,VBO,5.949629,52.959200
Schoterplein,48,,,8448RP,Heerenveen,Heerenveen,Friesland,VBO,5.949511,52.959242
Schoterplein,49,,,8448RP,Heerenveen,Heerenveen,Friesland,VBO,5.949461,52.959301
Schoterplein,50,,,8448RP,Heerenveen,Heerenveen,Friesland,VBO,5.949800,52.959302
Jelmersmeer,1,,,8448RR,Heerenveen,Heerenveen,Friesland,VBO,5.946650,52.959265
Jelmersmeer,2,,,8448RR,Heerenveen,Heerenveen,Friesland,VBO,5.946694,52.959220
Jelmersmeer,3,,,8448RR,Heerenveen,Heerenveen,Friesland,VBO,5.946723,52.959175
Jelmersmeer,4,,,8448RR,Heerenveen,Heerenveen,Friesland,VBO,5.946767,52.959120
Jelmersmeer,5,,,8448RR,Heerenveen,Heerenveen,Friesland,VBO,5.946811,52.959084
Jelmersmeer,6,,,8448RR,Heerenveen,Heerenveen,Friesland,VBO,5.946855,52.959039
Jelmersmeer,7,,,8448RR,Heerenveen,Heerenveen,Friesland,VBO,5.946973,52.958922
Jelmersmeer,8,,,8448RR,Heerenveen,Heerenveen,Friesland,VBO,5.947017,52.958877
Jelmersmeer,9,,,8448RR,Heerenveen,Heerenveen,Friesland,VBO,5.947061,52.958823
Jelmersmeer,10,,,8448RR,Heerenveen,Heerenveen,Friesland,VBO,5.947090,52.958786
Jelmersmeer,11,,,8448RR,Heerenveen,Heerenveen,Friesland,VBO,5.947134,52.958741
Jelmersmeer,12,,,8448RR,Heerenveen,Heerenveen,Friesland,VBO,5.947178,52.958696
Luytkemeer,1,,,8448RS,Heerenveen,Heerenveen,Friesland,VBO,5.945624,52.958904
Luytkemeer,2,,,8448RS,Heerenveen,Heerenveen,Friesland,VBO,5.945664,52.958863
Luytkemeer,3,,,8448RS,Heerenveen,Heerenveen,Friesland,VBO,5.945698,52.958820
Luytkemeer,4,,,8448RS,Heerenveen,Heerenveen,Friesland,VBO,5.945741,52.958779
Luytkemeer,5,,,8448RS,Heerenveen,Heerenveen,Friesland,VBO,5.945778,52.958733
Luytkemeer,6,,,8448RS,Heerenveen,Heerenveen,Friesland,VBO,5.945931,52.958982
Luytkemeer,7,,,8448RS,Heerenveen,Heerenveen,Friesland,VBO,5.946008,52.959001
Luytkemeer,8,,,8448RS,Heerenveen,Heerenveen,Friesland,VBO,5.946075,52.959023
Luytkemeer,9,,,8448RS,Heerenveen,Heerenveen,Friesland,VBO,5.946147,52.959047
Luytkemeer,10,,,8448RS,Heerenveen,Heerenveen,Friesland,VBO,5.946220,52.959073
Luytkemeer,11,,,8448RS,Heerenveen,Heerenveen,Friesland,VBO,5.946282,52.959093
Luytkemeer,12,,,8448RS,Heerenveen,Heerenveen,Friesland,VBO,5.946355,52.959117
Luytkemeer,13,,,8448RS,Heerenveen,Heerenveen,Friesland,VBO,5.946821,52.958639
Luytkemeer,14,,,8448RS,Heerenveen,Heerenveen,Friesland,VBO,5.946751,52.958615
Luytkemeer,15,,,8448RS,Heerenveen,Heerenveen,Friesland,VBO,5.946682,52.958593
Luytkemeer,16,,,8448RS,Heerenveen,Heerenveen,Friesland,VBO,5.946615,52.958571
Luytkemeer,17,,,8448RS,Heerenveen,Heerenveen,Friesland,VBO,5.946547,52.958540
Luytkemeer,18,,,8448RS,Heerenveen,Heerenveen,Friesland,VBO,5.946474,52.958524
Luytkemeer,19,,,8448RS,Heerenveen,Heerenveen,Friesland,VBO,5.946400,52.958495
Luytkemeer,20,,,8448RS,Heerenveen,Heerenveen,Friesland,VBO,5.945966,52.958541
Luytkemeer,21,,,8448RS,Heerenveen,Heerenveen,Friesland,VBO,5.946014,52.958497
Luytkemeer,22,,,8448RS,Heerenveen,Heerenveen,Friesland,VBO,5.946046,52.958452
Luytkemeer,23,,,8448RS,Heerenveen,Heerenveen,Friesland,VBO,5.946087,52.958414
Luytkemeer,24,,,8448RS,Heerenveen,Heerenveen,Friesland,VBO,5.946128,52.958368
Yme Kuiperweg,5,,,8448RT,Heerenveen,Heerenveen,Friesland,VBO,5.943254,52.964250
Yme Kuiperweg,6,A,,8448RT,Heerenveen,Heerenveen,Friesland,VBO,5.943420,52.964067
Yme Kuiperweg,6,,,8448RT,Heerenveen,Heerenveen,Friesland,VBO,5.943307,52.964188
Yme Kuiperweg,7,,,8448RT,Heerenveen,Heerenveen,Friesland,VBO,5.943471,52.964010
Yme Kuiperweg,8,,,8448RT,Heerenveen,Heerenveen,Friesland,VBO,5.943577,52.963893
Yme Kuiperweg,9,,,8448RT,Heerenveen,Heerenveen,Friesland,VBO,5.943628,52.963836
Yme Kuiperweg,10,,,8448RT,Heerenveen,Heerenveen,Friesland,VBO,5.943734,52.963718
Yme Kuiperweg,11,,,8448RT,Heerenveen,Heerenveen,Friesland,VBO,5.943785,52.963661
Yme Kuiperweg,12,,,8448RT,Heerenveen,Heerenveen,Friesland,VBO,5.943935,52.963493
Yme Kuiperweg,13,,,8448RT,Heerenveen,Heerenveen,Friesland,VBO,5.943986,52.963436
Yme Kuiperweg,14,,,8448RT,Heerenveen,Heerenveen,Friesland,VBO,5.944083,52.963348
Yme Kuiperweg,15,,,8448RT,Heerenveen,Heerenveen,Friesland,VBO,5.944127,52.963303
Yme Kuiperweg,16,,,8448RT,Heerenveen,Heerenveen,Friesland,VBO,5.944156,52.963257
Yme Kuiperweg,17,,,8448RT,Heerenveen,Heerenveen,Friesland,VBO,5.944200,52.963221
Yme Kuiperweg,18,,,8448RT,Heerenveen,Heerenveen,Friesland,VBO,5.944229,52.963176
Yme Kuiperweg,19,,,8448RT,Heerenveen,Heerenveen,Friesland,VBO,5.944288,52.963131
Yme Kuiperweg,20,,,8448RT,Heerenveen,Heerenveen,Friesland,VBO,5.944317,52.963086
Yme Kuiperweg,21,,,8448RT,Heerenveen,Heerenveen,Friesland,VBO,5.944391,52.963022
Yme Kuiperweg,22,,,8448RT,Heerenveen,Heerenveen,Friesland,VBO,5.944430,52.962940
Yme Kuiperweg,23,,,8448RT,Heerenveen,Heerenveen,Friesland,VBO,5.944581,52.962781
Yme Kuiperweg,24,,,8448RT,Heerenveen,Heerenveen,Friesland,VBO,5.944636,52.962722
Yme Kuiperweg,25,,,8448RT,Heerenveen,Heerenveen,Friesland,VBO,5.944754,52.962587
Yme Kuiperweg,26,,,8448RT,Heerenveen,Heerenveen,Friesland,VBO,5.944807,52.962528
Yme Kuiperweg,27,,,8448RT,Heerenveen,Heerenveen,Friesland,VBO,5.944927,52.962399
Yme Kuiperweg,28,,,8448RT,Heerenveen,Heerenveen,Friesland,VBO,5.944974,52.962343
Yme Kuiperweg,31,,,8448RT,Heerenveen,Heerenveen,Friesland,VBO,5.945526,52.961717
Yme Kuiperweg,32,,,8448RT,Heerenveen,Heerenveen,Friesland,VBO,5.945612,52.961619
Yme Kuiperweg,33,,,8448RT,Heerenveen,Heerenveen,Friesland,VBO,5.945678,52.961484
Yme Kuiperweg,34,,,8448RT,Heerenveen,Heerenveen,Friesland,VBO,5.945726,52.961442
Yme Kuiperweg,35,,,8448RT,Heerenveen,Heerenveen,Friesland,VBO,5.945800,52.961355
Yme Kuiperweg,36,,,8448RT,Heerenveen,Heerenveen,Friesland,VBO,5.945844,52.961309
Yme Kuiperweg,37,,,8448RT,Heerenveen,Heerenveen,Friesland,VBO,5.945921,52.961222
Yme Kuiperweg,38,,,8448RT,Heerenveen,Heerenveen,Friesland,VBO,5.945949,52.961179
Yme Kuiperweg,39,,,8448RT,Heerenveen,Heerenveen,Friesland,VBO,5.946062,52.961092
Yme Kuiperweg,40,,,8448RT,Heerenveen,Heerenveen,Friesland,VBO,5.946127,52.961042
Yme Kuiperweg,41,,,8448RT,Heerenveen,Heerenveen,Friesland,VBO,5.946167,52.961004
Yme Kuiperweg,42,,,8448RT,Heerenveen,Heerenveen,Friesland,VBO,5.946216,52.960943
Yme Kuiperweg,43,,,8448RT,Heerenveen,Heerenveen,Friesland,VBO,5.946253,52.960900
Yme Kuiperweg,44,,,8448RT,Heerenveen,Heerenveen,Friesland,VBO,5.946281,52.960829
Yme Kuiperweg,45,,,8448RT,Heerenveen,Heerenveen,Friesland,VBO,5.946380,52.960729
Yme Kuiperweg,46,,,8448RT,Heerenveen,Heerenveen,Friesland,VBO,5.946451,52.960679
Yme Kuiperweg,47,,,8448RT,Heerenveen,Heerenveen,Friesland,VBO,5.946488,52.960636
Yme Kuiperweg,48,,,8448RT,Heerenveen,Heerenveen,Friesland,VBO,5.946540,52.960578
Yme Kuiperweg,49,,,8448RT,Heerenveen,Heerenveen,Friesland,VBO,5.946576,52.960531
Yme Kuiperweg,50,,,8448RT,Heerenveen,Heerenveen,Friesland,VBO,5.946616,52.960470
Yme Kuiperweg,51,,,8448RT,Heerenveen,Heerenveen,Friesland,VBO,5.946671,52.960376
Yme Kuiperweg,52,,,8448RT,Heerenveen,Heerenveen,Friesland,VBO,5.946723,52.960333
Yme Kuiperweg,53,,,8448RT,Heerenveen,Heerenveen,Friesland,VBO,5.946792,52.960245
Yme Kuiperweg,54,,,8448RT,Heerenveen,Heerenveen,Friesland,VBO,5.946840,52.960193
Yme Kuiperweg,55,,,8448RT,Heerenveen,Heerenveen,Friesland,VBO,5.946905,52.960112
Yme Kuiperweg,56,,,8448RT,Heerenveen,Heerenveen,Friesland,VBO,5.946953,52.960067
Yme Kuiperweg,57,,,8448RT,Heerenveen,Heerenveen,Friesland,VBO,5.947107,52.959948
Henritte Roland Holstweg,1,,,8448RV,Heerenveen,Heerenveen,Friesland,VBO,5.945874,52.964408
Henritte Roland Holstweg,2,,,8448RV,Heerenveen,Heerenveen,Friesland,VBO,5.946062,52.964204
Henritte Roland Holstweg,3,,,8448RV,Heerenveen,Heerenveen,Friesland,VBO,5.946085,52.964153
Henritte Roland Holstweg,4,,,8448RV,Heerenveen,Heerenveen,Friesland,VBO,5.946221,52.964074
Henritte Roland Holstweg,5,,,8448RV,Heerenveen,Heerenveen,Friesland,VBO,5.946209,52.964006
Henritte Roland Holstweg,6,,,8448RV,Heerenveen,Heerenveen,Friesland,VBO,5.946358,52.963909
Henritte Roland Holstweg,7,,,8448RV,Heerenveen,Heerenveen,Friesland,VBO,5.946388,52.963868
Henritte Roland Holstweg,8,,,8448RV,Heerenveen,Heerenveen,Friesland,VBO,5.946437,52.963823
Henritte Roland Holstweg,9,,,8448RV,Heerenveen,Heerenveen,Friesland,VBO,5.946472,52.963783
Henritte Roland Holstweg,10,,,8448RV,Heerenveen,Heerenveen,Friesland,VBO,5.946511,52.963736
Henritte Roland Holstweg,11,,,8448RV,Heerenveen,Heerenveen,Friesland,VBO,5.946547,52.963697
Henritte Roland Holstweg,12,,,8448RV,Heerenveen,Heerenveen,Friesland,VBO,5.946593,52.963651
Henritte Roland Holstweg,13,,,8448RV,Heerenveen,Heerenveen,Friesland,VBO,5.946627,52.963615
Henritte Roland Holstweg,14,,,8448RV,Heerenveen,Heerenveen,Friesland,VBO,5.946698,52.963522
Henritte Roland Holstweg,15,,,8448RV,Heerenveen,Heerenveen,Friesland,VBO,5.946732,52.963472
Henritte Roland Holstweg,16,,,8448RV,Heerenveen,Heerenveen,Friesland,VBO,5.946806,52.963440
Henritte Roland Holstweg,17,,,8448RV,Heerenveen,Heerenveen,Friesland,VBO,5.946817,52.963384
Henritte Roland Holstweg,18,,,8448RV,Heerenveen,Heerenveen,Friesland,VBO,5.946853,52.963340
Henritte Roland Holstweg,19,,,8448RV,Heerenveen,Heerenveen,Friesland,VBO,5.946937,52.963251
Henritte Roland Holstweg,20,,,8448RV,Heerenveen,Heerenveen,Friesland,VBO,5.946984,52.963200
Henritte Roland Holstweg,21,,,8448RV,Heerenveen,Heerenveen,Friesland,VBO,5.947022,52.963160
Henritte Roland Holstweg,22,,,8448RV,Heerenveen,Heerenveen,Friesland,VBO,5.947061,52.963120
Henritte Roland Holstweg,23,,,8448RV,Heerenveen,Heerenveen,Friesland,VBO,5.947094,52.963077
Henritte Roland Holstweg,26,,,8448RV,Heerenveen,Heerenveen,Friesland,VBO,5.947621,52.962456
Henritte Roland Holstweg,27,,,8448RV,Heerenveen,Heerenveen,Friesland,VBO,5.947707,52.962365
Henritte Roland Holstweg,28,,,8448RV,Heerenveen,Heerenveen,Friesland,VBO,5.947836,52.962261
Henritte Roland Holstweg,29,,,8448RV,Heerenveen,Heerenveen,Friesland,VBO,5.947867,52.962206
Henritte Roland Holstweg,30,,,8448RV,Heerenveen,Heerenveen,Friesland,VBO,5.947926,52.962157
Henritte Roland Holstweg,31,,,8448RV,Heerenveen,Heerenveen,Friesland,VBO,5.947961,52.962104
Henritte Roland Holstweg,32,,,8448RV,Heerenveen,Heerenveen,Friesland,VBO,5.948008,52.962058
Henritte Roland Holstweg,33,,,8448RV,Heerenveen,Heerenveen,Friesland,VBO,5.948066,52.962003
Henritte Roland Holstweg,34,,,8448RV,Heerenveen,Heerenveen,Friesland,VBO,5.948146,52.961920
Henritte Roland Holstweg,35,,,8448RV,Heerenveen,Heerenveen,Friesland,VBO,5.948196,52.961872
Henritte Roland Holstweg,36,,,8448RV,Heerenveen,Heerenveen,Friesland,VBO,5.948276,52.961786
Henritte Roland Holstweg,37,,,8448RV,Heerenveen,Heerenveen,Friesland,VBO,5.948322,52.961738
Henritte Roland Holstweg,38,,,8448RV,Heerenveen,Heerenveen,Friesland,VBO,5.948399,52.961643
Henritte Roland Holstweg,39,,,8448RV,Heerenveen,Heerenveen,Friesland,VBO,5.948584,52.961435
Henritte Roland Holstweg,40,,,8448RV,Heerenveen,Heerenveen,Friesland,VBO,5.948657,52.961341
Henritte Roland Holstweg,41,,,8448RV,Heerenveen,Heerenveen,Friesland,VBO,5.948697,52.961295
Henritte Roland Holstweg,42,,,8448RV,Heerenveen,Heerenveen,Friesland,VBO,5.948783,52.961204
Henritte Roland Holstweg,43,,,8448RV,Heerenveen,Heerenveen,Friesland,VBO,5.948818,52.961158
Henritte Roland Holstweg,44,,,8448RV,Heerenveen,Heerenveen,Friesland,VBO,5.948903,52.961066
Henritte Roland Holstweg,45,,,8448RV,Heerenveen,Heerenveen,Friesland,VBO,5.948933,52.961009
Henritte Roland Holstweg,46,,,8448RV,Heerenveen,Heerenveen,Friesland,VBO,5.948981,52.960962
Henritte Roland Holstweg,47,,,8448RV,Heerenveen,Heerenveen,Friesland,VBO,5.949027,52.960909
Henritte Roland Holstweg,48,,,8448RV,Heerenveen,Heerenveen,Friesland,VBO,5.949062,52.960858
Henritte Roland Holstweg,49,,,8448RV,Heerenveen,Heerenveen,Friesland,VBO,5.949117,52.960814
Henritte Roland Holstweg,50,,,8448RV,Heerenveen,Heerenveen,Friesland,VBO,5.949199,52.960693
Rosa Manusweg,1,,,8448RX,Heerenveen,Heerenveen,Friesland,VBO,5.945593,52.964770
Rosa Manusweg,2,,,8448RX,Heerenveen,Heerenveen,Friesland,VBO,5.945954,52.964431
Rosa Manusweg,3,,,8448RX,Heerenveen,Heerenveen,Friesland,VBO,5.945820,52.964780
Rosa Manusweg,4,,,8448RX,Heerenveen,Heerenveen,Friesland,VBO,5.946095,52.964472
Rosa Manusweg,5,,,8448RX,Heerenveen,Heerenveen,Friesland,VBO,5.946018,52.964836
Rosa Manusweg,6,,,8448RX,Heerenveen,Heerenveen,Friesland,VBO,5.946181,52.964499
Rosa Manusweg,7,,,8448RX,Heerenveen,Heerenveen,Friesland,VBO,5.946243,52.964885
Rosa Manusweg,8,,,8448RX,Heerenveen,Heerenveen,Friesland,VBO,5.946323,52.964545
Rosa Manusweg,9,,,8448RX,Heerenveen,Heerenveen,Friesland,VBO,5.946607,52.964969
Rosa Manusweg,10,,,8448RX,Heerenveen,Heerenveen,Friesland,VBO,5.947048,52.964729
Rosa Manusweg,11,,,8448RX,Heerenveen,Heerenveen,Friesland,VBO,5.946853,52.965009
Rosa Manusweg,12,,,8448RX,Heerenveen,Heerenveen,Friesland,VBO,5.947353,52.964814
Rosa Manusweg,13,,,8448RX,Heerenveen,Heerenveen,Friesland,VBO,5.947050,52.965060
Rosa Manusweg,14,,,8448RX,Heerenveen,Heerenveen,Friesland,VBO,5.947674,52.964853
Rosa Manusweg,15,,,8448RX,Heerenveen,Heerenveen,Friesland,VBO,5.947203,52.965138
Rosa Manusweg,17,,,8448RX,Heerenveen,Heerenveen,Friesland,VBO,5.947405,52.965129
Rosa Manusweg,19,,,8448RX,Heerenveen,Heerenveen,Friesland,VBO,5.947642,52.965190
Annie Zernikeweg,1,,,8448SB,Heerenveen,Heerenveen,Friesland,VBO,5.946403,52.964573
Annie Zernikeweg,2,,,8448SB,Heerenveen,Heerenveen,Friesland,VBO,5.946534,52.964356
Annie Zernikeweg,3,,,8448SB,Heerenveen,Heerenveen,Friesland,VBO,5.946569,52.964301
Annie Zernikeweg,4,,,8448SB,Heerenveen,Heerenveen,Friesland,VBO,5.946647,52.964218
Annie Zernikeweg,5,,,8448SB,Heerenveen,Heerenveen,Friesland,VBO,5.946699,52.964166
Annie Zernikeweg,6,,,8448SB,Heerenveen,Heerenveen,Friesland,VBO,5.946827,52.964062
Annie Zernikeweg,7,,,8448SB,Heerenveen,Heerenveen,Friesland,VBO,5.946860,52.964022
Annie Zernikeweg,8,,,8448SB,Heerenveen,Heerenveen,Friesland,VBO,5.946902,52.963976
Annie Zernikeweg,9,,,8448SB,Heerenveen,Heerenveen,Friesland,VBO,5.946938,52.963933
Annie Zernikeweg,10,,,8448SB,Heerenveen,Heerenveen,Friesland,VBO,5.946978,52.963892
Annie Zernikeweg,11,,,8448SB,Heerenveen,Heerenveen,Friesland,VBO,5.947020,52.963848
Annie Zernikeweg,12,,,8448SB,Heerenveen,Heerenveen,Friesland,VBO,5.947052,52.963804
Annie Zernikeweg,13,,,8448SB,Heerenveen,Heerenveen,Friesland,VBO,5.947093,52.963765
Annie Zernikeweg,14,,,8448SB,Heerenveen,Heerenveen,Friesland,VBO,5.947141,52.963644
Annie Zernikeweg,15,,,8448SB,Heerenveen,Heerenveen,Friesland,VBO,5.947184,52.963604
Annie Zernikeweg,16,,,8448SB,Heerenveen,Heerenveen,Friesland,VBO,5.947210,52.963567
Annie Zernikeweg,17,,,8448SB,Heerenveen,Heerenveen,Friesland,VBO,5.947257,52.963523
Annie Zernikeweg,18,,,8448SB,Heerenveen,Heerenveen,Friesland,VBO,5.947286,52.963477
Annie Zernikeweg,19,,,8448SB,Heerenveen,Heerenveen,Friesland,VBO,5.947364,52.963388
Annie Zernikeweg,20,,,8448SB,Heerenveen,Heerenveen,Friesland,VBO,5.947413,52.963344
Annie Zernikeweg,21,,,8448SB,Heerenveen,Heerenveen,Friesland,VBO,5.947457,52.963298
Annie Zernikeweg,22,,,8448SB,Heerenveen,Heerenveen,Friesland,VBO,5.947490,52.963251
Annie Zernikeweg,23,,,8448SB,Heerenveen,Heerenveen,Friesland,VBO,5.947517,52.963211
Annie Zernikeweg,26,,,8448SB,Heerenveen,Heerenveen,Friesland,VBO,5.948128,52.962614
Annie Zernikeweg,27,,,8448SB,Heerenveen,Heerenveen,Friesland,VBO,5.948212,52.962531
Annie Zernikeweg,28,,,8448SB,Heerenveen,Heerenveen,Friesland,VBO,5.948275,52.962405
Annie Zernikeweg,29,,,8448SB,Heerenveen,Heerenveen,Friesland,VBO,5.948326,52.962352
Annie Zernikeweg,30,,,8448SB,Heerenveen,Heerenveen,Friesland,VBO,5.948376,52.962300
Annie Zernikeweg,31,,,8448SB,Heerenveen,Heerenveen,Friesland,VBO,5.948422,52.962254
Annie Zernikeweg,32,,,8448SB,Heerenveen,Heerenveen,Friesland,VBO,5.948472,52.962207
Annie Zernikeweg,33,,,8448SB,Heerenveen,Heerenveen,Friesland,VBO,5.948505,52.962147
Annie Zernikeweg,34,,,8448SB,Heerenveen,Heerenveen,Friesland,VBO,5.948544,52.962045
Annie Zernikeweg,35,,,8448SB,Heerenveen,Heerenveen,Friesland,VBO,5.948586,52.962000
Annie Zernikeweg,36,,,8448SB,Heerenveen,Heerenveen,Friesland,VBO,5.948666,52.961911
Annie Zernikeweg,37,,,8448SB,Heerenveen,Heerenveen,Friesland,VBO,5.948710,52.961867
Annie Zernikeweg,38,,,8448SB,Heerenveen,Heerenveen,Friesland,VBO,5.948796,52.961768
Annie Zernikeweg,39,,,8448SB,Heerenveen,Heerenveen,Friesland,VBO,5.948973,52.961563
Annie Zernikeweg,40,,,8448SB,Heerenveen,Heerenveen,Friesland,VBO,5.949060,52.961469
Annie Zernikeweg,41,,,8448SB,Heerenveen,Heerenveen,Friesland,VBO,5.949105,52.961424
Annie Zernikeweg,42,,,8448SB,Heerenveen,Heerenveen,Friesland,VBO,5.949185,52.961337
Annie Zernikeweg,43,,,8448SB,Heerenveen,Heerenveen,Friesland,VBO,5.949230,52.961291
Annie Zernikeweg,44,,,8448SB,Heerenveen,Heerenveen,Friesland,VBO,5.949335,52.961212
Annie Zernikeweg,45,,,8448SB,Heerenveen,Heerenveen,Friesland,VBO,5.949403,52.961166
Annie Zernikeweg,46,,,8448SB,Heerenveen,Heerenveen,Friesland,VBO,5.949431,52.961108
Annie Zernikeweg,47,,,8448SB,Heerenveen,Heerenveen,Friesland,VBO,5.949482,52.961058
Annie Zernikeweg,48,,,8448SB,Heerenveen,Heerenveen,Friesland,VBO,5.949533,52.961012
Annie Zernikeweg,49,,,8448SB,Heerenveen,Heerenveen,Friesland,VBO,5.949559,52.960961
Annie Zernikeweg,50,,,8448SB,Heerenveen,Heerenveen,Friesland,VBO,5.949703,52.960862
Aletta Jacobsweg,5,,,8448SC,Heerenveen,Heerenveen,Friesland,VBO,5.947237,52.964434
Aletta Jacobsweg,6,,,8448SC,Heerenveen,Heerenveen,Friesland,VBO,5.947342,52.964304
Aletta Jacobsweg,7,,,8448SC,Heerenveen,Heerenveen,Friesland,VBO,5.947511,52.964173
Aletta Jacobsweg,8,,,8448SC,Heerenveen,Heerenveen,Friesland,VBO,5.947641,52.964035
Aletta Jacobsweg,9,,,8448SC,Heerenveen,Heerenveen,Friesland,VBO,5.947805,52.963832
Aletta Jacobsweg,10,,,8448SC,Heerenveen,Heerenveen,Friesland,VBO,5.947925,52.963710
Aletta Jacobsweg,11,,,8448SC,Heerenveen,Heerenveen,Friesland,VBO,5.948057,52.963577
Aletta Jacobsweg,12,,,8448SC,Heerenveen,Heerenveen,Friesland,VBO,5.948178,52.963424
Aletta Jacobsweg,13,,,8448SC,Heerenveen,Heerenveen,Friesland,VBO,5.948297,52.963314
Aletta Jacobsweg,14,,,8448SC,Heerenveen,Heerenveen,Friesland,VBO,5.948429,52.963166
Aletta Jacobsweg,15,,,8448SC,Heerenveen,Heerenveen,Friesland,VBO,5.948826,52.962761
Aletta Jacobsweg,16,,,8448SC,Heerenveen,Heerenveen,Friesland,VBO,5.948984,52.962589
Aletta Jacobsweg,17,,,8448SC,Heerenveen,Heerenveen,Friesland,VBO,5.949105,52.962453
Aletta Jacobsweg,18,,,8448SC,Heerenveen,Heerenveen,Friesland,VBO,5.949197,52.962314
Aletta Jacobsweg,19,,,8448SC,Heerenveen,Heerenveen,Friesland,VBO,5.949348,52.962208
Aletta Jacobsweg,20,,,8448SC,Heerenveen,Heerenveen,Friesland,VBO,5.949414,52.962043
Aletta Jacobsweg,21,,,8448SC,Heerenveen,Heerenveen,Friesland,VBO,5.949594,52.961918
Aletta Jacobsweg,22,,,8448SC,Heerenveen,Heerenveen,Friesland,VBO,5.949743,52.961694
Aletta Jacobsweg,23,,,8448SC,Heerenveen,Heerenveen,Friesland,VBO,5.949913,52.961547
Aletta Jacobsweg,24,,,8448SC,Heerenveen,Heerenveen,Friesland,VBO,5.950013,52.961397
Aletta Jacobsweg,25,,,8448SC,Heerenveen,Heerenveen,Friesland,VBO,5.950127,52.961279
Marga Klompweg,1,,,8448SE,Heerenveen,Heerenveen,Friesland,VBO,5.949263,52.960636
Marga Klompweg,2,,,8448SE,Heerenveen,Heerenveen,Friesland,VBO,5.949335,52.960661
Marga Klompweg,3,,,8448SE,Heerenveen,Heerenveen,Friesland,VBO,5.949424,52.960694
Marga Klompweg,4,,,8448SE,Heerenveen,Heerenveen,Friesland,VBO,5.949507,52.960719
Marga Klompweg,5,,,8448SE,Heerenveen,Heerenveen,Friesland,VBO,5.949580,52.960745
Marga Klompweg,6,,,8448SE,Heerenveen,Heerenveen,Friesland,VBO,5.949669,52.960769
Marga Klompweg,7,,,8448SE,Heerenveen,Heerenveen,Friesland,VBO,5.949758,52.960798
Marga Klompweg,8,,,8448SE,Heerenveen,Heerenveen,Friesland,VBO,5.950376,52.961032
Marga Klompweg,9,,,8448SE,Heerenveen,Heerenveen,Friesland,VBO,5.950634,52.961125
Marga Klompweg,10,,,8448SE,Heerenveen,Heerenveen,Friesland,VBO,5.950884,52.961226
Nienke van Hichtumweg,10,,,8448SG,Heerenveen,Heerenveen,Friesland,VBO,5.947924,52.964653
Nienke van Hichtumweg,12,,,8448SG,Heerenveen,Heerenveen,Friesland,VBO,5.948045,52.964521
Nienke van Hichtumweg,14,,,8448SG,Heerenveen,Heerenveen,Friesland,VBO,5.948141,52.964386
Nienke van Hichtumweg,16,,,8448SG,Heerenveen,Heerenveen,Friesland,VBO,5.948248,52.964252
Nienke van Hichtumweg,18,,,8448SG,Heerenveen,Heerenveen,Friesland,VBO,5.948431,52.964077
Nienke van Hichtumweg,20,,,8448SG,Heerenveen,Heerenveen,Friesland,VBO,5.948561,52.963934
Nienke van Hichtumweg,22,,,8448SG,Heerenveen,Heerenveen,Friesland,VBO,5.948697,52.963774
Nienke van Hichtumweg,24,,,8448SG,Heerenveen,Heerenveen,Friesland,VBO,5.948827,52.963628
Nienke van Hichtumweg,26,,,8448SG,Heerenveen,Heerenveen,Friesland,VBO,5.948963,52.963497
Nienke van Hichtumweg,28,,,8448SG,Heerenveen,Heerenveen,Friesland,VBO,5.949086,52.963368
Nienke van Hichtumweg,30,,,8448SG,Heerenveen,Heerenveen,Friesland,VBO,5.949378,52.962903
Nienke van Hichtumweg,32,,,8448SG,Heerenveen,Heerenveen,Friesland,VBO,5.949497,52.962756
Nienke van Hichtumweg,34,,,8448SG,Heerenveen,Heerenveen,Friesland,VBO,5.949668,52.962635
Nienke van Hichtumweg,36,,,8448SG,Heerenveen,Heerenveen,Friesland,VBO,5.949733,52.962483
Nienke van Hichtumweg,38,,,8448SG,Heerenveen,Heerenveen,Friesland,VBO,5.949863,52.962361
Nienke van Hichtumweg,40,,,8448SG,Heerenveen,Heerenveen,Friesland,VBO,5.950019,52.962229
Nienke van Hichtumweg,42,,,8448SG,Heerenveen,Heerenveen,Friesland,VBO,5.950088,52.962088
Nienke van Hichtumweg,44,,,8448SG,Heerenveen,Heerenveen,Friesland,VBO,5.950341,52.961856
Nienke van Hichtumweg,46,,,8448SG,Heerenveen,Heerenveen,Friesland,VBO,5.950454,52.961729
Nienke van Hichtumweg,48,,,8448SG,Heerenveen,Heerenveen,Friesland,VBO,5.950595,52.961598
Nienke van Hichtumweg,50,,,8448SG,Heerenveen,Heerenveen,Friesland,VBO,5.950707,52.961451
Korte Venen,1,,,8448SH,Heerenveen,Heerenveen,Friesland,VBO,5.952682,52.960443
Korte Venen,2,,,8448SH,Heerenveen,Heerenveen,Friesland,VBO,5.952217,52.960328
Korte Venen,3,,,8448SH,Heerenveen,Heerenveen,Friesland,VBO,5.952720,52.960351
Korte Venen,4,,,8448SH,Heerenveen,Heerenveen,Friesland,VBO,5.952055,52.960288
Korte Venen,5,,,8448SH,Heerenveen,Heerenveen,Friesland,VBO,5.952798,52.960270
Korte Venen,6,,,8448SH,Heerenveen,Heerenveen,Friesland,VBO,5.951940,52.960260
Korte Venen,7,,,8448SH,Heerenveen,Heerenveen,Friesland,VBO,5.952836,52.960178
Korte Venen,8,,,8448SH,Heerenveen,Heerenveen,Friesland,VBO,5.951779,52.960221
Korte Venen,9,,,8448SH,Heerenveen,Heerenveen,Friesland,VBO,5.952923,52.960083
Korte Venen,10,,,8448SH,Heerenveen,Heerenveen,Friesland,VBO,5.951664,52.960193
Korte Venen,11,,,8448SH,Heerenveen,Heerenveen,Friesland,VBO,5.952473,52.959984
Korte Venen,12,,,8448SH,Heerenveen,Heerenveen,Friesland,VBO,5.951503,52.960153
Korte Venen,13,,,8448SH,Heerenveen,Heerenveen,Friesland,VBO,5.952357,52.959956
Korte Venen,14,,,8448SH,Heerenveen,Heerenveen,Friesland,VBO,5.951389,52.960125
Korte Venen,15,,,8448SH,Heerenveen,Heerenveen,Friesland,VBO,5.952196,52.959916
Korte Venen,16,,,8448SH,Heerenveen,Heerenveen,Friesland,VBO,5.951227,52.960086
Korte Venen,17,,,8448SH,Heerenveen,Heerenveen,Friesland,VBO,5.952081,52.959888
Korte Venen,19,,,8448SH,Heerenveen,Heerenveen,Friesland,VBO,5.951920,52.959849
Korte Venen,21,,,8448SH,Heerenveen,Heerenveen,Friesland,VBO,5.951805,52.959821
Korte Venen,23,,,8448SH,Heerenveen,Heerenveen,Friesland,VBO,5.951644,52.959782
Korte Venen,25,,,8448SH,Heerenveen,Heerenveen,Friesland,VBO,5.951528,52.959753
Nienke van Hichtumweg,1,,,8448SJ,Heerenveen,Heerenveen,Friesland,VBO,5.947959,52.965301
Nienke van Hichtumweg,3,,,8448SJ,Heerenveen,Heerenveen,Friesland,VBO,5.948223,52.965320
Nienke van Hichtumweg,5,,,8448SJ,Heerenveen,Heerenveen,Friesland,VBO,5.948446,52.965379
Nienke van Hichtumweg,7,A,,8448SJ,Heerenveen,Heerenveen,Friesland,VBO,5.948867,52.965470
Nienke van Hichtumweg,7,,,8448SJ,Heerenveen,Heerenveen,Friesland,VBO,5.948657,52.965441
Nienke van Hichtumweg,9,A,,8448SJ,Heerenveen,Heerenveen,Friesland,VBO,5.949318,52.965578
Nienke van Hichtumweg,9,,,8448SJ,Heerenveen,Heerenveen,Friesland,VBO,5.949084,52.965524
Nienke van Hichtumweg,11,,,8448SJ,Heerenveen,Heerenveen,Friesland,VBO,5.949504,52.965306
Nienke van Hichtumweg,13,,,8448SJ,Heerenveen,Heerenveen,Friesland,VBO,5.949187,52.965223
Nienke van Hichtumweg,15,,,8448SJ,Heerenveen,Heerenveen,Friesland,VBO,5.948923,52.965175
Nienke van Hichtumweg,17,,,8448SJ,Heerenveen,Heerenveen,Friesland,VBO,5.948664,52.965116
Nienke van Hichtumweg,19,,,8448SJ,Heerenveen,Heerenveen,Friesland,VBO,5.948430,52.965065
Nienke van Hichtumweg,21,,,8448SJ,Heerenveen,Heerenveen,Friesland,VBO,5.948205,52.965008
Nienke van Hichtumweg,23,,,8448SJ,Heerenveen,Heerenveen,Friesland,VBO,5.948561,52.964584
Nienke van Hichtumweg,27,,,8448SJ,Heerenveen,Heerenveen,Friesland,VBO,5.948962,52.964736
Nienke van Hichtumweg,29,,,8448SJ,Heerenveen,Heerenveen,Friesland,VBO,5.949151,52.964853
Nienke van Hichtumweg,31,,,8448SJ,Heerenveen,Heerenveen,Friesland,VBO,5.949356,52.964921
Nienke van Hichtumweg,33,,,8448SJ,Heerenveen,Heerenveen,Friesland,VBO,5.949590,52.964977
Nienke van Hichtumweg,35,,,8448SJ,Heerenveen,Heerenveen,Friesland,VBO,5.949769,52.965077
Nienke van Hichtumweg,37,,,8448SJ,Heerenveen,Heerenveen,Friesland,VBO,5.949915,52.964842
Nienke van Hichtumweg,39,,,8448SJ,Heerenveen,Heerenveen,Friesland,VBO,5.949662,52.964711
Nienke van Hichtumweg,41,,,8448SJ,Heerenveen,Heerenveen,Friesland,VBO,5.949539,52.964609
Nienke van Hichtumweg,43,,,8448SJ,Heerenveen,Heerenveen,Friesland,VBO,5.949258,52.964538
Nienke van Hichtumweg,45,,,8448SJ,Heerenveen,Heerenveen,Friesland,VBO,5.949062,52.964444
Nienke van Hichtumweg,47,,,8448SJ,Heerenveen,Heerenveen,Friesland,VBO,5.948762,52.964381
Nienke van Hichtumweg,49,,,8448SJ,Heerenveen,Heerenveen,Friesland,VBO,5.949046,52.964115
Nienke van Hichtumweg,51,,,8448SJ,Heerenveen,Heerenveen,Friesland,VBO,5.949301,52.964192
Nienke van Hichtumweg,53,,,8448SJ,Heerenveen,Heerenveen,Friesland,VBO,5.949607,52.964243
Nienke van Hichtumweg,55,,,8448SJ,Heerenveen,Heerenveen,Friesland,VBO,5.949895,52.964300
Nienke van Hichtumweg,57,,,8448SJ,Heerenveen,Heerenveen,Friesland,VBO,5.950188,52.964323
Nienke van Hichtumweg,59,,,8448SJ,Heerenveen,Heerenveen,Friesland,VBO,5.950069,52.964005
Nienke van Hichtumweg,61,,,8448SJ,Heerenveen,Heerenveen,Friesland,VBO,5.949785,52.963977
Nienke van Hichtumweg,63,,,8448SJ,Heerenveen,Heerenveen,Friesland,VBO,5.949487,52.963900
Nienke van Hichtumweg,65,,,8448SJ,Heerenveen,Heerenveen,Friesland,VBO,5.949173,52.963892
Nienke van Hichtumweg,67,,,8448SJ,Heerenveen,Heerenveen,Friesland,VBO,5.949598,52.963488
Nienke van Hichtumweg,69,,,8448SJ,Heerenveen,Heerenveen,Friesland,VBO,5.949851,52.963579
Nienke van Hichtumweg,71,,,8448SJ,Heerenveen,Heerenveen,Friesland,VBO,5.950074,52.963682
Nienke van Hichtumweg,73,,,8448SJ,Heerenveen,Heerenveen,Friesland,VBO,5.950370,52.963807
Nienke van Hichtumweg,75,,,8448SJ,Heerenveen,Heerenveen,Friesland,VBO,5.950038,52.962960
Nienke van Hichtumweg,77,,,8448SJ,Heerenveen,Heerenveen,Friesland,VBO,5.950357,52.963011
Nienke van Hichtumweg,79,,,8448SJ,Heerenveen,Heerenveen,Friesland,VBO,5.950627,52.963056
Nienke van Hichtumweg,81,,,8448SJ,Heerenveen,Heerenveen,Friesland,VBO,5.950903,52.963111
Nienke van Hichtumweg,83,,,8448SJ,Heerenveen,Heerenveen,Friesland,VBO,5.950436,52.962502
Nienke van Hichtumweg,85,,,8448SJ,Heerenveen,Heerenveen,Friesland,VBO,5.950661,52.962636
Nienke van Hichtumweg,87,,,8448SJ,Heerenveen,Heerenveen,Friesland,VBO,5.950913,52.962741
Nienke van Hichtumweg,89,,,8448SJ,Heerenveen,Heerenveen,Friesland,VBO,5.951170,52.962874
Nienke van Hichtumweg,91,,,8448SJ,Heerenveen,Heerenveen,Friesland,VBO,5.951530,52.962676
Nienke van Hichtumweg,93,,,8448SJ,Heerenveen,Heerenveen,Friesland,VBO,5.951272,52.962556
Nienke van Hichtumweg,95,,,8448SJ,Heerenveen,Heerenveen,Friesland,VBO,5.951015,52.962415
Nienke van Hichtumweg,97,,,8448SJ,Heerenveen,Heerenveen,Friesland,VBO,5.950725,52.962263
Nienke van Hichtumweg,99,,,8448SJ,Heerenveen,Heerenveen,Friesland,VBO,5.950967,52.962030
Nienke van Hichtumweg,105,,,8448SJ,Heerenveen,Heerenveen,Friesland,VBO,5.951992,52.962190
Nienke van Hichtumweg,107,,,8448SJ,Heerenveen,Heerenveen,Friesland,VBO,5.952113,52.961944
Nienke van Hichtumweg,109,,,8448SJ,Heerenveen,Heerenveen,Friesland,VBO,5.951707,52.961864
Nienke van Hichtumweg,111,,,8448SJ,Heerenveen,Heerenveen,Friesland,VBO,5.951404,52.961804
Nienke van Hichtumweg,113,,,8448SJ,Heerenveen,Heerenveen,Friesland,VBO,5.951107,52.961791
Nienke van Hichtumweg,115,,,8448SJ,Heerenveen,Heerenveen,Friesland,VBO,5.951414,52.961437
Nienke van Hichtumweg,117,,,8448SJ,Heerenveen,Heerenveen,Friesland,VBO,5.951700,52.961542
Nienke van Hichtumweg,119,,,8448SJ,Heerenveen,Heerenveen,Friesland,VBO,5.951904,52.961635
Nienke van Hichtumweg,121,,,8448SJ,Heerenveen,Heerenveen,Friesland,VBO,5.952207,52.961734
Wilgenpoel,1,,,8448SK,Heerenveen,Heerenveen,Friesland,VBO,5.950130,52.960474
Wilgenpoel,2,,,8448SK,Heerenveen,Heerenveen,Friesland,VBO,5.950128,52.960402
Wilgenpoel,3,,,8448SK,Heerenveen,Heerenveen,Friesland,VBO,5.950119,52.960439
Wilgenpoel,4,,,8448SK,Heerenveen,Heerenveen,Friesland,VBO,5.950177,52.960416
Wilgenpoel,5,,,8448SK,Heerenveen,Heerenveen,Friesland,VBO,5.950294,52.960317
Wilgenpoel,6,,,8448SK,Heerenveen,Heerenveen,Friesland,VBO,5.950412,52.960191
Wilgenpoel,7,,,8448SK,Heerenveen,Heerenveen,Friesland,VBO,5.950314,52.960190
Wilgenpoel,8,,,8448SK,Heerenveen,Heerenveen,Friesland,VBO,5.950251,52.960389
Wilgenpoel,9,,,8448SK,Heerenveen,Heerenveen,Friesland,VBO,5.950222,52.960486
Wilgenpoel,10,,,8448SK,Heerenveen,Heerenveen,Friesland,VBO,5.950177,52.960416
Wilgenpoel,11,,,8448SK,Heerenveen,Heerenveen,Friesland,VBO,5.950294,52.960317
Wilgenpoel,12,,,8448SK,Heerenveen,Heerenveen,Friesland,VBO,5.950412,52.960191
Wilgenpoel,13,,,8448SK,Heerenveen,Heerenveen,Friesland,VBO,5.950373,52.960156
Wilgenpoel,14,,,8448SK,Heerenveen,Heerenveen,Friesland,VBO,5.950235,52.960335
Wilgenpoel,15,,,8448SK,Heerenveen,Heerenveen,Friesland,VBO,5.950248,52.960452
Wilgenpoel,16,,,8448SK,Heerenveen,Heerenveen,Friesland,VBO,5.950177,52.960416
Wilgenpoel,17,,,8448SK,Heerenveen,Heerenveen,Friesland,VBO,5.950294,52.960317
Wilgenpoel,18,,,8448SK,Heerenveen,Heerenveen,Friesland,VBO,5.950412,52.960191
Wilgenpoel,19,,,8448SK,Heerenveen,Heerenveen,Friesland,VBO,5.950275,52.960230
Wilgenpoel,20,,,8448SK,Heerenveen,Heerenveen,Friesland,VBO,5.950353,52.960245
Wilgenpoel,21,,,8448SK,Heerenveen,Heerenveen,Friesland,VBO,5.950178,52.960362
Wilgenpoel,22,,,8448SL,Heerenveen,Heerenveen,Friesland,VBO,5.950838,52.959757
Wilgenpoel,23,,,8448SL,Heerenveen,Heerenveen,Friesland,VBO,5.950720,52.959866
Wilgenpoel,24,,,8448SL,Heerenveen,Heerenveen,Friesland,VBO,5.950833,52.959675
Wilgenpoel,25,,,8448SL,Heerenveen,Heerenveen,Friesland,VBO,5.950867,52.959721
Wilgenpoel,26,,,8448SL,Heerenveen,Heerenveen,Friesland,VBO,5.950749,52.959821
Wilgenpoel,27,,,8448SL,Heerenveen,Heerenveen,Friesland,VBO,5.950719,52.959764
Wilgenpoel,28,,,8448SL,Heerenveen,Heerenveen,Friesland,VBO,5.950809,52.959856
Wilgenpoel,29,,,8448SL,Heerenveen,Heerenveen,Friesland,VBO,5.950926,52.959649
Wilgenpoel,30,,,8448SL,Heerenveen,Heerenveen,Friesland,VBO,5.950948,52.959563
Wilgenpoel,31,,,8448SL,Heerenveen,Heerenveen,Friesland,VBO,5.950867,52.959721
Wilgenpoel,32,,,8448SL,Heerenveen,Heerenveen,Friesland,VBO,5.950749,52.959821
Wilgenpoel,33,,,8448SL,Heerenveen,Heerenveen,Friesland,VBO,5.950796,52.959787
Wilgenpoel,34,,,8448SL,Heerenveen,Heerenveen,Friesland,VBO,5.950690,52.959866
Wilgenpoel,35,,,8448SL,Heerenveen,Heerenveen,Friesland,VBO,5.950780,52.959865
Wilgenpoel,36,,,8448SL,Heerenveen,Heerenveen,Friesland,VBO,5.951062,52.959596
Wilgenpoel,37,,,8448SL,Heerenveen,Heerenveen,Friesland,VBO,5.950867,52.959721
Wilgenpoel,38,,,8448SL,Heerenveen,Heerenveen,Friesland,VBO,5.950749,52.959821
Wilgenpoel,39,,,8448SL,Heerenveen,Heerenveen,Friesland,VBO,5.950626,52.959862
Wilgenpoel,40,,,8448SL,Heerenveen,Heerenveen,Friesland,VBO,5.950955,52.959640
Wilgenpoel,41,,,8448SL,Heerenveen,Heerenveen,Friesland,VBO,5.950970,52.959613
Wilgenpoel,42,,,8448SL,Heerenveen,Heerenveen,Friesland,VBO,5.950901,52.959601
Koetsier,1,,,8448TA,Heerenveen,Heerenveen,Friesland,VBO,5.956856,52.957941
Koetsier,2,,,8448TA,Heerenveen,Heerenveen,Friesland,VBO,5.956676,52.958222
Koetsier,3,,,8448TA,Heerenveen,Heerenveen,Friesland,VBO,5.956773,52.957926
Koetsier,4,,,8448TA,Heerenveen,Heerenveen,Friesland,VBO,5.956569,52.958196
Koetsier,5,,,8448TA,Heerenveen,Heerenveen,Friesland,VBO,5.956685,52.957913
Koetsier,6,,,8448TA,Heerenveen,Heerenveen,Friesland,VBO,5.956400,52.958173
Koetsier,7,,,8448TA,Heerenveen,Heerenveen,Friesland,VBO,5.956608,52.957900
Koetsier,8,,,8448TA,Heerenveen,Heerenveen,Friesland,VBO,5.956293,52.958147
Koetsier,9,,,8448TA,Heerenveen,Heerenveen,Friesland,VBO,5.956528,52.957889
Koetsier,10,,,8448TA,Heerenveen,Heerenveen,Friesland,VBO,5.956124,52.958123
Koetsier,11,,,8448TA,Heerenveen,Heerenveen,Friesland,VBO,5.956447,52.957871
Koetsier,12,,,8448TA,Heerenveen,Heerenveen,Friesland,VBO,5.956018,52.958098
Koetsier,13,,,8448TA,Heerenveen,Heerenveen,Friesland,VBO,5.956363,52.957859
Koetsier,14,,,8448TA,Heerenveen,Heerenveen,Friesland,VBO,5.955845,52.958075
Koetsier,15,,,8448TA,Heerenveen,Heerenveen,Friesland,VBO,5.956280,52.957845
Koetsier,17,,,8448TA,Heerenveen,Heerenveen,Friesland,VBO,5.956201,52.957831
Koetsier,19,,,8448TA,Heerenveen,Heerenveen,Friesland,VBO,5.956116,52.957821
Tamboer,1,,,8448TB,Heerenveen,Heerenveen,Friesland,VBO,5.957200,52.957397
Tamboer,2,,,8448TB,Heerenveen,Heerenveen,Friesland,VBO,5.957029,52.957640
Tamboer,3,,,8448TB,Heerenveen,Heerenveen,Friesland,VBO,5.957120,52.957381
Tamboer,4,,,8448TB,Heerenveen,Heerenveen,Friesland,VBO,5.956945,52.957629
Tamboer,5,,,8448TB,Heerenveen,Heerenveen,Friesland,VBO,5.957040,52.957363
Tamboer,6,,,8448TB,Heerenveen,Heerenveen,Friesland,VBO,5.956860,52.957619
Tamboer,7,,,8448TB,Heerenveen,Heerenveen,Friesland,VBO,5.956843,52.957348
Tamboer,8,,,8448TB,Heerenveen,Heerenveen,Friesland,VBO,5.956779,52.957609
Tamboer,9,,,8448TB,Heerenveen,Heerenveen,Friesland,VBO,5.956765,52.957329
Tamboer,10,,,8448TB,Heerenveen,Heerenveen,Friesland,VBO,5.956704,52.957597
Tamboer,11,,,8448TB,Heerenveen,Heerenveen,Friesland,VBO,5.956683,52.957315
Tamboer,12,,,8448TB,Heerenveen,Heerenveen,Friesland,VBO,5.956619,52.957589
Tamboer,13,,,8448TB,Heerenveen,Heerenveen,Friesland,VBO,5.956489,52.957304
Tamboer,14,,,8448TB,Heerenveen,Heerenveen,Friesland,VBO,5.956544,52.957575
Tamboer,15,,,8448TB,Heerenveen,Heerenveen,Friesland,VBO,5.956399,52.957288
Tamboer,16,,,8448TB,Heerenveen,Heerenveen,Friesland,VBO,5.956453,52.957563
Tamboer,18,,,8448TB,Heerenveen,Heerenveen,Friesland,VBO,5.956366,52.957557
Tamboer,20,,,8448TB,Heerenveen,Heerenveen,Friesland,VBO,5.956285,52.957549
Postiljon,1,,,8448TC,Heerenveen,Heerenveen,Friesland,VBO,5.956456,52.958519
Postiljon,2,,,8448TC,Heerenveen,Heerenveen,Friesland,VBO,5.956245,52.958791
Postiljon,3,,,8448TC,Heerenveen,Heerenveen,Friesland,VBO,5.956232,52.958437
Postiljon,4,,,8448TC,Heerenveen,Heerenveen,Friesland,VBO,5.956012,52.958758
Postiljon,5,,,8448TC,Heerenveen,Heerenveen,Friesland,VBO,5.955996,52.958385
Postiljon,6,,,8448TC,Heerenveen,Heerenveen,Friesland,VBO,5.955789,52.958694
Postiljon,7,,,8448TC,Heerenveen,Heerenveen,Friesland,VBO,5.955760,52.958301
Postiljon,8,,,8448TC,Heerenveen,Heerenveen,Friesland,VBO,5.955530,52.958660
Alexialaan,1,,,8448TE,Heerenveen,Heerenveen,Friesland,VBO,5.958054,52.955982
Alexialaan,3,,,8448TE,Heerenveen,Heerenveen,Friesland,VBO,5.957829,52.955909
Arianelaan,3,,,8448TG,Heerenveen,Heerenveen,Friesland,VBO,5.958207,52.955444
Minstreel,1,,,8448TH,Heerenveen,Heerenveen,Friesland,VBO,5.957713,52.957180
Minstreel,2,,,8448TH,Heerenveen,Heerenveen,Friesland,VBO,5.957631,52.957163
Minstreel,3,,,8448TH,Heerenveen,Heerenveen,Friesland,VBO,5.957433,52.957110
Minstreel,4,,,8448TH,Heerenveen,Heerenveen,Friesland,VBO,5.957352,52.957097
Minstreel,5,,,8448TH,Heerenveen,Heerenveen,Friesland,VBO,5.957274,52.957075
Minstreel,6,,,8448TH,Heerenveen,Heerenveen,Friesland,VBO,5.957078,52.957028
Minstreel,7,,,8448TH,Heerenveen,Heerenveen,Friesland,VBO,5.957002,52.957009
Minstreel,8,,,8448TH,Heerenveen,Heerenveen,Friesland,VBO,5.956918,52.956991
Minstreel,9,,,8448TH,Heerenveen,Heerenveen,Friesland,VBO,5.956726,52.956941
Minstreel,10,,,8448TH,Heerenveen,Heerenveen,Friesland,VBO,5.956644,52.956923
Bode,1,,,8448VA,Heerenveen,Heerenveen,Friesland,VBO,5.957798,52.958455
Bode,3,,,8448VA,Heerenveen,Heerenveen,Friesland,VBO,5.957903,52.958477
Schout,1,,,8448VB,Heerenveen,Heerenveen,Friesland,VBO,5.957381,52.959110
Schout,2,,,8448VB,Heerenveen,Heerenveen,Friesland,VBO,5.957613,52.958747
Schout,3,,,8448VB,Heerenveen,Heerenveen,Friesland,VBO,5.957487,52.959133
Schout,4,,,8448VB,Heerenveen,Heerenveen,Friesland,VBO,5.957710,52.958766
Baljuw,1,,,8448VC,Heerenveen,Heerenveen,Friesland,VBO,5.957046,52.959635
Baljuw,2,,,8448VC,Heerenveen,Heerenveen,Friesland,VBO,5.957195,52.959401
Baljuw,3,,,8448VC,Heerenveen,Heerenveen,Friesland,VBO,5.957153,52.959661
Baljuw,4,,,8448VC,Heerenveen,Heerenveen,Friesland,VBO,5.957298,52.959421
Regentesselaan,1,,,8448VD,Heerenveen,Heerenveen,Friesland,VBO,5.957484,52.960735
Regentesselaan,2,,,8448VD,Heerenveen,Heerenveen,Friesland,VBO,5.956982,52.960562
Regentesselaan,3,,,8448VD,Heerenveen,Heerenveen,Friesland,VBO,5.957553,52.960568
Regentesselaan,4,,,8448VD,Heerenveen,Heerenveen,Friesland,VBO,5.957011,52.960516
Regentesselaan,5,,,8448VD,Heerenveen,Heerenveen,Friesland,VBO,5.957626,52.960437
Regentesselaan,6,,,8448VD,Heerenveen,Heerenveen,Friesland,VBO,5.957039,52.960470
Regentesselaan,7,,,8448VD,Heerenveen,Heerenveen,Friesland,VBO,5.957714,52.960288
Regentesselaan,8,,,8448VD,Heerenveen,Heerenveen,Friesland,VBO,5.957067,52.960425
Regentesselaan,10,,,8448VD,Heerenveen,Heerenveen,Friesland,VBO,5.957095,52.960379
Regentesselaan,12,,,8448VD,Heerenveen,Heerenveen,Friesland,VBO,5.957123,52.960334
Regentesselaan,13,,,8448VD,Heerenveen,Heerenveen,Friesland,VBO,5.957996,52.959846
Regentesselaan,14,,,8448VD,Heerenveen,Heerenveen,Friesland,VBO,5.957152,52.960288
Regentesselaan,15,,,8448VD,Heerenveen,Heerenveen,Friesland,VBO,5.958075,52.959713
Regentesselaan,16,,,8448VD,Heerenveen,Heerenveen,Friesland,VBO,5.957233,52.960099
Regentesselaan,17,,,8448VD,Heerenveen,Heerenveen,Friesland,VBO,5.958197,52.959549
Regentesselaan,18,,,8448VD,Heerenveen,Heerenveen,Friesland,VBO,5.957274,52.960032
Regentesselaan,19,,,8448VD,Heerenveen,Heerenveen,Friesland,VBO,5.958275,52.959412
Regentesselaan,20,,,8448VD,Heerenveen,Heerenveen,Friesland,VBO,5.957334,52.959926
Regentesselaan,21,,,8448VD,Heerenveen,Heerenveen,Friesland,VBO,5.958366,52.959277
Regentesselaan,22,,,8448VD,Heerenveen,Heerenveen,Friesland,VBO,5.957374,52.959861
Regentesselaan,23,,,8448VD,Heerenveen,Heerenveen,Friesland,VBO,5.958471,52.959070
Regentesselaan,24,,,8448VD,Heerenveen,Heerenveen,Friesland,VBO,5.957445,52.959757
Regentesselaan,25,,,8448VD,Heerenveen,Heerenveen,Friesland,VBO,5.958552,52.958932
Regentesselaan,26,,,8448VD,Heerenveen,Heerenveen,Friesland,VBO,5.957486,52.959691
Regentesselaan,27,,,8448VD,Heerenveen,Heerenveen,Friesland,VBO,5.958643,52.958796
Regentesselaan,28,,,8448VD,Heerenveen,Heerenveen,Friesland,VBO,5.957546,52.959488
Regentesselaan,29,,,8448VD,Heerenveen,Heerenveen,Friesland,VBO,5.958799,52.958658
Regentesselaan,30,,,8448VD,Heerenveen,Heerenveen,Friesland,VBO,5.957586,52.959432
Regentesselaan,31,,,8448VD,Heerenveen,Heerenveen,Friesland,VBO,5.958840,52.958506
Regentesselaan,32,,,8448VD,Heerenveen,Heerenveen,Friesland,VBO,5.957616,52.959376
Regentesselaan,33,,,8448VD,Heerenveen,Heerenveen,Friesland,VBO,5.958917,52.958363
Regentesselaan,34,,,8448VD,Heerenveen,Heerenveen,Friesland,VBO,5.957659,52.959318
Regentesselaan,35,,,8448VD,Heerenveen,Heerenveen,Friesland,VBO,5.959049,52.958243
Regentesselaan,36,,,8448VD,Heerenveen,Heerenveen,Friesland,VBO,5.957699,52.959258
Regentesselaan,37,,,8448VD,Heerenveen,Heerenveen,Friesland,VBO,5.959078,52.958090
Regentesselaan,38,,,8448VD,Heerenveen,Heerenveen,Friesland,VBO,5.957736,52.959199
Regentesselaan,39,,,8448VD,Heerenveen,Heerenveen,Friesland,VBO,5.959182,52.957918
Regentesselaan,40,,,8448VD,Heerenveen,Heerenveen,Friesland,VBO,5.957951,52.958836
Regentesselaan,41,,,8448VD,Heerenveen,Heerenveen,Friesland,VBO,5.959302,52.957809
Regentesselaan,42,,,8448VD,Heerenveen,Heerenveen,Friesland,VBO,5.957992,52.958775
Regentesselaan,44,,,8448VD,Heerenveen,Heerenveen,Friesland,VBO,5.958031,52.958716
Regentesselaan,46,,,8448VD,Heerenveen,Heerenveen,Friesland,VBO,5.958064,52.958658
Regentesselaan,48,,,8448VD,Heerenveen,Heerenveen,Friesland,VBO,5.958104,52.958598
Regentesselaan,49,,,8448VD,Heerenveen,Heerenveen,Friesland,VBO,5.960063,52.956488
Regentesselaan,50,,,8448VD,Heerenveen,Heerenveen,Friesland,VBO,5.958147,52.958539
Regentesselaan,51,,,8448VD,Heerenveen,Heerenveen,Friesland,VBO,5.960169,52.956368
Regentesselaan,52,,,8448VD,Heerenveen,Heerenveen,Friesland,VBO,5.958250,52.958387
Regentesselaan,54,,,8448VD,Heerenveen,Heerenveen,Friesland,VBO,5.958295,52.958320
Regentesselaan,56,,,8448VD,Heerenveen,Heerenveen,Friesland,VBO,5.958385,52.958221
Regentesselaan,58,,,8448VD,Heerenveen,Heerenveen,Friesland,VBO,5.958417,52.958173
Regentesselaan,60,,,8448VD,Heerenveen,Heerenveen,Friesland,VBO,5.958450,52.958124
Regentesselaan,62,,,8448VD,Heerenveen,Heerenveen,Friesland,VBO,5.958502,52.958011
Regentesselaan,64,,,8448VD,Heerenveen,Heerenveen,Friesland,VBO,5.958534,52.957962
Regentesselaan,66,,,8448VD,Heerenveen,Heerenveen,Friesland,VBO,5.958567,52.957914
Regentesselaan,68,,,8448VD,Heerenveen,Heerenveen,Friesland,VBO,5.958616,52.957805
Regentesselaan,70,,,8448VD,Heerenveen,Heerenveen,Friesland,VBO,5.958661,52.957738
Magistraat,1,,,8448VE,Heerenveen,Heerenveen,Friesland,VBO,5.956424,52.960410
Magistraat,2,,,8448VE,Heerenveen,Heerenveen,Friesland,VBO,5.956504,52.960430
Magistraat,3,,,8448VE,Heerenveen,Heerenveen,Friesland,VBO,5.956583,52.960449
Magistraat,4,,,8448VE,Heerenveen,Heerenveen,Friesland,VBO,5.956662,52.960467
Magistraat,5,,,8448VE,Heerenveen,Heerenveen,Friesland,VBO,5.956742,52.960487
Troubadour,1,,,8448VG,Heerenveen,Heerenveen,Friesland,VBO,5.955729,52.959667
Troubadour,2,,,8448VG,Heerenveen,Heerenveen,Friesland,VBO,5.955581,52.959924
Troubadour,3,,,8448VG,Heerenveen,Heerenveen,Friesland,VBO,5.955655,52.959640
Troubadour,4,,,8448VG,Heerenveen,Heerenveen,Friesland,VBO,5.955468,52.959901
Troubadour,5,,,8448VG,Heerenveen,Heerenveen,Friesland,VBO,5.955582,52.959613
Troubadour,6,,,8448VG,Heerenveen,Heerenveen,Friesland,VBO,5.955313,52.959843
Troubadour,7,,,8448VG,Heerenveen,Heerenveen,Friesland,VBO,5.955510,52.959587
Troubadour,8,,,8448VG,Heerenveen,Heerenveen,Friesland,VBO,5.955203,52.959817
Troubadour,9,,,8448VG,Heerenveen,Heerenveen,Friesland,VBO,5.955436,52.959559
Troubadour,10,,,8448VG,Heerenveen,Heerenveen,Friesland,VBO,5.955052,52.959754
Troubadour,11,,,8448VG,Heerenveen,Heerenveen,Friesland,VBO,5.955316,52.959515
Troubadour,12,,,8448VG,Heerenveen,Heerenveen,Friesland,VBO,5.954945,52.959725
Troubadour,13,,,8448VG,Heerenveen,Heerenveen,Friesland,VBO,5.955242,52.959488
Troubadour,14,,,8448VG,Heerenveen,Heerenveen,Friesland,VBO,5.954785,52.959668
Troubadour,15,,,8448VG,Heerenveen,Heerenveen,Friesland,VBO,5.955169,52.959461
Troubadour,17,,,8448VG,Heerenveen,Heerenveen,Friesland,VBO,5.955097,52.959435
Troubadour,19,,,8448VG,Heerenveen,Heerenveen,Friesland,VBO,5.955023,52.959407
Palfrenier,1,,,8448VH,Heerenveen,Heerenveen,Friesland,VBO,5.956102,52.959095
Palfrenier,2,,,8448VH,Heerenveen,Heerenveen,Friesland,VBO,5.955929,52.959366
Palfrenier,3,,,8448VH,Heerenveen,Heerenveen,Friesland,VBO,5.955995,52.959070
Palfrenier,4,,,8448VH,Heerenveen,Heerenveen,Friesland,VBO,5.955852,52.959342
Palfrenier,5,,,8448VH,Heerenveen,Heerenveen,Friesland,VBO,5.955845,52.959017
Palfrenier,6,,,8448VH,Heerenveen,Heerenveen,Friesland,VBO,5.955776,52.959319
Palfrenier,7,,,8448VH,Heerenveen,Heerenveen,Friesland,VBO,5.955738,52.958991
Palfrenier,8,,,8448VH,Heerenveen,Heerenveen,Friesland,VBO,5.955701,52.959295
Palfrenier,9,,,8448VH,Heerenveen,Heerenveen,Friesland,VBO,5.955588,52.958939
Palfrenier,10,,,8448VH,Heerenveen,Heerenveen,Friesland,VBO,5.955624,52.959272
Palfrenier,11,,,8448VH,Heerenveen,Heerenveen,Friesland,VBO,5.955482,52.958913
Palfrenier,12,,,8448VH,Heerenveen,Heerenveen,Friesland,VBO,5.955499,52.959233
Palfrenier,13,,,8448VH,Heerenveen,Heerenveen,Friesland,VBO,5.955330,52.958859
Palfrenier,14,,,8448VH,Heerenveen,Heerenveen,Friesland,VBO,5.955422,52.959209
Palfrenier,16,,,8448VH,Heerenveen,Heerenveen,Friesland,VBO,5.955346,52.959185
Palfrenier,18,,,8448VH,Heerenveen,Heerenveen,Friesland,VBO,5.955271,52.959162
Palfrenier,20,,,8448VH,Heerenveen,Heerenveen,Friesland,VBO,5.955194,52.959138
Landdrost,1,,,8448VJ,Heerenveen,Heerenveen,Friesland,VBO,5.958147,52.957370
Landdrost,2,,,8448VJ,Heerenveen,Heerenveen,Friesland,VBO,5.958259,52.957397
Landdrost,3,,,8448VJ,Heerenveen,Heerenveen,Friesland,VBO,5.958451,52.957445
Landdrost,4,,,8448VJ,Heerenveen,Heerenveen,Friesland,VBO,5.958563,52.957472
Landdrost,5,,,8448VJ,Heerenveen,Heerenveen,Friesland,VBO,5.958755,52.957519
Landdrost,6,,,8448VJ,Heerenveen,Heerenveen,Friesland,VBO,5.958866,52.957546
Potsenmaker,2,,,8448VK,Heerenveen,Heerenveen,Friesland,VBO,5.955414,52.960189
Potsenmaker,3,,,8448VK,Heerenveen,Heerenveen,Friesland,VBO,5.955180,52.960111
Potsenmaker,4,,,8448VK,Heerenveen,Heerenveen,Friesland,VBO,5.954883,52.960013
Potsenmaker,5,,,8448VK,Heerenveen,Heerenveen,Friesland,VBO,5.954642,52.959979
Grietman,2,,,8448VL,Heerenveen,Heerenveen,Friesland,VBO,5.956844,52.959954
Grietman,4,,,8448VL,Heerenveen,Heerenveen,Friesland,VBO,5.956951,52.959980
