openbareruimtenaam,huisnummer,huisletter,huisnummertoevoeging,postcode,woonplaatsnaam,gemeentenaam,provincienaam,typeadresseerbaarobject,longitude,latitude
Kolkhuzerwei,1,,,9105AM,Rinsumageast,Dantumadiel,Friesland,VBO,5.902428,53.283174
Kolkhuzerwei,2,,,9105AM,Rinsumageast,Dantumadiel,Friesland,VBO,5.900753,53.282872
Heechfinne,1,a,,9105AN,Rinsumageast,Dantumadiel,Friesland,VBO,5.957271,53.282616
Heechfinne,1,b,,9105AN,Rinsumageast,Dantumadiel,Friesland,VBO,5.957714,53.282361
Heechfinne,1,,,9105AN,Rinsumageast,Dantumadiel,Friesland,VBO,5.958697,53.283894
Heechfinne,3,,,9105AN,Rinsumageast,Dantumadiel,Friesland,VBO,5.953052,53.278825
Heechfinne,4,,,9105AN,Rinsumageast,Dantumadiel,Friesland,VBO,5.954224,53.280230
Heechfinne,5,a,,9105AN,Rinsumageast,Dantumadiel,Friesland,VBO,5.953518,53.273290
Heechfinne,5,,,9105AN,Rinsumageast,Dantumadiel,Friesland,VBO,5.950081,53.277045
Heechfinne,6,,,9105AN,Rinsumageast,Dantumadiel,Friesland,VBO,5.953567,53.279742
Heechfinne,8,,,9105AN,Rinsumageast,Dantumadiel,Friesland,VBO,5.952693,53.279052
Heechfinne,10,,,9105AN,Rinsumageast,Dantumadiel,Friesland,VBO,5.952365,53.278783
Heechfinne,12,,,9105AN,Rinsumageast,Dantumadiel,Friesland,VBO,5.951534,53.278180
Reidfjild,1,,,9105AP,Rinsumageast,Dantumadiel,Friesland,VBO,5.946092,53.275603
Reidfjild,2,,,9105AP,Rinsumageast,Dantumadiel,Friesland,VBO,5.935490,53.273614
Reidfjild,3,,,9105AP,Rinsumageast,Dantumadiel,Friesland,VBO,5.942477,53.274956
Tuskenmarren,1,,,9105AR,Rinsumageast,Dantumadiel,Friesland,VBO,5.952394,53.295182
Tuskenmarren,2,,,9105AR,Rinsumageast,Dantumadiel,Friesland,VBO,5.926656,53.279576
Tuskenmarren,3,,,9105AR,Rinsumageast,Dantumadiel,Friesland,VBO,5.936901,53.282744
Fjildwei,1,a,,9105AS,Rinsumageast,Dantumadiel,Friesland,VBO,5.935402,53.293757
Fjildwei,1,,,9105AS,Rinsumageast,Dantumadiel,Friesland,VBO,5.935152,53.293870
Fjildwei,5,,,9105AS,Rinsumageast,Dantumadiel,Friesland,VBO,5.931626,53.292607
Fjildwei,6,,,9105AS,Rinsumageast,Dantumadiel,Friesland,VBO,5.919066,53.287790
Fjildwei,7,,,9105AS,Rinsumageast,Dantumadiel,Friesland,VBO,5.927872,53.290925
Fjildwei,9,,,9105AS,Rinsumageast,Dantumadiel,Friesland,VBO,5.926348,53.290254
Fjildwei,12,,,9105AS,Rinsumageast,Dantumadiel,Friesland,VBO,5.913141,53.285335
Fjildwei,13,,,9105AS,Rinsumageast,Dantumadiel,Friesland,VBO,5.910696,53.283652
Fjildwei,18,,,9105AS,Rinsumageast,Dantumadiel,Friesland,VBO,5.906034,53.282486
Eysingawei,1,,,9105AT,Rinsumageast,Dantumadiel,Friesland,VBO,5.952582,53.296169
Eysingawei,3,,,9105AT,Rinsumageast,Dantumadiel,Friesland,VBO,5.952707,53.296220
Eysingawei,5,,,9105AT,Rinsumageast,Dantumadiel,Friesland,VBO,5.952860,53.296250
Eysingawei,7,,,9105AT,Rinsumageast,Dantumadiel,Friesland,VBO,5.953024,53.296492
Eysingawei,9,,,9105AT,Rinsumageast,Dantumadiel,Friesland,VBO,5.953145,53.296542
Eysingawei,10,,,9105AT,Rinsumageast,Dantumadiel,Friesland,VBO,5.954556,53.296470
Eysingawei,11,,,9105AT,Rinsumageast,Dantumadiel,Friesland,VBO,5.954422,53.296650
Eysingawei,12,,,9105AT,Rinsumageast,Dantumadiel,Friesland,VBO,5.955735,53.296656
Eysingawei,13,,,9105AT,Rinsumageast,Dantumadiel,Friesland,VBO,5.954509,53.296668
Eysingawei,14,,,9105AT,Rinsumageast,Dantumadiel,Friesland,VBO,5.956224,53.297207
Eysingawei,15,,,9105AT,Rinsumageast,Dantumadiel,Friesland,VBO,5.956373,53.298210
Eysingawei,16,,,9105AT,Rinsumageast,Dantumadiel,Friesland,VBO,5.956665,53.297190
Eysingawei,17,,,9105AT,Rinsumageast,Dantumadiel,Friesland,VBO,5.956823,53.298386
Eysingawei,18,,,9105AT,Rinsumageast,Dantumadiel,Friesland,VBO,5.957650,53.297079
Eysingawei,19,,,9105AT,Rinsumageast,Dantumadiel,Friesland,VBO,5.958120,53.298704
Eysingawei,20,a,,9105AT,Rinsumageast,Dantumadiel,Friesland,VBO,5.957531,53.298050
Eysingawei,20,,,9105AT,Rinsumageast,Dantumadiel,Friesland,VBO,5.957142,53.297955
Eysingawei,21,,,9105AT,Rinsumageast,Dantumadiel,Friesland,VBO,5.959576,53.299233
Eysingawei,22,,,9105AT,Rinsumageast,Dantumadiel,Friesland,VBO,5.961075,53.299284
Eysingawei,23,,,9105AT,Rinsumageast,Dantumadiel,Friesland,VBO,5.961026,53.299756
Eysingawei,24,,,9105AT,Damwâld,Dantumadiel,Friesland,VBO,5.963107,53.297912
Trekwei,2,,,9105AV,Rinsumageast,Dantumadiel,Friesland,VBO,5.955854,53.306605
Trekwei,5,,,9105AV,Rinsumageast,Dantumadiel,Friesland,VBO,5.944616,53.301687
Trekwei,7,,,9105AV,Rinsumageast,Dantumadiel,Friesland,VBO,5.943881,53.302708
Trekwei,11,,,9105AV,Rinsumageast,Dantumadiel,Friesland,VBO,5.937958,53.305237
Wierewei,28,,,9105AW,Rinsumageast,Dantumadiel,Friesland,VBO,5.919695,53.295932
Wierewei,30,,,9105AW,Rinsumageast,Dantumadiel,Friesland,VBO,5.939244,53.300498
Wierewei,32,,,9105AW,Rinsumageast,Dantumadiel,Friesland,VBO,5.938697,53.297704
Wierewei,21,a,,9105AX,Rinsumageast,Dantumadiel,Friesland,VBO,5.906319,53.292883
Wierewei,21,,,9105AX,Rinsumageast,Dantumadiel,Friesland,VBO,5.906699,53.292893
Wierewei,23,,,9105AX,Rinsumageast,Dantumadiel,Friesland,VBO,5.913635,53.294958
Klaarkampsterwei,4,,,9105AZ,Rinsumageast,Dantumadiel,Friesland,VBO,5.930794,53.309335
Klaarkampsterwei,6,,,9105AZ,Rinsumageast,Dantumadiel,Friesland,VBO,5.928198,53.309000
Klaarkampsterwei,8,,,9105AZ,Rinsumageast,Dantumadiel,Friesland,VBO,5.927227,53.309096
Klaarkampsterwei,12,,,9105AZ,Rinsumageast,Dantumadiel,Friesland,VBO,5.923073,53.307832
Klaarkampsterwei,14,,,9105AZ,Rinsumageast,Dantumadiel,Friesland,VBO,5.922976,53.307798
Klaarkampsterwei,15,,,9105AZ,Rinsumageast,Dantumadiel,Friesland,VBO,5.922390,53.304089
Klaarkampsterwei,16,,,9105AZ,Rinsumageast,Dantumadiel,Friesland,VBO,5.911795,53.306769
Klaarkampsterwei,18,,,9105AZ,Rinsumageast,Dantumadiel,Friesland,VBO,5.912976,53.304149
Klaarkampsterwei,22,,,9105AZ,Rinsumageast,Dantumadiel,Friesland,VBO,5.906866,53.302971
Klaarkampsterwei,24,,,9105AZ,Rinsumageast,Dantumadiel,Friesland,VBO,5.905863,53.304796
Klaarkampsterwei,26,,,9105AZ,Rinsumageast,Dantumadiel,Friesland,VBO,5.902525,53.303538
Klaarkampsterwei,28,,,9105AZ,Rinsumageast,Dantumadiel,Friesland,VBO,5.901341,53.300266
Klaarkampsterwei,31,,,9105AZ,Rinsumageast,Dantumadiel,Friesland,VBO,5.899870,53.298647
Juckemawei,1,,,9105KA,Rinsumageast,Dantumadiel,Friesland,VBO,5.943076,53.296301
Juckemawei,3,,,9105KA,Rinsumageast,Dantumadiel,Friesland,VBO,5.942965,53.295950
Juckemawei,5,,,9105KA,Rinsumageast,Dantumadiel,Friesland,VBO,5.942083,53.296124
Juckemawei,7,,,9105KA,Rinsumageast,Dantumadiel,Friesland,VBO,5.942014,53.296105
Juckemawei,9,,,9105KA,Rinsumageast,Dantumadiel,Friesland,VBO,5.941829,53.296052
Juckemawei,11,,,9105KA,Rinsumageast,Dantumadiel,Friesland,VBO,5.941643,53.296012
Juckemawei,13,,,9105KA,Rinsumageast,Dantumadiel,Friesland,VBO,5.941459,53.295965
Juckemawei,15,,,9105KA,Rinsumageast,Dantumadiel,Friesland,VBO,5.941287,53.295923
Juckemawei,17,,,9105KA,Rinsumageast,Dantumadiel,Friesland,VBO,5.941111,53.295873
Juckemawei,19,,,9105KA,Rinsumageast,Dantumadiel,Friesland,VBO,5.940912,53.295822
Juckemawei,21,,,9105KA,Rinsumageast,Dantumadiel,Friesland,VBO,5.940742,53.295776
Juckemawei,23,,,9105KA,Rinsumageast,Dantumadiel,Friesland,VBO,5.940561,53.295724
Juckemawei,25,,,9105KA,Rinsumageast,Dantumadiel,Friesland,VBO,5.940357,53.295677
Juckemawei,29,,,9105KA,Rinsumageast,Dantumadiel,Friesland,VBO,5.939923,53.295486
Juckemawei,31,,,9105KA,Rinsumageast,Dantumadiel,Friesland,VBO,5.939732,53.295130
Juckemawei,2,a,,9105KB,Rinsumageast,Dantumadiel,Friesland,VBO,5.942658,53.296565
Juckemawei,2,,,9105KB,Rinsumageast,Dantumadiel,Friesland,VBO,5.942253,53.296535
Juckemawei,4,,,9105KB,Rinsumageast,Dantumadiel,Friesland,VBO,5.941676,53.296318
Juckemawei,6,,,9105KB,Rinsumageast,Dantumadiel,Friesland,VBO,5.941134,53.296204
Juckemawei,8,,,9105KB,Rinsumageast,Dantumadiel,Friesland,VBO,5.938602,53.295518
Witewei,1,,,9105KC,Rinsumageast,Dantumadiel,Friesland,VBO,5.940071,53.296438
Tjaerdawei,1,,,9105KD,Rinsumageast,Dantumadiel,Friesland,VBO,5.948049,53.296874
Tjaerdawei,3,,,9105KD,Rinsumageast,Dantumadiel,Friesland,VBO,5.947636,53.296741
Tjaerdawei,5,,,9105KD,Rinsumageast,Dantumadiel,Friesland,VBO,5.947515,53.296661
Tjaerdawei,7,,,9105KD,Rinsumageast,Dantumadiel,Friesland,VBO,5.947340,53.296629
Tjaerdawei,9,,,9105KD,Rinsumageast,Dantumadiel,Friesland,VBO,5.947243,53.296592
Tjaerdawei,11,,,9105KD,Rinsumageast,Dantumadiel,Friesland,VBO,5.947148,53.296564
Tjaerdawei,13,,,9105KD,Rinsumageast,Dantumadiel,Friesland,VBO,5.947055,53.296530
Tjaerdawei,19,,,9105KD,Rinsumageast,Dantumadiel,Friesland,VBO,5.946848,53.296452
Tjaerdawei,23,,,9105KD,Rinsumageast,Dantumadiel,Friesland,VBO,5.946754,53.296416
Tjaerdawei,25,,,9105KD,Rinsumageast,Dantumadiel,Friesland,VBO,5.946640,53.296380
Tjaerdawei,29,,,9105KD,Rinsumageast,Dantumadiel,Friesland,VBO,5.946457,53.296327
Tjaerdawei,31,,,9105KD,Rinsumageast,Dantumadiel,Friesland,VBO,5.946619,53.296199
Tjaerdawei,33,,,9105KD,Rinsumageast,Dantumadiel,Friesland,VBO,5.946432,53.295985
Tjaerdawei,35,,,9105KD,Rinsumageast,Dantumadiel,Friesland,VBO,5.946501,53.295918
Tjaerdawei,39,,,9105KD,Rinsumageast,Dantumadiel,Friesland,VBO,5.946091,53.296224
Tjaerdawei,41,,,9105KD,Rinsumageast,Dantumadiel,Friesland,VBO,5.945888,53.296172
Tjaerdawei,43,a,,9105KD,Rinsumageast,Dantumadiel,Friesland,VBO,5.946221,53.295783
Tjaerdawei,43,,,9105KD,Rinsumageast,Dantumadiel,Friesland,VBO,5.945896,53.295906
Tjaerdawei,45,,,9105KD,Rinsumageast,Dantumadiel,Friesland,VBO,5.943793,53.296283
Tjaerdawei,2,,,9105KE,Rinsumageast,Dantumadiel,Friesland,VBO,5.948554,53.297257
Tjaerdawei,4,,,9105KE,Rinsumageast,Dantumadiel,Friesland,VBO,5.948420,53.297204
Tjaerdawei,6,,,9105KE,Rinsumageast,Dantumadiel,Friesland,VBO,5.948320,53.297180
Tjaerdawei,8,,,9105KE,Rinsumageast,Dantumadiel,Friesland,VBO,5.948199,53.297131
Tjaerdawei,10,,,9105KE,Rinsumageast,Dantumadiel,Friesland,VBO,5.948003,53.297062
Tjaerdawei,12,,,9105KE,Rinsumageast,Dantumadiel,Friesland,VBO,5.947894,53.297024
Tjaerdawei,14,,,9105KE,Rinsumageast,Dantumadiel,Friesland,VBO,5.947794,53.296988
Tjaerdawei,18,,,9105KE,Rinsumageast,Dantumadiel,Friesland,VBO,5.947554,53.296898
Tjaerdawei,20,,,9105KE,Rinsumageast,Dantumadiel,Friesland,VBO,5.947219,53.296927
Tjaerdawei,22,,,9105KE,Rinsumageast,Dantumadiel,Friesland,VBO,5.947070,53.296777
Tjaerdawei,24,,,9105KE,Rinsumageast,Dantumadiel,Friesland,VBO,5.947091,53.296725
Tjaerdawei,26,,,9105KE,Rinsumageast,Dantumadiel,Friesland,VBO,5.946972,53.296689
Tjaerdawei,28,,,9105KE,Rinsumageast,Dantumadiel,Friesland,VBO,5.946846,53.296658
Tjaerdawei,32,,,9105KG,Rinsumageast,Dantumadiel,Friesland,VBO,5.946694,53.296583
Tjaerdawei,34,,,9105KG,Rinsumageast,Dantumadiel,Friesland,VBO,5.946614,53.296541
Tjaerdawei,38,,,9105KG,Rinsumageast,Dantumadiel,Friesland,VBO,5.946430,53.296483
Tjaerdawei,40,,,9105KG,Rinsumageast,Dantumadiel,Friesland,VBO,5.946099,53.296464
Tjaerdawei,42,a,,9105KG,Rinsumageast,Dantumadiel,Friesland,VBO,5.945874,53.297160
Tjaerdawei,42,b,,9105KG,Rinsumageast,Dantumadiel,Friesland,VBO,5.945248,53.297390
Tjaerdawei,42,,,9105KG,Rinsumageast,Dantumadiel,Friesland,VBO,5.945773,53.296540
Tjaerdawei,46,,,9105KG,Rinsumageast,Dantumadiel,Friesland,VBO,5.944781,53.296653
Tjaerdawei,48,,,9105KG,Rinsumageast,Dantumadiel,Friesland,VBO,5.944273,53.296786
Tjaerdawei,50,,,9105KG,Rinsumageast,Dantumadiel,Friesland,VBO,5.944475,53.296634
Tjaerdawei,52,,,9105KG,Rinsumageast,Dantumadiel,Friesland,VBO,5.944060,53.296654
Tjaerdawei,54,,,9105KG,Rinsumageast,Dantumadiel,Friesland,VBO,5.943413,53.296606
Rjochthússtrjitte,1,,,9105KH,Rinsumageast,Dantumadiel,Friesland,VBO,5.948997,53.296958
Rjochthússtrjitte,5,,,9105KH,Rinsumageast,Dantumadiel,Friesland,VBO,5.948846,53.296912
Rjochthússtrjitte,7,,,9105KH,Rinsumageast,Dantumadiel,Friesland,VBO,5.948738,53.296845
Rjochthússtrjitte,9,,,9105KH,Rinsumageast,Dantumadiel,Friesland,VBO,5.948669,53.296801
Rjochthússtrjitte,11,a,,9105KH,Rinsumageast,Dantumadiel,Friesland,VBO,5.948557,53.296743
Rjochthússtrjitte,11,,,9105KH,Rinsumageast,Dantumadiel,Friesland,VBO,5.948567,53.296722
Rjochthússtrjitte,13,,,9105KH,Rinsumageast,Dantumadiel,Friesland,VBO,5.948709,53.296514
Rjochthússtrjitte,15,,,9105KH,Rinsumageast,Dantumadiel,Friesland,VBO,5.948461,53.296672
Rjochthússtrjitte,17,,,9105KH,Rinsumageast,Dantumadiel,Friesland,VBO,5.948380,53.296628
Rjochthússtrjitte,19,,,9105KH,Rinsumageast,Dantumadiel,Friesland,VBO,5.948281,53.296561
Rjochthússtrjitte,21,,,9105KH,Rinsumageast,Dantumadiel,Friesland,VBO,5.948157,53.296502
Rjochthússtrjitte,23,,,9105KH,Rinsumageast,Dantumadiel,Friesland,VBO,5.947941,53.296341
Rjochthússtrjitte,25,,,9105KH,Rinsumageast,Dantumadiel,Friesland,VBO,5.947813,53.296263
Rjochthússtrjitte,27,,,9105KH,Rinsumageast,Dantumadiel,Friesland,VBO,5.947728,53.296197
Rjochthússtrjitte,29,,,9105KH,Rinsumageast,Dantumadiel,Friesland,VBO,5.947607,53.296138
Rjochthússtrjitte,31,,,9105KH,Rinsumageast,Dantumadiel,Friesland,VBO,5.947563,53.295901
Rjochthússtrjitte,33,,,9105KH,Rinsumageast,Dantumadiel,Friesland,VBO,5.947270,53.295865
Rjochthússtrjitte,35,,,9105KH,Rinsumageast,Dantumadiel,Friesland,VBO,5.947028,53.295714
Rjochthússtrjitte,37,,,9105KH,Rinsumageast,Dantumadiel,Friesland,VBO,5.946905,53.295587
Galgeheech,1,a,48,9105KJ,Rinsumageast,Dantumadiel,Friesland,VBO,5.946832,53.295477
Galgeheech,1,a,49,9105KJ,Rinsumageast,Dantumadiel,Friesland,VBO,5.946866,53.295487
Galgeheech,3,,,9105KJ,Rinsumageast,Dantumadiel,Friesland,VBO,5.946236,53.294958
Galgeheech,5,,,9105KJ,Rinsumageast,Dantumadiel,Friesland,VBO,5.945937,53.294830
Galgeheech,7,a,,9105KJ,Rinsumageast,Dantumadiel,Friesland,VBO,5.944029,53.292993
Galgeheech,7,b,,9105KJ,Rinsumageast,Dantumadiel,Friesland,VBO,5.943238,53.292608
Galgeheech,7,,,9105KJ,Rinsumageast,Dantumadiel,Friesland,VBO,5.945440,53.294135
Galgeheech,9,,,9105KJ,Rinsumageast,Dantumadiel,Friesland,VBO,5.941802,53.291954
Galgeheech,11,,,9105KJ,Rinsumageast,Dantumadiel,Friesland,VBO,5.941033,53.291018
Galgeheech,13,,,9105KJ,Rinsumageast,Dantumadiel,Friesland,VBO,5.939677,53.290630
Galgeheech,15,,,9105KJ,Rinsumageast,Dantumadiel,Friesland,VBO,5.939977,53.290230
De Fintsjes,1,,,9105KK,Rinsumageast,Dantumadiel,Friesland,VBO,5.946703,53.295416
De Fintsjes,2,,,9105KK,Rinsumageast,Dantumadiel,Friesland,VBO,5.946549,53.295108
De Fintsjes,3,,,9105KK,Rinsumageast,Dantumadiel,Friesland,VBO,5.946770,53.295356
De Fintsjes,4,,,9105KK,Rinsumageast,Dantumadiel,Friesland,VBO,5.946915,53.294867
De Fintsjes,5,,,9105KK,Rinsumageast,Dantumadiel,Friesland,VBO,5.946844,53.295305
De Fintsjes,6,,,9105KK,Rinsumageast,Dantumadiel,Friesland,VBO,5.946662,53.294736
De Fintsjes,7,,,9105KK,Rinsumageast,Dantumadiel,Friesland,VBO,5.947093,53.295092
De Fintsjes,8,,,9105KK,Rinsumageast,Dantumadiel,Friesland,VBO,5.946590,53.294553
De Fintsjes,9,,,9105KK,Rinsumageast,Dantumadiel,Friesland,VBO,5.947134,53.295041
De Fintsjes,10,a,,9105KK,Rinsumageast,Dantumadiel,Friesland,VBO,5.947009,53.294434
De Fintsjes,10,,,9105KK,Rinsumageast,Dantumadiel,Friesland,VBO,5.947024,53.294479
De Fintsjes,11,,,9105KK,Rinsumageast,Dantumadiel,Friesland,VBO,5.947196,53.294988
De Fintsjes,12,,,9105KK,Rinsumageast,Dantumadiel,Friesland,VBO,5.946918,53.294279
De Fintsjes,13,,,9105KK,Rinsumageast,Dantumadiel,Friesland,VBO,5.947272,53.294939
De Fintsjes,14,,,9105KK,Rinsumageast,Dantumadiel,Friesland,VBO,5.947051,53.294082
De Fintsjes,15,,,9105KK,Rinsumageast,Dantumadiel,Friesland,VBO,5.947331,53.294887
De Fintsjes,16,,,9105KK,Rinsumageast,Dantumadiel,Friesland,VBO,5.947224,53.293910
De Fintsjes,17,,,9105KK,Rinsumageast,Dantumadiel,Friesland,VBO,5.947339,53.294396
D.K. Boersmastrjitte,1,,,9105KL,Rinsumageast,Dantumadiel,Friesland,VBO,5.947066,53.295358
D.K. Boersmastrjitte,3,,,9105KL,Rinsumageast,Dantumadiel,Friesland,VBO,5.947161,53.295399
D.K. Boersmastrjitte,5,,,9105KL,Rinsumageast,Dantumadiel,Friesland,VBO,5.947227,53.295430
D.K. Boersmastrjitte,9,,,9105KL,Rinsumageast,Dantumadiel,Friesland,VBO,5.947396,53.295498
D.K. Boersmastrjitte,11,,,9105KL,Rinsumageast,Dantumadiel,Friesland,VBO,5.947469,53.295531
D.K. Boersmastrjitte,13,,,9105KL,Rinsumageast,Dantumadiel,Friesland,VBO,5.947623,53.295583
D.K. Boersmastrjitte,15,,,9105KL,Rinsumageast,Dantumadiel,Friesland,VBO,5.947707,53.295618
D.K. Boersmastrjitte,17,,,9105KL,Rinsumageast,Dantumadiel,Friesland,VBO,5.947782,53.295680
D.K. Boersmastrjitte,21,,,9105KL,Rinsumageast,Dantumadiel,Friesland,VBO,5.947954,53.295710
D.K. Boersmastrjitte,23,,,9105KL,Rinsumageast,Dantumadiel,Friesland,VBO,5.948023,53.295743
D.K. Boersmastrjitte,25,,,9105KL,Rinsumageast,Dantumadiel,Friesland,VBO,5.948554,53.295754
D.K. Boersmastrjitte,2,,,9105KM,Rinsumageast,Dantumadiel,Friesland,VBO,5.947331,53.295218
D.K. Boersmastrjitte,4,,,9105KM,Rinsumageast,Dantumadiel,Friesland,VBO,5.947434,53.295260
D.K. Boersmastrjitte,6,,,9105KM,Rinsumageast,Dantumadiel,Friesland,VBO,5.947517,53.295289
D.K. Boersmastrjitte,10,,,9105KM,Rinsumageast,Dantumadiel,Friesland,VBO,5.947656,53.295334
D.K. Boersmastrjitte,12,,,9105KM,Rinsumageast,Dantumadiel,Friesland,VBO,5.947740,53.295378
D.K. Boersmastrjitte,14,,,9105KM,Rinsumageast,Dantumadiel,Friesland,VBO,5.947827,53.295418
D.K. Boersmastrjitte,16,,,9105KM,Rinsumageast,Dantumadiel,Friesland,VBO,5.947920,53.295442
D.K. Boersmastrjitte,22,,,9105KM,Rinsumageast,Dantumadiel,Friesland,VBO,5.948155,53.295524
D.K. Boersmastrjitte,24,,,9105KM,Rinsumageast,Dantumadiel,Friesland,VBO,5.948212,53.295471
D.K. Boersmastrjitte,26,,,9105KM,Rinsumageast,Dantumadiel,Friesland,VBO,5.948270,53.295420
D.K. Boersmastrjitte,28,,,9105KM,Rinsumageast,Dantumadiel,Friesland,VBO,5.948328,53.295367
D.K. Boersmastrjitte,30,,,9105KM,Rinsumageast,Dantumadiel,Friesland,VBO,5.948384,53.295316
Worp van der Geeststrjitte,1,,,9105KN,Rinsumageast,Dantumadiel,Friesland,VBO,5.948197,53.294921
Worp van der Geeststrjitte,3,,,9105KN,Rinsumageast,Dantumadiel,Friesland,VBO,5.948229,53.294889
Worp van der Geeststrjitte,5,,,9105KN,Rinsumageast,Dantumadiel,Friesland,VBO,5.948288,53.294828
Worp van der Geeststrjitte,7,,,9105KN,Rinsumageast,Dantumadiel,Friesland,VBO,5.948355,53.294726
Worp van der Geeststrjitte,9,,,9105KN,Rinsumageast,Dantumadiel,Friesland,VBO,5.948404,53.294684
Worp van der Geeststrjitte,11,,,9105KN,Rinsumageast,Dantumadiel,Friesland,VBO,5.948449,53.294635
Skoallestrjitte,1,,,9105KP,Rinsumageast,Dantumadiel,Friesland,VBO,5.947656,53.294957
Skoallestrjitte,2,,,9105KP,Rinsumageast,Dantumadiel,Friesland,VBO,5.947453,53.294547
Skoallestrjitte,3,,,9105KP,Rinsumageast,Dantumadiel,Friesland,VBO,5.947748,53.294995
Skoallestrjitte,4,,,9105KP,Rinsumageast,Dantumadiel,Friesland,VBO,5.947531,53.294582
Skoallestrjitte,5,,,9105KP,Rinsumageast,Dantumadiel,Friesland,VBO,5.947840,53.295029
Skoallestrjitte,6,a,,9105KP,Rinsumageast,Dantumadiel,Friesland,VBO,5.947727,53.294668
Skoallestrjitte,6,,,9105KP,Rinsumageast,Dantumadiel,Friesland,VBO,5.947677,53.294640
Skoallestrjitte,7,,,9105KP,Rinsumageast,Dantumadiel,Friesland,VBO,5.947939,53.295068
Skoallestrjitte,8,a,,9105KP,Rinsumageast,Dantumadiel,Friesland,VBO,5.947948,53.294759
Skoallestrjitte,8,,,9105KP,Rinsumageast,Dantumadiel,Friesland,VBO,5.947893,53.294731
Skoallestrjitte,9,,,9105KP,Rinsumageast,Dantumadiel,Friesland,VBO,5.948033,53.295098
Skoallestrjitte,10,,,9105KP,Rinsumageast,Dantumadiel,Friesland,VBO,5.948513,53.295050
Skoallestrjitte,11,,,9105KP,Rinsumageast,Dantumadiel,Friesland,VBO,5.948123,53.295137
Skoallestrjitte,12,,,9105KP,Rinsumageast,Dantumadiel,Friesland,VBO,5.948580,53.295078
Skoallestrjitte,13,,,9105KP,Rinsumageast,Dantumadiel,Friesland,VBO,5.948207,53.295167
Skoallestrjitte,14,,,9105KP,Rinsumageast,Dantumadiel,Friesland,VBO,5.948663,53.295106
Skoallestrjitte,16,,,9105KP,Rinsumageast,Dantumadiel,Friesland,VBO,5.948960,53.295186
Skoallestrjitte,18,,,9105KP,Rinsumageast,Dantumadiel,Friesland,VBO,5.949229,53.295293
Skoallestrjitte,19,,,9105KP,Rinsumageast,Dantumadiel,Friesland,VBO,5.949588,53.295685
Skoallestrjitte,20,,,9105KP,Rinsumageast,Dantumadiel,Friesland,VBO,5.949457,53.295384
Skoallestrjitte,21,,,9105KP,Rinsumageast,Dantumadiel,Friesland,VBO,5.949790,53.295686
Kûperspaad,1,,,9105KR,Rinsumageast,Dantumadiel,Friesland,VBO,5.949172,53.296226
Kûperspaad,2,,,9105KR,Rinsumageast,Dantumadiel,Friesland,VBO,5.948797,53.295795
Kûperspaad,3,,,9105KR,Rinsumageast,Dantumadiel,Friesland,VBO,5.949218,53.296010
Kûperspaad,5,,,9105KR,Rinsumageast,Dantumadiel,Friesland,VBO,5.949327,53.295920
Kûperspaad,7,,,9105KR,Rinsumageast,Dantumadiel,Friesland,VBO,5.949256,53.295718
Van Aylvawei,1,,,9105KS,Rinsumageast,Dantumadiel,Friesland,VBO,5.949309,53.297029
Van Aylvawei,3,,,9105KS,Rinsumageast,Dantumadiel,Friesland,VBO,5.949414,53.296913
Van Aylvawei,5,,,9105KS,Rinsumageast,Dantumadiel,Friesland,VBO,5.949528,53.296798
Van Aylvawei,7,,,9105KS,Rinsumageast,Dantumadiel,Friesland,VBO,5.949609,53.296733
Van Aylvawei,9,,,9105KS,Rinsumageast,Dantumadiel,Friesland,VBO,5.949654,53.296684
Van Aylvawei,11,,,9105KS,Rinsumageast,Dantumadiel,Friesland,VBO,5.949733,53.296604
Van Aylvawei,15,,,9105KS,Rinsumageast,Dantumadiel,Friesland,VBO,5.949914,53.296446
Van Aylvawei,17,,,9105KS,Rinsumageast,Dantumadiel,Friesland,VBO,5.950132,53.296389
Van Aylvawei,19,,,9105KS,Rinsumageast,Dantumadiel,Friesland,VBO,5.950294,53.296317
Van Aylvawei,21,b,,9105KS,Rinsumageast,Dantumadiel,Friesland,VBO,5.950835,53.296421
Van Aylvawei,21,,,9105KS,Rinsumageast,Dantumadiel,Friesland,VBO,5.950444,53.296196
Van Aylvawei,23,,,9105KS,Rinsumageast,Dantumadiel,Friesland,VBO,5.950531,53.296076
Van Aylvawei,25,,,9105KS,Rinsumageast,Dantumadiel,Friesland,VBO,5.950985,53.295980
Van Aylvawei,27,,,9105KS,Rinsumageast,Dantumadiel,Friesland,VBO,5.951118,53.295977
Van Aylvawei,29,,,9105KS,Rinsumageast,Dantumadiel,Friesland,VBO,5.951305,53.295984
Van Aylvawei,33,,,9105KS,Rinsumageast,Dantumadiel,Friesland,VBO,5.951586,53.296024
Van Aylvawei,35,,,9105KS,Rinsumageast,Dantumadiel,Friesland,VBO,5.953507,53.295727
Van Aylvawei,37,,,9105KS,Rinsumageast,Dantumadiel,Friesland,VBO,5.954448,53.295340
Van Aylvawei,2,,,9105KT,Rinsumageast,Dantumadiel,Friesland,VBO,5.949297,53.296601
Van Aylvawei,6,,,9105KT,Rinsumageast,Dantumadiel,Friesland,VBO,5.949484,53.296488
Van Aylvawei,8,,,9105KT,Rinsumageast,Dantumadiel,Friesland,VBO,5.949622,53.296392
Van Aylvawei,10,,,9105KT,Rinsumageast,Dantumadiel,Friesland,VBO,5.949560,53.296366
Van Aylvawei,12,,,9105KT,Rinsumageast,Dantumadiel,Friesland,VBO,5.949499,53.296340
Van Aylvawei,14,,,9105KT,Rinsumageast,Dantumadiel,Friesland,VBO,5.949437,53.296313
Van Aylvawei,16,,,9105KT,Rinsumageast,Dantumadiel,Friesland,VBO,5.949375,53.296287
Van Aylvawei,18,,,9105KT,Rinsumageast,Dantumadiel,Friesland,VBO,5.949785,53.296249
Van Aylvawei,20,,,9105KT,Rinsumageast,Dantumadiel,Friesland,VBO,5.949905,53.296144
Van Aylvawei,22,,,9105KT,Rinsumageast,Dantumadiel,Friesland,VBO,5.949948,53.296075
Van Aylvawei,24,,,9105KT,Rinsumageast,Dantumadiel,Friesland,VBO,5.950065,53.296013
Van Aylvawei,28,,,9105KT,Rinsumageast,Dantumadiel,Friesland,VBO,5.950221,53.295878
Van Aylvawei,32,a,,9105KT,Rinsumageast,Dantumadiel,Friesland,VBO,5.950522,53.295239
Van Aylvawei,32,,,9105KT,Rinsumageast,Dantumadiel,Friesland,VBO,5.951166,53.295372
Van Aylvawei,38,,,9105KT,Rinsumageast,Dantumadiel,Friesland,VBO,5.953052,53.295211
Van Aylvawei,40,,,9105KT,Rinsumageast,Dantumadiel,Friesland,VBO,5.953731,53.295114
Van Aylvawei,42,,,9105KT,Rinsumageast,Dantumadiel,Friesland,VBO,5.953848,53.295021
De Kapelle,5,,,9105KV,Rinsumageast,Dantumadiel,Friesland,VBO,5.957315,53.295056
De Kapelle,7,,,9105KV,Rinsumageast,Dantumadiel,Friesland,VBO,5.957945,53.295002
De Kapelle,8,,,9105KV,Rinsumageast,Dantumadiel,Friesland,VBO,5.957806,53.294653
De Kapelle,9,,,9105KV,Rinsumageast,Dantumadiel,Friesland,VBO,5.958280,53.294964
De Kapelle,11,,,9105KV,Rinsumageast,Dantumadiel,Friesland,VBO,5.958703,53.294780
De Kapelle,12,,,9105KV,Rinsumageast,Dantumadiel,Friesland,VBO,5.958230,53.294613
De Kapelle,14,,,9105KV,Rinsumageast,Dantumadiel,Friesland,VBO,5.958738,53.294476
De Kapelle,15,,,9105KV,Rinsumageast,Dantumadiel,Friesland,VBO,5.959678,53.294506
De Kapelle,18,a,,9105KV,Rinsumageast,Dantumadiel,Friesland,VBO,5.959053,53.294345
De Kapelle,18,,,9105KV,Rinsumageast,Dantumadiel,Friesland,VBO,5.958984,53.294437
De Kapelle,19,,,9105KV,Rinsumageast,Dantumadiel,Friesland,VBO,5.961112,53.294127
De Kapelle,20,,,9105KV,Rinsumageast,Dantumadiel,Friesland,VBO,5.959516,53.294209
De Kapelle,21,,,9105KV,Rinsumageast,Dantumadiel,Friesland,VBO,5.964775,53.292486
De Kapelle,22,,,9105KV,Rinsumageast,Dantumadiel,Friesland,VBO,5.961349,53.293437
Aldewei,2,,,9105KW,Rinsumageast,Dantumadiel,Friesland,VBO,5.958714,53.293286
Aldewei,4,,,9105KW,Rinsumageast,Dantumadiel,Friesland,VBO,5.958287,53.293121
Aldewei,8,a,,9105KW,Rinsumageast,Dantumadiel,Friesland,VBO,5.962799,53.292270
Aldewei,8,,,9105KW,Rinsumageast,Dantumadiel,Friesland,VBO,5.960982,53.292839
Aldewei,10,,,9105KW,Rinsumageast,Dantumadiel,Friesland,VBO,5.963434,53.292235
Aldewei,12,,,9105KW,Rinsumageast,Dantumadiel,Friesland,VBO,5.963775,53.292256
Aldewei,14,,,9105KW,Rinsumageast,Dantumadiel,Friesland,VBO,5.963694,53.291966
Aldewei,18,,,9105KW,Rinsumageast,Dantumadiel,Friesland,VBO,5.964187,53.292110
Aldewei,18,,,9105KW,Rinsumageast,Dantumadiel,Friesland,VBO,5.964188,53.292141
Aldewei,20,,,9105KW,Rinsumageast,Dantumadiel,Friesland,VBO,5.964248,53.292131
Camstrastrjitte,1,,,9105KX,Rinsumageast,Dantumadiel,Friesland,VBO,5.950754,53.297404
Camstrastrjitte,3,,,9105KX,Rinsumageast,Dantumadiel,Friesland,VBO,5.950813,53.297348
Camstrastrjitte,5,,,9105KX,Rinsumageast,Dantumadiel,Friesland,VBO,5.950897,53.297269
Camstrastrjitte,7,,,9105KX,Rinsumageast,Dantumadiel,Friesland,VBO,5.950966,53.297210
Camstrastrjitte,9,,,9105KX,Rinsumageast,Dantumadiel,Friesland,VBO,5.951051,53.297137
Camstrastrjitte,11,,,9105KX,Rinsumageast,Dantumadiel,Friesland,VBO,5.951118,53.297079
Camstrastrjitte,13,,,9105KX,Rinsumageast,Dantumadiel,Friesland,VBO,5.951203,53.297004
Camstrastrjitte,15,,,9105KX,Rinsumageast,Dantumadiel,Friesland,VBO,5.951260,53.296951
Camstrastrjitte,17,,,9105KX,Rinsumageast,Dantumadiel,Friesland,VBO,5.951353,53.296865
Camstrastrjitte,19,,,9105KX,Rinsumageast,Dantumadiel,Friesland,VBO,5.951406,53.296823
Camstrastrjitte,21,,,9105KX,Rinsumageast,Dantumadiel,Friesland,VBO,5.951504,53.296733
Camstrastrjitte,23,,,9105KX,Rinsumageast,Dantumadiel,Friesland,VBO,5.951555,53.296688
Camstrastrjitte,25,,,9105KX,Rinsumageast,Dantumadiel,Friesland,VBO,5.951645,53.296606
Camstrastrjitte,27,,,9105KX,Rinsumageast,Dantumadiel,Friesland,VBO,5.951703,53.296554
Camstrastrjitte,29,,,9105KX,Rinsumageast,Dantumadiel,Friesland,VBO,5.951803,53.296466
Camstrastrjitte,31,,,9105KX,Rinsumageast,Dantumadiel,Friesland,VBO,5.951856,53.296420
Camstrastrjitte,33,,,9105KX,Rinsumageast,Dantumadiel,Friesland,VBO,5.951958,53.296326
Camstrastrjitte,35,,,9105KX,Rinsumageast,Dantumadiel,Friesland,VBO,5.952020,53.296272
Camstrastrjitte,37,,,9105KX,Rinsumageast,Dantumadiel,Friesland,VBO,5.952173,53.296181
Camstrastrjitte,39,,,9105KX,Rinsumageast,Dantumadiel,Friesland,VBO,5.952317,53.296058
Camstrastrjitte,2,,,9105KZ,Rinsumageast,Dantumadiel,Friesland,VBO,5.950488,53.297239
Camstrastrjitte,4,,,9105KZ,Rinsumageast,Dantumadiel,Friesland,VBO,5.950584,53.297154
Camstrastrjitte,6,,,9105KZ,Rinsumageast,Dantumadiel,Friesland,VBO,5.950676,53.297073
Camstrastrjitte,8,,,9105KZ,Rinsumageast,Dantumadiel,Friesland,VBO,5.950774,53.296985
Camstrastrjitte,10,,,9105KZ,Rinsumageast,Dantumadiel,Friesland,VBO,5.950840,53.296871
Camstrastrjitte,12,,,9105KZ,Rinsumageast,Dantumadiel,Friesland,VBO,5.950897,53.296828
Camstrastrjitte,14,,,9105KZ,Rinsumageast,Dantumadiel,Friesland,VBO,5.950958,53.296782
Camstrastrjitte,16,,,9105KZ,Rinsumageast,Dantumadiel,Friesland,VBO,5.950983,53.296743
Camstrastrjitte,18,,,9105KZ,Rinsumageast,Dantumadiel,Friesland,VBO,5.951088,53.296647
Camstrastrjitte,20,,,9105KZ,Rinsumageast,Dantumadiel,Friesland,VBO,5.951143,53.296607
Camstrastrjitte,22,,,9105KZ,Rinsumageast,Dantumadiel,Friesland,VBO,5.951190,53.296563
Camstrastrjitte,24,,,9105KZ,Rinsumageast,Dantumadiel,Friesland,VBO,5.951239,53.296524
Camstrastrjitte,26,,,9105KZ,Rinsumageast,Dantumadiel,Friesland,VBO,5.951292,53.296477
Camstrastrjitte,28,,,9105KZ,Rinsumageast,Dantumadiel,Friesland,VBO,5.951319,53.296437
Camstrastrjitte,30,,,9105KZ,Rinsumageast,Dantumadiel,Friesland,VBO,5.951363,53.296319
Camstrastrjitte,32,,,9105KZ,Rinsumageast,Dantumadiel,Friesland,VBO,5.951439,53.296270
Camstrastrjitte,34,,,9105KZ,Rinsumageast,Dantumadiel,Friesland,VBO,5.951482,53.296226
Camstrastrjitte,36,,,9105KZ,Rinsumageast,Dantumadiel,Friesland,VBO,5.951513,53.296182
Tsjerkestrjitte,4,,,9105LA,Rinsumageast,Dantumadiel,Friesland,VBO,5.949435,53.297188
Tsjerkestrjitte,6,,,9105LA,Rinsumageast,Dantumadiel,Friesland,VBO,5.949551,53.297317
Tsjerkestrjitte,8,,,9105LA,Rinsumageast,Dantumadiel,Friesland,VBO,5.949658,53.297374
Tsjerkestrjitte,10,,,9105LA,Rinsumageast,Dantumadiel,Friesland,VBO,5.949821,53.297439
Tsjerkestrjitte,12,,,9105LA,Rinsumageast,Dantumadiel,Friesland,VBO,5.950007,53.297536
Tsjerkestrjitte,18,,,9105LA,Rinsumageast,Dantumadiel,Friesland,VBO,5.950329,53.297714
Tsjerkestrjitte,20,,,9105LA,Rinsumageast,Dantumadiel,Friesland,VBO,5.950408,53.297751
Tsjerkestrjitte,22,a,,9105LA,Rinsumageast,Dantumadiel,Friesland,VBO,5.950749,53.297641
Tsjerkestrjitte,22,,,9105LA,Rinsumageast,Dantumadiel,Friesland,VBO,5.950552,53.297806
Tsjerkestrjitte,24,,,9105LA,Rinsumageast,Dantumadiel,Friesland,VBO,5.950619,53.297835
Tsjerkestrjitte,26,,,9105LA,Rinsumageast,Dantumadiel,Friesland,VBO,5.950823,53.297939
Tsjerkestrjitte,28,,,9105LA,Rinsumageast,Dantumadiel,Friesland,VBO,5.951176,53.298060
Tsjerkestrjitte,30,,,9105LA,Rinsumageast,Dantumadiel,Friesland,VBO,5.950992,53.298415
Tsjerkestrjitte,32,,,9105LA,Rinsumageast,Dantumadiel,Friesland,VBO,5.950740,53.298574
Tsjerkestrjitte,34,,,9105LA,Rinsumageast,Dantumadiel,Friesland,VBO,5.950577,53.298689
Tsjerkestrjitte,36,,,9105LA,Rinsumageast,Dantumadiel,Friesland,VBO,5.950361,53.298809
Tsjerkestrjitte,38,,,9105LA,Rinsumageast,Dantumadiel,Friesland,VBO,5.950184,53.298911
Tsjerkestrjitte,40,,,9105LA,Rinsumageast,Dantumadiel,Friesland,VBO,5.949928,53.299037
Tsjerkestrjitte,42,,,9105LA,Rinsumageast,Dantumadiel,Friesland,VBO,5.949601,53.299140
Tsjerkestrjitte,44,,,9105LA,Rinsumageast,Dantumadiel,Friesland,VBO,5.949387,53.299238
Thomas Sjolles Siniawei,5,,,9105LB,Rinsumageast,Dantumadiel,Friesland,VBO,5.948846,53.297454
Thomas Sjolles Siniawei,7,,,9105LB,Rinsumageast,Dantumadiel,Friesland,VBO,5.949004,53.297522
Thomas Sjolles Siniawei,9,,,9105LB,Rinsumageast,Dantumadiel,Friesland,VBO,5.949216,53.297593
Thomas Sjolles Siniawei,11,,,9105LB,Rinsumageast,Dantumadiel,Friesland,VBO,5.949544,53.297742
Thomas Sjolles Siniawei,13,,,9105LB,Rinsumageast,Dantumadiel,Friesland,VBO,5.949752,53.297813
Thomas Sjolles Siniawei,15,,,9105LB,Rinsumageast,Dantumadiel,Friesland,VBO,5.949884,53.297938
Thomas Sjolles Siniawei,25,,,9105LB,Rinsumageast,Dantumadiel,Friesland,VBO,5.949670,53.298046
Thomas Sjolles Siniawei,27,,,9105LB,Rinsumageast,Dantumadiel,Friesland,VBO,5.949634,53.298092
Thomas Sjolles Siniawei,29,,,9105LB,Rinsumageast,Dantumadiel,Friesland,VBO,5.949475,53.298146
Thomas Sjolles Siniawei,31,,,9105LB,Rinsumageast,Dantumadiel,Friesland,VBO,5.949435,53.298179
Thomas Sjolles Siniawei,33,,,9105LB,Rinsumageast,Dantumadiel,Friesland,VBO,5.949368,53.298232
Thomas Sjolles Siniawei,35,a,,9105LB,Rinsumageast,Dantumadiel,Friesland,VBO,5.948674,53.298093
Thomas Sjolles Siniawei,35,,,9105LB,Rinsumageast,Dantumadiel,Friesland,VBO,5.949037,53.298277
Thomas Sjolles Siniawei,37,,,9105LB,Rinsumageast,Dantumadiel,Friesland,VBO,5.948940,53.298456
Thomas Sjolles Siniawei,39,,,9105LB,Rinsumageast,Dantumadiel,Friesland,VBO,5.948778,53.298394
Thomas Sjolles Siniawei,41,,,9105LB,Rinsumageast,Dantumadiel,Friesland,VBO,5.948635,53.298332
Thomas Sjolles Siniawei,43,,,9105LB,Rinsumageast,Dantumadiel,Friesland,VBO,5.948492,53.298270
Thomas Sjolles Siniawei,45,,,9105LB,Rinsumageast,Dantumadiel,Friesland,VBO,5.948632,53.298616
Thomas Sjolles Siniawei,47,,,9105LB,Rinsumageast,Dantumadiel,Friesland,VBO,5.948512,53.298743
Thomas Sjolles Siniawei,49,,,9105LB,Rinsumageast,Dantumadiel,Friesland,VBO,5.948351,53.298869
Thomas Sjolles Siniawei,51,,,9105LB,Rinsumageast,Dantumadiel,Friesland,VBO,5.948310,53.299065
Fliet,2,,,9105LC,Rinsumageast,Dantumadiel,Friesland,VBO,5.950514,53.298070
Fliet,4,,,9105LC,Rinsumageast,Dantumadiel,Friesland,VBO,5.950341,53.298131
Fliet,8,,,9105LC,Rinsumageast,Dantumadiel,Friesland,VBO,5.950117,53.298282
Fliet,10,,,9105LC,Rinsumageast,Dantumadiel,Friesland,VBO,5.950222,53.298311
Fliet,12,,,9105LC,Rinsumageast,Dantumadiel,Friesland,VBO,5.950308,53.298363
Fliet,14,,,9105LC,Rinsumageast,Dantumadiel,Friesland,VBO,5.949908,53.298416
Fliet,16,,,9105LC,Rinsumageast,Dantumadiel,Friesland,VBO,5.949668,53.298492
Fliet,20,,,9105LC,Rinsumageast,Dantumadiel,Friesland,VBO,5.949527,53.298530
Fliet,22,a,,9105LC,Rinsumageast,Dantumadiel,Friesland,VBO,5.949275,53.298746
Fliet,22,b,,9105LC,Rinsumageast,Dantumadiel,Friesland,VBO,5.949162,53.298820
Fliet,22,,,9105LC,Rinsumageast,Dantumadiel,Friesland,VBO,5.949370,53.298676
Fliet,24,,,9105LC,Rinsumageast,Dantumadiel,Friesland,VBO,5.949077,53.298929
Fliet,26,,,9105LC,Rinsumageast,Dantumadiel,Friesland,VBO,5.948902,53.299097
Fliet,28,,,9105LC,Rinsumageast,Dantumadiel,Friesland,VBO,5.948630,53.299265
Fliet,30,,,9105LC,Rinsumageast,Dantumadiel,Friesland,VBO,5.948489,53.299366
Fliet,32,,,9105LC,Rinsumageast,Dantumadiel,Friesland,VBO,5.948402,53.299494
Melkemawei,34,,,9105LC,Rinsumageast,Dantumadiel,Friesland,VBO,5.947403,53.300422
Melkemawei,36,,,9105LC,Rinsumageast,Dantumadiel,Friesland,VBO,5.947331,53.300533
Van Burmaniastrjitte,2,,,9105LD,Rinsumageast,Dantumadiel,Friesland,VBO,5.947540,53.293971
Van Burmaniastrjitte,4,,,9105LD,Rinsumageast,Dantumadiel,Friesland,VBO,5.947715,53.294103
Van Burmaniastrjitte,6,,,9105LD,Rinsumageast,Dantumadiel,Friesland,VBO,5.948051,53.294166
Van Burmaniastrjitte,8,,,9105LD,Rinsumageast,Dantumadiel,Friesland,VBO,5.948411,53.294296
Van Burmaniastrjitte,10,,,9105LD,Rinsumageast,Dantumadiel,Friesland,VBO,5.948706,53.294428
Van Burmaniastrjitte,12,,,9105LD,Rinsumageast,Dantumadiel,Friesland,VBO,5.948944,53.294519
Van Burmaniastrjitte,14,,,9105LD,Rinsumageast,Dantumadiel,Friesland,VBO,5.949191,53.294614
Van Burmaniastrjitte,16,,,9105LD,Rinsumageast,Dantumadiel,Friesland,VBO,5.949604,53.294778
Van Burmaniastrjitte,18,,,9105LD,Rinsumageast,Dantumadiel,Friesland,VBO,5.949872,53.294890
Van Burmaniastrjitte,20,,,9105LD,Rinsumageast,Dantumadiel,Friesland,VBO,5.950136,53.294996
Van Burmaniastrjitte,22,,,9105LD,Rinsumageast,Dantumadiel,Friesland,VBO,5.950394,53.295086
Van Burmaniastrjitte,1,,,9105LE,Rinsumageast,Dantumadiel,Friesland,VBO,5.947531,53.294238
Van Burmaniastrjitte,3,,,9105LE,Rinsumageast,Dantumadiel,Friesland,VBO,5.947792,53.294357
Van Burmaniastrjitte,5,,,9105LE,Rinsumageast,Dantumadiel,Friesland,VBO,5.947867,53.294388
Van Burmaniastrjitte,7,a,,9105LE,Rinsumageast,Dantumadiel,Friesland,VBO,5.948179,53.294453
Van Burmaniastrjitte,7,,,9105LE,Rinsumageast,Dantumadiel,Friesland,VBO,5.948106,53.294429
Van Burmaniastrjitte,9,,,9105LE,Rinsumageast,Dantumadiel,Friesland,VBO,5.948799,53.294753
Van Burmaniastrjitte,11,,,9105LE,Rinsumageast,Dantumadiel,Friesland,VBO,5.948874,53.294775
Van Burmaniastrjitte,13,,,9105LE,Rinsumageast,Dantumadiel,Friesland,VBO,5.948943,53.294808
Van Burmaniastrjitte,15,,,9105LE,Rinsumageast,Dantumadiel,Friesland,VBO,5.949214,53.294931
Van Burmaniastrjitte,17,,,9105LE,Rinsumageast,Dantumadiel,Friesland,VBO,5.949487,53.295023
Van Burmaniastrjitte,19,,,9105LE,Rinsumageast,Dantumadiel,Friesland,VBO,5.949728,53.295124
Van Burmaniastrjitte,21,,,9105LE,Rinsumageast,Dantumadiel,Friesland,VBO,5.949983,53.295287
Van Burmaniastrjitte,23,,,9105LE,Rinsumageast,Dantumadiel,Friesland,VBO,5.949872,53.295462
Baron Van Sytzamawei,1,,,9105LG,Rinsumageast,Dantumadiel,Friesland,VBO,5.948334,53.297497
Baron Van Sytzamawei,3,,,9105LG,Rinsumageast,Dantumadiel,Friesland,VBO,5.948082,53.297652
Baron Van Sytzamawei,5,,,9105LG,Rinsumageast,Dantumadiel,Friesland,VBO,5.947866,53.297791
Baron Van Sytzamawei,7,,,9105LG,Rinsumageast,Dantumadiel,Friesland,VBO,5.947730,53.297959
Baron Van Sytzamawei,9,,,9105LG,Rinsumageast,Dantumadiel,Friesland,VBO,5.947598,53.298116
Baron Van Sytzamawei,11,,,9105LG,Rinsumageast,Dantumadiel,Friesland,VBO,5.947454,53.298337
Baron Van Sytzamawei,13,,,9105LG,Rinsumageast,Dantumadiel,Friesland,VBO,5.947391,53.298499
Baron Van Sytzamawei,15,,,9105LG,Rinsumageast,Dantumadiel,Friesland,VBO,5.947410,53.298614
Baron Van Sytzamawei,17,,,9105LG,Rinsumageast,Dantumadiel,Friesland,VBO,5.947419,53.298740
Baron Van Sytzamawei,19,,,9105LG,Rinsumageast,Dantumadiel,Friesland,VBO,5.947528,53.298947
Baron Van Sytzamawei,21,b,,9105LG,Rinsumageast,Dantumadiel,Friesland,VBO,5.947456,53.299281
Baron Van Sytzamawei,21,,,9105LG,Rinsumageast,Dantumadiel,Friesland,VBO,5.947584,53.299461
Baron Van Sytzamawei,2,a,,9105LH,Rinsumageast,Dantumadiel,Friesland,VBO,5.948740,53.297775
Baron Van Sytzamawei,2,,,9105LH,Rinsumageast,Dantumadiel,Friesland,VBO,5.948375,53.297890
Baron Van Sytzamawei,4,,,9105LH,Rinsumageast,Dantumadiel,Friesland,VBO,5.948100,53.298112
Baron Van Sytzamawei,6,,,9105LH,Rinsumageast,Dantumadiel,Friesland,VBO,5.948006,53.298231
Baron Van Sytzamawei,8,,,9105LH,Rinsumageast,Dantumadiel,Friesland,VBO,5.947984,53.298379
Baron Van Sytzamawei,10,,,9105LH,Rinsumageast,Dantumadiel,Friesland,VBO,5.947898,53.298506
Baron Van Sytzamawei,12,,,9105LH,Rinsumageast,Dantumadiel,Friesland,VBO,5.947889,53.298686
Baron Van Sytzamawei,14,,,9105LH,Rinsumageast,Dantumadiel,Friesland,VBO,5.947942,53.298850
Baron Van Sytzamawei,16,,,9105LH,Rinsumageast,Dantumadiel,Friesland,VBO,5.947975,53.299015
Dr. Ype Poortingawei,1,,,9105LJ,Rinsumageast,Dantumadiel,Friesland,VBO,5.947323,53.298977
Dr. Ype Poortingawei,3,,,9105LJ,Rinsumageast,Dantumadiel,Friesland,VBO,5.947139,53.299000
Dr. Ype Poortingawei,4,a,,9105LJ,Rinsumageast,Dantumadiel,Friesland,VBO,5.947068,53.299540
Dr. Ype Poortingawei,4,,,9105LJ,Rinsumageast,Dantumadiel,Friesland,VBO,5.946806,53.299413
Dr. Ype Poortingawei,5,,,9105LJ,Rinsumageast,Dantumadiel,Friesland,VBO,5.946932,53.298978
Dr. Ype Poortingawei,6,a,,9105LJ,Rinsumageast,Dantumadiel,Friesland,VBO,5.946323,53.299895
Dr. Ype Poortingawei,6,,,9105LJ,Rinsumageast,Dantumadiel,Friesland,VBO,5.946537,53.299780
Dr. Ype Poortingawei,7,,,9105LJ,Rinsumageast,Dantumadiel,Friesland,VBO,5.945772,53.299220
Dr. Ype Poortingawei,12,,,9105LJ,Rinsumageast,Dantumadiel,Friesland,VBO,5.945178,53.299130
Master Frenkelstrjitte,2,,,9105LK,Rinsumageast,Dantumadiel,Friesland,VBO,5.945682,53.298827
Master Frenkelstrjitte,3,,,9105LK,Rinsumageast,Dantumadiel,Friesland,VBO,5.946874,53.298800
Master Frenkelstrjitte,4,,,9105LK,Rinsumageast,Dantumadiel,Friesland,VBO,5.945445,53.298761
Master Frenkelstrjitte,5,,,9105LK,Rinsumageast,Dantumadiel,Friesland,VBO,5.946785,53.298677
Master Frenkelstrjitte,6,,,9105LK,Rinsumageast,Dantumadiel,Friesland,VBO,5.945279,53.298638
Master Frenkelstrjitte,7,,,9105LK,Rinsumageast,Dantumadiel,Friesland,VBO,5.946757,53.298537
Master Frenkelstrjitte,8,,,9105LK,Rinsumageast,Dantumadiel,Friesland,VBO,5.945204,53.298468
Master Frenkelstrjitte,9,,,9105LK,Rinsumageast,Dantumadiel,Friesland,VBO,5.946378,53.298501
Master Frenkelstrjitte,10,,,9105LK,Rinsumageast,Dantumadiel,Friesland,VBO,5.945299,53.298320
Master Frenkelstrjitte,12,,,9105LK,Rinsumageast,Dantumadiel,Friesland,VBO,5.945439,53.298214
Master Frenkelstrjitte,13,,,9105LK,Rinsumageast,Dantumadiel,Friesland,VBO,5.946127,53.298586
Master Frenkelstrjitte,14,,,9105LK,Rinsumageast,Dantumadiel,Friesland,VBO,5.945563,53.298095
Master Frenkelstrjitte,15,,,9105LK,Rinsumageast,Dantumadiel,Friesland,VBO,5.946090,53.298637
Master Frenkelstrjitte,16,,,9105LK,Rinsumageast,Dantumadiel,Friesland,VBO,5.945779,53.297975
Master Frenkelstrjitte,17,,,9105LK,Rinsumageast,Dantumadiel,Friesland,VBO,5.945686,53.298520
Master Frenkelstrjitte,18,,,9105LK,Rinsumageast,Dantumadiel,Friesland,VBO,5.946069,53.297933
Master Frenkelstrjitte,19,,,9105LK,Rinsumageast,Dantumadiel,Friesland,VBO,5.945814,53.298383
Master Frenkelstrjitte,20,,,9105LK,Rinsumageast,Dantumadiel,Friesland,VBO,5.946391,53.297932
Master Frenkelstrjitte,21,,,9105LK,Rinsumageast,Dantumadiel,Friesland,VBO,5.945993,53.298256
Master Frenkelstrjitte,22,,,9105LK,Rinsumageast,Dantumadiel,Friesland,VBO,5.946677,53.297924
Master Frenkelstrjitte,23,,,9105LK,Rinsumageast,Dantumadiel,Friesland,VBO,5.946279,53.298174
Master Frenkelstrjitte,24,,,9105LK,Rinsumageast,Dantumadiel,Friesland,VBO,5.946913,53.297993
Master Frenkelstrjitte,25,,,9105LK,Rinsumageast,Dantumadiel,Friesland,VBO,5.946496,53.298153
Master Frenkelstrjitte,26,,,9105LK,Rinsumageast,Dantumadiel,Friesland,VBO,5.947192,53.298046
Master Frenkelstrjitte,27,,,9105LK,Rinsumageast,Dantumadiel,Friesland,VBO,5.946784,53.298191
Master Frenkelstrjitte,29,,,9105LK,Rinsumageast,Dantumadiel,Friesland,VBO,5.947042,53.298263
