openbareruimtenaam,huisnummer,huisletter,huisnummertoevoeging,postcode,woonplaatsnaam,gemeentenaam,provincienaam,typeadresseerbaarobject,longitude,latitude
Ridderweg,1,,,9161AA,Hollum,Ameland,Friesland,VBO,5.642467,53.438023
Ridderweg,2,,,9161AA,Hollum,Ameland,Friesland,VBO,5.642168,53.438383
Ridderweg,3,a,,9161AA,Hollum,Ameland,Friesland,VBO,5.642638,53.437874
Ridderweg,3,,,9161AA,Hollum,Ameland,Friesland,VBO,5.642828,53.437968
Ridderweg,4,,,9161AA,Hollum,Ameland,Friesland,VBO,5.642634,53.438319
Ridderweg,6,,,9161AA,Hollum,Ameland,Friesland,VBO,5.643056,53.438282
Ridderweg,8,,,9161AA,Hollum,Ameland,Friesland,VBO,5.643372,53.438281
Ridderweg,12,,,9161AA,Hollum,Ameland,Friesland,VBO,5.643821,53.438249
Ridderweg,16,a,,9161AA,Hollum,Ameland,Friesland,VBO,5.656280,53.437686
Ridderweg,16,,001,9161AA,Hollum,Ameland,Friesland,VBO,5.655783,53.437832
Ridderweg,16,,003,9161AA,Hollum,Ameland,Friesland,VBO,5.655707,53.437778
Ridderweg,16,,005,9161AA,Hollum,Ameland,Friesland,VBO,5.655692,53.437832
Ridderweg,16,,007,9161AA,Hollum,Ameland,Friesland,VBO,5.655860,53.438182
Ridderweg,16,,008,9161AA,Hollum,Ameland,Friesland,VBO,5.656431,53.437956
Ridderweg,16,,009,9161AA,Hollum,Ameland,Friesland,VBO,5.655876,53.438245
Ridderweg,16,,010,9161AA,Hollum,Ameland,Friesland,VBO,5.656446,53.438010
Ridderweg,16,,011,9161AA,Hollum,Ameland,Friesland,VBO,5.655725,53.438218
Ridderweg,16,,012,9161AA,Hollum,Ameland,Friesland,VBO,5.656566,53.437974
Ridderweg,16,,013,9161AA,Hollum,Ameland,Friesland,VBO,5.655908,53.438595
Ridderweg,16,,014,9161AA,Hollum,Ameland,Friesland,VBO,5.656523,53.438360
Ridderweg,16,,015,9161AA,Hollum,Ameland,Friesland,VBO,5.655818,53.438596
Ridderweg,16,,016,9161AA,Hollum,Ameland,Friesland,VBO,5.656614,53.438360
Ridderweg,16,,017,9161AA,Hollum,Ameland,Friesland,VBO,5.655847,53.438515
Ridderweg,16,,018,9161AA,Hollum,Ameland,Friesland,VBO,5.656553,53.438279
Ridderweg,16,,019,9161AA,Hollum,Ameland,Friesland,VBO,5.655970,53.438937
Ridderweg,16,,021,9161AA,Hollum,Ameland,Friesland,VBO,5.655986,53.438991
Ridderweg,16,,023,9161AA,Hollum,Ameland,Friesland,VBO,5.655865,53.438973
Ridderweg,16,,,9161AA,Hollum,Ameland,Friesland,VBO,5.656315,53.437607
Oosterlaan,1,,,9161AB,Hollum,Ameland,Friesland,VBO,5.640620,53.436041
Oosterlaan,3,,,9161AB,Hollum,Ameland,Friesland,VBO,5.640740,53.436095
Oosterlaan,5,,,9161AB,Hollum,Ameland,Friesland,VBO,5.640861,53.436076
Oosterlaan,7,,,9161AB,Hollum,Ameland,Friesland,VBO,5.640921,53.436130
Oosterlaan,9,,,9161AB,Hollum,Ameland,Friesland,VBO,5.641119,53.436561
Oosterlaan,11,,,9161AB,Hollum,Ameland,Friesland,VBO,5.640910,53.436750
Oosterlaan,13,a,,9161AB,Hollum,Ameland,Friesland,VBO,5.640835,53.436831
Oosterlaan,13,,,9161AB,Hollum,Ameland,Friesland,VBO,5.641121,53.436822
Oosterlaan,15,,,9161AB,Hollum,Ameland,Friesland,VBO,5.641167,53.436974
Oosterlaan,17,a,,9161AB,Hollum,Ameland,Friesland,VBO,5.640927,53.437100
Oosterlaan,17,,,9161AB,Hollum,Ameland,Friesland,VBO,5.641062,53.437118
Oosterlaan,19,a,,9161AB,Hollum,Ameland,Friesland,VBO,5.640959,53.437352
Oosterlaan,19,,,9161AB,Hollum,Ameland,Friesland,VBO,5.641214,53.437351
Oosterlaan,21,a,,9161AB,Hollum,Ameland,Friesland,VBO,5.641291,53.437567
Oosterlaan,21,,,9161AB,Hollum,Ameland,Friesland,VBO,5.641245,53.437396
Oosterlaan,23,a,,9161AB,Hollum,Ameland,Friesland,VBO,5.641292,53.437720
Oosterlaan,23,,,9161AB,Hollum,Ameland,Friesland,VBO,5.641382,53.437719
Oosterlaan,29,,,9161AB,Hollum,Ameland,Friesland,VBO,5.641489,53.437944
Oosterlaan,31,,,9161AB,Hollum,Ameland,Friesland,VBO,5.641550,53.438213
Oosterlaan,2,,,9161AC,Hollum,Ameland,Friesland,VBO,5.640874,53.435744
Oosterlaan,4,,,9161AC,Hollum,Ameland,Friesland,VBO,5.641418,53.436138
Oosterlaan,6,a,,9161AC,Hollum,Ameland,Friesland,VBO,5.641509,53.436353
Oosterlaan,6,,,9161AC,Hollum,Ameland,Friesland,VBO,5.641479,53.436291
Oosterlaan,8,,,9161AC,Hollum,Ameland,Friesland,VBO,5.641570,53.436434
Oosterlaan,10,a,,9161AC,Hollum,Ameland,Friesland,VBO,5.641631,53.436587
Oosterlaan,10,b,,9161AC,Hollum,Ameland,Friesland,VBO,5.641616,53.436533
Oosterlaan,10,c,,9161AC,Hollum,Ameland,Friesland,VBO,5.642067,53.436523
Oosterlaan,10,d,,9161AC,Hollum,Ameland,Friesland,VBO,5.642098,53.436586
Oosterlaan,10,,,9161AC,Hollum,Ameland,Friesland,VBO,5.641450,53.436560
Oosterlaan,12,,,9161AC,Hollum,Ameland,Friesland,VBO,5.641647,53.436775
Oosterlaan,14,,,9161AC,Hollum,Ameland,Friesland,VBO,5.641754,53.437054
Oosterlaan,16,a,,9161AC,Hollum,Ameland,Friesland,VBO,5.641574,53.437153
Oosterlaan,16,b,,9161AC,Hollum,Ameland,Friesland,VBO,5.641499,53.437153
Oosterlaan,16,,,9161AC,Hollum,Ameland,Friesland,VBO,5.641770,53.437171
Oosterlaan,18,,,9161AC,Hollum,Ameland,Friesland,VBO,5.641711,53.437323
Oosterlaan,20,,,9161AC,Hollum,Ameland,Friesland,VBO,5.641651,53.437449
Oosterlaan,22,,,9161AC,Hollum,Ameland,Friesland,VBO,5.641637,53.437620
Oosterlaan,26,,,9161AC,Hollum,Ameland,Friesland,VBO,5.641878,53.437620
Oosterlaan,28,,,9161AC,Hollum,Ameland,Friesland,VBO,5.641713,53.437773
Oosterlaan,30,,,9161AC,Hollum,Ameland,Friesland,VBO,5.641819,53.437862
Oosterlaan,32,,,9161AC,Hollum,Ameland,Friesland,VBO,5.641956,53.438141
De Plaats,1,,,9161AD,Hollum,Ameland,Friesland,VBO,5.640742,53.436337
De Plaats,3,,,9161AD,Hollum,Ameland,Friesland,VBO,5.640922,53.436328
De Plaats,5,a,,9161AD,Hollum,Ameland,Friesland,VBO,5.641013,53.436408
De Plaats,5,b,,9161AD,Hollum,Ameland,Friesland,VBO,5.641043,53.436444
De Plaats,5,,,9161AD,Hollum,Ameland,Friesland,VBO,5.641073,53.436309
Zuiderlaan,1,,,9161AE,Hollum,Ameland,Friesland,VBO,5.639691,53.434192
Zuiderlaan,3,a,,9161AE,Hollum,Ameland,Friesland,VBO,5.639827,53.434362
Zuiderlaan,3,,,9161AE,Hollum,Ameland,Friesland,VBO,5.640082,53.434182
Zuiderlaan,5,,,9161AE,Hollum,Ameland,Friesland,VBO,5.640085,53.434586
Zuiderlaan,7,,,9161AE,Hollum,Ameland,Friesland,VBO,5.640086,53.434847
Zuiderlaan,9,,,9161AE,Hollum,Ameland,Friesland,VBO,5.640207,53.434982
Zuiderlaan,11,a,,9161AE,Hollum,Ameland,Friesland,VBO,5.640204,53.435144
Zuiderlaan,11,b,,9161AE,Hollum,Ameland,Friesland,VBO,5.640163,53.435076
Zuiderlaan,11,c,,9161AE,Hollum,Ameland,Friesland,VBO,5.640134,53.435148
Zuiderlaan,11,,001,9161AE,Hollum,Ameland,Friesland,VBO,5.639983,53.435171
Zuiderlaan,11,,002,9161AE,Hollum,Ameland,Friesland,VBO,5.639923,53.435180
Zuiderlaan,11,,003,9161AE,Hollum,Ameland,Friesland,VBO,5.639802,53.435189
Zuiderlaan,11,,004,9161AE,Hollum,Ameland,Friesland,VBO,5.639727,53.435198
Zuiderlaan,11,,005,9161AE,Hollum,Ameland,Friesland,VBO,5.639756,53.435081
Zuiderlaan,11,,006,9161AE,Hollum,Ameland,Friesland,VBO,5.639756,53.435027
Zuiderlaan,11,,007,9161AE,Hollum,Ameland,Friesland,VBO,5.639846,53.435009
Zuiderlaan,11,,008,9161AE,Hollum,Ameland,Friesland,VBO,5.639937,53.435009
Zuiderlaan,11,,,9161AE,Hollum,Ameland,Friesland,VBO,5.640208,53.435071
Zuiderlaan,13,,,9161AE,Hollum,Ameland,Friesland,VBO,5.640284,53.435251
Zuiderlaan,15,a,,9161AE,Hollum,Ameland,Friesland,VBO,5.639758,53.435414
Zuiderlaan,15,b,,9161AE,Hollum,Ameland,Friesland,VBO,5.639864,53.435405
Zuiderlaan,15,,,9161AE,Hollum,Ameland,Friesland,VBO,5.640059,53.435386
Zuiderlaan,19,,,9161AE,Hollum,Ameland,Friesland,VBO,5.640330,53.435466
Zuiderlaan,21,a,,9161AE,Hollum,Ameland,Friesland,VBO,5.640286,53.435574
Zuiderlaan,21,,,9161AE,Hollum,Ameland,Friesland,VBO,5.640272,53.435673
Zuiderlaan,2,,,9161AG,Hollum,Ameland,Friesland,VBO,5.640641,53.434549
Zuiderlaan,4,,,9161AG,Hollum,Ameland,Friesland,VBO,5.640522,53.434756
Zuiderlaan,6,,,9161AG,Hollum,Ameland,Friesland,VBO,5.640568,53.434900
Zuiderlaan,10,,,9161AG,Hollum,Ameland,Friesland,VBO,5.640659,53.435124
Zuiderlaan,12,,,9161AG,Hollum,Ameland,Friesland,VBO,5.640826,53.435250
Zuiderlaan,14,,,9161AG,Hollum,Ameland,Friesland,VBO,5.640646,53.435376
Zuiderlaan,16,,,9161AG,Hollum,Ameland,Friesland,VBO,5.640782,53.435421
Kerkpad,2,,,9161AH,Hollum,Ameland,Friesland,VBO,5.640287,53.435718
Kerkpad,4,,,9161AH,Hollum,Ameland,Friesland,VBO,5.640076,53.435746
Burenlaan,1,,,9161AJ,Hollum,Ameland,Friesland,VBO,5.640168,53.435898
Burenlaan,5,,,9161AJ,Hollum,Ameland,Friesland,VBO,5.640124,53.436096
Burenlaan,7,a,,9161AJ,Hollum,Ameland,Friesland,VBO,5.639869,53.436276
Burenlaan,7,,,9161AJ,Hollum,Ameland,Friesland,VBO,5.639959,53.436312
Burenlaan,11,,,9161AJ,Hollum,Ameland,Friesland,VBO,5.640125,53.436320
Burenlaan,13,a,,9161AJ,Hollum,Ameland,Friesland,VBO,5.639554,53.436447
Burenlaan,13,,,9161AJ,Hollum,Ameland,Friesland,VBO,5.639960,53.436438
Burenlaan,15,,,9161AJ,Hollum,Ameland,Friesland,VBO,5.639765,53.436564
Burenlaan,17,,,9161AJ,Hollum,Ameland,Friesland,VBO,5.639841,53.436689
Burenlaan,19,,,9161AJ,Hollum,Ameland,Friesland,VBO,5.639676,53.436834
Burenlaan,21,,,9161AJ,Hollum,Ameland,Friesland,VBO,5.639887,53.436833
Burenlaan,23,,,9161AJ,Hollum,Ameland,Friesland,VBO,5.639843,53.436977
Burenlaan,25,,,9161AJ,Hollum,Ameland,Friesland,VBO,5.639467,53.437086
Burenlaan,27,,,9161AJ,Hollum,Ameland,Friesland,VBO,5.639634,53.437202
Burenlaan,29,,,9161AJ,Hollum,Ameland,Friesland,VBO,5.639725,53.437328
Burenlaan,31,a,,9161AJ,Hollum,Ameland,Friesland,VBO,5.639470,53.437544
Burenlaan,31,,,9161AJ,Hollum,Ameland,Friesland,VBO,5.639711,53.437579
Burenlaan,33,a,,9161AJ,Hollum,Ameland,Friesland,VBO,5.639410,53.437625
Burenlaan,33,,,9161AJ,Hollum,Ameland,Friesland,VBO,5.639666,53.437678
Burenlaan,35,a,,9161AJ,Hollum,Ameland,Friesland,VBO,5.639516,53.437759
Burenlaan,35,,,9161AJ,Hollum,Ameland,Friesland,VBO,5.639682,53.437849
Burenlaan,37,,,9161AJ,Hollum,Ameland,Friesland,VBO,5.639593,53.437948
Burenlaan,39,,,9161AJ,Hollum,Ameland,Friesland,VBO,5.639608,53.438038
Burenlaan,41,a,,9161AJ,Hollum,Ameland,Friesland,VBO,5.639565,53.438175
Burenlaan,41,,,9161AJ,Hollum,Ameland,Friesland,VBO,5.639444,53.438164
Burenlaan,43,,,9161AJ,Hollum,Ameland,Friesland,VBO,5.639595,53.438289
Burenlaan,4,,,9161AK,Hollum,Ameland,Friesland,VBO,5.640486,53.436266
Burenlaan,6,,,9161AK,Hollum,Ameland,Friesland,VBO,5.640381,53.436365
Burenlaan,8,,,9161AK,Hollum,Ameland,Friesland,VBO,5.640457,53.436508
Burenlaan,12,,,9161AK,Hollum,Ameland,Friesland,VBO,5.640548,53.436634
Burenlaan,14,a,,9161AK,Hollum,Ameland,Friesland,VBO,5.640413,53.436652
Burenlaan,14,,,9161AK,Hollum,Ameland,Friesland,VBO,5.640337,53.436643
Burenlaan,16,,,9161AK,Hollum,Ameland,Friesland,VBO,5.640294,53.436877
Burenlaan,18,,,9161AK,Hollum,Ameland,Friesland,VBO,5.640385,53.436976
Burenlaan,20,,,9161AK,Hollum,Ameland,Friesland,VBO,5.640250,53.437084
Burenlaan,22,a,,9161AK,Hollum,Ameland,Friesland,VBO,5.640431,53.437200
Burenlaan,22,,,9161AK,Hollum,Ameland,Friesland,VBO,5.640371,53.437182
Burenlaan,24,,,9161AK,Hollum,Ameland,Friesland,VBO,5.640220,53.437183
Burenlaan,26,,,9161AK,Hollum,Ameland,Friesland,VBO,5.640371,53.437281
Burenlaan,28,,,9161AL,Hollum,Ameland,Friesland,VBO,5.640251,53.437300
Burenlaan,30,,,9161AL,Hollum,Ameland,Friesland,VBO,5.640222,53.437416
Burenlaan,34,a,,9161AL,Hollum,Ameland,Friesland,VBO,5.640554,53.437586
Burenlaan,34,,,9161AL,Hollum,Ameland,Friesland,VBO,5.640253,53.437569
Burenlaan,36,,,9161AL,Hollum,Ameland,Friesland,VBO,5.640675,53.437721
Burenlaan,38,,,9161AL,Hollum,Ameland,Friesland,VBO,5.640058,53.437776
Burenlaan,40,,,9161AL,Hollum,Ameland,Friesland,VBO,5.640179,53.437767
Burenlaan,42,,,9161AL,Hollum,Ameland,Friesland,VBO,5.640224,53.437866
Burenlaan,44,,,9161AL,Hollum,Ameland,Friesland,VBO,5.640330,53.437874
Burenlaan,48,,,9161AL,Hollum,Ameland,Friesland,VBO,5.640270,53.438018
Burenlaan,50,,,9161AL,Hollum,Ameland,Friesland,VBO,5.640105,53.437992
Burenlaan,52,,,9161AL,Hollum,Ameland,Friesland,VBO,5.640090,53.438091
Burenlaan,54,,,9161AL,Hollum,Ameland,Friesland,VBO,5.640091,53.438162
Burenlaan,56,,,9161AL,Hollum,Ameland,Friesland,VBO,5.640061,53.438234
Herenweg,1,,,9161AM,Hollum,Ameland,Friesland,VBO,5.641203,53.437989
Herenweg,2,a,,9161AM,Hollum,Ameland,Friesland,VBO,5.640997,53.438727
Herenweg,2,b,,9161AM,Hollum,Ameland,Friesland,VBO,5.641237,53.438618
Herenweg,2,,,9161AM,Hollum,Ameland,Friesland,VBO,5.641086,53.438484
Herenweg,3,a,,9161AM,Hollum,Ameland,Friesland,VBO,5.640933,53.438107
Herenweg,3,,,9161AM,Hollum,Ameland,Friesland,VBO,5.640963,53.438188
Herenweg,4,,,9161AM,Hollum,Ameland,Friesland,VBO,5.640846,53.438610
Herenweg,5,,,9161AM,Hollum,Ameland,Friesland,VBO,5.640932,53.438017
Herenweg,7,,,9161AM,Hollum,Ameland,Friesland,VBO,5.640672,53.438214
Herenweg,8,,,9161AM,Hollum,Ameland,Friesland,VBO,5.640333,53.438485
Herenweg,9,,,9161AM,Hollum,Ameland,Friesland,VBO,5.640557,53.438206
Herenweg,10,,,9161AM,Hollum,Ameland,Friesland,VBO,5.640062,53.438486
Herenweg,11,,,9161AM,Hollum,Ameland,Friesland,VBO,5.640392,53.438189
Herenweg,12,,,9161AM,Hollum,Ameland,Friesland,VBO,5.639897,53.438486
Herenweg,13,,,9161AM,Hollum,Ameland,Friesland,VBO,5.640271,53.438189
Westerlaan,1,,,9161AN,Hollum,Ameland,Friesland,VBO,5.639401,53.438559
Westerlaan,3,a,,9161AN,Hollum,Ameland,Friesland,VBO,5.639235,53.438515
Westerlaan,3,,,9161AN,Hollum,Ameland,Friesland,VBO,5.639235,53.438569
Westerlaan,7,a,,9161AN,Hollum,Ameland,Friesland,VBO,5.639038,53.438326
Westerlaan,7,,,9161AN,Hollum,Ameland,Friesland,VBO,5.638948,53.438416
Westerlaan,9,,,9161AN,Hollum,Ameland,Friesland,VBO,5.638980,53.438704
Westerlaan,11,,,9161AN,Hollum,Ameland,Friesland,VBO,5.638845,53.438686
Westerlaan,13,,,9161AN,Hollum,Ameland,Friesland,VBO,5.638740,53.438713
Westerlaan,15,,,9161AN,Hollum,Ameland,Friesland,VBO,5.638574,53.438741
Westerlaan,17,,,9161AN,Hollum,Ameland,Friesland,VBO,5.638318,53.438741
Westerlaan,19,,,9161AN,Hollum,Ameland,Friesland,VBO,5.638319,53.438804
Westerlaan,21,,,9161AN,Hollum,Ameland,Friesland,VBO,5.638064,53.438912
Westerlaan,23,,,9161AN,Hollum,Ameland,Friesland,VBO,5.637958,53.438931
Westerlaan,25,,,9161AN,Hollum,Ameland,Friesland,VBO,5.637688,53.439003
Westerlaan,27,a,,9161AN,Hollum,Ameland,Friesland,VBO,5.637188,53.439020
Westerlaan,27,b,,9161AN,Hollum,Ameland,Friesland,VBO,5.637162,53.439067
Westerlaan,27,c,,9161AN,Hollum,Ameland,Friesland,VBO,5.637252,53.439040
Westerlaan,27,d,,9161AN,Hollum,Ameland,Friesland,VBO,5.637206,53.438977
Westerlaan,27,,,9161AN,Hollum,Ameland,Friesland,VBO,5.637041,53.439067
Westerlaan,29,,,9161AN,Hollum,Ameland,Friesland,VBO,5.636710,53.439104
Westerlaan,31,,,9161AN,Hollum,Ameland,Friesland,VBO,5.636500,53.439113
Westerlaan,33,a,,9161AN,Hollum,Ameland,Friesland,VBO,5.635928,53.439168
Westerlaan,35,,,9161AN,Hollum,Ameland,Friesland,VBO,5.635718,53.439205
Westerlaan,37,,,9161AN,Hollum,Ameland,Friesland,VBO,5.635507,53.439214
Westerlaan,39,,,9161AN,Hollum,Ameland,Friesland,VBO,5.635267,53.439242
Westerlaan,2,,,9161AP,Hollum,Ameland,Friesland,VBO,5.639507,53.438712
Westerlaan,4,,,9161AP,Hollum,Ameland,Friesland,VBO,5.639222,53.438838
Westerlaan,8,,,9161AP,Hollum,Ameland,Friesland,VBO,5.638816,53.438929
Westerlaan,10,a,,9161AP,Hollum,Ameland,Friesland,VBO,5.638847,53.439099
Westerlaan,10,,,9161AP,Hollum,Ameland,Friesland,VBO,5.638817,53.439010
Westerlaan,12,,,9161AP,Hollum,Ameland,Friesland,VBO,5.638621,53.439064
Westerlaan,14,a,,9161AP,Hollum,Ameland,Friesland,VBO,5.638517,53.439262
Westerlaan,14,,,9161AP,Hollum,Ameland,Friesland,VBO,5.638456,53.439037
Westerlaan,16,a,,9161AP,Hollum,Ameland,Friesland,VBO,5.638413,53.439478
Westerlaan,16,b,,9161AP,Hollum,Ameland,Friesland,VBO,5.638412,53.439262
Westerlaan,16,c,,9161AP,Hollum,Ameland,Friesland,VBO,5.638396,53.439127
Westerlaan,16,,,9161AP,Hollum,Ameland,Friesland,VBO,5.638245,53.439083
Westerlaan,18,a,,9161AP,Hollum,Ameland,Friesland,VBO,5.638292,53.439433
Westerlaan,18,b,,9161AP,Hollum,Ameland,Friesland,VBO,5.638246,53.439235
Westerlaan,18,,,9161AP,Hollum,Ameland,Friesland,VBO,5.638065,53.439083
Westerlaan,20,a,,9161AP,Hollum,Ameland,Friesland,VBO,5.637749,53.439138
Westerlaan,20,,,9161AP,Hollum,Ameland,Friesland,VBO,5.637854,53.439155
Westerlaan,22,a,,9161AR,Hollum,Ameland,Friesland,VBO,5.637495,53.439417
Westerlaan,22,,,9161AR,Hollum,Ameland,Friesland,VBO,5.637449,53.439336
Westerlaan,24,a,,9161AR,Hollum,Ameland,Friesland,VBO,5.637330,53.439471
Westerlaan,24,,,9161AR,Hollum,Ameland,Friesland,VBO,5.637238,53.439265
Westerlaan,26,,,9161AR,Hollum,Ameland,Friesland,VBO,5.637043,53.439283
Westerlaan,28,,,9161AR,Hollum,Ameland,Friesland,VBO,5.636832,53.439310
Westerlaan,30,a,,9161AR,Hollum,Ameland,Friesland,VBO,5.636668,53.439643
Westerlaan,30,b,,9161AR,Hollum,Ameland,Friesland,VBO,5.636622,53.439383
Westerlaan,30,,,9161AR,Hollum,Ameland,Friesland,VBO,5.636516,53.439356
Westerlaan,32,,,9161AR,Hollum,Ameland,Friesland,VBO,5.636306,53.439464
Westerlaan,34,,,9161AR,Hollum,Ameland,Friesland,VBO,5.636140,53.439402
Westerlaan,36,a,,9161AR,Hollum,Ameland,Friesland,VBO,5.635840,53.439492
Westerlaan,36,,,9161AR,Hollum,Ameland,Friesland,VBO,5.635885,53.439483
Westerlaan,38,,,9161AR,Hollum,Ameland,Friesland,VBO,5.635554,53.439466
De Klonjes,5,,,9161AS,Hollum,Ameland,Friesland,STA,5.625209,53.433912
Tjettepad,2,,,9161AS,Hollum,Ameland,Friesland,VBO,5.630090,53.433789
Tjettepad,15,,,9161AS,Hollum,Ameland,Friesland,VBO,5.633905,53.437881
Badweg,1,a,,9161AT,Hollum,Ameland,Friesland,VBO,5.634935,53.439135
Badweg,1,,,9161AT,Hollum,Ameland,Friesland,VBO,5.634966,53.439233
Badweg,3,a,,9161AT,Hollum,Ameland,Friesland,VBO,5.634679,53.439072
Badweg,3,,,9161AT,Hollum,Ameland,Friesland,VBO,5.634680,53.439216
Badweg,5,,,9161AT,Hollum,Ameland,Friesland,VBO,5.634319,53.439244
Badweg,7,,,9161AT,Hollum,Ameland,Friesland,VBO,5.634093,53.439271
Badweg,9,,,9161AT,Hollum,Ameland,Friesland,VBO,5.633898,53.439316
Badweg,11,,,9161AT,Hollum,Ameland,Friesland,VBO,5.633657,53.439389
Badweg,13,,,9161AT,Hollum,Ameland,Friesland,VBO,5.633432,53.439434
Badweg,15,c,,9161AT,Hollum,Ameland,Friesland,VBO,5.632752,53.439547
Badweg,15,,,9161AT,Hollum,Ameland,Friesland,VBO,5.633191,53.439471
Badweg,17,,,9161AT,Hollum,Ameland,Friesland,VBO,5.631297,53.439690
Badweg,19,,,9161AT,Hollum,Ameland,Friesland,VBO,5.631071,53.439708
Badweg,21,,,9161AT,Hollum,Ameland,Friesland,VBO,5.630304,53.439818
Badweg,23,,,9161AT,Hollum,Ameland,Friesland,VBO,5.629312,53.439919
Badweg,45,,,9161AT,Hollum,Ameland,Friesland,VBO,5.622792,53.439150
Badweg,2,,,9161AV,Hollum,Ameland,Friesland,VBO,5.634937,53.439512
Badweg,4,,,9161AV,Hollum,Ameland,Friesland,VBO,5.634486,53.439585
Badweg,6,,,9161AV,Hollum,Ameland,Friesland,VBO,5.634381,53.439612
Badweg,8,,,9161AV,Hollum,Ameland,Friesland,VBO,5.634141,53.439666
Badweg,10,,,9161AV,Hollum,Ameland,Friesland,VBO,5.634065,53.439666
Badweg,12,,,9161AV,Hollum,Ameland,Friesland,VBO,5.633690,53.439739
Badweg,14,,,9161AV,Hollum,Ameland,Friesland,VBO,5.633404,53.439767
Badweg,22,,,9161AV,Hollum,Ameland,Friesland,VBO,5.629616,53.440439
Badweg,36,,001,9161AV,Hollum,Ameland,Friesland,VBO,5.623216,53.439598
Badweg,36,,002,9161AV,Hollum,Ameland,Friesland,VBO,5.623126,53.439715
Badweg,36,,003,9161AV,Hollum,Ameland,Friesland,VBO,5.623066,53.439841
Badweg,36,,004,9161AV,Hollum,Ameland,Friesland,VBO,5.623007,53.439949
Badweg,36,,005,9161AV,Hollum,Ameland,Friesland,VBO,5.623203,53.439985
Badweg,36,,006,9161AV,Hollum,Ameland,Friesland,VBO,5.623383,53.440029
Badweg,36,,007,9161AV,Hollum,Ameland,Friesland,VBO,5.623458,53.439930
Badweg,36,,008,9161AV,Hollum,Ameland,Friesland,VBO,5.623518,53.439804
Badweg,36,,009,9161AV,Hollum,Ameland,Friesland,VBO,5.623592,53.439687
Badweg,36,,010,9161AV,Hollum,Ameland,Friesland,VBO,5.623441,53.439634
Badweg,36,,,9161AV,Hollum,Ameland,Friesland,VBO,5.623351,53.439634
Badweg,44,,,9161AV,Hollum,Ameland,Friesland,VBO,5.622312,53.439411
Badweg,46,,,9161AV,Hollum,Ameland,Friesland,VBO,5.622251,53.439403
Molenweg,1,,,9161AW,Hollum,Ameland,Friesland,VBO,5.634822,53.440474
Molenweg,2,a,,9161AW,Hollum,Ameland,Friesland,VBO,5.634689,53.440851
Molenweg,2,,,9161AW,Hollum,Ameland,Friesland,VBO,5.634824,53.440770
Molenweg,3,,,9161AW,Hollum,Ameland,Friesland,VBO,5.634807,53.440402
Molenweg,4,a,,9161AW,Hollum,Ameland,Friesland,VBO,5.634478,53.440753
Molenweg,4,,,9161AW,Hollum,Ameland,Friesland,VBO,5.634523,53.440681
Molenweg,6,a,,9161AW,Hollum,Ameland,Friesland,VBO,5.634233,53.440686
Molenweg,6,b,,9161AW,Hollum,Ameland,Friesland,VBO,5.633827,53.440945
Molenweg,6,,,9161AW,Hollum,Ameland,Friesland,VBO,5.633620,53.440656
Molenweg,8,,,9161AW,Hollum,Ameland,Friesland,VBO,5.633391,53.440243
Jacob de Vriesstraat,1,a,,9161AX,Hollum,Ameland,Friesland,VBO,5.634477,53.439867
Jacob de Vriesstraat,1,,,9161AX,Hollum,Ameland,Friesland,VBO,5.634474,53.440025
Jacob de Vriesstraat,2,,,9161AX,Hollum,Ameland,Friesland,VBO,5.634715,53.440204
Jacob de Vriesstraat,3,,,9161AX,Hollum,Ameland,Friesland,VBO,5.634158,53.440080
Jacob de Vriesstraat,4,,,9161AX,Hollum,Ameland,Friesland,VBO,5.634445,53.440187
Hidde Dirks Katstraat,2,a,,9161AZ,Hollum,Ameland,Friesland,VBO,5.635255,53.439835
Hidde Dirks Katstraat,2,,,9161AZ,Hollum,Ameland,Friesland,VBO,5.635344,53.439610
Hidde Dirks Katstraat,3,,,9161AZ,Hollum,Ameland,Friesland,VBO,5.634923,53.439737
Hidde Dirks Katstraat,4,a,,9161AZ,Hollum,Ameland,Friesland,VBO,5.635365,53.440598
Hidde Dirks Katstraat,4,,001,9161AZ,Hollum,Ameland,Friesland,VBO,5.635493,53.440307
Hidde Dirks Katstraat,4,,002,9161AZ,Hollum,Ameland,Friesland,VBO,5.635487,53.440254
Hidde Dirks Katstraat,4,,003,9161AZ,Hollum,Ameland,Friesland,VBO,5.635459,53.440193
Hidde Dirks Katstraat,4,,004,9161AZ,Hollum,Ameland,Friesland,VBO,5.635427,53.440130
Hidde Dirks Katstraat,4,,012,9161AZ,Hollum,Ameland,Friesland,VBO,5.636033,53.440373
Hidde Dirks Katstraat,4,,014,9161AZ,Hollum,Ameland,Friesland,VBO,5.636216,53.440274
Hidde Dirks Katstraat,4,,015,9161AZ,Hollum,Ameland,Friesland,VBO,5.636228,53.440325
Hidde Dirks Katstraat,4,,016,9161AZ,Hollum,Ameland,Friesland,VBO,5.636252,53.440401
Hidde Dirks Katstraat,4,,017,9161AZ,Hollum,Ameland,Friesland,VBO,5.636281,53.440473
Hidde Dirks Katstraat,4,,018,9161AZ,Hollum,Ameland,Friesland,VBO,5.636155,53.440470
Hidde Dirks Katstraat,4,,019,9161AZ,Hollum,Ameland,Friesland,VBO,5.636066,53.440445
Hidde Dirks Katstraat,4,,101,9161AZ,Hollum,Ameland,Friesland,VBO,5.635493,53.440320
Hidde Dirks Katstraat,4,,102,9161AZ,Hollum,Ameland,Friesland,VBO,5.635485,53.440271
Hidde Dirks Katstraat,4,,103,9161AZ,Hollum,Ameland,Friesland,VBO,5.635467,53.440211
Hidde Dirks Katstraat,4,,104,9161AZ,Hollum,Ameland,Friesland,VBO,5.635447,53.440152
Hidde Dirks Katstraat,4,,105,9161AZ,Hollum,Ameland,Friesland,VBO,5.635588,53.440155
Hidde Dirks Katstraat,4,,106,9161AZ,Hollum,Ameland,Friesland,VBO,5.635612,53.440241
Hidde Dirks Katstraat,4,,107,9161AZ,Hollum,Ameland,Friesland,VBO,5.635633,53.440300
Hidde Dirks Katstraat,4,,108,9161AZ,Hollum,Ameland,Friesland,VBO,5.635641,53.440357
Hidde Dirks Katstraat,4,,109,9161AZ,Hollum,Ameland,Friesland,VBO,5.635556,53.440434
Hidde Dirks Katstraat,4,,110,9161AZ,Hollum,Ameland,Friesland,VBO,5.635580,53.440495
Hidde Dirks Katstraat,4,,111,9161AZ,Hollum,Ameland,Friesland,VBO,5.635732,53.440578
Hidde Dirks Katstraat,4,,112,9161AZ,Hollum,Ameland,Friesland,VBO,5.635753,53.440410
Hidde Dirks Katstraat,4,,113,9161AZ,Hollum,Ameland,Friesland,VBO,5.635848,53.440391
Hidde Dirks Katstraat,4,,114,9161AZ,Hollum,Ameland,Friesland,VBO,5.635946,53.440386
Hidde Dirks Katstraat,4,,115,9161AZ,Hollum,Ameland,Friesland,VBO,5.636071,53.440366
Hidde Dirks Katstraat,4,,116,9161AZ,Hollum,Ameland,Friesland,VBO,5.636095,53.440307
Hidde Dirks Katstraat,4,,117,9161AZ,Hollum,Ameland,Friesland,VBO,5.636222,53.440270
Hidde Dirks Katstraat,4,,118,9161AZ,Hollum,Ameland,Friesland,VBO,5.636234,53.440343
Hidde Dirks Katstraat,4,,119,9161AZ,Hollum,Ameland,Friesland,VBO,5.636260,53.440388
Hidde Dirks Katstraat,4,,120,9161AZ,Hollum,Ameland,Friesland,VBO,5.636297,53.440465
Hidde Dirks Katstraat,4,,121,9161AZ,Hollum,Ameland,Friesland,VBO,5.636129,53.440468
Hidde Dirks Katstraat,4,,,9161AZ,Hollum,Ameland,Friesland,VBO,5.635589,53.440418
Hidde Dirks Katstraat,5,,,9161AZ,Hollum,Ameland,Friesland,VBO,5.634774,53.439908
Hidde Dirks Katstraat,6,,,9161AZ,Hollum,Ameland,Friesland,VBO,5.635151,53.440060
Hidde Dirks Katstraat,8,,,9161AZ,Hollum,Ameland,Friesland,VBO,5.635136,53.440006
Hidde Dirks Katstraat,10,,,9161AZ,Hollum,Ameland,Friesland,VBO,5.635271,53.439996
Hidde Dirks Katstraat,12,,,9161AZ,Hollum,Ameland,Friesland,VBO,5.635361,53.439996
Hidde Dirks Katstraat,14,,,9161AZ,Hollum,Ameland,Friesland,VBO,5.635542,53.439996
Hidde Dirks Katstraat,16,,,9161AZ,Hollum,Ameland,Friesland,VBO,5.635632,53.439996
Hidde Dirks Katstraat,18,,,9161AZ,Hollum,Ameland,Friesland,VBO,5.635798,53.440040
Hidde Dirks Katstraat,20,,,9161AZ,Hollum,Ameland,Friesland,VBO,5.635813,53.439977
Hidde Dirks Katstraat,22,,,9161AZ,Hollum,Ameland,Friesland,VBO,5.635181,53.440059
Hidde Dirks Katstraat,24,,,9161AZ,Hollum,Ameland,Friesland,VBO,5.635166,53.440006
Hidde Dirks Katstraat,26,,,9161AZ,Hollum,Ameland,Friesland,VBO,5.635271,53.440014
Hidde Dirks Katstraat,28,,,9161AZ,Hollum,Ameland,Friesland,VBO,5.635361,53.440023
Hidde Dirks Katstraat,30,,,9161AZ,Hollum,Ameland,Friesland,VBO,5.635542,53.440014
Hidde Dirks Katstraat,32,,,9161AZ,Hollum,Ameland,Friesland,VBO,5.635632,53.440014
Hidde Dirks Katstraat,34,,,9161AZ,Hollum,Ameland,Friesland,VBO,5.635768,53.440040
Hidde Dirks Katstraat,36,,,9161AZ,Hollum,Ameland,Friesland,VBO,5.635768,53.439977
Westakkers,1,,,9161BA,Hollum,Ameland,Friesland,VBO,5.636416,53.440201
Westakkers,6,,,9161BA,Hollum,Ameland,Friesland,VBO,5.636220,53.440102
Westakkers,8,,,9161BA,Hollum,Ameland,Friesland,VBO,5.636340,53.440075
Westakkers,10,,,9161BA,Hollum,Ameland,Friesland,VBO,5.636581,53.440057
Westakkers,12,,,9161BA,Hollum,Ameland,Friesland,VBO,5.636550,53.440021
Westakkers,14,,,9161BA,Hollum,Ameland,Friesland,VBO,5.636549,53.439877
Westakkers,16,,,9161BA,Hollum,Ameland,Friesland,VBO,5.636504,53.439805
Westakkers,18,,,9161BA,Hollum,Ameland,Friesland,VBO,5.636880,53.439804
Westakkers,20,,,9161BA,Hollum,Ameland,Friesland,VBO,5.636970,53.439804
Westakkers,22,,,9161BA,Hollum,Ameland,Friesland,VBO,5.636971,53.439957
Westakkers,24,,,9161BA,Hollum,Ameland,Friesland,VBO,5.636972,53.440020
Westakkers,26,,,9161BA,Hollum,Ameland,Friesland,VBO,5.637003,53.440199
Westakkers,28,,,9161BA,Hollum,Ameland,Friesland,VBO,5.636867,53.440218
Westakkers,30,,,9161BA,Hollum,Ameland,Friesland,VBO,5.636763,53.440326
Westakkers,32,,,9161BA,Hollum,Ameland,Friesland,VBO,5.636808,53.440398
Cornelis Schellingerstraat,2,,,9161BB,Hollum,Ameland,Friesland,VBO,5.637126,53.440621
Cornelis Schellingerstraat,4,a,,9161BB,Hollum,Ameland,Friesland,VBO,5.636832,53.440662
Cornelis Schellingerstraat,4,,,9161BB,Hollum,Ameland,Friesland,VBO,5.636765,53.440640
Cornelis Schellingerstraat,5,,,9161BB,Hollum,Ameland,Friesland,VBO,5.637079,53.440352
Cornelis Schellingerstraat,6,,,9161BB,Hollum,Ameland,Friesland,VBO,5.636464,53.440668
Cornelis Schellingerstraat,8,,,9161BB,Hollum,Ameland,Friesland,VBO,5.636148,53.440749
Cornelis Bruinpad,1,,,9161BC,Hollum,Ameland,Friesland,VBO,5.637586,53.439623
Cornelis Bruinpad,2,,,9161BC,Hollum,Ameland,Friesland,VBO,5.637960,53.439281
Cornelis Bruinpad,3,a,,9161BC,Hollum,Ameland,Friesland,VBO,5.637287,53.439929
Cornelis Bruinpad,3,,,9161BC,Hollum,Ameland,Friesland,VBO,5.637633,53.439875
Cornelis Bruinpad,4,,,9161BC,Hollum,Ameland,Friesland,VBO,5.637871,53.439461
Cornelis Bruinpad,5,,,9161BC,Hollum,Ameland,Friesland,VBO,5.637755,53.440099
Cornelis Bruinpad,6,,,9161BC,Hollum,Ameland,Friesland,VBO,5.637948,53.439703
Cornelis Bruinpad,7,,,9161BC,Hollum,Ameland,Friesland,VBO,5.637273,53.440154
Cornelis Bruinpad,9,,,9161BC,Hollum,Ameland,Friesland,VBO,5.637606,53.440187
Plantsoenstraat,1,,,9161BD,Hollum,Ameland,Friesland,VBO,5.638944,53.440150
Plantsoenstraat,2,,,9161BD,Hollum,Ameland,Friesland,VBO,5.638464,53.440421
Plantsoenstraat,3,,,9161BD,Hollum,Ameland,Friesland,VBO,5.638417,53.440152
Plantsoenstraat,4,,,9161BD,Hollum,Ameland,Friesland,VBO,5.638253,53.440350
Plantsoenstraat,5,a,,9161BD,Hollum,Ameland,Friesland,VBO,5.638205,53.439990
Plantsoenstraat,5,b,,9161BD,Hollum,Ameland,Friesland,VBO,5.638024,53.439937
Plantsoenstraat,5,,,9161BD,Hollum,Ameland,Friesland,VBO,5.638206,53.440143
Plantsoenstraat,6,,,9161BD,Hollum,Ameland,Friesland,VBO,5.638042,53.440323
Schoolstraat,1,a,,9161BE,Hollum,Ameland,Friesland,VBO,5.639477,53.438811
Schoolstraat,1,,,9161BE,Hollum,Ameland,Friesland,VBO,5.639344,53.439080
Schoolstraat,2,,,9161BE,Hollum,Ameland,Friesland,VBO,5.639778,53.438666
Schoolstraat,3,a,,9161BE,Hollum,Ameland,Friesland,VBO,5.639316,53.439530
Schoolstraat,3,,,9161BE,Hollum,Ameland,Friesland,VBO,5.639315,53.439377
Schoolstraat,4,a,,9161BE,Hollum,Ameland,Friesland,VBO,5.639944,53.438961
Schoolstraat,4,b,,9161BE,Hollum,Ameland,Friesland,VBO,5.640111,53.438977
Schoolstraat,4,,,9161BE,Hollum,Ameland,Friesland,VBO,5.639879,53.438975
Schoolstraat,5,,,9161BE,Hollum,Ameland,Friesland,VBO,5.639182,53.439773
Schoolstraat,6,,,9161BE,Hollum,Ameland,Friesland,VBO,5.639839,53.439097
Schoolstraat,7,,,9161BE,Hollum,Ameland,Friesland,VBO,5.639063,53.440051
Schoolstraat,8,a,,9161BE,Hollum,Ameland,Friesland,VBO,5.640082,53.439250
Schoolstraat,8,,,9161BE,Hollum,Ameland,Friesland,VBO,5.639804,53.439200
Schoolstraat,10,,,9161BE,Hollum,Ameland,Friesland,VBO,5.639676,53.439358
Schoolstraat,12,,,9161BE,Hollum,Ameland,Friesland,VBO,5.639722,53.439502
Schoolstraat,14,a,,9161BE,Hollum,Ameland,Friesland,VBO,5.639618,53.439673
Schoolstraat,14,,,9161BE,Hollum,Ameland,Friesland,VBO,5.639693,53.439556
Schoolstraat,16,,,9161BE,Hollum,Ameland,Friesland,VBO,5.639649,53.439826
Schoolstraat,18,a,,9161BE,Hollum,Ameland,Friesland,VBO,5.639574,53.439925
Schoolstraat,18,,,9161BE,Hollum,Ameland,Friesland,VBO,5.639530,53.440113
Schoolstraat,20,a,,9161BE,Hollum,Ameland,Friesland,VBO,5.639411,53.440284
Schoolstraat,20,,,9161BE,Hollum,Ameland,Friesland,VBO,5.639516,53.440284
Schoolstraat,22,,,9161BE,Hollum,Ameland,Friesland,VBO,5.639155,53.440348
Oostakkers,1,,,9161BG,Hollum,Ameland,Friesland,VBO,5.640358,53.440192
Oostakkers,2,,,9161BG,Hollum,Ameland,Friesland,VBO,5.639891,53.440104
Oostakkers,3,,,9161BG,Hollum,Ameland,Friesland,VBO,5.640448,53.440048
Oostakkers,4,,,9161BG,Hollum,Ameland,Friesland,VBO,5.639951,53.439951
Oostakkers,5,,,9161BG,Hollum,Ameland,Friesland,VBO,5.640507,53.439869
Oostakkers,6,,,9161BG,Hollum,Ameland,Friesland,VBO,5.640100,53.439753
Oostakkers,7,,,9161BG,Hollum,Ameland,Friesland,VBO,5.640611,53.439671
Oostakkers,8,,,9161BG,Hollum,Ameland,Friesland,VBO,5.640117,53.439573
Oostakkers,9,,,9161BG,Hollum,Ameland,Friesland,VBO,5.640549,53.439419
Oostakkers,10,,,9161BG,Hollum,Ameland,Friesland,VBO,5.640218,53.439438
Johan Wilhelm Burgerstraat,1,,,9161BH,Hollum,Ameland,Friesland,VBO,5.638494,53.440475
Johan Wilhelm Burgerstraat,2,a,,9161BH,Hollum,Ameland,Friesland,VBO,5.638960,53.440447
Johan Wilhelm Burgerstraat,2,b,,9161BH,Hollum,Ameland,Friesland,VBO,5.638900,53.440492
Johan Wilhelm Burgerstraat,2,,,9161BH,Hollum,Ameland,Friesland,VBO,5.639035,53.440411
Johan Wilhelm Burgerstraat,3,a,,9161BH,Hollum,Ameland,Friesland,VBO,5.638179,53.440709
Johan Wilhelm Burgerstraat,3,,,9161BH,Hollum,Ameland,Friesland,VBO,5.638269,53.440565
Johan Wilhelm Burgerstraat,4,,,9161BH,Hollum,Ameland,Friesland,VBO,5.638735,53.440537
Johan Wilhelm Burgerstraat,5,,,9161BH,Hollum,Ameland,Friesland,VBO,5.638120,53.440853
Johan Wilhelm Burgerstraat,6,,,9161BH,Hollum,Ameland,Friesland,VBO,5.638661,53.440636
Johan Wilhelm Burgerstraat,8,,,9161BH,Hollum,Ameland,Friesland,VBO,5.638617,53.440888
Johan Wilhelm Burgerstraat,10,,,9161BH,Hollum,Ameland,Friesland,VBO,5.638482,53.440978
Spinhuisstraat,1,,,9161BJ,Hollum,Ameland,Friesland,VBO,5.638073,53.440521
Spinhuisstraat,2,,,9161BJ,Hollum,Ameland,Friesland,VBO,5.637999,53.440701
Hans Barentsstraat,1,,,9161BK,Hollum,Ameland,Friesland,VBO,5.640076,53.440840
Hans Barentsstraat,2,,,9161BK,Hollum,Ameland,Friesland,VBO,5.639987,53.441056
Hans Barentsstraat,3,,,9161BK,Hollum,Ameland,Friesland,VBO,5.639712,53.440857
Hans Barentsstraat,4,,,9161BK,Hollum,Ameland,Friesland,VBO,5.639746,53.441056
Hans Barentsstraat,6,a,,9161BK,Hollum,Ameland,Friesland,VBO,5.638873,53.441013
Hans Barentsstraat,6,,,9161BK,Hollum,Ameland,Friesland,VBO,5.639069,53.440941
Hans Barentsstraat,7,,,9161BK,Hollum,Ameland,Friesland,VBO,5.639414,53.440868
Hans Barentsstraat,9,a,,9161BK,Hollum,Ameland,Friesland,VBO,5.639218,53.440752
Hans Barentsstraat,9,,,9161BK,Hollum,Ameland,Friesland,VBO,5.639068,53.440761
Hans Barentsstraat,11,,,9161BK,Hollum,Ameland,Friesland,VBO,5.638796,53.440690
Tussen Dijken,1,,,9161BL,Hollum,Ameland,Friesland,VBO,5.641387,53.438510
Tussen Dijken,3,a,,9161BL,Hollum,Ameland,Friesland,VBO,5.641119,53.439005
Tussen Dijken,3,,,9161BL,Hollum,Ameland,Friesland,VBO,5.641344,53.438977
Tussen Dijken,5,,,9161BL,Hollum,Ameland,Friesland,VBO,5.641225,53.439103
Tussen Dijken,7,,,9161BL,Hollum,Ameland,Friesland,VBO,5.641225,53.439193
Tussen Dijken,9,,,9161BL,Hollum,Ameland,Friesland,VBO,5.641181,53.439346
Tussen Dijken,11,,,9161BL,Hollum,Ameland,Friesland,VBO,5.641137,53.439499
Tussen Dijken,13,,,9161BL,Hollum,Ameland,Friesland,VBO,5.641092,53.439616
Tussen Dijken,15,,,9161BL,Hollum,Ameland,Friesland,VBO,5.641063,53.439742
Tussen Dijken,17,,,9161BL,Hollum,Ameland,Friesland,VBO,5.641109,53.439894
Tussen Dijken,19,,,9161BL,Hollum,Ameland,Friesland,VBO,5.641095,53.440119
Tussen Dijken,23,,,9161BM,Hollum,Ameland,Friesland,VBO,5.640767,53.440632
Tussen Dijken,25,,,9161BM,Hollum,Ameland,Friesland,VBO,5.640648,53.440758
Tussen Dijken,27,,,9161BM,Hollum,Ameland,Friesland,VBO,5.640528,53.440830
Tussen Dijken,29,,,9161BM,Hollum,Ameland,Friesland,VBO,5.639958,53.441254
Tussen Dijken,31,,,9161BM,Hollum,Ameland,Friesland,VBO,5.639868,53.441308
Tussen Dijken,33,,,9161BM,Hollum,Ameland,Friesland,VBO,5.639748,53.441380
Tussen Dijken,35,a,,9161BM,Hollum,Ameland,Friesland,VBO,5.639672,53.441245
Tussen Dijken,35,,,9161BM,Hollum,Ameland,Friesland,VBO,5.639658,53.441434
Tussen Dijken,37,a,,9161BM,Hollum,Ameland,Friesland,VBO,5.639448,53.441479
Tussen Dijken,37,,,9161BM,Hollum,Ameland,Friesland,VBO,5.639253,53.441560
Tussen Dijken,2,,,9161BN,Hollum,Ameland,Friesland,VBO,5.641717,53.438384
Tussen Dijken,4,a,,9161BN,Hollum,Ameland,Friesland,VBO,5.641719,53.438797
Tussen Dijken,6,a,,9161BP,Hollum,Ameland,Friesland,VBO,5.641841,53.438931
Tussen Dijken,6,,,9161BP,Hollum,Ameland,Friesland,VBO,5.641872,53.439075
Tussen Dijken,8,,,9161BP,Hollum,Ameland,Friesland,VBO,5.641933,53.439255
Tussen Dijken,14,,,9161BP,Hollum,Ameland,Friesland,VBO,5.641710,53.439812
Tussen Dijken,16,,,9161BP,Hollum,Ameland,Friesland,VBO,5.641666,53.439947
Tussen Dijken,18,,,9161BP,Hollum,Ameland,Friesland,VBO,5.641637,53.440091
Tussen Dijken,20,,,9161BP,Hollum,Ameland,Friesland,VBO,5.641638,53.440316
Tussen Dijken,26,a,,9161BP,Hollum,Ameland,Friesland,VBO,5.641265,53.440855
Tussen Dijken,26,b,,9161BP,Hollum,Ameland,Friesland,VBO,5.641371,53.440873
Tussen Dijken,26,c,,9161BP,Hollum,Ameland,Friesland,VBO,5.641461,53.440900
Tussen Dijken,26,d,,9161BP,Hollum,Ameland,Friesland,VBO,5.641401,53.440981
Tussen Dijken,26,e,,9161BP,Hollum,Ameland,Friesland,VBO,5.641777,53.440935
Tussen Dijken,26,f,,9161BP,Hollum,Ameland,Friesland,VBO,5.641731,53.440783
Tussen Dijken,26,g,,9161BP,Hollum,Ameland,Friesland,VBO,5.641852,53.440809
Tussen Dijken,26,,,9161BP,Hollum,Ameland,Friesland,VBO,5.641115,53.440901
Tussen Dijken,28,,,9161BP,Hollum,Ameland,Friesland,VBO,5.641070,53.440910
Tussen Dijken,34,,,9161BP,Hollum,Ameland,Friesland,VBO,5.640695,53.441153
Tussen Dijken,36,a,,9161BP,Hollum,Ameland,Friesland,VBO,5.640155,53.441361
Tussen Dijken,36,b,,9161BP,Hollum,Ameland,Friesland,VBO,5.640035,53.441433
Tussen Dijken,36,c,,9161BP,Hollum,Ameland,Friesland,VBO,5.640110,53.441496
Tussen Dijken,36,d,,9161BP,Hollum,Ameland,Friesland,VBO,5.640411,53.441477
Tussen Dijken,36,,,9161BP,Hollum,Ameland,Friesland,VBO,5.640290,53.441334
Tussen Dijken,38,,,9161BP,Hollum,Ameland,Friesland,VBO,5.640036,53.441649
Tussen Dijken,40,a,,9161BP,Hollum,Ameland,Friesland,VBO,5.639330,53.441866
Tussen Dijken,40,b,,9161BP,Hollum,Ameland,Friesland,VBO,5.639285,53.441911
Tussen Dijken,40,c,,9161BP,Hollum,Ameland,Friesland,VBO,5.639345,53.441956
Tussen Dijken,40,d,,9161BP,Hollum,Ameland,Friesland,VBO,5.639646,53.441883
Tussen Dijken,40,e,,9161BP,Hollum,Ameland,Friesland,VBO,5.639707,53.441937
Tussen Dijken,40,,,9161BP,Hollum,Ameland,Friesland,VBO,5.639375,53.441803
Noorderweg,1,a,,9161BR,Hollum,Ameland,Friesland,VBO,5.638259,53.441527
Noorderweg,1,,,9161BR,Hollum,Ameland,Friesland,VBO,5.638485,53.441535
Noorderweg,2,,,9161BR,Hollum,Ameland,Friesland,VBO,5.639371,53.441138
Noorderweg,3,,,9161BR,Hollum,Ameland,Friesland,VBO,5.638740,53.441337
Noorderweg,4,,,9161BR,Hollum,Ameland,Friesland,VBO,5.639161,53.441255
Noorderweg,5,,,9161BR,Hollum,Ameland,Friesland,VBO,5.638906,53.441480
Noorderweg,6,,,9161BR,Hollum,Ameland,Friesland,VBO,5.639282,53.441354
Zwaneplein,1,,,9161BS,Hollum,Ameland,Friesland,VBO,5.638302,53.441113
Zwaneplein,3,,,9161BS,Hollum,Ameland,Friesland,VBO,5.637835,53.441042
Zwaneplein,4,,,9161BS,Hollum,Ameland,Friesland,VBO,5.638258,53.441266
Zwaneplein,6,,,9161BS,Hollum,Ameland,Friesland,VBO,5.638002,53.441258
Johannes Bakkerstraat,1,a,,9161BT,Hollum,Ameland,Friesland,VBO,5.637711,53.440360
Johannes Bakkerstraat,1,,,9161BT,Hollum,Ameland,Friesland,VBO,5.637454,53.440199
Johannes Bakkerstraat,2,,,9161BT,Hollum,Ameland,Friesland,VBO,5.637967,53.440323
Johannes Bakkerstraat,3,,,9161BT,Hollum,Ameland,Friesland,VBO,5.637712,53.440468
Johannes Bakkerstraat,4,,,9161BT,Hollum,Ameland,Friesland,VBO,5.637907,53.440521
Johannes Bakkerstraat,5,,,9161BT,Hollum,Ameland,Friesland,VBO,5.637472,53.440666
Johannes Bakkerstraat,6,,,9161BT,Hollum,Ameland,Friesland,VBO,5.637924,53.440782
Johannes Bakkerstraat,7,,,9161BT,Hollum,Ameland,Friesland,VBO,5.637428,53.440836
Johannes Bakkerstraat,9,,,9161BT,Hollum,Ameland,Friesland,VBO,5.637474,53.441007
Johannes Bakkerstraat,11,,,9161BT,Hollum,Ameland,Friesland,VBO,5.637414,53.441007
Johannes Bakkerstraat,13,,,9161BT,Hollum,Ameland,Friesland,VBO,5.637475,53.441115
Olfert Pieter Lapstraat,1,a,,9161BV,Hollum,Ameland,Friesland,VBO,5.637128,53.441098
Olfert Pieter Lapstraat,1,d,,9161BV,Hollum,Ameland,Friesland,VBO,5.637143,53.441080
Olfert Pieter Lapstraat,1,e,,9161BV,Hollum,Ameland,Friesland,VBO,5.637158,53.441062
Olfert Pieter Lapstraat,1,,,9161BV,Hollum,Ameland,Friesland,VBO,5.636812,53.441062
Olfert Pieter Lapstraat,2,,,9161BV,Hollum,Ameland,Friesland,VBO,5.636889,53.441260
Olfert Pieter Lapstraat,3,,,9161BV,Hollum,Ameland,Friesland,VBO,5.636646,53.441036
Olfert Pieter Lapstraat,4,,,9161BV,Hollum,Ameland,Friesland,VBO,5.636603,53.441287
Olfert Pieter Lapstraat,5,,,9161BV,Hollum,Ameland,Friesland,VBO,5.636586,53.441018
Olfert Pieter Lapstraat,6,a,,9161BV,Hollum,Ameland,Friesland,VBO,5.635984,53.441064
Olfert Pieter Lapstraat,6,,,9161BV,Hollum,Ameland,Friesland,VBO,5.635984,53.441037
Olfert Pieter Lapstraat,7,a,,9161BV,Hollum,Ameland,Friesland,VBO,5.636525,53.440928
Olfert Pieter Lapstraat,7,b,,9161BV,Hollum,Ameland,Friesland,VBO,5.636405,53.440902
Olfert Pieter Lapstraat,7,,,9161BV,Hollum,Ameland,Friesland,VBO,5.636390,53.440964
Olfert Pieter Lapstraat,8,,,9161BV,Hollum,Ameland,Friesland,VBO,5.635789,53.441056
Olfert Pieter Lapstraat,10,,,9161BV,Hollum,Ameland,Friesland,VBO,5.635638,53.440966
Jan Jacobsweg,1,,,9161BW,Hollum,Ameland,Friesland,VBO,5.634998,53.442306
Jan Jacobsweg,2,a,,9161BW,Hollum,Ameland,Friesland,VBO,5.635262,53.441075
Jan Jacobsweg,2,,,9161BW,Hollum,Ameland,Friesland,VBO,5.635187,53.440994
Jan Jacobsweg,3,a,,9161BW,Hollum,Ameland,Friesland,VBO,5.634319,53.441957
Jan Jacobsweg,3,,,9161BW,Hollum,Ameland,Friesland,VBO,5.634891,53.442010
Jan Jacobsweg,4,,,9161BW,Hollum,Ameland,Friesland,VBO,5.635067,53.441219
Jan Jacobsweg,5,,,9161BW,Hollum,Ameland,Friesland,VBO,5.634691,53.441148
Jan Jacobsweg,6,a,,9161BW,Hollum,Ameland,Friesland,VBO,5.635369,53.441299
Jan Jacobsweg,6,b,,9161BW,Hollum,Ameland,Friesland,VBO,5.635325,53.441461
Jan Jacobsweg,6,,,9161BW,Hollum,Ameland,Friesland,VBO,5.635053,53.441407
Jan Jacobsweg,8,,,9161BW,Hollum,Ameland,Friesland,VBO,5.635100,53.441569
Jan Jacobsweg,10,,,9161BW,Hollum,Ameland,Friesland,VBO,5.635161,53.441758
Jan Jacobsweg,12,,,9161BW,Hollum,Ameland,Friesland,VBO,5.635162,53.441964
De Hagen,1,,,9161BX,Hollum,Ameland,Friesland,VBO,5.636271,53.441216
De Hagen,2,,,9161BX,Hollum,Ameland,Friesland,VBO,5.635820,53.441307
De Hagen,3,,,9161BX,Hollum,Ameland,Friesland,VBO,5.636226,53.441270
De Hagen,4,,,9161BX,Hollum,Ameland,Friesland,VBO,5.635671,53.441433
De Hagen,5,,,9161BX,Hollum,Ameland,Friesland,VBO,5.636152,53.441387
De Hagen,6,,,9161BX,Hollum,Ameland,Friesland,VBO,5.635777,53.441613
De Hagen,7,,,9161BX,Hollum,Ameland,Friesland,VBO,5.636107,53.441459
De Hagen,13,,,9161BX,Hollum,Ameland,Friesland,VBO,5.635884,53.441882
De Hagen,15,,,9161BX,Hollum,Ameland,Friesland,VBO,5.635886,53.442196
Yme Dunenweg,1,,,9161BZ,Hollum,Ameland,Friesland,VBO,5.638637,53.441831
Yme Dunenweg,4,,,9161BZ,Hollum,Ameland,Friesland,VBO,5.638549,53.442173
Yme Dunenweg,5,a,,9161BZ,Hollum,Ameland,Friesland,VBO,5.637435,53.442148
Yme Dunenweg,5,,,9161BZ,Hollum,Ameland,Friesland,VBO,5.637811,53.442049
Yme Dunenweg,6,a,,9161BZ,Hollum,Ameland,Friesland,VBO,5.638550,53.442344
Yme Dunenweg,6,,,9161BZ,Hollum,Ameland,Friesland,VBO,5.638369,53.442227
Yme Dunenweg,7,,,9161BZ,Hollum,Ameland,Friesland,VBO,5.636486,53.441980
Yme Dunenweg,8,,,9161BZ,Hollum,Ameland,Friesland,VBO,5.638174,53.442299
Yme Dunenweg,9,,,9161BZ,Hollum,Ameland,Friesland,VBO,5.636321,53.441935
Yme Dunenweg,10,,,9161BZ,Hollum,Ameland,Friesland,VBO,5.637226,53.442400
Yme Dunenweg,11,,,9161BZ,Hollum,Ameland,Friesland,VBO,5.636185,53.441908
Yme Dunenweg,12,,,9161BZ,Hollum,Ameland,Friesland,VBO,5.636563,53.442276
Oranjeweg,1,,,9161CA,Hollum,Ameland,Friesland,VBO,5.637338,53.441315
Oranjeweg,2,,,9161CA,Hollum,Ameland,Friesland,VBO,5.637642,53.441501
Oranjeweg,3,a,,9161CA,Hollum,Ameland,Friesland,VBO,5.636980,53.441538
Oranjeweg,3,,,9161CA,Hollum,Ameland,Friesland,VBO,5.637221,53.441538
Oranjeweg,4,,,9161CA,Hollum,Ameland,Friesland,VBO,5.637763,53.441537
Oranjeweg,5,a,,9161CA,Hollum,Ameland,Friesland,VBO,5.636786,53.441781
Oranjeweg,5,b,,9161CA,Hollum,Ameland,Friesland,VBO,5.636936,53.441601
Oranjeweg,5,c,,9161CA,Hollum,Ameland,Friesland,VBO,5.637222,53.441628
Oranjeweg,5,d,,9161CA,Hollum,Ameland,Friesland,VBO,5.636635,53.441647
Oranjeweg,5,,,9161CA,Hollum,Ameland,Friesland,VBO,5.637102,53.441700
Oranjeweg,6,,,9161CA,Hollum,Ameland,Friesland,VBO,5.637598,53.441654
Oranjeweg,7,a,,9161CA,Hollum,Ameland,Friesland,VBO,5.636939,53.442095
Oranjeweg,7,b,,9161CA,Hollum,Ameland,Friesland,VBO,5.636712,53.441925
Oranjeweg,7,,,9161CA,Hollum,Ameland,Friesland,VBO,5.637013,53.441907
Oranjeweg,8,a,,9161CA,Hollum,Ameland,Friesland,VBO,5.637390,53.442094
Oranjeweg,8,,,9161CA,Hollum,Ameland,Friesland,VBO,5.637434,53.441906
Oranjeweg,9,,,9161CB,Hollum,Ameland,Friesland,VBO,5.636189,53.442528
Oranjeweg,11,,,9161CB,Hollum,Ameland,Friesland,VBO,5.635468,53.442853
Oranjeweg,13,a,,9161CB,Hollum,Ameland,Friesland,VBO,5.634736,53.443780
Oranjeweg,13,b,,9161CB,Hollum,Ameland,Friesland,VBO,5.634764,53.443430
Oranjeweg,13,c,,9161CB,Hollum,Ameland,Friesland,VBO,5.634787,53.443482
Oranjeweg,13,d,,9161CB,Hollum,Ameland,Friesland,VBO,5.634540,53.443479
Oranjeweg,13,e,,9161CB,Hollum,Ameland,Friesland,VBO,5.634725,53.443433
Oranjeweg,13,f,,9161CB,Hollum,Ameland,Friesland,VBO,5.634728,53.443525
Oranjeweg,13,,,9161CB,Hollum,Ameland,Friesland,VBO,5.634765,53.443519
Oranjeweg,15,a,,9161CB,Hollum,Ameland,Friesland,VBO,5.634754,53.444346
Oranjeweg,15,b,,9161CB,Hollum,Ameland,Friesland,VBO,5.634754,53.444229
Oranjeweg,15,,,9161CB,Hollum,Ameland,Friesland,VBO,5.634708,53.444104
Oranjeweg,39,,,9161CB,Hollum,Ameland,Friesland,VBO,5.628092,53.447864
Oranjeweg,41,a,,9161CB,Hollum,Ameland,Friesland,VBO,5.627301,53.449042
Oranjeweg,41,b,,9161CB,Hollum,Ameland,Friesland,VBO,5.627256,53.449060
Oranjeweg,41,c,,9161CB,Hollum,Ameland,Friesland,VBO,5.627196,53.449069
Oranjeweg,41,,,9161CB,Hollum,Ameland,Friesland,VBO,5.627361,53.449024
Oranjeweg,43,,,9161CB,Hollum,Ameland,Friesland,VBO,5.626831,53.448423
Oranjeweg,45,,,9161CB,Hollum,Ameland,Friesland,VBO,5.626786,53.448504
Oranjeweg,47,,,9161CB,Hollum,Ameland,Friesland,VBO,5.626695,53.448325
Oranjeweg,49,,,9161CB,Hollum,Ameland,Friesland,VBO,5.626484,53.448289
Oranjeweg,51,,,9161CB,Hollum,Ameland,Friesland,VBO,5.626454,53.448352
Oranjeweg,53,,,9161CB,Hollum,Ameland,Friesland,VBO,5.626320,53.448469
Oranjeweg,55,,,9161CB,Hollum,Ameland,Friesland,VBO,5.626245,53.448523
Oranjeweg,57,b,,9161CB,Hollum,Ameland,Friesland,VBO,5.622059,53.448226
Oranjeweg,57,,,9161CB,Hollum,Ameland,Friesland,VBO,5.625707,53.449216
Oranjeweg,59,a,,9161CB,Hollum,Ameland,Friesland,VBO,5.619842,53.447431
Oranjeweg,59,,,9161CB,Hollum,Ameland,Friesland,VBO,5.620267,53.447978
Oranjeweg,61,a,,9161CB,Hollum,Ameland,Friesland,STA,5.614950,53.450169
Oranjeweg,61,,,9161CB,Hollum,Ameland,Friesland,VBO,5.614903,53.449704
Oranjeweg,63,,,9161CB,Hollum,Ameland,Friesland,VBO,5.616559,53.447015
Oranjeweg,10,a,,9161CC,Hollum,Ameland,Friesland,VBO,5.636988,53.442832
Oranjeweg,10,,,9161CC,Hollum,Ameland,Friesland,VBO,5.637062,53.442589
Oranjeweg,12,,,9161CC,Hollum,Ameland,Friesland,VBO,5.636597,53.442842
Oranjeweg,18,,,9161CC,Hollum,Ameland,Friesland,VBO,5.636899,53.443039
Oranjeweg,20,a,,9161CC,Hollum,Ameland,Friesland,VBO,5.636555,53.443390
Oranjeweg,20,,,9161CC,Hollum,Ameland,Friesland,VBO,5.636283,53.443193
Oranjeweg,26,,,9161CC,Hollum,Ameland,Friesland,VBO,5.635533,53.443734
Oranjeweg,28,,,9161CC,Hollum,Ameland,Friesland,VBO,5.635417,53.444426
Oranjeweg,30,a,,9161CC,Hollum,Ameland,Friesland,VBO,5.638793,53.445308
Oranjeweg,30,b,,9161CC,Hollum,Ameland,Friesland,VBO,5.638416,53.445147
Oranjeweg,30,c,,9161CC,Hollum,Ameland,Friesland,VBO,5.638369,53.444878
Oranjeweg,30,e,,9161CC,Hollum,Ameland,Friesland,VBO,5.637299,53.444583
Oranjeweg,30,f,,9161CC,Hollum,Ameland,Friesland,VBO,5.637194,53.444602
Oranjeweg,30,,,9161CC,Hollum,Ameland,Friesland,VBO,5.638175,53.445022
Oranjeweg,36,a,,9161CC,Hollum,Ameland,Friesland,VBO,5.632606,53.447549
Oranjeweg,36,,,9161CC,Hollum,Ameland,Friesland,VBO,5.632486,53.447765
Oranjeweg,38,,,9161CC,Hollum,Ameland,Friesland,VBO,5.632779,53.447911
Oranjeweg,40,a,,9161CC,Hollum,Ameland,Friesland,VBO,5.630743,53.448128
Oranjeweg,40,b,,9161CC,Hollum,Ameland,Friesland,VBO,5.630773,53.448191
Oranjeweg,40,c,,9161CC,Hollum,Ameland,Friesland,VBO,5.632026,53.448862
Oranjeweg,40,,,9161CC,Hollum,Ameland,Friesland,VBO,5.630983,53.448136
Oranjeweg,42,a,,9161CC,Hollum,Ameland,Friesland,VBO,5.629653,53.449720
Oranjeweg,42,,,9161CC,Hollum,Ameland,Friesland,VBO,5.630562,53.448191
Oranjeweg,44,,,9161CC,Hollum,Ameland,Friesland,VBO,5.628233,53.448870
Oranjeweg,46,a,,9161CC,Hollum,Ameland,Friesland,VBO,5.627790,53.449087
Oranjeweg,46,b,,9161CC,Hollum,Ameland,Friesland,VBO,5.627705,53.449120
Oranjeweg,46,,,9161CC,Hollum,Ameland,Friesland,VBO,5.627892,53.449046
Oranjeweg,50,,,9161CC,Hollum,Ameland,Friesland,VBO,5.624583,53.450153
Reddingbootweg,1,,,9161CD,Hollum,Ameland,Friesland,VBO,5.637439,53.442741
Reddingbootweg,2,,,9161CD,Hollum,Ameland,Friesland,VBO,5.637798,53.442444
Reddingbootweg,3,,,9161CD,Hollum,Ameland,Friesland,VBO,5.637560,53.442849
Reddingbootweg,4,,,9161CD,Hollum,Ameland,Friesland,VBO,5.637844,53.442498
Reddingbootweg,5,,,9161CD,Hollum,Ameland,Friesland,VBO,5.637681,53.443019
Reddingbootweg,6,,,9161CD,Hollum,Ameland,Friesland,VBO,5.637920,53.442597
Reddingbootweg,7,,,9161CD,Hollum,Ameland,Friesland,VBO,5.637682,53.443163
Reddingbootweg,8,,,9161CD,Hollum,Ameland,Friesland,VBO,5.637980,53.442650
Reddingbootweg,9,,,9161CD,Hollum,Ameland,Friesland,VBO,5.637653,53.443316
Reddingbootweg,10,,,9161CD,Hollum,Ameland,Friesland,VBO,5.638056,53.442740
Reddingbootweg,11,,,9161CD,Hollum,Ameland,Friesland,VBO,5.637654,53.443478
Reddingbootweg,12,,,9161CD,Hollum,Ameland,Friesland,VBO,5.638132,53.442812
Reddingbootweg,13,a,,9161CD,Hollum,Ameland,Friesland,VBO,5.637685,53.443684
Reddingbootweg,13,,,9161CD,Hollum,Ameland,Friesland,VBO,5.637655,53.443612
Reddingbootweg,15,,,9161CD,Hollum,Ameland,Friesland,VBO,5.637656,53.443828
Reddingbootweg,16,,,9161CD,Hollum,Ameland,Friesland,VBO,5.638318,53.443809
Reddingbootweg,17,,,9161CD,Hollum,Ameland,Friesland,VBO,5.637160,53.444009
Reddingbootweg,18,,,9161CD,Hollum,Ameland,Friesland,VBO,5.638318,53.443854
Reddingbootweg,19,,,9161CD,Hollum,Ameland,Friesland,VBO,5.637190,53.443955
Reddingbootweg,20,,,9161CD,Hollum,Ameland,Friesland,VBO,5.638364,53.444042
Reddingbootweg,21,,,9161CD,Hollum,Ameland,Friesland,VBO,5.637055,53.443955
Reddingbootweg,22,a,,9161CD,Hollum,Ameland,Friesland,VBO,5.638350,53.444222
Reddingbootweg,22,,,9161CD,Hollum,Ameland,Friesland,VBO,5.638365,53.444150
Reddingbootweg,23,,,9161CD,Hollum,Ameland,Friesland,VBO,5.637070,53.444027
Reddingbootweg,24,,,9161CD,Hollum,Ameland,Friesland,VBO,5.637853,53.444124
Reddingbootweg,26,,,9161CD,Hollum,Ameland,Friesland,VBO,5.637567,53.444125
Reddingbootweg,28,,,9161CD,Hollum,Ameland,Friesland,VBO,5.637191,53.444179
Reddingbootweg,30,,,9161CD,Hollum,Ameland,Friesland,VBO,5.637222,53.444251
Reddingbootweg,32,,,9161CD,Hollum,Ameland,Friesland,VBO,5.637117,53.444269
Reddingbootweg,34,,,9161CD,Hollum,Ameland,Friesland,VBO,5.637116,53.444180
Eeuwe de Vriesstraat,2,,,9161CE,Hollum,Ameland,Friesland,VBO,5.638207,53.442919
Eeuwe de Vriesstraat,4,,,9161CE,Hollum,Ameland,Friesland,VBO,5.638313,53.442919
Eeuwe de Vriesstraat,6,,,9161CE,Hollum,Ameland,Friesland,VBO,5.638463,53.442847
Eeuwe de Vriesstraat,8,,,9161CE,Hollum,Ameland,Friesland,VBO,5.638583,53.442838
Eeuwe de Vriesstraat,10,,,9161CE,Hollum,Ameland,Friesland,VBO,5.638718,53.442793
Eeuwe de Vriesstraat,12,,,9161CE,Hollum,Ameland,Friesland,VBO,5.638838,53.442747
Fabrieksweg,1,,,9161CG,Hollum,Ameland,Friesland,VBO,5.638881,53.442352
Fabrieksweg,2,,,9161CG,Hollum,Ameland,Friesland,VBO,5.639587,53.442090
Fabrieksweg,3,,,9161CG,Hollum,Ameland,Friesland,VBO,5.638897,53.442451
Fabrieksweg,4,,,9161CG,Hollum,Ameland,Friesland,VBO,5.639468,53.442315
Fabrieksweg,5,,,9161CG,Hollum,Ameland,Friesland,VBO,5.639169,53.442648
Fabrieksweg,7,,,9161CG,Hollum,Ameland,Friesland,VBO,5.639366,53.442935
Fabrieksweg,8,,,9161CG,Hollum,Ameland,Friesland,VBO,5.640208,53.442843
Fabrieksweg,10,a,,9161CG,Hollum,Ameland,Friesland,VBO,5.640706,53.442968
Fabrieksweg,10,,,9161CG,Hollum,Ameland,Friesland,VBO,5.640360,53.442987
Fabrieksweg,12,a,,9161CG,Hollum,Ameland,Friesland,VBO,5.640196,53.443221
Fabrieksweg,12,,,9161CG,Hollum,Ameland,Friesland,VBO,5.640120,53.443149
Fabrieksweg,14,,,9161CG,Hollum,Ameland,Friesland,VBO,5.640211,53.443328
Fabrieksweg,16,a,,9161CG,Hollum,Ameland,Friesland,VBO,5.641085,53.443479
Fabrieksweg,16,,,9161CG,Hollum,Ameland,Friesland,VBO,5.640273,53.443571
Fabrieksweg,18,,,9161CG,Hollum,Ameland,Friesland,VBO,5.640455,53.443804
Fabrieksweg,20,,,9161CG,Hollum,Ameland,Friesland,VBO,5.640426,53.443966
Fabrieksweg,22,a,,9161CG,Hollum,Ameland,Friesland,VBO,5.641140,53.444176
Fabrieksweg,22,,,9161CG,Hollum,Ameland,Friesland,VBO,5.640833,53.444091
Fabrieksweg,24,a,,9161CG,Hollum,Ameland,Friesland,VBO,5.640985,53.444662
Fabrieksweg,24,,,9161CG,Hollum,Ameland,Friesland,VBO,5.640898,53.444506
Fabrieksweg,26,a,,9161CG,Hollum,Ameland,Friesland,VBO,5.641725,53.444607
Fabrieksweg,26,b,,9161CG,Hollum,Ameland,Friesland,VBO,5.641710,53.444590
Fabrieksweg,26,c,,9161CG,Hollum,Ameland,Friesland,VBO,5.641686,53.444552
Fabrieksweg,26,d,,9161CG,Hollum,Ameland,Friesland,VBO,5.641647,53.444479
Fabrieksweg,26,e,,9161CG,Hollum,Ameland,Friesland,VBO,5.641601,53.444394
Fabrieksweg,26,f,,9161CG,Hollum,Ameland,Friesland,VBO,5.641559,53.444295
Fabrieksweg,26,g,,9161CG,Hollum,Ameland,Friesland,VBO,5.641525,53.444232
Fabrieksweg,26,h,,9161CG,Hollum,Ameland,Friesland,VBO,5.641500,53.444194
Fabrieksweg,26,,,9161CG,Hollum,Ameland,Friesland,VBO,5.641287,53.444530
Fabrieksweg,28,,,9161CG,Hollum,Ameland,Friesland,VBO,5.641291,53.445141
Fabrieksweg,30,,,9161CG,Hollum,Ameland,Friesland,VBO,5.642586,53.445336
Botte Neijstraat,1,,,9161CH,Hollum,Ameland,Friesland,VBO,5.638726,53.444122
Botte Neijstraat,2,,,9161CH,Hollum,Ameland,Friesland,VBO,5.639387,53.443824
Botte Neijstraat,3,a,,9161CH,Hollum,Ameland,Friesland,VBO,5.639027,53.444122
Botte Neijstraat,3,,,9161CH,Hollum,Ameland,Friesland,VBO,5.638937,53.444104
Botte Neijstraat,4,,,9161CH,Hollum,Ameland,Friesland,VBO,5.639537,53.443824
Botte Neijstraat,5,,,9161CH,Hollum,Ameland,Friesland,VBO,5.639178,53.444121
Botte Neijstraat,6,,,9161CH,Hollum,Ameland,Friesland,VBO,5.639642,53.443806
Botte Neijstraat,7,,,9161CH,Hollum,Ameland,Friesland,VBO,5.639388,53.444103
Botte Neijstraat,8,,,9161CH,Hollum,Ameland,Friesland,VBO,5.639702,53.443806
Botte Neijstraat,9,,,9161CH,Hollum,Ameland,Friesland,VBO,5.639644,53.444102
Botte Neijstraat,11,,,9161CH,Hollum,Ameland,Friesland,VBO,5.639885,53.444120
Verbindingsweg,1,,,9161CJ,Hollum,Ameland,Friesland,VBO,5.644346,53.445216
Pietje Miedeweg,2,a,,9161CK,Hollum,Ameland,Friesland,VBO,5.661003,53.447111
Pietje Miedeweg,2,b,,9161CK,Hollum,Ameland,Friesland,VBO,5.661523,53.445950
Pietje Miedeweg,2,,,9161CK,Hollum,Ameland,Friesland,VBO,5.660601,53.447830
Pietje Miedeweg,4,,,9161CK,Hollum,Ameland,Friesland,VBO,5.664430,53.439394
Pietje Miedeweg,6,a,,9161CK,Hollum,Ameland,Friesland,VBO,5.664222,53.437426
Pietje Miedeweg,6,,,9161CK,Hollum,Ameland,Friesland,VBO,5.664312,53.437507
Pietje Miedeweg,8,a,,9161CK,Hollum,Ameland,Friesland,VBO,5.664532,53.435923
Pietje Miedeweg,8,,,9161CK,Hollum,Ameland,Friesland,VBO,5.664699,53.436751
Pietje Miedeweg,10,a,,9161CK,Hollum,Ameland,Friesland,VBO,5.664084,53.434839
Pietje Miedeweg,10,,,9161CK,Hollum,Ameland,Friesland,VBO,5.664203,53.434506
Pietje Miedeweg,12,,,9161CK,Hollum,Ameland,Friesland,VBO,5.663741,53.432953
Pietje Miedeweg,14,,,9161CK,Hollum,Ameland,Friesland,VBO,5.664382,53.431843
Lombokweg,2,,,9161CL,Hollum,Ameland,Friesland,VBO,5.659763,53.431938
Koudenburgweg,5,,,9161CM,Hollum,Ameland,Friesland,VBO,5.644207,53.449654
Koudenburgweg,6,,,9161CM,Hollum,Ameland,Friesland,VBO,5.644372,53.449627
Koudenburgweg,7,,,9161CM,Hollum,Ameland,Friesland,VBO,5.644764,53.449644
Koudenburgweg,8,,,9161CM,Hollum,Ameland,Friesland,VBO,5.644869,53.449653
Koudenburgweg,9,,,9161CM,Hollum,Ameland,Friesland,VBO,5.645215,53.449643
Koudenburgweg,14,,,9161CM,Hollum,Ameland,Friesland,VBO,5.644434,53.449923
Koudenburgweg,15,,,9161CM,Hollum,Ameland,Friesland,VBO,5.644555,53.449914
Koudenburgweg,16,,,9161CM,Hollum,Ameland,Friesland,VBO,5.645036,53.449886
Koudenburgweg,17,,,9161CM,Hollum,Ameland,Friesland,VBO,5.645236,53.449878
Koudenburgweg,21,,,9161CM,Hollum,Ameland,Friesland,VBO,5.644481,53.450148
Koudenburgweg,22,,,9161CM,Hollum,Ameland,Friesland,VBO,5.644631,53.450148
Koudenburgweg,23,,,9161CM,Hollum,Ameland,Friesland,VBO,5.645143,53.450120
Koudenburgweg,24,,,9161CM,Hollum,Ameland,Friesland,VBO,5.645294,53.450119
Koudenburgweg,29,,,9161CM,Hollum,Ameland,Friesland,VBO,5.645385,53.450362
Koudenburgweg,31,,,9161CM,Hollum,Ameland,Friesland,VBO,5.645881,53.450235
Koudenburgweg,32,,,9161CM,Hollum,Ameland,Friesland,VBO,5.645837,53.450343
Koudenburgweg,33,,,9161CM,Hollum,Ameland,Friesland,VBO,5.646303,53.450216
Koudenburgweg,34,,,9161CM,Hollum,Ameland,Friesland,VBO,5.646243,53.450333
Koudenburgweg,35,,,9161CM,Hollum,Ameland,Friesland,VBO,5.646709,53.450215
Koudenburgweg,36,,,9161CM,Hollum,Ameland,Friesland,VBO,5.646634,53.450314
Koudenburgweg,37,,,9161CM,Hollum,Ameland,Friesland,VBO,5.647115,53.450205
Koudenburgweg,38,,,9161CM,Hollum,Ameland,Friesland,VBO,5.647041,53.450286
Koudenburgweg,39,,,9161CM,Hollum,Ameland,Friesland,VBO,5.647491,53.450186
Koudenburgweg,40,,,9161CM,Hollum,Ameland,Friesland,VBO,5.647523,53.450429
Koudenburgweg,41,,,9161CM,Hollum,Ameland,Friesland,VBO,5.647538,53.450483
Koudenburgweg,42,,,9161CM,Hollum,Ameland,Friesland,VBO,5.647642,53.450713
Koudenburgweg,43,,,9161CM,Hollum,Ameland,Friesland,VBO,5.647676,53.450840
Koudenburgweg,56,,,9161CM,Hollum,Ameland,Friesland,VBO,5.645267,53.450654
Jan Roepeshiem,2,,,9161CN,Hollum,Ameland,Friesland,VBO,5.637588,53.451216
Jan Roepeshiem,4,,,9161CN,Hollum,Ameland,Friesland,VBO,5.637896,53.451408
Jan Roepeshiem,6,,,9161CN,Hollum,Ameland,Friesland,VBO,5.637746,53.451099
Jan Roepeshiem,7,,,9161CN,Hollum,Ameland,Friesland,VBO,5.637460,53.451501
Jan Roepeshiem,8,,,9161CN,Hollum,Ameland,Friesland,VBO,5.638106,53.451359
Jan Roepeshiem,9,,,9161CN,Hollum,Ameland,Friesland,VBO,5.637641,53.451636
Jan Roepeshiem,10,,,9161CN,Hollum,Ameland,Friesland,VBO,5.638029,53.451006
Jan Roepeshiem,11,,,9161CN,Hollum,Ameland,Friesland,VBO,5.637838,53.451752
Jan Roepeshiem,12,,,9161CN,Hollum,Ameland,Friesland,VBO,5.638226,53.451176
Jan Roepeshiem,13,,,9161CN,Hollum,Ameland,Friesland,VBO,5.638019,53.451887
Jan Roepeshiem,14,,,9161CN,Hollum,Ameland,Friesland,VBO,5.638032,53.451536
Jan Roepeshiem,15,,,9161CN,Hollum,Ameland,Friesland,VBO,5.638200,53.452021
Jan Roepeshiem,16,,,9161CN,Hollum,Ameland,Friesland,VBO,5.638316,53.451741
Jan Roepeshiem,17,,,9161CN,Hollum,Ameland,Friesland,VBO,5.638367,53.452164
Jan Roepeshiem,18,,,9161CN,Hollum,Ameland,Friesland,VBO,5.638333,53.451473
Jan Roepeshiem,19,,,9161CN,Hollum,Ameland,Friesland,VBO,5.638593,53.452299
Jan Roepeshiem,20,,,9161CN,Hollum,Ameland,Friesland,VBO,5.638484,53.451634
Jan Roepeshiem,22,,,9161CN,Hollum,Ameland,Friesland,VBO,5.638516,53.451850
Jan Roepeshiem,24,,,9161CN,Hollum,Ameland,Friesland,VBO,5.638712,53.452020
Jan Roepeshiem,26,,,9161CN,Hollum,Ameland,Friesland,VBO,5.638849,53.452253
Bliekeduun,1,,,9161CP,Hollum,Ameland,Friesland,VBO,5.640198,53.453859
Bliekeduun,2,,,9161CP,Hollum,Ameland,Friesland,VBO,5.640276,53.454344
Bliekeduun,3,,,9161CP,Hollum,Ameland,Friesland,VBO,5.639821,53.453662
Bliekeduun,4,,,9161CP,Hollum,Ameland,Friesland,VBO,5.639944,53.454111
Bliekeduun,5,,,9161CP,Hollum,Ameland,Friesland,VBO,5.639849,53.453338
Bliekeduun,6,,,9161CP,Hollum,Ameland,Friesland,VBO,5.639536,53.453959
Bliekeduun,7,,,9161CP,Hollum,Ameland,Friesland,VBO,5.639532,53.453123
Bliekeduun,8,,,9161CP,Hollum,Ameland,Friesland,VBO,5.639159,53.453780
Bliekeduun,10,,,9161CP,Hollum,Ameland,Friesland,VBO,5.639398,53.453465
Bliekeduun,11,,,9161CP,Hollum,Ameland,Friesland,VBO,5.639092,53.452675
Bliekeduun,12,,,9161CP,Hollum,Ameland,Friesland,VBO,5.638931,53.453313
Bliekeduun,13,,,9161CP,Hollum,Ameland,Friesland,VBO,5.638760,53.452505
Bliekeduun,14,,,9161CP,Hollum,Ameland,Friesland,VBO,5.638766,53.453556
Bliekeduun,15,,,9161CP,Hollum,Ameland,Friesland,VBO,5.638278,53.452434
Bliekeduun,16,,,9161CP,Hollum,Ameland,Friesland,VBO,5.638283,53.453333
Bliekeduun,17,,,9161CP,Hollum,Ameland,Friesland,VBO,5.637946,53.452237
Bliekeduun,18,,,9161CP,Hollum,Ameland,Friesland,VBO,5.638568,53.453107
Bliekeduun,19,,,9161CP,Hollum,Ameland,Friesland,VBO,5.637538,53.452040
Bliekeduun,20,,,9161CP,Hollum,Ameland,Friesland,VBO,5.639049,53.453017
Bliekeduun,21,,,9161CP,Hollum,Ameland,Friesland,VBO,5.636996,53.452042
Bliekeduun,22,,,9161CP,Hollum,Ameland,Friesland,VBO,5.638672,53.452802
Bliekeduun,23,,,9161CP,Hollum,Ameland,Friesland,VBO,5.637236,53.451762
Bliekeduun,24,,,9161CP,Hollum,Ameland,Friesland,VBO,5.638236,53.452919
Bliekeduun,25,,,9161CP,Hollum,Ameland,Friesland,VBO,5.636709,53.451791
Bliekeduun,26,,,9161CP,Hollum,Ameland,Friesland,VBO,5.637936,53.453136
Bliekeduun,27,,,9161CP,Hollum,Ameland,Friesland,VBO,5.636319,53.452016
Bliekeduun,28,,,9161CP,Hollum,Ameland,Friesland,VBO,5.637544,53.453029
Bliekeduun,29,,,9161CP,Hollum,Ameland,Friesland,VBO,5.635957,53.451819
Bliekeduun,30,,,9161CP,Hollum,Ameland,Friesland,VBO,5.637829,53.452777
Bliekeduun,32,,,9161CP,Hollum,Ameland,Friesland,VBO,5.637827,53.452507
Bliekeduun,34,,,9161CP,Hollum,Ameland,Friesland,VBO,5.637376,53.452679
Bliekeduun,36,,,9161CP,Hollum,Ameland,Friesland,VBO,5.637046,53.452823
Bliekeduun,38,,,9161CP,Hollum,Ameland,Friesland,VBO,5.636699,53.452635
Bliekeduun,40,,,9161CP,Hollum,Ameland,Friesland,VBO,5.636954,53.452455
Bliekeduun,42,,,9161CP,Hollum,Ameland,Friesland,VBO,5.637405,53.452337
Bliekeduun,44,,,9161CP,Hollum,Ameland,Friesland,VBO,5.636621,53.452213
Bliekeduun,46,,,9161CP,Hollum,Ameland,Friesland,VBO,5.636336,53.452384
Bliekeduun,48,,,9161CP,Hollum,Ameland,Friesland,VBO,5.635943,53.452143
Harmen Visserstraat,1,,,9161CR,Hollum,Ameland,Friesland,VBO,5.638813,53.443583
Harmen Visserstraat,3,,,9161CR,Hollum,Ameland,Friesland,VBO,5.638814,53.443655
Harmen Visserstraat,5,,,9161CR,Hollum,Ameland,Friesland,VBO,5.638799,53.443754
Harmen Visserstraat,7,,,9161CR,Hollum,Ameland,Friesland,VBO,5.638815,53.443826
Jacob Visserpad,1,,,9161CS,Hollum,Ameland,Friesland,VBO,5.638151,53.443629
Jacob Visserpad,2,,,9161CS,Hollum,Ameland,Friesland,VBO,5.639263,53.443304
Jacob Visserpad,3,,,9161CS,Hollum,Ameland,Friesland,VBO,5.638347,53.443629
Jacob Visserpad,4,,,9161CS,Hollum,Ameland,Friesland,VBO,5.639383,53.443285
Jacob Visserpad,5,,,9161CS,Hollum,Ameland,Friesland,VBO,5.638482,53.443611
Jacob Visserpad,6,,,9161CS,Hollum,Ameland,Friesland,VBO,5.639474,53.443258
Jacob Visserpad,7,,,9161CS,Hollum,Ameland,Friesland,VBO,5.639340,53.443555
Jacob Visserpad,8,,,9161CS,Hollum,Ameland,Friesland,VBO,5.639549,53.443231
Jacob Visserpad,9,,,9161CS,Hollum,Ameland,Friesland,VBO,5.639430,53.443537
Jacob Visserpad,11,,,9161CS,Hollum,Ameland,Friesland,VBO,5.639505,53.443537
Jacob Visserpad,13,,,9161CS,Hollum,Ameland,Friesland,VBO,5.639626,53.443536
Jan Roepespad,1,,,9161CT,Hollum,Ameland,Friesland,VBO,5.635744,53.446348
Jan Roepespad,2,a,,9161CT,Hollum,Ameland,Friesland,VBO,5.637255,53.450224
Jan Roepespad,2,,,9161CT,Hollum,Ameland,Friesland,VBO,5.637168,53.449888
Jan Roepespad,3,,,9161CT,Hollum,Ameland,Friesland,VBO,5.636211,53.446356
Jan Roepespad,4,,,9161CT,Hollum,Ameland,Friesland,VBO,5.637183,53.450532
Jan Roepespad,5,,,9161CT,Hollum,Ameland,Friesland,VBO,5.636632,53.446355
Jan Roepespad,7,,,9161CT,Hollum,Ameland,Friesland,VBO,5.637009,53.446372
Jan Roepespad,9,,,9161CT,Hollum,Ameland,Friesland,VBO,5.635972,53.446680
Jan Roepespad,11,,,9161CT,Hollum,Ameland,Friesland,VBO,5.636408,53.446652
Jan Roepespad,13,,,9161CT,Hollum,Ameland,Friesland,VBO,5.636799,53.446651
Jan Roepespad,15,,,9161CT,Hollum,Ameland,Friesland,VBO,5.637236,53.446623
Jan Roepespad,17,a,,9161CT,Hollum,Ameland,Friesland,VBO,5.637493,53.446919
Jan Roepespad,17,,,9161CT,Hollum,Ameland,Friesland,VBO,5.636967,53.446974
Jan Roepespad,19,,,9161CT,Hollum,Ameland,Friesland,VBO,5.636591,53.446975
Jan Roepespad,21,,,9161CT,Hollum,Ameland,Friesland,VBO,5.636079,53.446949
Jan Roepespad,23,,,9161CT,Hollum,Ameland,Friesland,VBO,5.636337,53.447272
Jan Roepespad,25,,,9161CT,Hollum,Ameland,Friesland,VBO,5.636743,53.447271
Jan Roepespad,27,,,9161CT,Hollum,Ameland,Friesland,VBO,5.637209,53.447261
Jan Roepespad,29,,,9161CT,Hollum,Ameland,Friesland,VBO,5.637662,53.447413
Jan Roepespad,31,,,9161CT,Hollum,Ameland,Friesland,VBO,5.637467,53.447629
Jan Roepespad,33,,,9161CT,Hollum,Ameland,Friesland,VBO,5.637008,53.447546
Jan Roepespad,35,,,9161CT,Hollum,Ameland,Friesland,VBO,5.636474,53.447541
Jan Roepespad,37,,,9161CT,Hollum,Ameland,Friesland,VBO,5.636686,53.447927
Jan Roepespad,39,,,9161CT,Hollum,Ameland,Friesland,VBO,5.637093,53.447890
Jan Roepespad,41,,,9161CT,Hollum,Ameland,Friesland,VBO,5.637544,53.447907
Jan Roepespad,43,,,9161CT,Hollum,Ameland,Friesland,VBO,5.637951,53.448014
Jan Roepespad,45,,,9161CT,Hollum,Ameland,Friesland,VBO,5.637712,53.448230
Jan Roepespad,47,,,9161CT,Hollum,Ameland,Friesland,VBO,5.637185,53.448232
Jan Roepespad,49,,,9161CT,Hollum,Ameland,Friesland,VBO,5.636794,53.448223
Jan Roepespad,51,,,9161CT,Hollum,Ameland,Friesland,VBO,5.637006,53.448555
Jan Roepespad,53,,,9161CT,Hollum,Ameland,Friesland,VBO,5.637413,53.448546
Jan Roepespad,55,,,9161CT,Hollum,Ameland,Friesland,VBO,5.637879,53.448545
Jan Roepespad,57,,,9161CT,Hollum,Ameland,Friesland,VBO,5.638256,53.448670
Jan Roepespad,59,,,9161CT,Hollum,Ameland,Friesland,VBO,5.638016,53.448868
Jan Roepespad,61,,,9161CT,Hollum,Ameland,Friesland,VBO,5.637595,53.448851
Jan Roepespad,63,,,9161CT,Hollum,Ameland,Friesland,VBO,5.637189,53.448869
Jan Roepespad,65,,,9161CT,Hollum,Ameland,Friesland,VBO,5.637386,53.449193
Jan Roepespad,67,,,9161CT,Hollum,Ameland,Friesland,VBO,5.637762,53.449192
Jan Roepespad,69,,,9161CT,Hollum,Ameland,Friesland,VBO,5.638244,53.449119
Jan Roepespad,71,,,9161CT,Hollum,Ameland,Friesland,VBO,5.637598,53.449417
Jan Roepespad,73,,,9161CT,Hollum,Ameland,Friesland,VBO,5.637974,53.449416
Jan Roepespad,75,,,9161CT,Hollum,Ameland,Friesland,VBO,5.638381,53.449361
Jan Roepespad,77,,,9161CT,Hollum,Ameland,Friesland,VBO,5.638517,53.449585
Jan Roepespad,79,,,9161CT,Hollum,Ameland,Friesland,VBO,5.638549,53.449810
Jan Roepespad,81,,,9161CT,Hollum,Ameland,Friesland,VBO,5.638082,53.449802
Jan Roepespad,83,,,9161CT,Hollum,Ameland,Friesland,VBO,5.637720,53.449641
Jan Roepespad,120,,,9161CT,Hollum,Ameland,Friesland,VBO,5.640486,53.454110
Jan Roepespad,124,,,9161CT,Hollum,Ameland,Friesland,VBO,5.640758,53.454424
Meester van Douwenweg,1,,,9161CV,Hollum,Ameland,Friesland,VBO,5.640285,53.440588
Meester van Douwenweg,3,,,9161CV,Hollum,Ameland,Friesland,VBO,5.640059,53.440445
Meester van Douwenweg,5,,,9161CV,Hollum,Ameland,Friesland,VBO,5.639818,53.440346
Meester van Douwenweg,6,,,9161CV,Hollum,Ameland,Friesland,VBO,5.640720,53.440219
De Blieke,1,,,9161CW,Hollum,Ameland,Friesland,VBO,5.632997,53.447647
De Blieke,2,,,9161CW,Hollum,Ameland,Friesland,VBO,5.633494,53.447547
De Blieke,3,a,,9161CW,Hollum,Ameland,Friesland,VBO,5.633321,53.447900
De Blieke,3,,,9161CW,Hollum,Ameland,Friesland,VBO,5.633235,53.447821
De Blieke,4,,,9161CW,Hollum,Ameland,Friesland,VBO,5.633660,53.447745
De Blieke,5,,,9161CW,Hollum,Ameland,Friesland,VBO,5.632865,53.448097
De Blieke,6,,,9161CW,Hollum,Ameland,Friesland,VBO,5.633902,53.447870
De Blieke,7,,,9161CW,Hollum,Ameland,Friesland,VBO,5.633376,53.448087
De Blieke,8,,,9161CW,Hollum,Ameland,Friesland,VBO,5.633978,53.448094
De Blieke,9,,,9161CW,Hollum,Ameland,Friesland,VBO,5.633031,53.448312
De Blieke,10,,,9161CW,Hollum,Ameland,Friesland,VBO,5.634309,53.447968
De Blieke,11,,,9161CW,Hollum,Ameland,Friesland,VBO,5.633498,53.448293
De Blieke,12,,,9161CW,Hollum,Ameland,Friesland,VBO,5.633904,53.448328
De Blieke,13,,,9161CW,Hollum,Ameland,Friesland,VBO,5.633243,53.448464
De Blieke,14,,,9161CW,Hollum,Ameland,Friesland,VBO,5.634175,53.448256
De Blieke,15,,,9161CW,Hollum,Ameland,Friesland,VBO,5.633815,53.448526
De Blieke,16,,,9161CW,Hollum,Ameland,Friesland,VBO,5.634385,53.448174
De Blieke,17,,,9161CW,Hollum,Ameland,Friesland,VBO,5.633545,53.448634
De Blieke,18,,,9161CW,Hollum,Ameland,Friesland,VBO,5.634567,53.448327
De Blieke,19,,,9161CW,Hollum,Ameland,Friesland,VBO,5.634027,53.448660
De Blieke,20,,,9161CW,Hollum,Ameland,Friesland,VBO,5.634492,53.448507
De Blieke,21,,,9161CW,Hollum,Ameland,Friesland,VBO,5.633998,53.448858
De Blieke,22,,,9161CW,Hollum,Ameland,Friesland,VBO,5.634161,53.448480
De Blieke,23,,,9161CW,Hollum,Ameland,Friesland,VBO,5.634209,53.448983
De Blieke,24,,,9161CW,Hollum,Ameland,Friesland,VBO,5.634327,53.448606
De Blieke,25,,,9161CW,Hollum,Ameland,Friesland,VBO,5.634495,53.448974
De Blieke,26,,,9161CW,Hollum,Ameland,Friesland,VBO,5.634614,53.448650
De Blieke,27,,,9161CW,Hollum,Ameland,Friesland,VBO,5.634706,53.448973
De Blieke,28,,,9161CW,Hollum,Ameland,Friesland,VBO,5.634869,53.448533
De Blieke,29,,,9161CW,Hollum,Ameland,Friesland,VBO,5.635022,53.448928
De Blieke,30,,,9161CW,Hollum,Ameland,Friesland,VBO,5.634988,53.448389
De Blieke,31,,,9161CW,Hollum,Ameland,Friesland,VBO,5.634990,53.448721
De Blieke,32,,,9161CW,Hollum,Ameland,Friesland,VBO,5.635244,53.448325
De Blieke,33,,,9161CW,Hollum,Ameland,Friesland,VBO,5.635398,53.448918
De Blieke,34,,,9161CW,Hollum,Ameland,Friesland,VBO,5.635393,53.448136
De Blieke,35,,,9161CW,Hollum,Ameland,Friesland,VBO,5.635396,53.448631
De Blieke,36,,,9161CW,Hollum,Ameland,Friesland,VBO,5.635031,53.448011
De Blieke,37,,,9161CW,Hollum,Ameland,Friesland,VBO,5.635909,53.448890
De Blieke,38,,,9161CW,Hollum,Ameland,Friesland,VBO,5.634776,53.448156
De Blieke,39,,,9161CW,Hollum,Ameland,Friesland,VBO,5.636271,53.448880
De Blieke,40,,,9161CW,Hollum,Ameland,Friesland,VBO,5.634729,53.447769
De Blieke,41,,,9161CW,Hollum,Ameland,Friesland,VBO,5.636344,53.448638
De Blieke,42,,,9161CW,Hollum,Ameland,Friesland,VBO,5.635105,53.447760
De Blieke,43,,,9161CW,Hollum,Ameland,Friesland,VBO,5.635773,53.448675
De Blieke,44,,,9161CW,Hollum,Ameland,Friesland,VBO,5.634984,53.447535
De Blieke,45,,,9161CW,Hollum,Ameland,Friesland,VBO,5.636027,53.448477
De Blieke,46,,,9161CW,Hollum,Ameland,Friesland,VBO,5.634816,53.447275
De Blieke,47,,,9161CW,Hollum,Ameland,Friesland,VBO,5.635606,53.448441
De Blieke,48,,,9161CW,Hollum,Ameland,Friesland,VBO,5.634305,53.447339
De Blieke,49,,,9161CW,Hollum,Ameland,Friesland,VBO,5.636101,53.448261
De Blieke,50,,,9161CW,Hollum,Ameland,Friesland,VBO,5.634307,53.447636
De Blieke,51,,,9161CW,Hollum,Ameland,Friesland,VBO,5.635785,53.448145
De Blieke,52,,,9161CW,Hollum,Ameland,Friesland,VBO,5.633930,53.447591
De Blieke,53,,,9161CW,Hollum,Ameland,Friesland,VBO,5.635904,53.447893
De Blieke,54,,,9161CW,Hollum,Ameland,Friesland,VBO,5.633824,53.447349
De Blieke,55,,,9161CW,Hollum,Ameland,Friesland,VBO,5.635752,53.447659
De Blieke,57,,,9161CW,Hollum,Ameland,Friesland,VBO,5.635360,53.447561
De Blieke,59,,,9161CW,Hollum,Ameland,Friesland,VBO,5.635600,53.447372
De Blieke,63,,,9161CW,Hollum,Ameland,Friesland,VBO,5.635463,53.447166
De Blieke,65,,,9161CW,Hollum,Ameland,Friesland,VBO,5.635071,53.447104
De Blieke,67,,,9161CW,Hollum,Ameland,Friesland,VBO,5.635235,53.446843
De Blieke,69,,,9161CW,Hollum,Ameland,Friesland,VBO,5.634858,53.446700
De Blieke,71,,,9161CW,Hollum,Ameland,Friesland,VBO,5.635023,53.446484
De Blieke,73,,,9161CW,Hollum,Ameland,Friesland,VBO,5.634676,53.446485
De Blieke,75,,,9161CW,Hollum,Ameland,Friesland,VBO,5.634391,53.446656
De Blieke,77,,,9161CW,Hollum,Ameland,Friesland,VBO,5.634528,53.446871
De Blieke,79,,,9161CW,Hollum,Ameland,Friesland,VBO,5.634680,53.447051
De Blieke,81,,,9161CW,Hollum,Ameland,Friesland,VBO,5.634198,53.447097
De Blieke,83,,,9161CW,Hollum,Ameland,Friesland,VBO,5.634152,53.446872
De Blieke,85,,,9161CW,Hollum,Ameland,Friesland,VBO,5.633821,53.446954
De Blieke,87,,,9161CW,Hollum,Ameland,Friesland,VBO,5.633777,53.447169
De Blieke,89,,,9161CW,Hollum,Ameland,Friesland,VBO,5.633371,53.447152
De Blieke,91,,,9161CW,Hollum,Ameland,Friesland,VBO,5.633192,53.447377
Bosweg,1,,,9161CX,Hollum,Ameland,Friesland,VBO,5.635993,53.442502
Bosweg,4,a,,9161CX,Hollum,Ameland,Friesland,VBO,5.635017,53.442908
Bosweg,4,,,9161CX,Hollum,Ameland,Friesland,VBO,5.635422,53.442754
Bosweg,6,,,9161CX,Hollum,Ameland,Friesland,VBO,5.634490,53.442873
Bosweg,18,,,9161CX,Hollum,Ameland,Friesland,VBO,5.632687,53.443398
Bosweg,20,,,9161CX,Hollum,Ameland,Friesland,VBO,5.631979,53.443319
Bosweg,21,a,,9161CX,Hollum,Ameland,Friesland,VBO,5.629990,53.442766
Bosweg,21,b,,9161CX,Hollum,Ameland,Friesland,VBO,5.630021,53.442873
Bosweg,21,c,,9161CX,Hollum,Ameland,Friesland,VBO,5.630066,53.442981
Bosweg,21,d,,9161CX,Hollum,Ameland,Friesland,VBO,5.630022,53.443089
Bosweg,21,e,,9161CX,Hollum,Ameland,Friesland,VBO,5.629841,53.443116
Bosweg,21,f,,9161CX,Hollum,Ameland,Friesland,VBO,5.629675,53.443018
Bosweg,21,g,,9161CX,Hollum,Ameland,Friesland,VBO,5.629599,53.442919
Bosweg,21,h,,9161CX,Hollum,Ameland,Friesland,VBO,5.629539,53.442820
Oosterhiemweg,1,b,,9161CZ,Hollum,Ameland,Friesland,VBO,5.641050,53.447711
Oosterhiemweg,1,,001,9161CZ,Hollum,Ameland,Friesland,VBO,5.639424,53.447571
Oosterhiemweg,1,,002,9161CZ,Hollum,Ameland,Friesland,VBO,5.639408,53.447535
Oosterhiemweg,1,,003,9161CZ,Hollum,Ameland,Friesland,VBO,5.639393,53.447499
Oosterhiemweg,1,,004,9161CZ,Hollum,Ameland,Friesland,VBO,5.639378,53.447472
Oosterhiemweg,1,,005,9161CZ,Hollum,Ameland,Friesland,VBO,5.639332,53.447427
Oosterhiemweg,1,,006,9161CZ,Hollum,Ameland,Friesland,VBO,5.639332,53.447400
Oosterhiemweg,1,,007,9161CZ,Hollum,Ameland,Friesland,VBO,5.639317,53.447365
Oosterhiemweg,1,,008,9161CZ,Hollum,Ameland,Friesland,VBO,5.639302,53.447329
Oosterhiemweg,1,,009,9161CZ,Hollum,Ameland,Friesland,VBO,5.639286,53.447284
Oosterhiemweg,1,,010,9161CZ,Hollum,Ameland,Friesland,VBO,5.639256,53.447248
Oosterhiemweg,1,,011,9161CZ,Hollum,Ameland,Friesland,VBO,5.639241,53.447203
Oosterhiemweg,1,,012,9161CZ,Hollum,Ameland,Friesland,VBO,5.639226,53.447176
Oosterhiemweg,1,,013,9161CZ,Hollum,Ameland,Friesland,VBO,5.639195,53.447131
Oosterhiemweg,1,,014,9161CZ,Hollum,Ameland,Friesland,VBO,5.639466,53.447095
Oosterhiemweg,1,,015,9161CZ,Hollum,Ameland,Friesland,VBO,5.639481,53.447131
Oosterhiemweg,1,,016,9161CZ,Hollum,Ameland,Friesland,VBO,5.639496,53.447167
Oosterhiemweg,1,,017,9161CZ,Hollum,Ameland,Friesland,VBO,5.639512,53.447211
Oosterhiemweg,1,,018,9161CZ,Hollum,Ameland,Friesland,VBO,5.639527,53.447256
Oosterhiemweg,1,,019,9161CZ,Hollum,Ameland,Friesland,VBO,5.639542,53.447292
Oosterhiemweg,1,,020,9161CZ,Hollum,Ameland,Friesland,VBO,5.639558,53.447337
Oosterhiemweg,1,,021,9161CZ,Hollum,Ameland,Friesland,VBO,5.639573,53.447364
Oosterhiemweg,1,,022,9161CZ,Hollum,Ameland,Friesland,VBO,5.639588,53.447391
Oosterhiemweg,1,,023,9161CZ,Hollum,Ameland,Friesland,VBO,5.639588,53.447418
Oosterhiemweg,1,,024,9161CZ,Hollum,Ameland,Friesland,VBO,5.639603,53.447445
Oosterhiemweg,1,,025,9161CZ,Hollum,Ameland,Friesland,VBO,5.639604,53.447481
Oosterhiemweg,1,,026,9161CZ,Hollum,Ameland,Friesland,VBO,5.639634,53.447526
Oosterhiemweg,1,,027,9161CZ,Hollum,Ameland,Friesland,VBO,5.639363,53.447418
Oosterhiemweg,1,,028,9161CZ,Hollum,Ameland,Friesland,VBO,5.639347,53.447391
Oosterhiemweg,1,,029,9161CZ,Hollum,Ameland,Friesland,VBO,5.639347,53.447364
Oosterhiemweg,1,,030,9161CZ,Hollum,Ameland,Friesland,VBO,5.639317,53.447320
Oosterhiemweg,1,,031,9161CZ,Hollum,Ameland,Friesland,VBO,5.639302,53.447284
Oosterhiemweg,1,,032,9161CZ,Hollum,Ameland,Friesland,VBO,5.639286,53.447239
Oosterhiemweg,1,,033,9161CZ,Hollum,Ameland,Friesland,VBO,5.639271,53.447203
Oosterhiemweg,1,,034,9161CZ,Hollum,Ameland,Friesland,VBO,5.639256,53.447167
Oosterhiemweg,1,,035,9161CZ,Hollum,Ameland,Friesland,VBO,5.639225,53.447131
Oosterhiemweg,1,,036,9161CZ,Hollum,Ameland,Friesland,VBO,5.639436,53.447104
Oosterhiemweg,1,,037,9161CZ,Hollum,Ameland,Friesland,VBO,5.639451,53.447140
Oosterhiemweg,1,,038,9161CZ,Hollum,Ameland,Friesland,VBO,5.639466,53.447176
Oosterhiemweg,1,,039,9161CZ,Hollum,Ameland,Friesland,VBO,5.639482,53.447211
Oosterhiemweg,1,,040,9161CZ,Hollum,Ameland,Friesland,VBO,5.639497,53.447256
Oosterhiemweg,1,,041,9161CZ,Hollum,Ameland,Friesland,VBO,5.639512,53.447301
Oosterhiemweg,1,,042,9161CZ,Hollum,Ameland,Friesland,VBO,5.639528,53.447337
Oosterhiemweg,1,,043,9161CZ,Hollum,Ameland,Friesland,VBO,5.639543,53.447364
Oosterhiemweg,1,,044,9161CZ,Hollum,Ameland,Friesland,VBO,5.639558,53.447391
Oosterhiemweg,1,,045,9161CZ,Hollum,Ameland,Friesland,VBO,5.639135,53.447086
Oosterhiemweg,1,,046,9161CZ,Hollum,Ameland,Friesland,VBO,5.639119,53.447042
Oosterhiemweg,1,,047,9161CZ,Hollum,Ameland,Friesland,VBO,5.639089,53.447006
Oosterhiemweg,1,,048,9161CZ,Hollum,Ameland,Friesland,VBO,5.639074,53.446970
Oosterhiemweg,1,,049,9161CZ,Hollum,Ameland,Friesland,VBO,5.639089,53.446934
Oosterhiemweg,1,,050,9161CZ,Hollum,Ameland,Friesland,VBO,5.639074,53.446907
Oosterhiemweg,1,,051,9161CZ,Hollum,Ameland,Friesland,VBO,5.639058,53.446862
Oosterhiemweg,1,,052,9161CZ,Hollum,Ameland,Friesland,VBO,5.639043,53.446835
Oosterhiemweg,1,,053,9161CZ,Hollum,Ameland,Friesland,VBO,5.639238,53.446799
Oosterhiemweg,1,,054,9161CZ,Hollum,Ameland,Friesland,VBO,5.639254,53.446835
Oosterhiemweg,1,,055,9161CZ,Hollum,Ameland,Friesland,VBO,5.639284,53.446879
Oosterhiemweg,1,,056,9161CZ,Hollum,Ameland,Friesland,VBO,5.639284,53.446906
Oosterhiemweg,1,,057,9161CZ,Hollum,Ameland,Friesland,VBO,5.639330,53.446933
Oosterhiemweg,1,,058,9161CZ,Hollum,Ameland,Friesland,VBO,5.639345,53.446969
Oosterhiemweg,1,,059,9161CZ,Hollum,Ameland,Friesland,VBO,5.639360,53.447005
Oosterhiemweg,1,,060,9161CZ,Hollum,Ameland,Friesland,VBO,5.639375,53.447041
Oosterhiemweg,1,,061,9161CZ,Hollum,Ameland,Friesland,VBO,5.639150,53.447077
Oosterhiemweg,1,,062,9161CZ,Hollum,Ameland,Friesland,VBO,5.639135,53.447041
Oosterhiemweg,1,,063,9161CZ,Hollum,Ameland,Friesland,VBO,5.639119,53.447006
Oosterhiemweg,1,,064,9161CZ,Hollum,Ameland,Friesland,VBO,5.639104,53.446961
Oosterhiemweg,1,,065,9161CZ,Hollum,Ameland,Friesland,VBO,5.639299,53.446933
Oosterhiemweg,1,,066,9161CZ,Hollum,Ameland,Friesland,VBO,5.639315,53.446969
Oosterhiemweg,1,,067,9161CZ,Hollum,Ameland,Friesland,VBO,5.639330,53.447014
Oosterhiemweg,1,,068,9161CZ,Hollum,Ameland,Friesland,VBO,5.639345,53.447050
Oosterhiemweg,1,,069,9161CZ,Hollum,Ameland,Friesland,VBO,5.638550,53.447510
Oosterhiemweg,1,,070,9161CZ,Hollum,Ameland,Friesland,VBO,5.638535,53.447474
Oosterhiemweg,1,,071,9161CZ,Hollum,Ameland,Friesland,VBO,5.638520,53.447438
Oosterhiemweg,1,,072,9161CZ,Hollum,Ameland,Friesland,VBO,5.638505,53.447402
Oosterhiemweg,1,,073,9161CZ,Hollum,Ameland,Friesland,VBO,5.638459,53.447375
Oosterhiemweg,1,,074,9161CZ,Hollum,Ameland,Friesland,VBO,5.638444,53.447339
Oosterhiemweg,1,,075,9161CZ,Hollum,Ameland,Friesland,VBO,5.638429,53.447304
Oosterhiemweg,1,,076,9161CZ,Hollum,Ameland,Friesland,VBO,5.638413,53.447268
Oosterhiemweg,1,,077,9161CZ,Hollum,Ameland,Friesland,VBO,5.638669,53.447213
Oosterhiemweg,1,,078,9161CZ,Hollum,Ameland,Friesland,VBO,5.638684,53.447249
Oosterhiemweg,1,,079,9161CZ,Hollum,Ameland,Friesland,VBO,5.638700,53.447285
Oosterhiemweg,1,,080,9161CZ,Hollum,Ameland,Friesland,VBO,5.638715,53.447321
Oosterhiemweg,1,,081,9161CZ,Hollum,Ameland,Friesland,VBO,5.638715,53.447375
Oosterhiemweg,1,,082,9161CZ,Hollum,Ameland,Friesland,VBO,5.638730,53.447411
Oosterhiemweg,1,,083,9161CZ,Hollum,Ameland,Friesland,VBO,5.638746,53.447447
Oosterhiemweg,1,,084,9161CZ,Hollum,Ameland,Friesland,VBO,5.638761,53.447483
Oosterhiemweg,1,,085,9161CZ,Hollum,Ameland,Friesland,VBO,5.638474,53.447375
Oosterhiemweg,1,,086,9161CZ,Hollum,Ameland,Friesland,VBO,5.638459,53.447339
Oosterhiemweg,1,,087,9161CZ,Hollum,Ameland,Friesland,VBO,5.638444,53.447303
Oosterhiemweg,1,,088,9161CZ,Hollum,Ameland,Friesland,VBO,5.638428,53.447268
Oosterhiemweg,1,,089,9161CZ,Hollum,Ameland,Friesland,VBO,5.638654,53.447222
Oosterhiemweg,1,,090,9161CZ,Hollum,Ameland,Friesland,VBO,5.638669,53.447258
Oosterhiemweg,1,,091,9161CZ,Hollum,Ameland,Friesland,VBO,5.638685,53.447294
Oosterhiemweg,1,,092,9161CZ,Hollum,Ameland,Friesland,VBO,5.638700,53.447330
Oosterhiemweg,1,,093,9161CZ,Hollum,Ameland,Friesland,VBO,5.638323,53.447214
Oosterhiemweg,1,,094,9161CZ,Hollum,Ameland,Friesland,VBO,5.638308,53.447178
Oosterhiemweg,1,,095,9161CZ,Hollum,Ameland,Friesland,VBO,5.638292,53.447142
Oosterhiemweg,1,,096,9161CZ,Hollum,Ameland,Friesland,VBO,5.638277,53.447106
Oosterhiemweg,1,,097,9161CZ,Hollum,Ameland,Friesland,VBO,5.638262,53.447061
Oosterhiemweg,1,,098,9161CZ,Hollum,Ameland,Friesland,VBO,5.638246,53.447025
Oosterhiemweg,1,,099,9161CZ,Hollum,Ameland,Friesland,VBO,5.638216,53.446989
Oosterhiemweg,1,,100,9161CZ,Hollum,Ameland,Friesland,VBO,5.638201,53.446954
Oosterhiemweg,1,,101,9161CZ,Hollum,Ameland,Friesland,VBO,5.638186,53.446909
Oosterhiemweg,1,,102,9161CZ,Hollum,Ameland,Friesland,VBO,5.638200,53.446882
Oosterhiemweg,1,,103,9161CZ,Hollum,Ameland,Friesland,VBO,5.638185,53.446846
Oosterhiemweg,1,,104,9161CZ,Hollum,Ameland,Friesland,VBO,5.638155,53.446810
Oosterhiemweg,1,,105,9161CZ,Hollum,Ameland,Friesland,VBO,5.638140,53.446774
Oosterhiemweg,1,,106,9161CZ,Hollum,Ameland,Friesland,VBO,5.638365,53.446738
Oosterhiemweg,1,,107,9161CZ,Hollum,Ameland,Friesland,VBO,5.638380,53.446774
Oosterhiemweg,1,,108,9161CZ,Hollum,Ameland,Friesland,VBO,5.638396,53.446809
Oosterhiemweg,1,,109,9161CZ,Hollum,Ameland,Friesland,VBO,5.638411,53.446845
Oosterhiemweg,1,,110,9161CZ,Hollum,Ameland,Friesland,VBO,5.638456,53.446872
Oosterhiemweg,1,,111,9161CZ,Hollum,Ameland,Friesland,VBO,5.638472,53.446908
Oosterhiemweg,1,,112,9161CZ,Hollum,Ameland,Friesland,VBO,5.638487,53.446944
Oosterhiemweg,1,,113,9161CZ,Hollum,Ameland,Friesland,VBO,5.638502,53.446980
Oosterhiemweg,1,,114,9161CZ,Hollum,Ameland,Friesland,VBO,5.638532,53.447025
Oosterhiemweg,1,,115,9161CZ,Hollum,Ameland,Friesland,VBO,5.638548,53.447061
Oosterhiemweg,1,,116,9161CZ,Hollum,Ameland,Friesland,VBO,5.638563,53.447097
Oosterhiemweg,1,,117,9161CZ,Hollum,Ameland,Friesland,VBO,5.638578,53.447132
Oosterhiemweg,1,,118,9161CZ,Hollum,Ameland,Friesland,VBO,5.638594,53.447177
Oosterhiemweg,1,,119,9161CZ,Hollum,Ameland,Friesland,VBO,5.638338,53.447214
Oosterhiemweg,1,,120,9161CZ,Hollum,Ameland,Friesland,VBO,5.638323,53.447178
Oosterhiemweg,1,,121,9161CZ,Hollum,Ameland,Friesland,VBO,5.638307,53.447142
Oosterhiemweg,1,,122,9161CZ,Hollum,Ameland,Friesland,VBO,5.638292,53.447097
Oosterhiemweg,1,,123,9161CZ,Hollum,Ameland,Friesland,VBO,5.638277,53.447061
Oosterhiemweg,1,,124,9161CZ,Hollum,Ameland,Friesland,VBO,5.638262,53.447025
Oosterhiemweg,1,,125,9161CZ,Hollum,Ameland,Friesland,VBO,5.638246,53.446989
Oosterhiemweg,1,,126,9161CZ,Hollum,Ameland,Friesland,VBO,5.638231,53.446945
Oosterhiemweg,1,,127,9161CZ,Hollum,Ameland,Friesland,VBO,5.638216,53.446909
Oosterhiemweg,1,,128,9161CZ,Hollum,Ameland,Friesland,VBO,5.638426,53.446872
Oosterhiemweg,1,,129,9161CZ,Hollum,Ameland,Friesland,VBO,5.638457,53.446917
Oosterhiemweg,1,,130,9161CZ,Hollum,Ameland,Friesland,VBO,5.638472,53.446953
Oosterhiemweg,1,,131,9161CZ,Hollum,Ameland,Friesland,VBO,5.638487,53.446989
Oosterhiemweg,1,,132,9161CZ,Hollum,Ameland,Friesland,VBO,5.638502,53.447025
Oosterhiemweg,1,,133,9161CZ,Hollum,Ameland,Friesland,VBO,5.638518,53.447061
Oosterhiemweg,1,,134,9161CZ,Hollum,Ameland,Friesland,VBO,5.638533,53.447106
Oosterhiemweg,1,,135,9161CZ,Hollum,Ameland,Friesland,VBO,5.638548,53.447142
Oosterhiemweg,1,,136,9161CZ,Hollum,Ameland,Friesland,VBO,5.638563,53.447177
Oosterhiemweg,1,,,9161CZ,Hollum,Ameland,Friesland,VBO,5.640353,53.446895
Oosterhiemweg,3,,,9161CZ,Hollum,Ameland,Friesland,VBO,5.641682,53.447773
Oosterhiemweg,20,,,9161CZ,Hollum,Ameland,Friesland,VBO,5.642997,53.448642
Oosterhiemweg,38,,,9161CZ,Hollum,Ameland,Friesland,VBO,5.643323,53.450285
Oosterhiemweg,40,,,9161CZ,Hollum,Ameland,Friesland,VBO,5.643113,53.450438
Oosterhiemweg,42,,,9161CZ,Hollum,Ameland,Friesland,VBO,5.643294,53.450564
Oosterhiemweg,44,,,9161CZ,Hollum,Ameland,Friesland,VBO,5.643175,53.450789
Fenneweg,2,,,9161DA,Hollum,Ameland,Friesland,VBO,5.620154,53.441078
Fenneweg,12,,,9161DA,Hollum,Ameland,Friesland,VBO,5.623164,53.447457
Fenneweg,1,,,9161DB,Hollum,Ameland,Friesland,VBO,5.627580,53.447784
Fenneweg,3,,,9161DB,Hollum,Ameland,Friesland,VBO,5.627473,53.447533
Fenneweg,5,,,9161DB,Hollum,Ameland,Friesland,VBO,5.627352,53.447290
Fenneweg,7,,,9161DB,Hollum,Ameland,Friesland,VBO,5.627275,53.447057
Fenneweg,9,,,9161DB,Hollum,Ameland,Friesland,VBO,5.627183,53.446748
Fenneweg,11,,,9161DB,Hollum,Ameland,Friesland,VBO,5.627144,53.446641
Fenneweg,13,,,9161DB,Hollum,Ameland,Friesland,VBO,5.627030,53.446320
Fenneweg,15,,,9161DB,Hollum,Ameland,Friesland,VBO,5.626698,53.446097
Fenneweg,17,,,9161DB,Hollum,Ameland,Friesland,VBO,5.626411,53.445881
Fenneweg,19,,,9161DB,Hollum,Ameland,Friesland,VBO,5.626018,53.445685
Fenneweg,21,,,9161DB,Hollum,Ameland,Friesland,VBO,5.625746,53.445442
Fenneweg,23,,,9161DB,Hollum,Ameland,Friesland,VBO,5.625549,53.445187
Fenneweg,25,,,9161DD,Hollum,Ameland,Friesland,VBO,5.625500,53.445076
Fenneweg,27,,,9161DD,Hollum,Ameland,Friesland,VBO,5.625353,53.444782
Fenneweg,29,,,9161DD,Hollum,Ameland,Friesland,VBO,5.624998,53.444500
Fenneweg,31,,,9161DD,Hollum,Ameland,Friesland,VBO,5.624806,53.444249
Fenneweg,35,,,9161DD,Hollum,Ameland,Friesland,VBO,5.624534,53.444007
Fenneweg,39,,,9161DD,Hollum,Ameland,Friesland,VBO,5.624487,53.443729
Fenneweg,41,,,9161DD,Hollum,Ameland,Friesland,VBO,5.624305,53.443496
Fenneweg,43,,,9161DD,Hollum,Ameland,Friesland,VBO,5.623942,53.443092
Fenneweg,45,,,9161DD,Hollum,Ameland,Friesland,VBO,5.623730,53.442868
Fenneweg,47,,,9161DD,Hollum,Ameland,Friesland,VBO,5.623473,53.442599
Fenneweg,51,,,9161DE,Hollum,Ameland,Friesland,VBO,5.623245,53.442159
Engelsmanhiem,1,,,9161DG,Hollum,Ameland,Friesland,VBO,5.638369,53.450017
Engelsmanhiem,2,,,9161DG,Hollum,Ameland,Friesland,VBO,5.638700,53.450016
Engelsmanhiem,3,,,9161DG,Hollum,Ameland,Friesland,VBO,5.638806,53.450007
Engelsmanhiem,4,,,9161DG,Hollum,Ameland,Friesland,VBO,5.638146,53.450395
Engelsmanhiem,5,,,9161DG,Hollum,Ameland,Friesland,VBO,5.638266,53.450377
Engelsmanhiem,6,,,9161DG,Hollum,Ameland,Friesland,VBO,5.638642,53.450304
Engelsmanhiem,7,,,9161DG,Hollum,Ameland,Friesland,VBO,5.638762,53.450322
Engelsmanhiem,8,,,9161DG,Hollum,Ameland,Friesland,VBO,5.639183,53.450204
Engelsmanhiem,9,a,,9161DG,Hollum,Ameland,Friesland,VBO,5.639394,53.450240
Engelsmanhiem,9,,,9161DG,Hollum,Ameland,Friesland,VBO,5.639303,53.450177
Engelsmanhiem,10,,,9161DG,Hollum,Ameland,Friesland,VBO,5.639260,53.450429
Engelsmanhiem,11,,,9161DG,Hollum,Ameland,Friesland,VBO,5.639170,53.450456
Engelsmanhiem,12,,,9161DG,Hollum,Ameland,Friesland,VBO,5.639186,53.450698
Engelsmanhiem,13,,,9161DG,Hollum,Ameland,Friesland,VBO,5.639081,53.450671
Engelsmanhiem,14,,,9161DG,Hollum,Ameland,Friesland,VBO,5.638553,53.450592
Engelsmanhiem,15,,,9161DG,Hollum,Ameland,Friesland,VBO,5.638433,53.450574
Engelsmanhiem,16,,,9161DG,Hollum,Ameland,Friesland,VBO,5.638555,53.450897
Engelsmanhiem,17,,,9161DG,Hollum,Ameland,Friesland,VBO,5.638887,53.450950
Engelsmanhiem,18,,,9161DG,Hollum,Ameland,Friesland,VBO,5.639263,53.450995
Engelsmanhiem,19,,,9161DG,Hollum,Ameland,Friesland,VBO,5.639668,53.450796
Engelsmanhiem,20,,,9161DG,Hollum,Ameland,Friesland,VBO,5.639789,53.450796
Engelsmanhiem,21,,,9161DG,Hollum,Ameland,Friesland,VBO,5.639757,53.450571
Engelsmanhiem,22,,,9161DG,Hollum,Ameland,Friesland,VBO,5.639878,53.450553
Engelsmanhiem,23,,,9161DG,Hollum,Ameland,Friesland,VBO,5.639831,53.450328
Engelsmanhiem,24,,,9161DG,Hollum,Ameland,Friesland,VBO,5.639921,53.450328
Engelsmanhiem,25,,,9161DG,Hollum,Ameland,Friesland,VBO,5.639800,53.450104
Engelsmanhiem,26,,,9161DG,Hollum,Ameland,Friesland,VBO,5.639905,53.450104
Engelsmanhiem,27,,,9161DG,Hollum,Ameland,Friesland,VBO,5.640374,53.450498
Engelsmanhiem,28,,,9161DG,Hollum,Ameland,Friesland,VBO,5.640253,53.450453
Engelsmanhiem,29,,,9161DG,Hollum,Ameland,Friesland,VBO,5.640300,53.450768
Engelsmanhiem,30,,,9161DG,Hollum,Ameland,Friesland,VBO,5.640180,53.450768
Engelsmanhiem,31,,,9161DG,Hollum,Ameland,Friesland,VBO,5.640797,53.450695
Engelsmanhiem,32,,,9161DG,Hollum,Ameland,Friesland,VBO,5.640661,53.450686
Engelsmanhiem,33,,,9161DG,Hollum,Ameland,Friesland,VBO,5.640618,53.450992
Engelsmanhiem,34,,,9161DG,Hollum,Ameland,Friesland,VBO,5.640467,53.450983
Engelsmanhiem,35,,,9161DG,Hollum,Ameland,Friesland,VBO,5.641085,53.451036
Engelsmanhiem,36,,,9161DG,Hollum,Ameland,Friesland,VBO,5.640949,53.451009
Engelsmanhiem,37,,,9161DG,Hollum,Ameland,Friesland,VBO,5.641537,53.451116
Engelsmanhiem,38,,,9161DG,Hollum,Ameland,Friesland,VBO,5.641732,53.451142
Engelsmanhiem,39,,,9161DG,Hollum,Ameland,Friesland,VBO,5.642033,53.451141
Engelsmanhiem,40,,,9161DG,Hollum,Ameland,Friesland,VBO,5.642169,53.451159
Engelsmanhiem,41,,,9161DG,Hollum,Ameland,Friesland,VBO,5.641957,53.450935
Engelsmanhiem,42,,,9161DG,Hollum,Ameland,Friesland,VBO,5.642123,53.450944
Engelsmanhiem,43,,,9161DG,Hollum,Ameland,Friesland,VBO,5.641490,53.450918
Engelsmanhiem,44,,,9161DG,Hollum,Ameland,Friesland,VBO,5.641671,53.450936
Engelsmanhiem,45,,,9161DG,Hollum,Ameland,Friesland,VBO,5.641338,53.450595
Engelsmanhiem,46,,,9161DG,Hollum,Ameland,Friesland,VBO,5.641458,53.450595
Engelsmanhiem,47,,,9161DG,Hollum,Ameland,Friesland,VBO,5.641005,53.450371
Engelsmanhiem,48,,,9161DG,Hollum,Ameland,Friesland,VBO,5.641156,53.450416
Engelsmanhiem,49,,,9161DG,Hollum,Ameland,Friesland,VBO,5.640658,53.450192
Engelsmanhiem,50,,,9161DG,Hollum,Ameland,Friesland,VBO,5.640794,53.450201
Engelsmanhiem,51,,,9161DG,Hollum,Ameland,Friesland,VBO,5.640461,53.450004
Engelsmanhiem,52,,,9161DG,Hollum,Ameland,Friesland,VBO,5.640612,53.450021
Engelsmanhiem,53,,,9161DG,Hollum,Ameland,Friesland,VBO,5.640958,53.449958
Engelsmanhiem,54,,,9161DG,Hollum,Ameland,Friesland,VBO,5.641093,53.449957
Engelsmanhiem,55,,,9161DG,Hollum,Ameland,Friesland,VBO,5.641170,53.450155
Engelsmanhiem,56,,,9161DG,Hollum,Ameland,Friesland,VBO,5.641744,53.450567
Engelsmanhiem,57,,,9161DG,Hollum,Ameland,Friesland,VBO,5.641895,53.450594
Engelsmanhiem,58,,,9161DG,Hollum,Ameland,Friesland,VBO,5.641553,53.450359
Engelsmanhiem,59,,,9161DG,Hollum,Ameland,Friesland,VBO,5.641698,53.450369
Engelsmanhiem,60,,,9161DG,Hollum,Ameland,Friesland,VBO,5.641500,53.450073
Engelsmanhiem,61,,,9161DG,Hollum,Ameland,Friesland,VBO,5.641621,53.450118
Engelsmanhiem,62,,,9161DG,Hollum,Ameland,Friesland,VBO,5.641409,53.449876
Engelsmanhiem,63,,,9161DG,Hollum,Ameland,Friesland,VBO,5.641574,53.449876
Engelsmanhiem,64,,,9161DG,Hollum,Ameland,Friesland,VBO,5.641987,53.449807
Engelsmanhiem,65,,,9161DG,Hollum,Ameland,Friesland,VBO,5.642326,53.449835
Engelsmanhiem,66,,,9161DG,Hollum,Ameland,Friesland,VBO,5.642043,53.450024
Engelsmanhiem,67,,,9161DG,Hollum,Ameland,Friesland,VBO,5.642392,53.450053
Engelsmanhiem,68,,,9161DG,Hollum,Ameland,Friesland,VBO,5.642092,53.450233
Engelsmanhiem,69,,,9161DG,Hollum,Ameland,Friesland,VBO,5.642452,53.450260
Engelsmanhiem,70,,,9161DG,Hollum,Ameland,Friesland,VBO,5.642165,53.450456
Engelsmanhiem,71,,,9161DG,Hollum,Ameland,Friesland,VBO,5.642557,53.450466
Engelsmanhiem,72,,,9161DG,Hollum,Ameland,Friesland,VBO,5.642497,53.450646
Engelsmanhiem,73,,,9161DG,Hollum,Ameland,Friesland,VBO,5.642362,53.450647
Engelsmanhiem,80,,,9161DH,Hollum,Ameland,Friesland,VBO,5.642620,53.450987
Engelsmanhiem,81,,,9161DH,Hollum,Ameland,Friesland,VBO,5.642726,53.451185
Engelsmanhiem,82,,,9161DH,Hollum,Ameland,Friesland,VBO,5.642666,53.451449
Engelsmanhiem,83,,,9161DH,Hollum,Ameland,Friesland,VBO,5.642246,53.451411
Engelsmanhiem,84,,,9161DH,Hollum,Ameland,Friesland,VBO,5.641794,53.451358
Engelsmanhiem,85,,,9161DH,Hollum,Ameland,Friesland,VBO,5.641402,53.451340
Engelsmanhiem,86,,,9161DH,Hollum,Ameland,Friesland,VBO,5.641041,53.451287
Engelsmanhiem,87,,,9161DH,Hollum,Ameland,Friesland,VBO,5.640664,53.451261
Engelsmanhiem,88,,,9161DH,Hollum,Ameland,Friesland,VBO,5.640137,53.451119
Engelsmanhiem,89,,,9161DH,Hollum,Ameland,Friesland,VBO,5.639715,53.451048
Oosterhiem,1,,,9161DJ,Hollum,Ameland,Friesland,VBO,5.639346,53.449781
Oosterhiem,2,,,9161DJ,Hollum,Ameland,Friesland,VBO,5.639782,53.449709
Oosterhiem,3,,,9161DJ,Hollum,Ameland,Friesland,VBO,5.639255,53.449557
Oosterhiem,4,,,9161DJ,Hollum,Ameland,Friesland,VBO,5.639676,53.449466
Oosterhiem,5,,,9161DJ,Hollum,Ameland,Friesland,VBO,5.639133,53.449315
Oosterhiem,6,,,9161DJ,Hollum,Ameland,Friesland,VBO,5.639614,53.449242
Oosterhiem,7,,,9161DJ,Hollum,Ameland,Friesland,VBO,5.639086,53.449045
Oosterhiem,8,,,9161DJ,Hollum,Ameland,Friesland,VBO,5.639492,53.449008
Oosterhiem,9,,,9161DJ,Hollum,Ameland,Friesland,VBO,5.638965,53.448848
Oosterhiem,10,,,9161DJ,Hollum,Ameland,Friesland,VBO,5.639370,53.448739
Oosterhiem,11,,,9161DJ,Hollum,Ameland,Friesland,VBO,5.638833,53.448621
Oosterhiem,12,,,9161DJ,Hollum,Ameland,Friesland,VBO,5.639294,53.448515
Oosterhiem,13,,,9161DJ,Hollum,Ameland,Friesland,VBO,5.638751,53.448354
Oosterhiem,14,,,9161DJ,Hollum,Ameland,Friesland,VBO,5.639202,53.448299
Oosterhiem,15,,,9161DJ,Hollum,Ameland,Friesland,VBO,5.638569,53.448148
Oosterhiem,16,,,9161DJ,Hollum,Ameland,Friesland,VBO,5.639035,53.448057
Oosterhiem,17,,,9161DJ,Hollum,Ameland,Friesland,VBO,5.639668,53.448154
Oosterhiem,18,,,9161DJ,Hollum,Ameland,Friesland,VBO,5.639999,53.448127
Oosterhiem,19,,,9161DJ,Hollum,Ameland,Friesland,VBO,5.640390,53.448072
Oosterhiem,20,a,,9161DJ,Hollum,Ameland,Friesland,VBO,5.641217,53.448043
Oosterhiem,20,,,9161DJ,Hollum,Ameland,Friesland,VBO,5.640781,53.448098
Oosterhiem,21,,,9161DJ,Hollum,Ameland,Friesland,VBO,5.639745,53.448514
Oosterhiem,22,,,9161DJ,Hollum,Ameland,Friesland,VBO,5.639957,53.448720
Oosterhiem,23,,,9161DJ,Hollum,Ameland,Friesland,VBO,5.640079,53.448971
Oosterhiem,24,,,9161DJ,Hollum,Ameland,Friesland,VBO,5.640126,53.449205
Oosterhiem,25,,,9161DJ,Hollum,Ameland,Friesland,VBO,5.640248,53.449483
Oosterhiem,26,,,9161DJ,Hollum,Ameland,Friesland,VBO,5.640279,53.449735
Oosterhiem,27,,,9161DJ,Hollum,Ameland,Friesland,VBO,5.640655,53.449662
Oosterhiem,28,a,,9161DJ,Hollum,Ameland,Friesland,VBO,5.640520,53.449201
Oosterhiem,28,,,9161DJ,Hollum,Ameland,Friesland,VBO,5.640412,53.449312
Oosterhiem,29,a,,9161DJ,Hollum,Ameland,Friesland,VBO,5.640395,53.448917
Oosterhiem,29,,,9161DJ,Hollum,Ameland,Friesland,VBO,5.640363,53.448692
Oosterhiem,30,,,9161DJ,Hollum,Ameland,Friesland,VBO,5.640076,53.448468
Oosterhiem,31,,,9161DK,Hollum,Ameland,Friesland,VBO,5.640783,53.448323
Oosterhiem,32,,,9161DK,Hollum,Ameland,Friesland,VBO,5.640723,53.448494
Oosterhiem,33,,,9161DK,Hollum,Ameland,Friesland,VBO,5.640830,53.448745
Oosterhiem,34,,,9161DK,Hollum,Ameland,Friesland,VBO,5.640786,53.448943
Oosterhiem,35,,,9161DK,Hollum,Ameland,Friesland,VBO,5.641029,53.449185
Oosterhiem,36,,,9161DK,Hollum,Ameland,Friesland,VBO,5.641120,53.449382
Oosterhiem,37,,,9161DK,Hollum,Ameland,Friesland,VBO,5.641031,53.449625
Oosterhiem,38,,,9161DK,Hollum,Ameland,Friesland,VBO,5.641392,53.449553
Oosterhiem,39,,,9161DK,Hollum,Ameland,Friesland,VBO,5.641436,53.449310
Oosterhiem,40,,,9161DK,Hollum,Ameland,Friesland,VBO,5.641329,53.449139
Oosterhiem,41,,,9161DK,Hollum,Ameland,Friesland,VBO,5.641268,53.448888
Oosterhiem,42,,,9161DK,Hollum,Ameland,Friesland,VBO,5.641221,53.448672
Oosterhiem,43,,,9161DK,Hollum,Ameland,Friesland,VBO,5.641190,53.448448
Oosterhiem,44,,,9161DK,Hollum,Ameland,Friesland,VBO,5.641144,53.448295
Oosterhiem,45,,,9161DK,Hollum,Ameland,Friesland,VBO,5.642160,53.449605
Oosterhiem,46,,,9161DK,Hollum,Ameland,Friesland,VBO,5.641903,53.449462
Oosterhiem,47,,,9161DK,Hollum,Ameland,Friesland,VBO,5.642052,53.449237
Oosterhiem,48,,,9161DK,Hollum,Ameland,Friesland,VBO,5.641826,53.449066
Oosterhiem,49,,,9161DK,Hollum,Ameland,Friesland,VBO,5.641945,53.448860
Oosterhiem,50,,,9161DK,Hollum,Ameland,Friesland,VBO,5.641733,53.448689
Oosterhiem,51,,,9161DK,Hollum,Ameland,Friesland,VBO,5.641822,53.448491
Oosterhiem,52,,,9161DK,Hollum,Ameland,Friesland,VBO,5.641662,53.448316
Oosterhiem,53,,,9161DK,Hollum,Ameland,Friesland,VBO,5.641730,53.448123
Blieneweg,1,a,,9161DN,Hollum,Ameland,Friesland,VBO,5.642714,53.438420
Blieneweg,1,,,9161DN,Hollum,Ameland,Friesland,VBO,5.642665,53.438418
Blieneweg,2,,,9161DN,Hollum,Ameland,Friesland,VBO,5.643011,53.438426
Blieneweg,4,,,9161DN,Hollum,Ameland,Friesland,VBO,5.643027,53.438480
Blieneweg,6,,,9161DN,Hollum,Ameland,Friesland,VBO,5.642832,53.438561
Blieneweg,8,,,9161DN,Hollum,Ameland,Friesland,VBO,5.642726,53.438570
Blieneweg,10,,,9161DN,Hollum,Ameland,Friesland,VBO,5.642561,53.438579
Blieneweg,12,,,9161DN,Hollum,Ameland,Friesland,VBO,5.642471,53.438580
De Meer,1,,,9161DP,Hollum,Ameland,Friesland,VBO,5.644034,53.438334
De Meer,3,,,9161DP,Hollum,Ameland,Friesland,VBO,5.643975,53.438496
De Meer,5,,,9161DP,Hollum,Ameland,Friesland,VBO,5.644188,53.438953
De Meer,7,,,9161DP,Hollum,Ameland,Friesland,VBO,5.644158,53.439016
De Meer,9,,,9161DP,Hollum,Ameland,Friesland,VBO,5.644234,53.439124
De Meer,11,,,9161DP,Hollum,Ameland,Friesland,VBO,5.644204,53.439169
De Meer,13,,,9161DP,Hollum,Ameland,Friesland,VBO,5.644235,53.439295
De Meer,15,,,9161DP,Hollum,Ameland,Friesland,VBO,5.644251,53.439349
De Meer,17,,,9161DP,Hollum,Ameland,Friesland,VBO,5.644327,53.439483
De Meer,19,,,9161DP,Hollum,Ameland,Friesland,VBO,5.644357,53.439519
De Meer,21,,,9161DP,Hollum,Ameland,Friesland,VBO,5.644448,53.439618
De Meer,23,,,9161DP,Hollum,Ameland,Friesland,VBO,5.644523,53.439662
De Meer,25,,,9161DP,Hollum,Ameland,Friesland,VBO,5.644283,53.439762
De Meer,27,,,9161DP,Hollum,Ameland,Friesland,VBO,5.644193,53.439789
De Meer,29,,,9161DP,Hollum,Ameland,Friesland,VBO,5.644043,53.439888
De Meer,31,,,9161DP,Hollum,Ameland,Friesland,VBO,5.643983,53.439915
De Meer,33,,,9161DP,Hollum,Ameland,Friesland,VBO,5.643503,53.440069
De Meer,35,,,9161DP,Hollum,Ameland,Friesland,VBO,5.643292,53.440114
De Meer,37,,,9161DP,Hollum,Ameland,Friesland,VBO,5.643037,53.440169
De Meer,39,,,9161DP,Hollum,Ameland,Friesland,VBO,5.642797,53.440259
De Meer,41,,,9161DP,Hollum,Ameland,Friesland,VBO,5.642345,53.440287
De Meer,43,,,9161DP,Hollum,Ameland,Friesland,VBO,5.642105,53.440315
De Meer,45,a,,9161DP,Hollum,Ameland,Friesland,VBO,5.641924,53.440261
De Meer,45,,,9161DP,Hollum,Ameland,Friesland,VBO,5.641849,53.440306
De Meer,2,,,9161DR,Hollum,Ameland,Friesland,VBO,5.644650,53.438261
De Meer,4,,,9161DR,Hollum,Ameland,Friesland,VBO,5.644531,53.438423
De Meer,6,,,9161DR,Hollum,Ameland,Friesland,VBO,5.644577,53.438575
De Meer,8,,,9161DR,Hollum,Ameland,Friesland,VBO,5.644684,53.438755
De Meer,10,,,9161DR,Hollum,Ameland,Friesland,VBO,5.644654,53.438898
De Meer,12,,,9161DR,Hollum,Ameland,Friesland,VBO,5.644746,53.439087
De Meer,14,,,9161DR,Hollum,Ameland,Friesland,VBO,5.644656,53.439222
De Meer,16,,,9161DR,Hollum,Ameland,Friesland,VBO,5.644000,53.440239
De Meer,18,,,9161DR,Hollum,Ameland,Friesland,VBO,5.643760,53.440302
De Meer,20,,,9161DR,Hollum,Ameland,Friesland,VBO,5.643549,53.440356
De Meer,22,,,9161DR,Hollum,Ameland,Friesland,VBO,5.643294,53.440411
De Meer,24,a,,9161DR,Hollum,Ameland,Friesland,VBO,5.642919,53.440546
De Meer,24,,,9161DR,Hollum,Ameland,Friesland,VBO,5.642993,53.440483
Kkelburen,1,,,9161DS,Hollum,Ameland,Friesland,VBO,5.644141,53.438693
Kkelburen,3,,,9161DS,Hollum,Ameland,Friesland,VBO,5.643946,53.438702
Kkelburen,5,,,9161DS,Hollum,Ameland,Friesland,VBO,5.643856,53.438703
Kkelburen,7,,,9161DS,Hollum,Ameland,Friesland,VBO,5.643660,53.438721
Kkelburen,9,,,9161DS,Hollum,Ameland,Friesland,VBO,5.643449,53.438730
Kkelburen,11,,,9161DS,Hollum,Ameland,Friesland,VBO,5.643359,53.438731
Kkelburen,13,,,9161DS,Hollum,Ameland,Friesland,VBO,5.643149,53.438758
Kkelburen,15,,,9161DS,Hollum,Ameland,Friesland,VBO,5.643043,53.438758
Kkelburen,17,,,9161DS,Hollum,Ameland,Friesland,VBO,5.642713,53.438795
Kkelburen,2,,,9161DT,Hollum,Ameland,Friesland,VBO,5.643782,53.438990
Kkelburen,4,,,9161DT,Hollum,Ameland,Friesland,VBO,5.643662,53.438999
Kkelburen,6,,,9161DT,Hollum,Ameland,Friesland,VBO,5.643481,53.439000
Kkelburen,8,,,9161DT,Hollum,Ameland,Friesland,VBO,5.643376,53.439018
Kkelburen,10,,,9161DT,Hollum,Ameland,Friesland,VBO,5.643090,53.439028
Kkelburen,12,,,9161DT,Hollum,Ameland,Friesland,VBO,5.643000,53.439028
Kkelburen,16,,,9161DT,Hollum,Ameland,Friesland,VBO,5.642671,53.439433
Kkelburen,18,,,9161DT,Hollum,Ameland,Friesland,VBO,5.642506,53.439541
Kkelburen,20,,,9161DT,Hollum,Ameland,Friesland,VBO,5.642085,53.439569
Kkelburen,22,,,9161DT,Hollum,Ameland,Friesland,VBO,5.641995,53.439569
Kkelburen,24,,,9161DT,Hollum,Ameland,Friesland,VBO,5.641769,53.439596
Kkelburen,26,,,9161DT,Hollum,Ameland,Friesland,VBO,5.641679,53.439597
Braksplle,1,,,9161DV,Hollum,Ameland,Friesland,VBO,5.642132,53.439793
Braksplle,3,,,9161DV,Hollum,Ameland,Friesland,VBO,5.642223,53.439964
Braksplle,5,,,9161DV,Hollum,Ameland,Friesland,VBO,5.642269,53.440063
Braksplle,2,,,9161DW,Hollum,Ameland,Friesland,VBO,5.642431,53.439550
Braksplle,4,,,9161DW,Hollum,Ameland,Friesland,VBO,5.642553,53.439775
Braksplle,6,,,9161DW,Hollum,Ameland,Friesland,VBO,5.642704,53.439909
Braksplle,8,,,9161DW,Hollum,Ameland,Friesland,VBO,5.642765,53.440071
Terpelnnen,1,,,9161DX,Hollum,Ameland,Friesland,VBO,5.642761,53.439424
Terpelnnen,3,,,9161DX,Hollum,Ameland,Friesland,VBO,5.642958,53.439621
Terpelnnen,5,,,9161DX,Hollum,Ameland,Friesland,VBO,5.643004,53.439666
Terpelnnen,7,,,9161DX,Hollum,Ameland,Friesland,VBO,5.643095,53.439764
Terpelnnen,9,,,9161DX,Hollum,Ameland,Friesland,VBO,5.643155,53.439818
Terpelnnen,11,,,9161DX,Hollum,Ameland,Friesland,VBO,5.643291,53.439890
Terpelnnen,13,,,9161DX,Hollum,Ameland,Friesland,VBO,5.643336,53.439935
Terpelnnen,2,,,9161DZ,Hollum,Ameland,Friesland,VBO,5.643001,53.439172
Terpelnnen,4,,,9161DZ,Hollum,Ameland,Friesland,VBO,5.642986,53.439252
Terpelnnen,6,,,9161DZ,Hollum,Ameland,Friesland,VBO,5.643092,53.439369
Terpelnnen,8,,,9161DZ,Hollum,Ameland,Friesland,VBO,5.643243,53.439369
Terpelnnen,10,,,9161DZ,Hollum,Ameland,Friesland,VBO,5.643319,53.439485
Terpelnnen,12,,,9161DZ,Hollum,Ameland,Friesland,VBO,5.643364,53.439539
Terpelnnen,14,,,9161DZ,Hollum,Ameland,Friesland,VBO,5.643545,53.439566
Terpelnnen,16,,,9161DZ,Hollum,Ameland,Friesland,VBO,5.643590,53.439620
Terpelnnen,18,,,9161DZ,Hollum,Ameland,Friesland,VBO,5.643621,53.439763
Terpelnnen,20,,,9161DZ,Hollum,Ameland,Friesland,VBO,5.643666,53.439790
Jhr. H.J. Orttstraat,1,,,9161EA,Hollum,Ameland,Friesland,VBO,5.642542,53.440556
Jhr. H.J. Orttstraat,3,,,9161EA,Hollum,Ameland,Friesland,VBO,5.642603,53.440664
Jhr. H.J. Orttstraat,5,,,9161EA,Hollum,Ameland,Friesland,VBO,5.642634,53.440808
Dr. W.H. van Rietschotenstraat,6,,,9161EB,Hollum,Ameland,Friesland,VBO,5.640878,53.441539
Mr. Adriaan de Bruinestraat,1,,,9161EC,Hollum,Ameland,Friesland,VBO,5.641573,53.441942
Mr. Adriaan de Bruinestraat,2,,,9161EC,Hollum,Ameland,Friesland,VBO,5.641285,53.441727
Mr. Adriaan de Bruinestraat,3,,,9161EC,Hollum,Ameland,Friesland,VBO,5.641813,53.441923
Mr. Adriaan de Bruinestraat,4,,,9161EC,Hollum,Ameland,Friesland,VBO,5.641511,53.441726
Mr. Adriaan de Bruinestraat,5,,,9161EC,Hollum,Ameland,Friesland,VBO,5.642069,53.441923
Mr. Adriaan de Bruinestraat,6,,,9161EC,Hollum,Ameland,Friesland,VBO,5.641616,53.441726
Mr. Adriaan de Bruinestraat,7,,,9161EC,Hollum,Ameland,Friesland,VBO,5.642310,53.441895
Mr. Adriaan de Bruinestraat,8,,,9161EC,Hollum,Ameland,Friesland,VBO,5.641782,53.441717
Mr. Adriaan de Bruinestraat,9,,,9161EC,Hollum,Ameland,Friesland,VBO,5.642716,53.441886
Mr. Adriaan de Bruinestraat,10,,,9161EC,Hollum,Ameland,Friesland,VBO,5.641902,53.441717
Mr. Adriaan de Bruinestraat,11,,,9161EC,Hollum,Ameland,Friesland,VBO,5.642762,53.442065
Mr. Adriaan de Bruinestraat,12,,,9161EC,Hollum,Ameland,Friesland,VBO,5.642098,53.441698
Mr. Adriaan de Bruinestraat,14,,,9161EC,Hollum,Ameland,Friesland,VBO,5.642188,53.441698
Mr. Adriaan de Bruinestraat,16,,,9161EC,Hollum,Ameland,Friesland,VBO,5.642429,53.441689
Mr. Adriaan de Bruinestraat,18,,,9161EC,Hollum,Ameland,Friesland,VBO,5.642669,53.441652
Abraham Fockstraat,2,,,9161ED,Hollum,Ameland,Friesland,VBO,5.643055,53.440708
Abraham Fockstraat,4,,,9161ED,Hollum,Ameland,Friesland,VBO,5.643416,53.440680
Abraham Fockstraat,6,,,9161ED,Hollum,Ameland,Friesland,VBO,5.643702,53.440653
Abraham Fockstraat,8,,,9161ED,Hollum,Ameland,Friesland,VBO,5.643988,53.440634
Abraham Fockstraat,10,,,9161ED,Hollum,Ameland,Friesland,VBO,5.644213,53.440625
Trapweg,2,a,,9161EE,Hollum,Ameland,Friesland,VBO,5.641214,53.442329
Trapweg,2,b,,9161EE,Hollum,Ameland,Friesland,VBO,5.640161,53.442385
Trapweg,2,,,9161EE,Hollum,Ameland,Friesland,VBO,5.641620,53.442292
Trapweg,4,,,9161EE,Hollum,Ameland,Friesland,VBO,5.641861,53.442292
Trapweg,6,,,9161EE,Hollum,Ameland,Friesland,VBO,5.642116,53.442291
Trapweg,8,,,9161EE,Hollum,Ameland,Friesland,VBO,5.642357,53.442282
Trapweg,10,,,9161EE,Hollum,Ameland,Friesland,VBO,5.642733,53.442281
Vuurtorenpark Zuid,1,,,9161GA,Hollum,Ameland,Friesland,VBO,5.636274,53.450558
Vuurtorenpark Zuid,3,,,9161GA,Hollum,Ameland,Friesland,VBO,5.636076,53.450602
Vuurtorenpark Zuid,5,,,9161GA,Hollum,Ameland,Friesland,VBO,5.636031,53.450275
Vuurtorenpark Zuid,7,,,9161GA,Hollum,Ameland,Friesland,VBO,5.635590,53.450192
Vuurtorenpark Zuid,9,,,9161GA,Hollum,Ameland,Friesland,VBO,5.635666,53.450376
Vuurtorenpark Zuid,11,,,9161GA,Hollum,Ameland,Friesland,VBO,5.635698,53.450653
Vuurtorenpark Zuid,13,,,9161GA,Hollum,Ameland,Friesland,VBO,5.635432,53.450668
Vuurtorenpark Zuid,15,,,9161GA,Hollum,Ameland,Friesland,VBO,5.635473,53.450371
Vuurtorenpark Zuid,17,,,9161GA,Hollum,Ameland,Friesland,VBO,5.635033,53.450163
Vuurtorenpark Zuid,19,,,9161GA,Hollum,Ameland,Friesland,VBO,5.635104,53.450366
Vuurtorenpark Zuid,21,,,9161GA,Hollum,Ameland,Friesland,VBO,5.635082,53.450656
Vuurtorenpark Zuid,23,,,9161GA,Hollum,Ameland,Friesland,VBO,5.634825,53.450607
Vuurtorenpark Zuid,25,,,9161GA,Hollum,Ameland,Friesland,VBO,5.634902,53.450359
Vuurtorenpark Noord,2,,,9161GB,Hollum,Ameland,Friesland,VBO,5.637169,53.451454
Vuurtorenpark Noord,26,a,,9161GB,Hollum,Ameland,Friesland,VBO,5.635964,53.451606
Vuurtorenpark Noord,42,a,,9161GB,Hollum,Ameland,Friesland,VBO,5.635192,53.451426
