openbareruimtenaam,huisnummer,huisletter,huisnummertoevoeging,postcode,woonplaatsnaam,gemeentenaam,provincienaam,typeadresseerbaarobject,longitude,latitude
Kruisweg,1,,,9363AA,Marum,Marum,Groningen,VBO,6.274806,53.148025
Kruisweg,3,,,9363AA,Marum,Marum,Groningen,VBO,6.275703,53.148018
Kruisweg,9,,,9363AA,Marum,Marum,Groningen,VBO,6.276317,53.148067
Kruisweg,15,,,9363AA,Marum,Marum,Groningen,VBO,6.276870,53.148063
Kruisweg,17,,,9363AA,Marum,Marum,Groningen,VBO,6.277109,53.148070
Kruisweg,19,,,9363AA,Marum,Marum,Groningen,VBO,6.277289,53.148096
Kruisweg,21,,,9363AA,Marum,Marum,Groningen,VBO,6.277394,53.148104
Kruisweg,23,,,9363AA,Marum,Marum,Groningen,VBO,6.277588,53.148112
Kruisweg,25,,,9363AA,Marum,Marum,Groningen,VBO,6.277814,53.148173
Kruisweg,27,A,,9363AB,Marum,Marum,Groningen,VBO,6.278008,53.148181
Kruisweg,27,,,9363AB,Marum,Marum,Groningen,VBO,6.277979,53.148199
Kruisweg,29,,,9363AB,Marum,Marum,Groningen,VBO,6.278126,53.148072
Kruisweg,31,A,,9363AB,Marum,Marum,Groningen,VBO,6.278385,53.147603
Kruisweg,31,B,,9363AB,Marum,Marum,Groningen,VBO,6.278192,53.147649
Kruisweg,31,,,9363AB,Marum,Marum,Groningen,VBO,6.278233,53.148206
Kruisweg,33,,,9363AB,Marum,Marum,Groningen,VBO,6.278532,53.148213
Kruisweg,35,,,9363AB,Marum,Marum,Groningen,VBO,6.278726,53.148202
Kruisweg,37,,,9363AB,Marum,Marum,Groningen,VBO,6.278847,53.148237
Kruisweg,39,,,9363AB,Marum,Marum,Groningen,VBO,6.279027,53.148281
Kruisweg,41,,,9363AB,Marum,Marum,Groningen,VBO,6.279221,53.148261
Kruisweg,43,,,9363AB,Marum,Marum,Groningen,VBO,6.279411,53.148053
Kruisweg,47,,,9363AB,Marum,Marum,Groningen,VBO,6.279746,53.148347
Kruisweg,49,,,9363AB,Marum,Marum,Groningen,VBO,6.279880,53.148346
Kruisweg,51,,,9363AB,Marum,Marum,Groningen,VBO,6.280045,53.148354
Kruisweg,53,,,9363AB,Marum,Marum,Groningen,VBO,6.280150,53.148371
Kruisweg,55,,,9363AC,Marum,Marum,Groningen,VBO,6.280433,53.148342
Kruisweg,57,,,9363AC,Marum,Marum,Groningen,VBO,6.280852,53.148384
Kruisweg,59,,,9363AC,Marum,Marum,Groningen,VBO,6.281077,53.148418
Kruisweg,61,,,9363AC,Marum,Marum,Groningen,VBO,6.281272,53.148435
Kruisweg,63,,,9363AC,Marum,Marum,Groningen,VBO,6.281512,53.148460
Kruisweg,65,,,9363AC,Marum,Marum,Groningen,VBO,6.281886,53.148502
Kruisweg,71,,,9363AC,Marum,Marum,Groningen,VBO,6.283318,53.148348
Kruisweg,73,,,9363AC,Marum,Marum,Groningen,VBO,6.283789,53.148713
Kruisweg,75,,,9363AC,Marum,Marum,Groningen,VBO,6.284176,53.148656
Kruisweg,77,,,9363AC,Marum,Marum,Groningen,VBO,6.284826,53.148983
Kruisweg,79,,,9363AC,Marum,Marum,Groningen,VBO,6.285097,53.149089
Kruisweg,83,A,,9363AC,Marum,Marum,Groningen,VBO,6.285677,53.148923
Kruisweg,83,,,9363AC,Marum,Marum,Groningen,VBO,6.285547,53.149167
Kruisweg,115,,,9363AC,Marum,Marum,Groningen,VBO,6.287690,53.149420
Kruisweg,2,,,9363AD,Marum,Marum,Groningen,VBO,6.274772,53.148528
Kruisweg,4,,,9363AD,Marum,Marum,Groningen,VBO,6.275353,53.148416
Kruisweg,6,,,9363AD,Marum,Marum,Groningen,VBO,6.275939,53.148582
Kruisweg,8,,,9363AD,Marum,Marum,Groningen,VBO,6.276712,53.148370
Kruisweg,10,,,9363AD,Marum,Marum,Groningen,VBO,6.276892,53.148396
Kruisweg,12,,,9363AD,Marum,Marum,Groningen,VBO,6.277242,53.148707
Kruisweg,14,,,9363AD,Marum,Marum,Groningen,VBO,6.277759,53.148416
Kruisweg,16,,,9363AD,Marum,Marum,Groningen,VBO,6.277879,53.148451
Kruisweg,18,,,9363AD,Marum,Marum,Groningen,VBO,6.278121,53.148557
Kruisweg,20,,,9363AD,Marum,Marum,Groningen,VBO,6.278464,53.148519
Kruisweg,22,,,9363AD,Marum,Marum,Groningen,VBO,6.278823,53.148552
Kruisweg,24,,,9363AD,Marum,Marum,Groningen,VBO,6.279019,53.148631
Kruisweg,28,,,9363AD,Marum,Marum,Groningen,VBO,6.279513,53.148655
Kruisweg,32,,,9363AD,Marum,Marum,Groningen,VBO,6.279564,53.148942
Kruisweg,34,,,9363AD,Marum,Marum,Groningen,VBO,6.279906,53.148858
Kruisweg,36,,,9363AD,Marum,Marum,Groningen,VBO,6.280126,53.148668
Kruisweg,38,,,9363AE,Marum,Marum,Groningen,VBO,6.280291,53.148694
Kruisweg,40,,,9363AE,Marum,Marum,Groningen,VBO,6.280530,53.148692
Kruisweg,44,,,9363AE,Marum,Marum,Groningen,VBO,6.280801,53.148771
Kruisweg,48,,,9363AE,Marum,Marum,Groningen,VBO,6.281070,53.148796
Kruisweg,52,,,9363AE,Marum,Marum,Groningen,VBO,6.281354,53.148785
Kruisweg,54,,,9363AE,Marum,Marum,Groningen,VBO,6.281474,53.148802
Kruisweg,56,A,,9363AE,Marum,Marum,Groningen,VBO,6.281894,53.148898
Kruisweg,56,B,,9363AE,Marum,Marum,Groningen,VBO,6.281939,53.148897
Kruisweg,56,C,,9363AE,Marum,Marum,Groningen,VBO,6.281969,53.148906
Kruisweg,56,D,,9363AE,Marum,Marum,Groningen,VBO,6.282014,53.148906
Kruisweg,56,,,9363AE,Marum,Marum,Groningen,VBO,6.281849,53.148889
Kruisweg,58,,,9363AE,Marum,Marum,Groningen,VBO,6.282089,53.148914
Kruisweg,60,A,,9363AE,Marum,Marum,Groningen,VBO,6.281664,53.149304
Kruisweg,60,B,,9363AE,Marum,Marum,Groningen,VBO,6.281738,53.149294
Kruisweg,60,C,,9363AE,Marum,Marum,Groningen,VBO,6.281783,53.149312
Kruisweg,60,,,9363AE,Marum,Marum,Groningen,VBO,6.281618,53.149286
Kruisweg,62,A,,9363AE,Marum,Marum,Groningen,VBO,6.281974,53.149113
Kruisweg,62,B,,9363AE,Marum,Marum,Groningen,VBO,6.282019,53.149121
Kruisweg,62,C,,9363AE,Marum,Marum,Groningen,VBO,6.282063,53.149121
Kruisweg,62,D,,9363AE,Marum,Marum,Groningen,VBO,6.282109,53.149130
Kruisweg,62,E,,9363AE,Marum,Marum,Groningen,VBO,6.282154,53.149138
Kruisweg,62,,,9363AE,Marum,Marum,Groningen,VBO,6.281929,53.149104
Kruisweg,64,,,9363AE,Marum,Marum,Groningen,VBO,6.282589,53.149216
Kruisweg,66,,,9363AE,Marum,Marum,Groningen,VBO,6.283063,53.149024
Kruisweg,68,,,9363AE,Marum,Marum,Groningen,VBO,6.283198,53.149058
Kruisweg,70,,,9363AE,Marum,Marum,Groningen,VBO,6.283364,53.149111
Kruisweg,72,,,9363AE,Marum,Marum,Groningen,VBO,6.283664,53.149154
Kruisweg,74,,,9363AG,Marum,Marum,Groningen,VBO,6.283906,53.149305
Kruisweg,76,,,9363AG,Marum,Marum,Groningen,VBO,6.284324,53.149293
Kruisweg,80,,,9363AG,Marum,Marum,Groningen,VBO,6.284489,53.149327
Kruisweg,82,,,9363AG,Marum,Marum,Groningen,VBO,6.284625,53.149380
Kruisweg,84,,,9363AG,Marum,Marum,Groningen,VBO,6.284775,53.149397
Kruisweg,86,,,9363AG,Marum,Marum,Groningen,VBO,6.284865,53.149423
Kruisweg,88,,,9363AG,Marum,Marum,Groningen,VBO,6.284340,53.150038
Kruisweg,90,A,,9363AG,Marum,Marum,Groningen,VBO,6.285062,53.149548
Kruisweg,90,,,9363AG,Marum,Marum,Groningen,VBO,6.285004,53.149629
Kruisweg,92,,,9363AG,Marum,Marum,Groningen,VBO,6.285377,53.149626
Kruisweg,96,,,9363AG,Marum,Marum,Groningen,VBO,6.285965,53.149856
Kruisweg,100,,,9363AG,Marum,Marum,Groningen,VBO,6.286487,53.149816
Kruisweg,102,,,9363AG,Marum,Marum,Groningen,VBO,6.286242,53.150222
Kruisweg,104,,,9363AG,Marum,Marum,Groningen,VBO,6.285793,53.153829
Kruisweg,106,,,9363AG,Marum,Marum,Groningen,VBO,6.286966,53.149848
Kruisweg,112,,,9363AG,Marum,Marum,Groningen,VBO,6.287792,53.150013
Kruisweg,116,,,9363AG,Marum,Marum,Groningen,VBO,6.286383,53.156305
Kruisweg,118,,,9363AG,Marum,Marum,Groningen,VBO,6.286821,53.156526
De Petten,2,,,9363AH,Marum,Marum,Groningen,VBO,6.281119,53.149730
De Petten,4,,,9363AH,Marum,Marum,Groningen,VBO,6.281017,53.149848
De Petten,6,,,9363AH,Marum,Marum,Groningen,VBO,6.280256,53.151372
De Petten,8,,,9363AH,Marum,Marum,Groningen,VBO,6.280506,53.151873
Noorderweg,1,A,,9363AJ,Marum,Marum,Groningen,VBO,6.274393,53.148998
Noorderweg,1,,,9363AJ,Marum,Marum,Groningen,VBO,6.274233,53.149233
Noorderweg,2,,,9363AJ,Marum,Marum,Groningen,VBO,6.273797,53.148365
Noorderweg,3,,,9363AJ,Marum,Marum,Groningen,VBO,6.274119,53.149476
Noorderweg,5,,,9363AJ,Marum,Marum,Groningen,VBO,6.273944,53.149720
Noorderweg,6,,,9363AJ,Marum,Marum,Groningen,VBO,6.273920,53.148534
Noorderweg,8,,,9363AJ,Marum,Marum,Groningen,VBO,6.273714,53.148671
Noorderweg,10,,,9363AJ,Marum,Marum,Groningen,VBO,6.273506,53.148762
Noorderweg,12,,,9363AJ,Marum,Marum,Groningen,VBO,6.273482,53.149041
Noorderweg,14,,,9363AJ,Marum,Marum,Groningen,VBO,6.273397,53.149257
Noorderweg,16,,,9363AJ,Marum,Marum,Groningen,VBO,6.273267,53.149501
Noorderweg,18,,,9363AJ,Marum,Marum,Groningen,VBO,6.273168,53.149744
Wendtsteinweg,1,,,9363AK,Marum,Marum,Groningen,VBO,6.274132,53.147931
Wendtsteinweg,3,,,9363AK,Marum,Marum,Groningen,VBO,6.274127,53.147706
Wendtsteinweg,5,A,,9363AK,Marum,Marum,Groningen,VBO,6.274227,53.147481
Wendtsteinweg,5,,,9363AK,Marum,Marum,Groningen,VBO,6.274138,53.147490
Wendtsteinweg,7,A,,9363AK,Marum,Marum,Groningen,VBO,6.274298,53.147274
Wendtsteinweg,7,,,9363AK,Marum,Marum,Groningen,VBO,6.274268,53.147292
Wendtsteinweg,9,A,,9363AK,Marum,Marum,Groningen,VBO,6.274157,53.146942
Wendtsteinweg,9,,,9363AK,Marum,Marum,Groningen,VBO,6.274234,53.147067
Wendtsteinweg,11,A,,9363AK,Marum,Marum,Groningen,VBO,6.273688,53.146676
Wendtsteinweg,11,,,9363AK,Marum,Marum,Groningen,VBO,6.273899,53.146782
Wendtsteinweg,13,,,9363AK,Marum,Marum,Groningen,VBO,6.273389,53.146669
Wendtsteinweg,15,,,9363AK,Marum,Marum,Groningen,VBO,6.272807,53.146736
Wendtsteinweg,17,,,9363AK,Marum,Marum,Groningen,VBO,6.272950,53.146412
Wendtsteinweg,19,,,9363AK,Marum,Marum,Groningen,VBO,6.272665,53.146351
Wendtsteinweg,21,,,9363AK,Marum,Marum,Groningen,VBO,6.272469,53.146299
Wendtsteinweg,23,,,9363AK,Marum,Marum,Groningen,VBO,6.272274,53.146246
Wendtsteinweg,25,,,9363AK,Marum,Marum,Groningen,VBO,6.271899,53.146168
Wendtsteinweg,27,A,,9363AL,Marum,Marum,Groningen,VBO,6.271508,53.146081
Wendtsteinweg,27,,,9363AL,Marum,Marum,Groningen,VBO,6.271689,53.146143
Wendtsteinweg,29,,,9363AL,Marum,Marum,Groningen,VBO,6.271267,53.145984
Wendtsteinweg,31,,,9363AL,Marum,Marum,Groningen,VBO,6.270857,53.145681
Wendtsteinweg,33,,,9363AL,Marum,Marum,Groningen,VBO,6.270662,53.145638
Wendtsteinweg,35,,,9363AL,Marum,Marum,Groningen,VBO,6.270482,53.145576
Wendtsteinweg,37,,,9363AL,Marum,Marum,Groningen,VBO,6.270390,53.145460
Wendtsteinweg,39,,,9363AL,Marum,Marum,Groningen,VBO,6.270239,53.145380
Wendtsteinweg,41,,,9363AL,Marum,Marum,Groningen,VBO,6.270103,53.145319
Wendtsteinweg,43,,,9363AL,Marum,Marum,Groningen,VBO,6.269908,53.145284
Wendtsteinweg,53,,,9363AL,Marum,Marum,Groningen,VBO,6.267797,53.144365
Wendtsteinweg,55,,,9363AM,Marum,Marum,Groningen,VBO,6.267722,53.144384
Wendtsteinweg,57,,,9363AM,Marum,Marum,Groningen,VBO,6.267496,53.144259
Wendtsteinweg,59,,,9363AM,Marum,Marum,Groningen,VBO,6.267315,53.144216
Wendtsteinweg,61,,,9363AM,Marum,Marum,Groningen,VBO,6.267030,53.144146
Wendtsteinweg,63,,,9363AM,Marum,Marum,Groningen,VBO,6.266573,53.144473
Wendtsteinweg,65,,,9363AM,Marum,Marum,Groningen,VBO,6.266761,53.144148
Wendtsteinweg,67,,,9363AM,Marum,Marum,Groningen,VBO,6.266611,53.144122
Wendtsteinweg,69,,,9363AM,Marum,Marum,Groningen,VBO,6.266475,53.144051
Wendtsteinweg,71,,,9363AM,Marum,Marum,Groningen,VBO,6.266385,53.144034
Wendtsteinweg,73,,,9363AM,Marum,Marum,Groningen,VBO,6.266250,53.144017
Wendtsteinweg,75,,,9363AM,Marum,Marum,Groningen,VBO,6.265996,53.144028
Wendtsteinweg,77,,,9363AM,Marum,Marum,Groningen,VBO,6.265817,53.144047
Wendtsteinweg,85,,,9363AM,Marum,Marum,Groningen,VBO,6.265208,53.144222
Wendtsteinweg,87,,,9363AM,Marum,Marum,Groningen,VBO,6.265015,53.144305
Wendtsteinweg,2,,,9363AN,Marum,Marum,Groningen,VBO,6.275037,53.147610
Wendtsteinweg,6,,,9363AN,Marum,Marum,Groningen,VBO,6.275093,53.147429
Wendtsteinweg,10,,,9363AN,Marum,Marum,Groningen,VBO,6.275072,53.147142
Wendtsteinweg,12,,,9363AN,Marum,Marum,Groningen,VBO,6.274919,53.146945
Wendtsteinweg,16,A,,9363AN,Marum,Marum,Groningen,VBO,6.274116,53.146412
Wendtsteinweg,16,,,9363AN,Marum,Marum,Groningen,VBO,6.274208,53.146555
Wendtsteinweg,18,,,9363AN,Marum,Marum,Groningen,VBO,6.273891,53.146396
Wendtsteinweg,20,,,9363AN,Marum,Marum,Groningen,VBO,6.273546,53.146345
Wendtsteinweg,22,,,9363AN,Marum,Marum,Groningen,VBO,6.273425,53.146265
Wendtsteinweg,24,,,9363AN,Marum,Marum,Groningen,VBO,6.273818,53.145758
Wendtsteinweg,26,,,9363AN,Marum,Marum,Groningen,VBO,6.273290,53.146221
Wendtsteinweg,28,,,9363AN,Marum,Marum,Groningen,VBO,6.273035,53.146169
Wendtsteinweg,30,,,9363AP,Marum,Marum,Groningen,VBO,6.272960,53.146151
Wendtsteinweg,32,,,9363AP,Marum,Marum,Groningen,VBO,6.272688,53.146045
Wendtsteinweg,34,,,9363AP,Marum,Marum,Groningen,VBO,6.272478,53.145975
Wendtsteinweg,36,A,,9363AP,Marum,Marum,Groningen,VBO,6.271824,53.145450
Wendtsteinweg,36,,,9363AP,Marum,Marum,Groningen,VBO,6.272012,53.145844
Wendtsteinweg,38,,,9363AP,Marum,Marum,Groningen,VBO,6.271591,53.145721
Wendtsteinweg,40,,,9363AP,Marum,Marum,Groningen,VBO,6.271438,53.145542
Wendtsteinweg,42,,,9363AP,Marum,Marum,Groningen,VBO,6.271136,53.145392
Wendtsteinweg,44,,,9363AP,Marum,Marum,Groningen,VBO,6.270924,53.145277
Wendtsteinweg,46,,,9363AP,Marum,Marum,Groningen,VBO,6.270803,53.145215
Wendtsteinweg,48,,,9363AP,Marum,Marum,Groningen,VBO,6.270592,53.145099
Wendtsteinweg,50,,,9363AP,Marum,Marum,Groningen,VBO,6.270291,53.145021
Wendtsteinweg,64,,,9363AR,Marum,Marum,Groningen,VBO,6.269021,53.144320
Wendtsteinweg,66,A,,9363AR,Marum,Marum,Groningen,VBO,6.268001,53.144103
Wendtsteinweg,66,,,9363AR,Marum,Marum,Groningen,VBO,6.268241,53.144146
Wendtsteinweg,68,A,,9363AR,Marum,Marum,Groningen,VBO,6.268512,53.144261
Wendtsteinweg,68,,,9363AR,Marum,Marum,Groningen,VBO,6.268496,53.144225
Wendtsteinweg,70,A,,9363AR,Marum,Marum,Groningen,VBO,6.268165,53.144129
Wendtsteinweg,70,B,,9363AR,Marum,Marum,Groningen,VBO,6.268120,53.144111
Wendtsteinweg,70,C,,9363AR,Marum,Marum,Groningen,VBO,6.268045,53.144103
Wendtsteinweg,70,D,,9363AR,Marum,Marum,Groningen,VBO,6.267970,53.144085
Wendtsteinweg,70,,,9363AR,Marum,Marum,Groningen,VBO,6.268043,53.143977
Wendtsteinweg,72,A,,9363AR,Marum,Marum,Groningen,VBO,6.268239,53.144092
Wendtsteinweg,72,B,,9363AR,Marum,Marum,Groningen,VBO,6.268148,53.144003
Wendtsteinweg,72,C,,9363AR,Marum,Marum,Groningen,VBO,6.268089,53.144066
Wendtsteinweg,72,D,,9363AR,Marum,Marum,Groningen,VBO,6.267954,53.144031
Wendtsteinweg,72,,,9363AR,Marum,Marum,Groningen,VBO,6.267685,53.144006
Wendtsteinweg,74,A,,9363AR,Marum,Marum,Groningen,VBO,6.267504,53.143945
Wendtsteinweg,74,,,9363AR,Marum,Marum,Groningen,VBO,6.267474,53.143945
Wendtsteinweg,76,,,9363AR,Marum,Marum,Groningen,VBO,6.267142,53.143768
Wendtsteinweg,82,,,9363AR,Marum,Marum,Groningen,VBO,6.266215,53.143739
Wendtsteinweg,84,,,9363AR,Marum,Marum,Groningen,VBO,6.266125,53.143730
Wendtsteinweg,86,,,9363AR,Marum,Marum,Groningen,VBO,6.266019,53.143686
Wendtsteinweg,90,,,9363AR,Marum,Marum,Groningen,VBO,6.265677,53.143743
Wendtsteinweg,92,,,9363AR,Marum,Marum,Groningen,VBO,6.265439,53.143807
Wendtsteinweg,94,,,9363AR,Marum,Marum,Groningen,VBO,6.265275,53.143817
Wendtsteinweg,96,,,9363AR,Marum,Marum,Groningen,VBO,6.265051,53.143855
Dorpshuisstraat,15,,,9363AS,Marum,Marum,Groningen,VBO,6.270549,53.144489
Dorpshuisstraat,17,,,9363AS,Marum,Marum,Groningen,VBO,6.270654,53.144506
Dorpshuisstraat,19,,,9363AS,Marum,Marum,Groningen,VBO,6.271084,53.144341
Dorpshuisstraat,21,,,9363AS,Marum,Marum,Groningen,VBO,6.271414,53.144383
Malijksepad,1,A,,9363AT,Marum,Marum,Groningen,VBO,6.271847,53.144353
Malijksepad,1,B,,9363AT,Marum,Marum,Groningen,VBO,6.271981,53.144361
Malijksepad,1,C,,9363AT,Marum,Marum,Groningen,VBO,6.272220,53.144359
Malijksepad,1,D,,9363AT,Marum,Marum,Groningen,VBO,6.272325,53.144350
Malijksepad,1,E,,9363AT,Marum,Marum,Groningen,VBO,6.272489,53.144330
Malijksepad,1,F,,9363AT,Marum,Marum,Groningen,VBO,6.272593,53.144312
Malijksepad,3,,,9363AT,Marum,Marum,Groningen,VBO,6.273262,53.144145
Malijksepad,4,,,9363AT,Marum,Marum,Groningen,VBO,6.272021,53.144855
Malijksepad,5,B,,9363AT,Marum,Marum,Groningen,VBO,6.274429,53.144208
Malijksepad,5,C,,9363AT,Marum,Marum,Groningen,VBO,6.274519,53.144199
Malijksepad,5,,,9363AT,Marum,Marum,Groningen,VBO,6.273712,53.144205
Malijksepad,6,,,9363AT,Marum,Marum,Groningen,VBO,6.273257,53.144594
Malijksepad,7,,,9363AT,Marum,Marum,Groningen,VBO,6.274845,53.144088
Malijksepad,8,,,9363AT,Marum,Marum,Groningen,VBO,6.273346,53.144585
Malijksepad,10,,,9363AT,Marum,Marum,Groningen,VBO,6.273480,53.144575
Malijksepad,11,A,,9363AT,Marum,Marum,Groningen,VBO,6.279164,53.143817
Malijksepad,11,,,9363AT,Marum,Marum,Groningen,VBO,6.278930,53.144283
Malijksepad,12,,,9363AT,Marum,Marum,Groningen,VBO,6.273570,53.144574
Malijksepad,13,,,9363AT,Marum,Marum,Groningen,VBO,6.280543,53.144235
Malijksepad,14,,,9363AT,Marum,Marum,Groningen,VBO,6.273823,53.144536
Malijksepad,15,,,9363AT,Marum,Marum,Groningen,VBO,6.281910,53.144566
Malijksepad,16,,,9363AT,Marum,Marum,Groningen,VBO,6.274062,53.144526
Malijksepad,17,,,9363AT,Marum,Marum,Groningen,VBO,6.285577,53.145536
Malijksepad,18,,,9363AT,Marum,Marum,Groningen,VBO,6.274167,53.144525
Malijksepad,19,,,9363AT,Marum,Marum,Groningen,VBO,6.286399,53.145575
Malijksepad,20,,,9363AT,Marum,Marum,Groningen,VBO,6.274406,53.144505
Malijksepad,21,,,9363AT,Marum,Marum,Groningen,VBO,6.287908,53.146228
Malijksepad,22,,,9363AT,Marum,Marum,Groningen,VBO,6.274495,53.144504
Malijksepad,32,,,9363AT,Marum,Marum,Groningen,VBO,6.282480,53.145424
Itskenheerd,1,A,,9363AV,Marum,Marum,Groningen,VBO,6.271923,53.143697
Itskenheerd,1,,,9363AV,Marum,Marum,Groningen,VBO,6.271937,53.143643
Itskenheerd,2,,,9363AV,Marum,Marum,Groningen,VBO,6.271429,53.143664
Itskenheerd,3,A,,9363AV,Marum,Marum,Groningen,VBO,6.271880,53.143787
Itskenheerd,3,,,9363AV,Marum,Marum,Groningen,VBO,6.271894,53.143742
Itskenheerd,4,,,9363AV,Marum,Marum,Groningen,VBO,6.271359,53.143880
Itskenheerd,5,,,9363AV,Marum,Marum,Groningen,VBO,6.271838,53.143931
Itskenheerd,6,,,9363AV,Marum,Marum,Groningen,VBO,6.271411,53.144258
Itskenheerd,7,,,9363AV,Marum,Marum,Groningen,VBO,6.271752,53.144129
Itskenheerd,9,,,9363AV,Marum,Marum,Groningen,VBO,6.271827,53.144129
Itskenheerd,11,,,9363AV,Marum,Marum,Groningen,VBO,6.272021,53.144127
Itskenheerd,13,,,9363AV,Marum,Marum,Groningen,VBO,6.272111,53.144127
Itskenheerd,15,,,9363AV,Marum,Marum,Groningen,VBO,6.272305,53.144098
Itskenheerd,17,,,9363AV,Marum,Marum,Groningen,VBO,6.272394,53.144098
Itskenheerd,19,,,9363AV,Marum,Marum,Groningen,VBO,6.272604,53.144096
Itskenheerd,21,,,9363AV,Marum,Marum,Groningen,VBO,6.272678,53.144095
Buurlandt,1,,,9363AW,Marum,Marum,Groningen,VBO,6.273047,53.144596
Buurlandt,2,,,9363AW,Marum,Marum,Groningen,VBO,6.272723,53.144832
Buurlandt,3,,,9363AW,Marum,Marum,Groningen,VBO,6.273125,53.144757
Buurlandt,4,,,9363AW,Marum,Marum,Groningen,VBO,6.272739,53.144886
Buurlandt,5,,,9363AW,Marum,Marum,Groningen,VBO,6.273082,53.144811
Buurlandt,6,,,9363AW,Marum,Marum,Groningen,VBO,6.272696,53.144940
Buurlandt,7,,,9363AW,Marum,Marum,Groningen,VBO,6.273187,53.144855
Buurlandt,9,,,9363AW,Marum,Marum,Groningen,VBO,6.273412,53.144899
Buurlandt,10,,,9363AW,Marum,Marum,Groningen,VBO,6.274045,53.145128
Buurlandt,11,,,9363AW,Marum,Marum,Groningen,VBO,6.273472,53.144898
Buurlandt,12,,,9363AW,Marum,Marum,Groningen,VBO,6.274437,53.145296
Buurlandt,13,,,9363AW,Marum,Marum,Groningen,VBO,6.273528,53.144873
Buurlandt,14,,,9363AW,Marum,Marum,Groningen,VBO,6.274497,53.145322
Buurlandt,15,,,9363AW,Marum,Marum,Groningen,VBO,6.273576,53.144871
Buurlandt,16,,,9363AW,Marum,Marum,Groningen,VBO,6.274587,53.145330
Buurlandt,17,,,9363AW,Marum,Marum,Groningen,VBO,6.273666,53.144883
Buurlandt,18,,,9363AW,Marum,Marum,Groningen,VBO,6.274662,53.145357
Buurlandt,19,,,9363AW,Marum,Marum,Groningen,VBO,6.273843,53.144788
Buurlandt,21,,,9363AW,Marum,Marum,Groningen,VBO,6.273933,53.144778
Buurlandt,23,,,9363AW,Marum,Marum,Groningen,VBO,6.274142,53.144768
Buurlandt,25,,,9363AW,Marum,Marum,Groningen,VBO,6.274232,53.144767
Buurlandt,27,,,9363AW,Marum,Marum,Groningen,VBO,6.274426,53.144756
Buurlandt,29,,,9363AW,Marum,Marum,Groningen,VBO,6.274530,53.144747
Tolhuisstraat,1,,,9363AX,Marum,Marum,Groningen,VBO,6.273661,53.148285
De Wending,1,,,9363AZ,Marum,Marum,Groningen,VBO,6.270094,53.144177
De Wending,3,,,9363AZ,Marum,Marum,Groningen,VBO,6.270214,53.144194
De Wending,5,,,9363AZ,Marum,Marum,Groningen,VBO,6.270289,53.144212
De Wending,7,,,9363AZ,Marum,Marum,Groningen,VBO,6.270246,53.144257
De Wending,9,,,9363AZ,Marum,Marum,Groningen,VBO,6.270232,53.144311
De Wending,11,,,9363AZ,Marum,Marum,Groningen,VBO,6.270188,53.144347
De Wending,13,,,9363AZ,Marum,Marum,Groningen,VBO,6.270144,53.144384
De Wending,15,,,9363AZ,Marum,Marum,Groningen,VBO,6.270129,53.144429
De Wending,17,,,9363AZ,Marum,Marum,Groningen,VBO,6.270145,53.144465
De Wending,19,,,9363AZ,Marum,Marum,Groningen,VBO,6.270191,53.144509
De Wending,21,,,9363AZ,Marum,Marum,Groningen,VBO,6.269764,53.144836
De Wending,23,,,9363AZ,Marum,Marum,Groningen,VBO,6.269824,53.144853
De Wending,25,,,9363AZ,Marum,Marum,Groningen,VBO,6.269869,53.144871
De Wending,27,,,9363AZ,Marum,Marum,Groningen,VBO,6.269930,53.144889
De Wending,29,,,9363AZ,Marum,Marum,Groningen,VBO,6.269990,53.144906
De Wending,33,,,9363AZ,Marum,Marum,Groningen,VBO,6.269880,53.144637
De Wending,35,,,9363AZ,Marum,Marum,Groningen,VBO,6.269924,53.144637
De Wending,37,,,9363AZ,Marum,Marum,Groningen,VBO,6.269969,53.144637
De Wending,39,,,9363AZ,Marum,Marum,Groningen,VBO,6.270000,53.144654
De Wending,41,,,9363AZ,Marum,Marum,Groningen,VBO,6.270045,53.144663
De Wending,43,,,9363AZ,Marum,Marum,Groningen,VBO,6.270090,53.144672
De Wending,45,,,9363AZ,Marum,Marum,Groningen,VBO,6.270134,53.144671
De Wending,47,,,9363AZ,Marum,Marum,Groningen,VBO,6.270150,53.144698
De Wending,49,,,9363AZ,Marum,Marum,Groningen,VBO,6.270105,53.144699
De Wending,51,,,9363AZ,Marum,Marum,Groningen,VBO,6.270075,53.144690
De Wending,53,,,9363AZ,Marum,Marum,Groningen,VBO,6.270045,53.144681
De Wending,55,,,9363AZ,Marum,Marum,Groningen,VBO,6.270000,53.144681
De Wending,57,,,9363AZ,Marum,Marum,Groningen,VBO,6.269970,53.144673
De Wending,59,,,9363AZ,Marum,Marum,Groningen,VBO,6.269925,53.144664
De Wending,61,,,9363AZ,Marum,Marum,Groningen,VBO,6.269880,53.144655
De Wending,63,,,9363AZ,Marum,Marum,Groningen,VBO,6.269879,53.144619
De Wending,65,,,9363AZ,Marum,Marum,Groningen,VBO,6.269163,53.144687
De Wending,67,A,,9363AZ,Marum,Marum,Groningen,VBO,6.269234,53.144661
De Wending,67,,,9363AZ,Marum,Marum,Groningen,VBO,6.269197,53.144646
De Wending,69,,,9363AZ,Marum,Marum,Groningen,VBO,6.269268,53.144705
De Wending,71,,,9363AZ,Marum,Marum,Groningen,VBO,6.268658,53.144808
De Wending,73,,,9363AZ,Marum,Marum,Groningen,VBO,6.268612,53.144790
De Wending,75,,,9363AZ,Marum,Marum,Groningen,VBO,6.268522,53.144773
De Wending,83,,,9363AZ,Marum,Marum,Groningen,VBO,6.268659,53.144898
De Wending,85,,,9363AZ,Marum,Marum,Groningen,VBO,6.268570,53.144890
De Wending,87,,,9363AZ,Marum,Marum,Groningen,VBO,6.268510,53.144881
De Wending,89,,,9363AZ,Marum,Marum,Groningen,VBO,6.268420,53.144864
De Wending,91,,,9363AZ,Marum,Marum,Groningen,VBO,6.268359,53.144846
De Wending,93,,,9363AZ,Marum,Marum,Groningen,VBO,6.268240,53.144829
De Wending,95,,,9363AZ,Marum,Marum,Groningen,VBO,6.268167,53.144789
De Wending,97,,,9363AZ,Marum,Marum,Groningen,VBO,6.268253,53.144766
De Wending,99,,,9363AZ,Marum,Marum,Groningen,VBO,6.268357,53.144720
De Wending,101,,,9363AZ,Marum,Marum,Groningen,VBO,6.268417,53.144729
De Wending,103,,,9363AZ,Marum,Marum,Groningen,VBO,6.268507,53.144746
De Wending,105,,,9363AZ,Marum,Marum,Groningen,VBO,6.268627,53.144754
De Wending,109,,,9363AZ,Marum,Marum,Groningen,VBO,6.268792,53.144789
De Wending,111,,,9363AZ,Marum,Marum,Groningen,VBO,6.268852,53.144816
De Wending,113,,,9363AZ,Marum,Marum,Groningen,VBO,6.268897,53.144833
De Wending,115,,,9363AZ,Marum,Marum,Groningen,VBO,6.268913,53.144869
De Wending,117,,,9363AZ,Marum,Marum,Groningen,VBO,6.268899,53.144905
De Wending,119,,,9363AZ,Marum,Marum,Groningen,VBO,6.268810,53.144942
De Wending,121,,,9363AZ,Marum,Marum,Groningen,VBO,6.268403,53.144792
De Wending,123,,,9363AZ,Marum,Marum,Groningen,VBO,6.268523,53.144818
De Wending,125,,,9363AZ,Marum,Marum,Groningen,VBO,6.268643,53.144844
De Wending,127,,,9363AZ,Marum,Marum,Groningen,VBO,6.268688,53.144853
De Wending,129,,,9363AZ,Marum,Marum,Groningen,VBO,6.268748,53.144852
Molenstraat,1,A,,9363BA,Marum,Marum,Groningen,VBO,6.271153,53.146264
Molenstraat,1,B,,9363BA,Marum,Marum,Groningen,VBO,6.271114,53.146377
Molenstraat,1,,,9363BA,Marum,Marum,Groningen,VBO,6.270841,53.146356
Molenstraat,17,,,9363BA,Marum,Marum,Groningen,VBO,6.269797,53.146426
Molenstraat,19,,,9363BA,Marum,Marum,Groningen,VBO,6.269706,53.146409
Molenstraat,21,,,9363BA,Marum,Marum,Groningen,VBO,6.269541,53.146374
Molenstraat,23,,,9363BA,Marum,Marum,Groningen,VBO,6.269436,53.146357
Molenstraat,25,,,9363BA,Marum,Marum,Groningen,VBO,6.269286,53.146331
Molenstraat,27,,,9363BA,Marum,Marum,Groningen,VBO,6.269196,53.146314
Molenstraat,29,,,9363BA,Marum,Marum,Groningen,VBO,6.269031,53.146288
Molenstraat,31,,,9363BA,Marum,Marum,Groningen,VBO,6.268941,53.146271
Molenstraat,33,,,9363BA,Marum,Marum,Groningen,VBO,6.268761,53.146236
Molenstraat,35,,,9363BA,Marum,Marum,Groningen,VBO,6.268672,53.146228
Molenstraat,37,,,9363BA,Marum,Marum,Groningen,VBO,6.268506,53.146193
Molenstraat,39,,,9363BA,Marum,Marum,Groningen,VBO,6.268416,53.146176
Molenstraat,45,,,9363BA,Marum,Marum,Groningen,VBO,6.267039,53.146042
Molenstraat,49,,,9363BB,Marum,Marum,Groningen,VBO,6.266135,53.145707
Molenstraat,51,,,9363BB,Marum,Marum,Groningen,VBO,6.266015,53.145672
Molenstraat,53,,,9363BB,Marum,Marum,Groningen,VBO,6.265864,53.145628
Molenstraat,55,,,9363BB,Marum,Marum,Groningen,VBO,6.265759,53.145602
Molenstraat,57,,,9363BB,Marum,Marum,Groningen,VBO,6.265594,53.145558
Molenstraat,59,,,9363BB,Marum,Marum,Groningen,VBO,6.265489,53.145523
Molenstraat,61,,,9363BB,Marum,Marum,Groningen,VBO,6.265249,53.145498
Molenstraat,63,,,9363BB,Marum,Marum,Groningen,VBO,6.265159,53.145481
Molenstraat,65,,,9363BB,Marum,Marum,Groningen,VBO,6.264994,53.145437
Molenstraat,67,,,9363BB,Marum,Marum,Groningen,VBO,6.264919,53.145420
Molenstraat,69,,,9363BB,Marum,Marum,Groningen,VBO,6.264738,53.145376
Molenstraat,71,,,9363BB,Marum,Marum,Groningen,VBO,6.264663,53.145350
Molenstraat,73,,,9363BB,Marum,Marum,Groningen,VBO,6.264512,53.145297
Molenstraat,75,,,9363BB,Marum,Marum,Groningen,VBO,6.264407,53.145271
Molenstraat,77,,,9363BB,Marum,Marum,Groningen,VBO,6.264242,53.145227
Molenstraat,79,,,9363BB,Marum,Marum,Groningen,VBO,6.264167,53.145209
Molenstraat,81,,,9363BB,Marum,Marum,Groningen,VBO,6.263852,53.145149
Molenstraat,2,A,,9363BC,Marum,Marum,Groningen,VBO,6.270809,53.145764
Molenstraat,2,B,,9363BC,Marum,Marum,Groningen,VBO,6.270846,53.145857
Molenstraat,2,,,9363BC,Marum,Marum,Groningen,VBO,6.270640,53.145998
Molenstraat,6,,,9363BC,Marum,Marum,Groningen,VBO,6.270417,53.146071
Molenstraat,8,,,9363BC,Marum,Marum,Groningen,VBO,6.270221,53.146218
Molenstraat,10,,,9363BC,Marum,Marum,Groningen,VBO,6.270108,53.146198
Molenstraat,12,,,9363BC,Marum,Marum,Groningen,VBO,6.269881,53.146192
Molenstraat,14,,,9363BC,Marum,Marum,Groningen,VBO,6.269791,53.146166
Molenstraat,16,,,9363BC,Marum,Marum,Groningen,VBO,6.269611,53.146140
Molenstraat,18,,,9363BC,Marum,Marum,Groningen,VBO,6.269491,53.146114
Molenstraat,20,,,9363BC,Marum,Marum,Groningen,VBO,6.269326,53.146088
Molenstraat,22,,,9363BC,Marum,Marum,Groningen,VBO,6.269206,53.146071
Molenstraat,24,,,9363BC,Marum,Marum,Groningen,VBO,6.269026,53.146036
Molenstraat,26,,,9363BC,Marum,Marum,Groningen,VBO,6.268921,53.146019
Molenstraat,28,,,9363BC,Marum,Marum,Groningen,VBO,6.268741,53.145976
Molenstraat,30,A,,9363BC,Marum,Marum,Groningen,VBO,6.269343,53.145450
Molenstraat,30,,,9363BC,Marum,Marum,Groningen,VBO,6.268621,53.145967
Molenstraat,32,,,9363BD,Marum,Marum,Groningen,VBO,6.268320,53.145862
Molenstraat,34,,,9363BD,Marum,Marum,Groningen,VBO,6.267945,53.145775
Molenstraat,42,,,9363BD,Marum,Marum,Groningen,VBO,6.267074,53.145592
Molenstraat,44,,,9363BD,Marum,Marum,Groningen,VBO,6.266863,53.145513
Molenstraat,46,A,,9363BD,Marum,Marum,Groningen,VBO,6.266968,53.145108
Molenstraat,46,B,,9363BD,Marum,Marum,Groningen,VBO,6.266001,53.144998
Molenstraat,46,C,,9363BD,Marum,Marum,Groningen,VBO,6.266934,53.145104
Molenstraat,46,D,,9363BD,Marum,Marum,Groningen,VBO,6.266888,53.145091
Molenstraat,46,E,,9363BD,Marum,Marum,Groningen,VBO,6.266846,53.145080
Molenstraat,46,F,,9363BD,Marum,Marum,Groningen,VBO,6.266805,53.145073
Molenstraat,46,G,,9363BD,Marum,Marum,Groningen,VBO,6.266768,53.145065
Molenstraat,46,H,,9363BD,Marum,Marum,Groningen,VBO,6.266734,53.145059
Molenstraat,46,I,,9363BD,Marum,Marum,Groningen,VBO,6.266699,53.145050
Molenstraat,46,J,,9363BD,Marum,Marum,Groningen,VBO,6.266660,53.145042
Molenstraat,46,K,,9363BD,Marum,Marum,Groningen,VBO,6.266616,53.145035
Molenstraat,46,,,9363BD,Marum,Marum,Groningen,VBO,6.266758,53.145487
Molenstraat,48,,,9363BD,Marum,Marum,Groningen,VBO,6.266564,53.145479
Molenstraat,50,,,9363BD,Marum,Marum,Groningen,VBO,6.266474,53.145453
Molenstraat,52,,,9363BD,Marum,Marum,Groningen,VBO,6.266278,53.145410
Molenstraat,54,,,9363BD,Marum,Marum,Groningen,VBO,6.266188,53.145383
Molenstraat,56,,,9363BD,Marum,Marum,Groningen,VBO,6.266008,53.145340
Molenstraat,58,,,9363BD,Marum,Marum,Groningen,VBO,6.265933,53.145304
Molenstraat,60,,,9363BD,Marum,Marum,Groningen,VBO,6.265752,53.145261
Molenstraat,62,,,9363BE,Marum,Marum,Groningen,VBO,6.265647,53.145234
Molenstraat,64,,,9363BE,Marum,Marum,Groningen,VBO,6.265437,53.145182
Molenstraat,66,,,9363BE,Marum,Marum,Groningen,VBO,6.265346,53.145147
Molenstraat,68,,,9363BE,Marum,Marum,Groningen,VBO,6.265166,53.145112
Molenstraat,70,,,9363BE,Marum,Marum,Groningen,VBO,6.265076,53.145086
Molenstraat,72,,,9363BE,Marum,Marum,Groningen,VBO,6.264911,53.145042
Molenstraat,74,,,9363BE,Marum,Marum,Groningen,VBO,6.264821,53.145025
Molenstraat,76,,,9363BE,Marum,Marum,Groningen,VBO,6.264641,53.144981
Molenstraat,78,,,9363BE,Marum,Marum,Groningen,VBO,6.264566,53.144964
Molenstraat,80,,,9363BE,Marum,Marum,Groningen,VBO,6.264370,53.144920
Molenstraat,82,,,9363BE,Marum,Marum,Groningen,VBO,6.264295,53.144912
Molenstraat,84,,,9363BE,Marum,Marum,Groningen,VBO,6.263965,53.144824
Rembrandtstraat,2,,,9363BG,Marum,Marum,Groningen,VBO,6.270832,53.146616
Rembrandtstraat,4,,,9363BG,Marum,Marum,Groningen,VBO,6.270937,53.146633
Rembrandtstraat,5,,,9363BG,Marum,Marum,Groningen,VBO,6.271351,53.146415
Rembrandtstraat,6,,,9363BG,Marum,Marum,Groningen,VBO,6.271101,53.146650
Rembrandtstraat,7,,,9363BG,Marum,Marum,Groningen,VBO,6.271471,53.146432
Rembrandtstraat,8,,,9363BG,Marum,Marum,Groningen,VBO,6.271207,53.146685
Rembrandtstraat,9,,,9363BG,Marum,Marum,Groningen,VBO,6.271606,53.146494
Rembrandtstraat,10,,,9363BG,Marum,Marum,Groningen,VBO,6.271372,53.146711
Rembrandtstraat,11,,,9363BG,Marum,Marum,Groningen,VBO,6.271697,53.146520
Rembrandtstraat,12,,,9363BG,Marum,Marum,Groningen,VBO,6.271477,53.146737
Rembrandtstraat,13,,,9363BG,Marum,Marum,Groningen,VBO,6.271877,53.146564
Rembrandtstraat,14,,,9363BG,Marum,Marum,Groningen,VBO,6.271612,53.146772
Rembrandtstraat,15,,,9363BG,Marum,Marum,Groningen,VBO,6.271953,53.146608
Rembrandtstraat,16,,,9363BG,Marum,Marum,Groningen,VBO,6.271703,53.146834
Rembrandtstraat,17,,,9363BG,Marum,Marum,Groningen,VBO,6.272028,53.146643
Rembrandtstraat,19,,,9363BG,Marum,Marum,Groningen,VBO,6.272149,53.146723
Rembrandtstraat,21,,,9363BG,Marum,Marum,Groningen,VBO,6.272210,53.146786
Rembrandtstraat,23,,,9363BG,Marum,Marum,Groningen,VBO,6.272405,53.146811
Rembrandtstraat,25,,,9363BG,Marum,Marum,Groningen,VBO,6.272436,53.146847
Rembrandtstraat,27,,,9363BG,Marum,Marum,Groningen,VBO,6.272511,53.146891
Rembrandtstraat,29,,,9363BG,Marum,Marum,Groningen,VBO,6.272527,53.146936
Rembrandtstraat,31,,,9363BG,Marum,Marum,Groningen,VBO,6.272573,53.146972
Rembrandtstraat,33,,,9363BG,Marum,Marum,Groningen,VBO,6.272633,53.147007
Schoolstraat,2,,,9363BH,Marum,Marum,Groningen,VBO,6.272127,53.147110
Schoolstraat,4,,,9363BH,Marum,Marum,Groningen,VBO,6.272098,53.147155
Schoolstraat,6,,,9363BH,Marum,Marum,Groningen,VBO,6.271906,53.147255
Schoolstraat,8,,,9363BH,Marum,Marum,Groningen,VBO,6.271167,53.147681
Spoorstraat,1,,,9363BJ,Marum,Marum,Groningen,VBO,6.268455,53.148089
Spoorstraat,2,A,,9363BJ,Marum,Marum,Groningen,VBO,6.271625,53.148129
Spoorstraat,2,,,9363BJ,Marum,Marum,Groningen,VBO,6.271848,53.148091
Spoorstraat,4,,,9363BJ,Marum,Marum,Groningen,VBO,6.271177,53.148150
Spoorstraat,6,,,9363BJ,Marum,Marum,Groningen,VBO,6.271072,53.148160
Spoorstraat,8,,,9363BJ,Marum,Marum,Groningen,VBO,6.270983,53.148170
Spoorstraat,10,,,9363BJ,Marum,Marum,Groningen,VBO,6.270908,53.148161
Spoorstraat,12,,,9363BJ,Marum,Marum,Groningen,VBO,6.270729,53.148181
Spoorstraat,14,,,9363BJ,Marum,Marum,Groningen,VBO,6.270610,53.148190
Spoorstraat,16,,,9363BJ,Marum,Marum,Groningen,VBO,6.270535,53.148200
Spoorstraat,18,,,9363BJ,Marum,Marum,Groningen,VBO,6.270431,53.148201
Spoorstraat,20,,,9363BJ,Marum,Marum,Groningen,VBO,6.270236,53.148193
Spoorstraat,22,,,9363BJ,Marum,Marum,Groningen,VBO,6.270131,53.148176
Spoorstraat,24,,,9363BJ,Marum,Marum,Groningen,VBO,6.270056,53.148159
Spoorstraat,26,,,9363BJ,Marum,Marum,Groningen,VBO,6.269966,53.148141
Spoorstraat,28,,,9363BJ,Marum,Marum,Groningen,VBO,6.269276,53.148003
Spoorstraat,30,,,9363BJ,Marum,Marum,Groningen,VBO,6.269170,53.147976
Spoorstraat,32,,,9363BJ,Marum,Marum,Groningen,VBO,6.269005,53.147933
Spoorstraat,34,,,9363BJ,Marum,Marum,Groningen,VBO,6.268885,53.147907
Spoorstraat,36,,,9363BJ,Marum,Marum,Groningen,VBO,6.268465,53.147811
Spoorstraat,38,,,9363BJ,Marum,Marum,Groningen,VBO,6.268330,53.147785
Spoorstraat,40,,,9363BJ,Marum,Marum,Groningen,VBO,6.268194,53.147759
Spoorstraat,42,,,9363BJ,Marum,Marum,Groningen,VBO,6.268089,53.147733
Vondelstraat,1,,,9363BK,Marum,Marum,Groningen,VBO,6.270517,53.146583
Vondelstraat,3,,,9363BK,Marum,Marum,Groningen,VBO,6.270475,53.146691
Vondelstraat,5,,,9363BK,Marum,Marum,Groningen,VBO,6.270417,53.146808
Vondelstraat,7,,,9363BK,Marum,Marum,Groningen,VBO,6.270359,53.146898
Vondelstraat,11,,,9363BK,Marum,Marum,Groningen,VBO,6.270203,53.147286
Vondelstraat,13,,,9363BK,Marum,Marum,Groningen,VBO,6.270116,53.147412
Vondelstraat,15,,,9363BK,Marum,Marum,Groningen,VBO,6.270059,53.147547
Vondelstraat,17,,,9363BK,Marum,Marum,Groningen,VBO,6.270032,53.147709
Vondelstraat,19,,,9363BK,Marum,Marum,Groningen,VBO,6.270018,53.147772
Vondelstraat,21,,,9363BK,Marum,Marum,Groningen,VBO,6.270021,53.147898
Vondelstraat,23,,,9363BK,Marum,Marum,Groningen,VBO,6.270007,53.147961
Vondelstraat,2,,,9363BL,Marum,Marum,Groningen,VBO,6.270112,53.146505
Vondelstraat,4,,,9363BL,Marum,Marum,Groningen,VBO,6.270069,53.146613
Vondelstraat,6,,,9363BL,Marum,Marum,Groningen,VBO,6.270027,53.146721
Vondelstraat,8,A,,9363BL,Marum,Marum,Groningen,VBO,6.269730,53.146813
Vondelstraat,8,,,9363BL,Marum,Marum,Groningen,VBO,6.269969,53.146838
Vondelstraat,10,,,9363BL,Marum,Marum,Groningen,VBO,6.269912,53.146955
Vondelstraat,12,,,9363BL,Marum,Marum,Groningen,VBO,6.269783,53.147208
Vondelstraat,14,,,9363BL,Marum,Marum,Groningen,VBO,6.269665,53.147326
Vondelstraat,16,,,9363BL,Marum,Marum,Groningen,VBO,6.269638,53.147470
Vondelstraat,18,,,9363BL,Marum,Marum,Groningen,VBO,6.269536,53.147596
Vondelstraat,20,,,9363BL,Marum,Marum,Groningen,VBO,6.269507,53.147641
Vondelstraat,22,,,9363BL,Marum,Marum,Groningen,VBO,6.269435,53.147768
Vondelstraat,24,,,9363BL,Marum,Marum,Groningen,VBO,6.269392,53.147822
Jacob Catsstraat,1,,,9363BM,Marum,Marum,Groningen,VBO,6.269363,53.147139
Jacob Catsstraat,2,,,9363BM,Marum,Marum,Groningen,VBO,6.268652,53.147450
Jacob Catsstraat,3,,,9363BM,Marum,Marum,Groningen,VBO,6.269261,53.147284
Jacob Catsstraat,4,,,9363BM,Marum,Marum,Groningen,VBO,6.268580,53.147585
Jacob Catsstraat,5,,,9363BM,Marum,Marum,Groningen,VBO,6.269159,53.147428
Jacob Catsstraat,7,,,9363BM,Marum,Marum,Groningen,VBO,6.269057,53.147564
Jacob Catsstraat,9,,,9363BM,Marum,Marum,Groningen,VBO,6.268985,53.147681
Sweelinckstraat,2,,,9363BN,Marum,Marum,Groningen,VBO,6.268405,53.147101
Sweelinckstraat,4,,,9363BN,Marum,Marum,Groningen,VBO,6.268438,53.147218
Sweelinckstraat,6,,,9363BN,Marum,Marum,Groningen,VBO,6.268411,53.147380
Parkstraat,1,,,9363BP,Marum,Marum,Groningen,VBO,6.268087,53.146160
Parkstraat,3,,,9363BP,Marum,Marum,Groningen,VBO,6.268015,53.146260
Parkstraat,5,,,9363BP,Marum,Marum,Groningen,VBO,6.267973,53.146422
Parkstraat,7,,,9363BP,Marum,Marum,Groningen,VBO,6.267991,53.146583
Parkstraat,9,,,9363BP,Marum,Marum,Groningen,VBO,6.267923,53.146925
Parkstraat,11,,,9363BP,Marum,Marum,Groningen,VBO,6.267913,53.147141
Parkstraat,13,,,9363BP,Marum,Marum,Groningen,VBO,6.267871,53.147285
Parkstraat,15,,,9363BP,Marum,Marum,Groningen,VBO,6.267770,53.147456
Parkstraat,17,,,9363BP,Marum,Marum,Groningen,VBO,6.267668,53.147619
Kerkpad,1,,,9363BR,Marum,Marum,Groningen,VBO,6.267455,53.148142
Kerkpad,3,,,9363BR,Marum,Marum,Groningen,VBO,6.267196,53.148081
Kerkpad,5,,,9363BR,Marum,Marum,Groningen,VBO,6.266958,53.147975
Kerkpad,7,,,9363BR,Marum,Marum,Groningen,VBO,6.266613,53.147914
Kerkpad,9,,,9363BR,Marum,Marum,Groningen,VBO,6.265011,53.147764
Kerkpad,11,,,9363BR,Marum,Marum,Groningen,VBO,6.264457,53.147732
Langestraat,1,,,9363BS,Marum,Marum,Groningen,VBO,6.270420,53.147689
Langestraat,3,,,9363BS,Marum,Marum,Groningen,VBO,6.268462,53.146966
Langestraat,7,,,9363BS,Marum,Marum,Groningen,VBO,6.265730,53.146384
Langestraat,9,,,9363BS,Marum,Marum,Groningen,VBO,6.265670,53.146358
Langestraat,11,,,9363BS,Marum,Marum,Groningen,VBO,6.265565,53.146331
Langestraat,13,,,9363BS,Marum,Marum,Groningen,VBO,6.264858,53.146139
Langestraat,15,,,9363BS,Marum,Marum,Groningen,VBO,6.264768,53.146104
Langestraat,17,,,9363BS,Marum,Marum,Groningen,VBO,6.264708,53.146086
Langestraat,19,,,9363BS,Marum,Marum,Groningen,VBO,6.264527,53.146033
Langestraat,21,,,9363BS,Marum,Marum,Groningen,VBO,6.264452,53.145989
Langestraat,23,,,9363BS,Marum,Marum,Groningen,VBO,6.264286,53.145945
Langestraat,25,,,9363BS,Marum,Marum,Groningen,VBO,6.264181,53.145919
Langestraat,27,,,9363BS,Marum,Marum,Groningen,VBO,6.264106,53.145893
Langestraat,29,,,9363BT,Marum,Marum,Groningen,VBO,6.263716,53.145815
Langestraat,31,,,9363BT,Marum,Marum,Groningen,VBO,6.263626,53.145797
Langestraat,33,,,9363BT,Marum,Marum,Groningen,VBO,6.263551,53.145780
Langestraat,35,,,9363BT,Marum,Marum,Groningen,VBO,6.263385,53.145727
Langestraat,37,,,9363BT,Marum,Marum,Groningen,VBO,6.263295,53.145692
Langestraat,39,,,9363BT,Marum,Marum,Groningen,VBO,6.263205,53.145684
Langestraat,41,,,9363BT,Marum,Marum,Groningen,VBO,6.262784,53.145561
Langestraat,43,,,9363BT,Marum,Marum,Groningen,VBO,6.262679,53.145544
Langestraat,45,,,9363BT,Marum,Marum,Groningen,VBO,6.262589,53.145508
Langestraat,47,,,9363BT,Marum,Marum,Groningen,VBO,6.262453,53.145465
Langestraat,49,,,9363BT,Marum,Marum,Groningen,VBO,6.262363,53.145447
Langestraat,51,,,9363BT,Marum,Marum,Groningen,VBO,6.262273,53.145430
Langestraat,53,,,9363BT,Marum,Marum,Groningen,VBO,6.262168,53.145413
Langestraat,55,,,9363BT,Marum,Marum,Groningen,VBO,6.261961,53.145384
Langestraat,57,,,9363BT,Marum,Marum,Groningen,VBO,6.261869,53.145379
Langestraat,59,,,9363BT,Marum,Marum,Groningen,VBO,6.261764,53.145380
Langestraat,65,,,9363BT,Marum,Marum,Groningen,VBO,6.261072,53.145142
Langestraat,67,,,9363BT,Marum,Marum,Groningen,VBO,6.259045,53.144681
Langestraat,2,A,,9363BV,Marum,Marum,Groningen,VBO,6.271561,53.147213
Langestraat,2,B,,9363BV,Marum,Marum,Groningen,VBO,6.271486,53.147178
Langestraat,2,C,,9363BV,Marum,Marum,Groningen,VBO,6.271277,53.147188
Langestraat,2,,,9363BV,Marum,Marum,Groningen,VBO,6.271847,53.147292
Langestraat,4,,,9363BV,Marum,Marum,Groningen,VBO,6.271187,53.147171
Langestraat,6,,,9363BV,Marum,Marum,Groningen,VBO,6.270992,53.147136
Langestraat,8,,,9363BV,Marum,Marum,Groningen,VBO,6.270917,53.147119
Langestraat,10,,,9363BV,Marum,Marum,Groningen,VBO,6.270752,53.147093
Langestraat,12,,,9363BV,Marum,Marum,Groningen,VBO,6.270647,53.147076
Langestraat,14,,,9363BV,Marum,Marum,Groningen,VBO,6.270316,53.146997
Langestraat,18,,,9363BV,Marum,Marum,Groningen,VBO,6.269582,53.146877
Langestraat,20,,,9363BV,Marum,Marum,Groningen,VBO,6.269477,53.146860
Langestraat,22,,,9363BV,Marum,Marum,Groningen,VBO,6.269387,53.146843
Langestraat,24,,,9363BV,Marum,Marum,Groningen,VBO,6.269237,53.146817
Langestraat,26,,,9363BV,Marum,Marum,Groningen,VBO,6.269131,53.146790
Langestraat,28,,,9363BV,Marum,Marum,Groningen,VBO,6.268966,53.146756
Langestraat,30,,,9363BV,Marum,Marum,Groningen,VBO,6.268877,53.146756
Langestraat,32,,,9363BW,Marum,Marum,Groningen,VBO,6.268726,53.146713
Langestraat,34,,,9363BW,Marum,Marum,Groningen,VBO,6.268621,53.146695
Langestraat,36,,,9363BW,Marum,Marum,Groningen,VBO,6.268442,53.146679
Langestraat,38,,,9363BW,Marum,Marum,Groningen,VBO,6.268366,53.146661
Langestraat,40,,,9363BW,Marum,Marum,Groningen,VBO,6.268277,53.146653
Langestraat,42,,,9363BW,Marum,Marum,Groningen,VBO,6.266249,53.146174
Langestraat,44,,,9363BW,Marum,Marum,Groningen,VBO,6.265934,53.146095
Langestraat,46,,,9363BW,Marum,Marum,Groningen,VBO,6.265858,53.146060
Langestraat,48,,,9363BW,Marum,Marum,Groningen,VBO,6.265768,53.146033
Langestraat,50,,,9363BW,Marum,Marum,Groningen,VBO,6.265678,53.146007
Langestraat,52,,,9363BW,Marum,Marum,Groningen,VBO,6.265497,53.145954
Langestraat,54,,,9363BW,Marum,Marum,Groningen,VBO,6.265437,53.145919
Langestraat,56,,,9363BW,Marum,Marum,Groningen,VBO,6.265362,53.145911
Langestraat,58,,,9363BW,Marum,Marum,Groningen,VBO,6.265272,53.145884
Langestraat,60,,,9363BX,Marum,Marum,Groningen,VBO,6.265002,53.145832
Langestraat,62,,,9363BX,Marum,Marum,Groningen,VBO,6.264926,53.145788
Langestraat,64,,,9363BX,Marum,Marum,Groningen,VBO,6.264836,53.145771
Langestraat,66,,,9363BX,Marum,Marum,Groningen,VBO,6.264746,53.145744
Langestraat,68,,,9363BX,Marum,Marum,Groningen,VBO,6.264566,53.145728
Langestraat,70,,,9363BX,Marum,Marum,Groningen,VBO,6.264476,53.145692
Langestraat,72,,,9363BX,Marum,Marum,Groningen,VBO,6.264386,53.145675
Langestraat,74,,,9363BX,Marum,Marum,Groningen,VBO,6.264310,53.145640
Langestraat,76,,,9363BX,Marum,Marum,Groningen,VBO,6.264115,53.145614
Langestraat,78,,,9363BX,Marum,Marum,Groningen,VBO,6.264025,53.145588
Langestraat,80,,,9363BX,Marum,Marum,Groningen,VBO,6.263950,53.145561
Langestraat,82,,,9363BX,Marum,Marum,Groningen,VBO,6.263875,53.145535
Langestraat,84,,,9363BX,Marum,Marum,Groningen,VBO,6.263616,53.145330
Langestraat,86,,,9363BX,Marum,Marum,Groningen,VBO,6.261583,53.144456
Badweg,2,,,9363BZ,Marum,Marum,Groningen,VBO,6.261960,53.144460
Thorbeckestraat,2,,,9363CA,Marum,Marum,Groningen,VBO,6.266406,53.145822
Thorbeckestraat,4,,,9363CA,Marum,Marum,Groningen,VBO,6.266320,53.146002
Thorbeckestraat,8,,,9363CA,Marum,Marum,Groningen,VBO,6.266076,53.146471
Thorbeckestraat,10,,,9363CA,Marum,Marum,Groningen,VBO,6.266005,53.146643
Thorbeckestraat,12,,,9363CA,Marum,Marum,Groningen,VBO,6.265904,53.146823
Thorbeckestraat,14,,,9363CA,Marum,Marum,Groningen,VBO,6.265862,53.146985
Thorbeckestraat,16,,,9363CA,Marum,Marum,Groningen,VBO,6.265820,53.147129
Thorbeckestraat,18,,,9363CA,Marum,Marum,Groningen,VBO,6.265779,53.147300
Raadhuisstraat,1,,,9363CB,Marum,Marum,Groningen,VBO,6.267221,53.145439
Raadhuisstraat,2,,,9363CB,Marum,Marum,Groningen,VBO,6.267671,53.145561
Raadhuisstraat,3,,,9363CB,Marum,Marum,Groningen,VBO,6.267308,53.145303
Raadhuisstraat,4,,,9363CB,Marum,Marum,Groningen,VBO,6.267730,53.145480
Raadhuisstraat,5,,,9363CB,Marum,Marum,Groningen,VBO,6.267380,53.145177
Raadhuisstraat,6,,,9363CB,Marum,Marum,Groningen,VBO,6.267787,53.145354
Raadhuisstraat,7,,,9363CB,Marum,Marum,Groningen,VBO,6.267437,53.145069
Raadhuisstraat,8,,,9363CB,Marum,Marum,Groningen,VBO,6.267800,53.145282
Raadhuisstraat,9,,,9363CB,Marum,Marum,Groningen,VBO,6.267539,53.144942
Raadhuisstraat,10,,,9363CB,Marum,Marum,Groningen,VBO,6.267903,53.145182
Raadhuisstraat,11,,,9363CB,Marum,Marum,Groningen,VBO,6.267537,53.144834
Raadhuisstraat,12,,,9363CB,Marum,Marum,Groningen,VBO,6.267932,53.145119
Raadhuisstraat,13,,,9363CB,Marum,Marum,Groningen,VBO,6.267639,53.144717
Raadhuisstraat,14,,,9363CB,Marum,Marum,Groningen,VBO,6.268019,53.144992
Raadhuisstraat,15,,,9363CB,Marum,Marum,Groningen,VBO,6.267756,53.144590
Raadhuisstraat,17,,,9363CB,Marum,Marum,Groningen,VBO,6.267799,53.144482
Raadhuisstraat,18,,,9363CB,Marum,Marum,Groningen,VBO,6.268469,53.145106
Raadhuisstraat,19,,,9363CB,Marum,Marum,Groningen,VBO,6.267769,53.144473
Raadhuisstraat,20,,,9363CB,Marum,Marum,Groningen,VBO,6.268514,53.145115
Raadhuisstraat,21,,,9363CB,Marum,Marum,Groningen,VBO,6.267799,53.144464
Raadhuisstraat,22,,,9363CB,Marum,Marum,Groningen,VBO,6.268559,53.145123
Raadhuisstraat,23,,,9363CB,Marum,Marum,Groningen,VBO,6.267769,53.144464
Raadhuisstraat,24,,,9363CB,Marum,Marum,Groningen,VBO,6.268619,53.145123
Raadhuisstraat,25,,,9363CB,Marum,Marum,Groningen,VBO,6.267828,53.144446
Raadhuisstraat,26,,,9363CB,Marum,Marum,Groningen,VBO,6.268649,53.145105
Raadhuisstraat,27,,,9363CB,Marum,Marum,Groningen,VBO,6.267783,53.144446
Raadhuisstraat,28,,,9363CB,Marum,Marum,Groningen,VBO,6.268693,53.145086
Raadhuisstraat,29,,,9363CB,Marum,Marum,Groningen,VBO,6.267858,53.144436
Raadhuisstraat,30,,,9363CB,Marum,Marum,Groningen,VBO,6.268722,53.145059
Raadhuisstraat,31,,,9363CB,Marum,Marum,Groningen,VBO,6.267813,53.144428
Raadhuisstraat,33,,,9363CB,Marum,Marum,Groningen,VBO,6.267783,53.144428
Iepenlaan,1,,,9363CC,Marum,Marum,Groningen,VBO,6.267661,53.142820
Iepenlaan,3,,,9363CC,Marum,Marum,Groningen,VBO,6.267736,53.142865
Iepenlaan,5,,,9363CC,Marum,Marum,Groningen,VBO,6.267841,53.142891
Iepenlaan,7,,,9363CC,Marum,Marum,Groningen,VBO,6.267931,53.142881
Iepenlaan,9,,,9363CC,Marum,Marum,Groningen,VBO,6.268066,53.142934
Iepenlaan,11,,,9363CC,Marum,Marum,Groningen,VBO,6.268157,53.142987
Iepenlaan,13,,,9363CC,Marum,Marum,Groningen,VBO,6.268247,53.143005
Iepenlaan,15,,,9363CC,Marum,Marum,Groningen,VBO,6.268337,53.143004
Iepenlaan,17,,,9363CC,Marum,Marum,Groningen,VBO,6.268487,53.143039
Iepenlaan,19,,,9363CC,Marum,Marum,Groningen,VBO,6.268578,53.143092
Iepenlaan,21,,,9363CC,Marum,Marum,Groningen,VBO,6.268667,53.143092
Iepenlaan,23,,,9363CC,Marum,Marum,Groningen,VBO,6.268848,53.143135
Iepenlaan,25,,,9363CC,Marum,Marum,Groningen,VBO,6.268924,53.143189
Iepenlaan,27,,,9363CC,Marum,Marum,Groningen,VBO,6.269013,53.143179
Iepenlaan,4,,,9363CD,Marum,Marum,Groningen,VBO,6.267271,53.143515
Iepenlaan,6,,,9363CD,Marum,Marum,Groningen,VBO,6.267271,53.143497
Iepenlaan,8,,,9363CD,Marum,Marum,Groningen,VBO,6.267270,53.143479
Iepenlaan,10,,,9363CD,Marum,Marum,Groningen,VBO,6.267270,53.143461
Iepenlaan,12,,,9363CD,Marum,Marum,Groningen,VBO,6.267270,53.143443
Iepenlaan,14,,,9363CD,Marum,Marum,Groningen,VBO,6.267269,53.143425
Iepenlaan,16,,,9363CD,Marum,Marum,Groningen,VBO,6.267308,53.143409
Iepenlaan,18,,,9363CD,Marum,Marum,Groningen,VBO,6.267314,53.143393
Iepenlaan,20,,,9363CD,Marum,Marum,Groningen,VBO,6.267496,53.143567
Iepenlaan,22,,,9363CD,Marum,Marum,Groningen,VBO,6.267496,53.143549
Iepenlaan,24,,,9363CD,Marum,Marum,Groningen,VBO,6.267496,53.143532
Iepenlaan,26,,,9363CD,Marum,Marum,Groningen,VBO,6.267495,53.143514
Iepenlaan,28,,,9363CD,Marum,Marum,Groningen,VBO,6.267495,53.143487
Iepenlaan,30,,,9363CD,Marum,Marum,Groningen,VBO,6.267495,53.143478
Iepenlaan,32,,,9363CD,Marum,Marum,Groningen,VBO,6.267494,53.143460
Iepenlaan,34,,,9363CD,Marum,Marum,Groningen,VBO,6.267494,53.143442
Iepenlaan,36,,,9363CD,Marum,Marum,Groningen,VBO,6.268112,53.143725
Iepenlaan,38,,,9363CD,Marum,Marum,Groningen,VBO,6.268141,53.143671
Iepenlaan,40,,,9363CD,Marum,Marum,Groningen,VBO,6.268185,53.143598
Iepenlaan,42,,,9363CD,Marum,Marum,Groningen,VBO,6.268257,53.143499
Iepenlaan,44,,,9363CD,Marum,Marum,Groningen,VBO,6.268301,53.143436
Iepenlaan,46,,,9363CD,Marum,Marum,Groningen,VBO,6.268345,53.143381
Iepenlaan,48,,,9363CD,Marum,Marum,Groningen,VBO,6.268373,53.143327
Iepenlaan,52,,,9363CD,Marum,Marum,Groningen,VBO,6.268780,53.143468
Beukenlaan,3,,,9363CE,Marum,Marum,Groningen,VBO,6.268985,53.143988
Beukenlaan,5,,,9363CE,Marum,Marum,Groningen,VBO,6.268954,53.143934
Beukenlaan,7,,,9363CE,Marum,Marum,Groningen,VBO,6.268923,53.143889
Beukenlaan,9,,,9363CE,Marum,Marum,Groningen,VBO,6.268966,53.143826
Beukenlaan,11,,,9363CE,Marum,Marum,Groningen,VBO,6.269084,53.143736
Beukenlaan,13,,,9363CE,Marum,Marum,Groningen,VBO,6.269068,53.143682
Beukenlaan,15,,,9363CE,Marum,Marum,Groningen,VBO,6.269052,53.143637
Beukenlaan,17,,,9363CE,Marum,Marum,Groningen,VBO,6.268886,53.143557
Beukenlaan,19,,,9363CE,Marum,Marum,Groningen,VBO,6.268870,53.143512
Beukenlaan,21,,,9363CE,Marum,Marum,Groningen,VBO,6.269344,53.143311
Beukenlaan,23,,,9363CE,Marum,Marum,Groningen,VBO,6.269373,53.143248
Beukenlaan,25,,,9363CE,Marum,Marum,Groningen,VBO,6.269387,53.143194
Beukenlaan,27,,,9363CE,Marum,Marum,Groningen,VBO,6.269416,53.143149
Beukenlaan,29,,,9363CE,Marum,Marum,Groningen,VBO,6.269415,53.143086
Beukenlaan,31,,,9363CE,Marum,Marum,Groningen,VBO,6.269443,53.143032
Beukenlaan,33,,,9363CG,Marum,Marum,Groningen,VBO,6.269602,53.142734
Beukenlaan,35,,,9363CG,Marum,Marum,Groningen,VBO,6.269631,53.142680
Beukenlaan,37,,,9363CG,Marum,Marum,Groningen,VBO,6.269644,53.142617
Beukenlaan,39,,,9363CG,Marum,Marum,Groningen,VBO,6.269733,53.142572
Beukenlaan,41,,,9363CG,Marum,Marum,Groningen,VBO,6.269762,53.142508
Beukenlaan,43,,,9363CG,Marum,Marum,Groningen,VBO,6.269788,53.142355
Beukenlaan,45,,,9363CG,Marum,Marum,Groningen,VBO,6.269817,53.142301
Beukenlaan,47,,,9363CG,Marum,Marum,Groningen,VBO,6.269846,53.142247
Beukenlaan,49,,,9363CG,Marum,Marum,Groningen,VBO,6.269860,53.142184
Beukenlaan,51,,,9363CG,Marum,Marum,Groningen,VBO,6.269973,53.141869
Beukenlaan,53,,,9363CG,Marum,Marum,Groningen,VBO,6.270016,53.141788
Beukenlaan,55,,,9363CG,Marum,Marum,Groningen,VBO,6.270058,53.141662
Beukenlaan,57,,,9363CG,Marum,Marum,Groningen,VBO,6.270087,53.141616
Beukenlaan,59,,,9363CG,Marum,Marum,Groningen,VBO,6.270009,53.141464
Beukenlaan,61,,,9363CG,Marum,Marum,Groningen,VBO,6.270038,53.141401
Beukenlaan,63,,,9363CG,Marum,Marum,Groningen,VBO,6.270095,53.141293
Beukenlaan,65,,,9363CG,Marum,Marum,Groningen,VBO,6.270124,53.141239
Beukenlaan,67,,,9363CG,Marum,Marum,Groningen,VBO,6.270636,53.141433
Beukenlaan,69,,,9363CG,Marum,Marum,Groningen,VBO,6.270978,53.141322
Dennenlaan,1,,,9363CH,Marum,Marum,Groningen,VBO,6.268155,53.142125
Dennenlaan,3,,,9363CH,Marum,Marum,Groningen,VBO,6.268245,53.142151
Dennenlaan,5,,,9363CH,Marum,Marum,Groningen,VBO,6.268335,53.142168
Dennenlaan,7,,,9363CH,Marum,Marum,Groningen,VBO,6.268425,53.142177
Dennenlaan,9,,,9363CH,Marum,Marum,Groningen,VBO,6.268530,53.142194
Dennenlaan,11,,,9363CH,Marum,Marum,Groningen,VBO,6.268680,53.142220
Dennenlaan,13,,,9363CH,Marum,Marum,Groningen,VBO,6.268770,53.142255
Dennenlaan,15,,,9363CH,Marum,Marum,Groningen,VBO,6.268860,53.142254
Dennenlaan,17,,,9363CH,Marum,Marum,Groningen,VBO,6.268950,53.142281
Dennenlaan,19,A,,9363CH,Marum,Marum,Groningen,VBO,6.269203,53.142234
Dennenlaan,19,B,,9363CH,Marum,Marum,Groningen,VBO,6.269248,53.142243
Dennenlaan,19,C,,9363CH,Marum,Marum,Groningen,VBO,6.269293,53.142251
Dennenlaan,19,D,,9363CH,Marum,Marum,Groningen,VBO,6.269338,53.142260
Dennenlaan,19,E,,9363CH,Marum,Marum,Groningen,VBO,6.269398,53.142277
Dennenlaan,19,F,,9363CH,Marum,Marum,Groningen,VBO,6.269458,53.142286
Dennenlaan,19,G,,9363CH,Marum,Marum,Groningen,VBO,6.269401,53.142412
Dennenlaan,19,H,,9363CH,Marum,Marum,Groningen,VBO,6.269341,53.142404
Dennenlaan,19,I,,9363CH,Marum,Marum,Groningen,VBO,6.269266,53.142386
Dennenlaan,19,,,9363CH,Marum,Marum,Groningen,VBO,6.269040,53.142289
Dennenlaan,21,,,9363CH,Marum,Marum,Groningen,VBO,6.269178,53.142459
Dennenlaan,23,,,9363CH,Marum,Marum,Groningen,VBO,6.269164,53.142513
Dennenlaan,25,,,9363CH,Marum,Marum,Groningen,VBO,6.269135,53.142576
Dennenlaan,27,,,9363CH,Marum,Marum,Groningen,VBO,6.269106,53.142621
Berkenlaan,2,,,9363CJ,Marum,Marum,Groningen,VBO,6.267805,53.142595
Berkenlaan,4,,,9363CJ,Marum,Marum,Groningen,VBO,6.267896,53.142630
Berkenlaan,6,,,9363CJ,Marum,Marum,Groningen,VBO,6.267971,53.142656
Berkenlaan,8,,,9363CJ,Marum,Marum,Groningen,VBO,6.268076,53.142674
Berkenlaan,10,,,9363CJ,Marum,Marum,Groningen,VBO,6.268241,53.142708
Berkenlaan,12,,,9363CJ,Marum,Marum,Groningen,VBO,6.268316,53.142726
Berkenlaan,14,,,9363CJ,Marum,Marum,Groningen,VBO,6.268406,53.142743
Berkenlaan,16,,,9363CJ,Marum,Marum,Groningen,VBO,6.268482,53.142778
Berkenlaan,18,,,9363CJ,Marum,Marum,Groningen,VBO,6.268602,53.142796
Berkenlaan,20,,,9363CJ,Marum,Marum,Groningen,VBO,6.268767,53.142839
Berkenlaan,22,,,9363CJ,Marum,Marum,Groningen,VBO,6.268857,53.142857
Berkenlaan,24,,,9363CJ,Marum,Marum,Groningen,VBO,6.268947,53.142892
Berkenlaan,26,,,9363CJ,Marum,Marum,Groningen,VBO,6.269022,53.142900
Berkenlaan,28,,,9363CJ,Marum,Marum,Groningen,VBO,6.269113,53.142936
Esdoornlaan,1,,,9363CK,Marum,Marum,Groningen,VBO,6.268621,53.141564
Esdoornlaan,3,,,9363CK,Marum,Marum,Groningen,VBO,6.268727,53.141590
Esdoornlaan,5,,,9363CK,Marum,Marum,Groningen,VBO,6.268907,53.141625
Esdoornlaan,7,,,9363CK,Marum,Marum,Groningen,VBO,6.269027,53.141642
Esdoornlaan,9,,,9363CK,Marum,Marum,Groningen,VBO,6.269492,53.141738
Esdoornlaan,11,,,9363CK,Marum,Marum,Groningen,VBO,6.269612,53.141764
Esdoornlaan,2,,,9363CL,Marum,Marum,Groningen,VBO,6.268329,53.141872
Esdoornlaan,4,,,9363CL,Marum,Marum,Groningen,VBO,6.268419,53.141889
Esdoornlaan,6,,,9363CL,Marum,Marum,Groningen,VBO,6.268509,53.141916
Esdoornlaan,8,,,9363CL,Marum,Marum,Groningen,VBO,6.268620,53.141935
Esdoornlaan,10,,,9363CL,Marum,Marum,Groningen,VBO,6.268703,53.141953
Esdoornlaan,12,,,9363CL,Marum,Marum,Groningen,VBO,6.268860,53.141989
Esdoornlaan,14,,,9363CL,Marum,Marum,Groningen,VBO,6.268956,53.142012
Esdoornlaan,16,,,9363CL,Marum,Marum,Groningen,VBO,6.269050,53.142028
Esdoornlaan,18,,,9363CL,Marum,Marum,Groningen,VBO,6.269138,53.142046
Esdoornlaan,20,,,9363CL,Marum,Marum,Groningen,VBO,6.269287,53.142090
Esdoornlaan,22,,,9363CL,Marum,Marum,Groningen,VBO,6.269381,53.142109
Esdoornlaan,24,,,9363CL,Marum,Marum,Groningen,VBO,6.269463,53.142128
Esdoornlaan,26,,,9363CL,Marum,Marum,Groningen,VBO,6.269556,53.142146
Elzenlaan,1,,,9363CM,Marum,Marum,Groningen,VBO,6.267139,53.140685
Elzenlaan,3,,,9363CM,Marum,Marum,Groningen,VBO,6.267229,53.140685
Elzenlaan,5,,,9363CM,Marum,Marum,Groningen,VBO,6.267319,53.140711
Elzenlaan,7,,,9363CM,Marum,Marum,Groningen,VBO,6.267483,53.140719
Elzenlaan,9,,,9363CM,Marum,Marum,Groningen,VBO,6.267588,53.140736
Elzenlaan,11,,,9363CM,Marum,Marum,Groningen,VBO,6.267663,53.140754
Elzenlaan,13,,,9363CM,Marum,Marum,Groningen,VBO,6.268024,53.140832
Elzenlaan,15,,,9363CM,Marum,Marum,Groningen,VBO,6.268129,53.140858
Elzenlaan,17,,,9363CM,Marum,Marum,Groningen,VBO,6.268309,53.140893
Elzenlaan,19,,,9363CM,Marum,Marum,Groningen,VBO,6.268399,53.140910
Elzenlaan,21,,,9363CM,Marum,Marum,Groningen,VBO,6.268593,53.140936
Elzenlaan,23,,,9363CM,Marum,Marum,Groningen,VBO,6.268684,53.140953
Elzenlaan,25,,,9363CM,Marum,Marum,Groningen,VBO,6.268849,53.140996
Elzenlaan,27,,,9363CM,Marum,Marum,Groningen,VBO,6.268969,53.141031
Elzenlaan,29,,,9363CM,Marum,Marum,Groningen,VBO,6.269134,53.141057
Elzenlaan,31,,,9363CM,Marum,Marum,Groningen,VBO,6.269284,53.141065
Elzenlaan,33,,,9363CM,Marum,Marum,Groningen,VBO,6.269498,53.141297
Elzenlaan,35,,,9363CM,Marum,Marum,Groningen,VBO,6.269455,53.141378
Elzenlaan,37,,,9363CM,Marum,Marum,Groningen,VBO,6.269607,53.141503
Elzenlaan,39,,,9363CM,Marum,Marum,Groningen,VBO,6.269549,53.141602
Elzenlaan,2,A,,9363CN,Marum,Marum,Groningen,VBO,6.267822,53.141432
Elzenlaan,2,B,,9363CN,Marum,Marum,Groningen,VBO,6.267845,53.141404
Elzenlaan,2,C,,9363CN,Marum,Marum,Groningen,VBO,6.267856,53.141377
Elzenlaan,2,D,,9363CN,Marum,Marum,Groningen,VBO,6.267868,53.141351
Elzenlaan,2,E,,9363CN,Marum,Marum,Groningen,VBO,6.267883,53.141320
Elzenlaan,2,F,,9363CN,Marum,Marum,Groningen,VBO,6.267886,53.141296
Elzenlaan,2,G,,9363CN,Marum,Marum,Groningen,VBO,6.267909,53.141269
Elzenlaan,2,H,,9363CN,Marum,Marum,Groningen,VBO,6.267926,53.141242
Elzenlaan,2,I,,9363CN,Marum,Marum,Groningen,VBO,6.267938,53.141215
Elzenlaan,2,J,,9363CN,Marum,Marum,Groningen,VBO,6.267954,53.141188
Elzenlaan,2,K,,9363CN,Marum,Marum,Groningen,VBO,6.267968,53.141160
Elzenlaan,2,L,,9363CN,Marum,Marum,Groningen,VBO,6.267980,53.141132
Elzenlaan,2,,,9363CN,Marum,Marum,Groningen,VBO,6.267815,53.141458
Elzenlaan,4,,,9363CN,Marum,Marum,Groningen,VBO,6.268691,53.141330
Elzenlaan,6,,,9363CN,Marum,Marum,Groningen,VBO,6.268977,53.141418
De Olmen,1,,,9363CP,Marum,Marum,Groningen,VBO,6.266298,53.143450
Beukenlaan,6,,,9363CR,Marum,Marum,Groningen,VBO,6.269673,53.144046
Beukenlaan,8,,,9363CR,Marum,Marum,Groningen,VBO,6.269450,53.144092
Beukenlaan,10,,,9363CR,Marum,Marum,Groningen,VBO,6.269404,53.144039
Beukenlaan,12,,,9363CR,Marum,Marum,Groningen,VBO,6.269448,53.143966
Beukenlaan,14,,,9363CR,Marum,Marum,Groningen,VBO,6.269626,53.143947
Beukenlaan,16,,,9363CR,Marum,Marum,Groningen,VBO,6.269625,53.143893
Beukenlaan,18,,,9363CR,Marum,Marum,Groningen,VBO,6.269699,53.143839
Beukenlaan,20,,,9363CR,Marum,Marum,Groningen,VBO,6.269743,53.143785
Beukenlaan,22,,,9363CR,Marum,Marum,Groningen,VBO,6.269918,53.143604
Beukenlaan,24,,,9363CR,Marum,Marum,Groningen,VBO,6.269918,53.143577
Beukenlaan,26,,,9363CR,Marum,Marum,Groningen,VBO,6.269902,53.143523
Beukenlaan,28,,,9363CR,Marum,Marum,Groningen,VBO,6.269930,53.143451
Beukenlaan,30,,,9363CR,Marum,Marum,Groningen,VBO,6.269944,53.143388
Beukenlaan,32,,,9363CR,Marum,Marum,Groningen,VBO,6.269898,53.143325
Beukenlaan,34,,,9363CR,Marum,Marum,Groningen,VBO,6.270207,53.143089
Beukenlaan,36,,,9363CR,Marum,Marum,Groningen,VBO,6.270206,53.143035
Beukenlaan,38,,,9363CR,Marum,Marum,Groningen,VBO,6.270190,53.142990
Beukenlaan,40,,,9363CR,Marum,Marum,Groningen,VBO,6.270190,53.142915
Beukenlaan,42,,,9363CR,Marum,Marum,Groningen,VBO,6.270217,53.142856
Beukenlaan,44,,,9363CR,Marum,Marum,Groningen,VBO,6.270201,53.142811
Beukenlaan,46,,,9363CR,Marum,Marum,Groningen,VBO,6.270185,53.142757
Beukenlaan,48,,,9363CR,Marum,Marum,Groningen,VBO,6.270154,53.142685
Wilgenlaan,1,,,9363CS,Marum,Marum,Groningen,VBO,6.266962,53.143014
Wilgenlaan,2,,,9363CS,Marum,Marum,Groningen,VBO,6.267482,53.143577
Wilgenlaan,3,,,9363CS,Marum,Marum,Groningen,VBO,6.267049,53.142870
Wilgenlaan,5,,,9363CS,Marum,Marum,Groningen,VBO,6.267211,53.142734
Wilgenlaan,7,,,9363CS,Marum,Marum,Groningen,VBO,6.267267,53.142590
Wilgenlaan,9,,,9363CS,Marum,Marum,Groningen,VBO,6.267369,53.142454
Wilgenlaan,11,,,9363CS,Marum,Marum,Groningen,VBO,6.267543,53.142201
Wilgenlaan,13,,,9363CS,Marum,Marum,Groningen,VBO,6.267602,53.142120
Wilgenlaan,15,,,9363CS,Marum,Marum,Groningen,VBO,6.267690,53.142038
Wilgenlaan,17,,,9363CS,Marum,Marum,Groningen,VBO,6.267748,53.141966
Wilgenlaan,19,,,9363CS,Marum,Marum,Groningen,VBO,6.267806,53.141876
Wilgenlaan,21,,,9363CS,Marum,Marum,Groningen,VBO,6.267849,53.141804
Wilgenlaan,23,,,9363CS,Marum,Marum,Groningen,VBO,6.267936,53.141641
Wilgenlaan,25,,,9363CS,Marum,Marum,Groningen,VBO,6.268009,53.141560
Wilgenlaan,27,,,9363CS,Marum,Marum,Groningen,VBO,6.268066,53.141460
Wilgenlaan,29,,,9363CS,Marum,Marum,Groningen,VBO,6.268110,53.141397
Wilgenlaan,31,,,9363CS,Marum,Marum,Groningen,VBO,6.268182,53.141289
Wilgenlaan,33,,,9363CS,Marum,Marum,Groningen,VBO,6.268196,53.141217
Kastanjelaan,1,A,,9363CV,Marum,Marum,Groningen,VBO,6.265893,53.143373
Kastanjelaan,1,,,9363CV,Marum,Marum,Groningen,VBO,6.265830,53.143193
Kastanjelaan,3,,,9363CV,Marum,Marum,Groningen,VBO,6.265903,53.143130
Kastanjelaan,5,,,9363CV,Marum,Marum,Groningen,VBO,6.265947,53.143085
Kastanjelaan,7,,,9363CV,Marum,Marum,Groningen,VBO,6.265931,53.143031
Kastanjelaan,9,,,9363CV,Marum,Marum,Groningen,VBO,6.265989,53.142914
Kastanjelaan,11,,,9363CV,Marum,Marum,Groningen,VBO,6.266048,53.142868
Kastanjelaan,13,,,9363CV,Marum,Marum,Groningen,VBO,6.266061,53.142814
Kastanjelaan,15,,,9363CV,Marum,Marum,Groningen,VBO,6.266090,53.142751
Kastanjelaan,17,,,9363CV,Marum,Marum,Groningen,VBO,6.266162,53.142634
Kastanjelaan,19,,,9363CV,Marum,Marum,Groningen,VBO,6.266191,53.142571
Kastanjelaan,21,,,9363CV,Marum,Marum,Groningen,VBO,6.266220,53.142525
Kastanjelaan,23,,,9363CV,Marum,Marum,Groningen,VBO,6.266264,53.142471
Kastanjelaan,25,,,9363CV,Marum,Marum,Groningen,VBO,6.266336,53.142345
Kastanjelaan,27,,,9363CV,Marum,Marum,Groningen,VBO,6.266350,53.142300
Kastanjelaan,29,,,9363CV,Marum,Marum,Groningen,VBO,6.266379,53.142255
Kastanjelaan,31,,,9363CW,Marum,Marum,Groningen,VBO,6.266422,53.142191
Kastanjelaan,33,,,9363CW,Marum,Marum,Groningen,VBO,6.266479,53.142056
Kastanjelaan,35,,,9363CW,Marum,Marum,Groningen,VBO,6.266493,53.142011
Kastanjelaan,37,,,9363CW,Marum,Marum,Groningen,VBO,6.266522,53.141957
Kastanjelaan,39,,,9363CW,Marum,Marum,Groningen,VBO,6.266551,53.141903
Kastanjelaan,41,,,9363CW,Marum,Marum,Groningen,VBO,6.266710,53.141641
Kastanjelaan,43,,,9363CW,Marum,Marum,Groningen,VBO,6.266724,53.141605
Kastanjelaan,45,,,9363CW,Marum,Marum,Groningen,VBO,6.266753,53.141551
Kastanjelaan,47,,,9363CW,Marum,Marum,Groningen,VBO,6.266767,53.141488
Kastanjelaan,49,,,9363CW,Marum,Marum,Groningen,VBO,6.266854,53.141380
Kastanjelaan,51,,,9363CW,Marum,Marum,Groningen,VBO,6.266883,53.141316
Kastanjelaan,53,,,9363CW,Marum,Marum,Groningen,VBO,6.266912,53.141262
Kastanjelaan,55,,,9363CW,Marum,Marum,Groningen,VBO,6.266984,53.141145
Kastanjelaan,57,,,9363CW,Marum,Marum,Groningen,VBO,6.267028,53.141091
Kastanjelaan,59,,,9363CW,Marum,Marum,Groningen,VBO,6.267042,53.141046
Kastanjelaan,61,,,9363CW,Marum,Marum,Groningen,VBO,6.267055,53.140983
Kastanjelaan,2,,,9363CX,Marum,Marum,Groningen,VBO,6.266861,53.143195
Kastanjelaan,4,,,9363CX,Marum,Marum,Groningen,VBO,6.266711,53.143169
Kastanjelaan,6,,,9363CX,Marum,Marum,Groningen,VBO,6.266606,53.143134
Kastanjelaan,8,,,9363CX,Marum,Marum,Groningen,VBO,6.266501,53.143098
Kastanjelaan,10,,,9363CX,Marum,Marum,Groningen,VBO,6.266601,53.142918
Kastanjelaan,12,,,9363CX,Marum,Marum,Groningen,VBO,6.266645,53.142828
Kastanjelaan,14,,,9363CX,Marum,Marum,Groningen,VBO,6.266688,53.142747
Kastanjelaan,16,,,9363CX,Marum,Marum,Groningen,VBO,6.266761,53.142674
Kastanjelaan,18,,,9363CX,Marum,Marum,Groningen,VBO,6.266789,53.142593
Kastanjelaan,20,,,9363CX,Marum,Marum,Groningen,VBO,6.266862,53.142512
Kastanjelaan,22,,,9363CX,Marum,Marum,Groningen,VBO,6.266905,53.142422
Kastanjelaan,24,,,9363CX,Marum,Marum,Groningen,VBO,6.266934,53.142376
Kastanjelaan,26,,,9363CZ,Marum,Marum,Groningen,VBO,6.267093,53.142115
Kastanjelaan,28,,,9363CZ,Marum,Marum,Groningen,VBO,6.267107,53.142043
Kastanjelaan,30,,,9363CZ,Marum,Marum,Groningen,VBO,6.267166,53.142006
Kastanjelaan,32,,,9363CZ,Marum,Marum,Groningen,VBO,6.267239,53.141907
Kastanjelaan,34,,,9363CZ,Marum,Marum,Groningen,VBO,6.267282,53.141862
Kastanjelaan,36,,,9363CZ,Marum,Marum,Groningen,VBO,6.267355,53.141762
Kastanjelaan,38,,,9363CZ,Marum,Marum,Groningen,VBO,6.267384,53.141690
Kastanjelaan,40,,,9363CZ,Marum,Marum,Groningen,VBO,6.267428,53.141654
Kastanjelaan,42,,,9363CZ,Marum,Marum,Groningen,VBO,6.267305,53.141502
Kastanjelaan,44,,,9363CZ,Marum,Marum,Groningen,VBO,6.267334,53.141448
Kastanjelaan,46,,,9363CZ,Marum,Marum,Groningen,VBO,6.267376,53.141331
Kastanjelaan,48,,,9363CZ,Marum,Marum,Groningen,VBO,6.267405,53.141268
Kastanjelaan,50,,,9363CZ,Marum,Marum,Groningen,VBO,6.267449,53.141240
Kastanjelaan,52,,,9363CZ,Marum,Marum,Groningen,VBO,6.267507,53.141132
Kastanjelaan,54,,,9363CZ,Marum,Marum,Groningen,VBO,6.267536,53.141078
Lindsterlaan,1,,,9363EA,Marum,Marum,Groningen,VBO,6.264603,53.143103
Lindsterlaan,3,,,9363EA,Marum,Marum,Groningen,VBO,6.264733,53.142923
Lindsterlaan,5,,,9363EA,Marum,Marum,Groningen,VBO,6.264805,53.142769
Lindsterlaan,7,A,,9363EA,Marum,Marum,Groningen,VBO,6.264305,53.142441
Lindsterlaan,7,,,9363EA,Marum,Marum,Groningen,VBO,6.264936,53.142607
Lindsterlaan,9,,,9363EA,Marum,Marum,Groningen,VBO,6.264977,53.142400
Lindsterlaan,11,,,9363EA,Marum,Marum,Groningen,VBO,6.265137,53.142174
Lindsterlaan,17,,,9363EA,Marum,Marum,Groningen,VBO,6.265252,53.141984
Lindsterlaan,19,,,9363EA,Marum,Marum,Groningen,VBO,6.265383,53.141795
Lindsterlaan,21,,,9363EA,Marum,Marum,Groningen,VBO,6.265469,53.141596
Lindsterlaan,23,,,9363EA,Marum,Marum,Groningen,VBO,6.265569,53.141398
Lindsterlaan,25,,,9363EA,Marum,Marum,Groningen,VBO,6.265685,53.141226
Lindsterlaan,27,,,9363EA,Marum,Marum,Groningen,VBO,6.265771,53.141037
Lindsterlaan,29,,,9363EA,Marum,Marum,Groningen,VBO,6.265797,53.140830
Lindsterlaan,31,,,9363EA,Marum,Marum,Groningen,VBO,6.265958,53.140667
Lindsterlaan,33,A,,9363EA,Marum,Marum,Groningen,VBO,6.266174,53.140270
Lindsterlaan,33,B,,9363EA,Marum,Marum,Groningen,VBO,6.266219,53.140070
Lindsterlaan,33,C,,9363EA,Marum,Marum,Groningen,VBO,6.266383,53.139872
Lindsterlaan,33,,,9363EA,Marum,Marum,Groningen,VBO,6.266104,53.140477
Lindsterlaan,35,,,9363EA,Marum,Marum,Groningen,VBO,6.266506,53.139666
Lindsterlaan,2,A,,9363EB,Marum,Marum,Groningen,VBO,6.265059,53.143486
Lindsterlaan,2,B,,9363EB,Marum,Marum,Groningen,VBO,6.265059,53.143513
Lindsterlaan,2,C,,9363EB,Marum,Marum,Groningen,VBO,6.265060,53.143540
Lindsterlaan,2,D,,9363EB,Marum,Marum,Groningen,VBO,6.265060,53.143567
Lindsterlaan,2,E,,9363EB,Marum,Marum,Groningen,VBO,6.265149,53.143540
Lindsterlaan,2,,,9363EB,Marum,Marum,Groningen,VBO,6.265073,53.143459
Lindsterlaan,4,,,9363EB,Marum,Marum,Groningen,VBO,6.265130,53.143306
Lindsterlaan,6,,,9363EB,Marum,Marum,Groningen,VBO,6.265245,53.143099
Lindsterlaan,8,,,9363EB,Marum,Marum,Groningen,VBO,6.265345,53.142864
Lindsterlaan,10,,,9363EB,Marum,Marum,Groningen,VBO,6.265431,53.142666
Lindsterlaan,12,,,9363EB,Marum,Marum,Groningen,VBO,6.265560,53.142422
Lindsterlaan,14,,,9363EB,Marum,Marum,Groningen,VBO,6.265691,53.142251
Lindsterlaan,16,,,9363EB,Marum,Marum,Groningen,VBO,6.265791,53.142034
Lindsterlaan,18,,,9363EB,Marum,Marum,Groningen,VBO,6.265892,53.141854
Lindsterlaan,20,,,9363EB,Marum,Marum,Groningen,VBO,6.266109,53.141475
Lindsterlaan,22,,,9363EB,Marum,Marum,Groningen,VBO,6.266195,53.141286
Lindsterlaan,24,,,9363EB,Marum,Marum,Groningen,VBO,6.266354,53.141042
Lindsterlaan,26,,,9363EB,Marum,Marum,Groningen,VBO,6.266470,53.140861
Lindsterlaan,28,,,9363EB,Marum,Marum,Groningen,VBO,6.266570,53.140618
Lindsterlaan,30,,,9363EB,Marum,Marum,Groningen,VBO,6.266611,53.140420
Lindsterlaan,32,,,9363EB,Marum,Marum,Groningen,VBO,6.266698,53.140311
Lindsterlaan,34,,,9363EB,Marum,Marum,Groningen,VBO,6.266843,53.140095
Lindsterlaan,36,,,9363EB,Marum,Marum,Groningen,VBO,6.266871,53.139978
Lindsterlaan,38,,,9363EB,Marum,Marum,Groningen,VBO,6.266958,53.139851
Lindsterlaan,40,,,9363EB,Marum,Marum,Groningen,VBO,6.267045,53.139725
Lindsterlaan,42,A,,9363EB,Marum,Marum,Groningen,VBO,6.267320,53.139318
Lindsterlaan,42,B,,9363EB,Marum,Marum,Groningen,VBO,6.267407,53.139156
Lindsterlaan,42,C,,9363EB,Marum,Marum,Groningen,VBO,6.267478,53.139003
Lindsterlaan,42,,,9363EB,Marum,Marum,Groningen,VBO,6.267160,53.139535
Hoornweg,1,B,,9363EC,Marum,Marum,Groningen,VBO,6.264859,53.144719
Hoornweg,1,,,9363EC,Marum,Marum,Groningen,VBO,6.264583,53.144362
Hoornweg,3,,,9363EC,Marum,Marum,Groningen,VBO,6.264210,53.144391
Hoornweg,5,A,,9363EC,Marum,Marum,Groningen,VBO,6.259885,53.143345
Hoornweg,5,,,9363EC,Marum,Marum,Groningen,VBO,6.260095,53.143406
Hoornweg,7,,,9363EC,Marum,Marum,Groningen,VBO,6.259313,53.143160
Hoornweg,9,,,9363EC,Marum,Marum,Groningen,VBO,6.258862,53.143028
Hoornweg,11,A,,9363EC,Marum,Marum,Groningen,VBO,6.258548,53.143031
Hoornweg,11,,,9363EC,Marum,Marum,Groningen,VBO,6.258367,53.142942
Hoornweg,13,,,9363EC,Marum,Marum,Groningen,VBO,6.258144,53.142971
Hoornweg,15,,,9363EC,Marum,Marum,Groningen,VBO,6.257994,53.142945
Hoornweg,17,,,9363EC,Marum,Marum,Groningen,VBO,6.256250,53.143218
Hoornweg,19,,,9363EC,Marum,Marum,Groningen,VBO,6.255816,53.143149
Hoornweg,21,,,9363ED,Marum,Marum,Groningen,VBO,6.255309,53.143207
Hoornweg,23,,,9363ED,Marum,Marum,Groningen,VBO,6.254979,53.143165
Hoornweg,25,,,9363ED,Marum,Marum,Groningen,VBO,6.254799,53.143112
Hoornweg,27,,,9363ED,Marum,Marum,Groningen,VBO,6.254619,53.143086
Hoornweg,29,,,9363ED,Marum,Marum,Groningen,VBO,6.254424,53.143088
Hoornweg,31,,,9363ED,Marum,Marum,Groningen,VBO,6.254274,53.143017
Hoornweg,33,,,9363ED,Marum,Marum,Groningen,VBO,6.254094,53.142991
Hoornweg,35,,,9363ED,Marum,Marum,Groningen,VBO,6.253928,53.142947
Hoornweg,37,,,9363ED,Marum,Marum,Groningen,VBO,6.253764,53.142922
Hoornweg,39,,,9363ED,Marum,Marum,Groningen,VBO,6.253568,53.142878
Hoornweg,41,,,9363ED,Marum,Marum,Groningen,VBO,6.253343,53.142835
Hoornweg,43,,,9363ED,Marum,Marum,Groningen,VBO,6.253074,53.142801
Hoornweg,45,A,,9363ED,Marum,Marum,Groningen,VBO,6.252740,53.142579
Hoornweg,45,B,,9363ED,Marum,Marum,Groningen,VBO,6.252607,53.142616
Hoornweg,45,C,,9363ED,Marum,Marum,Groningen,VBO,6.252695,53.142534
Hoornweg,45,D,,9363ED,Marum,Marum,Groningen,VBO,6.252650,53.142525
Hoornweg,45,E,,9363ED,Marum,Marum,Groningen,VBO,6.252621,53.142562
Hoornweg,45,F,,9363ED,Marum,Marum,Groningen,VBO,6.252861,53.142605
Hoornweg,45,G,,9363ED,Marum,Marum,Groningen,VBO,6.252801,53.142596
Hoornweg,45,H,,9363ED,Marum,Marum,Groningen,VBO,6.252680,53.142570
Hoornweg,45,,,9363ED,Marum,Marum,Groningen,VBO,6.252696,53.142606
Hoornweg,47,,,9363EE,Marum,Marum,Groningen,VBO,6.252261,53.142528
Hoornweg,49,,,9363EE,Marum,Marum,Groningen,VBO,6.251871,53.142432
Hoornweg,51,,,9363EE,Marum,Marum,Groningen,VBO,6.251735,53.142370
Hoornweg,53,,,9363EE,Marum,Marum,Groningen,VBO,6.251489,53.142299
Hoornweg,55,,,9363EE,Marum,Marum,Groningen,VBO,6.251389,53.142284
Hoornweg,59,,,9363EE,Marum,Marum,Groningen,VBO,6.250622,53.142019
Hoornweg,61,,,9363EE,Marum,Marum,Groningen,VBO,6.250303,53.141760
Hoornweg,63,,,9363EE,Marum,Marum,Groningen,VBO,6.250090,53.141591
Hoornweg,65,,,9363EE,Marum,Marum,Groningen,VBO,6.249771,53.141324
Hoornweg,67,,,9363EE,Marum,Marum,Groningen,VBO,6.249675,53.140983
Hoornweg,69,,,9363EE,Marum,Marum,Groningen,VBO,6.249583,53.140876
Hoornweg,71,,,9363EE,Marum,Marum,Groningen,VBO,6.249506,53.140742
Hoornweg,73,,,9363EE,Marum,Marum,Groningen,VBO,6.249429,53.140652
Hoornweg,75,,,9363EE,Marum,Marum,Groningen,VBO,6.249413,53.140617
Hoornweg,77,,,9363EE,Marum,Marum,Groningen,VBO,6.249040,53.140637
Hoornweg,79,,,9363EE,Marum,Marum,Groningen,VBO,6.249366,53.140500
Hoornweg,81,,,9363EE,Marum,Marum,Groningen,VBO,6.249022,53.139739
Hoornweg,4,,,9363EG,Marum,Marum,Groningen,VBO,6.264051,53.143898
Hoornweg,6,,,9363EG,Marum,Marum,Groningen,VBO,6.263796,53.143846
Hoornweg,8,,,9363EG,Marum,Marum,Groningen,VBO,6.263586,53.143803
Hoornweg,10,A,,9363EG,Marum,Marum,Groningen,VBO,6.263392,53.143822
Hoornweg,10,,,9363EG,Marum,Marum,Groningen,VBO,6.263406,53.143795
Hoornweg,12,A,,9363EG,Marum,Marum,Groningen,VBO,6.263287,53.143805
Hoornweg,12,B,,9363EG,Marum,Marum,Groningen,VBO,6.263343,53.143713
Hoornweg,12,,,9363EG,Marum,Marum,Groningen,VBO,6.263301,53.143769
Hoornweg,14,,,9363EG,Marum,Marum,Groningen,VBO,6.263121,53.143725
Hoornweg,16,,,9363EG,Marum,Marum,Groningen,VBO,6.262866,53.143682
Hoornweg,18,,,9363EG,Marum,Marum,Groningen,VBO,6.262684,53.143576
Hoornweg,20,,,9363EG,Marum,Marum,Groningen,VBO,6.262355,53.143560
Hoornweg,22,,,9363EG,Marum,Marum,Groningen,VBO,6.262145,53.143508
Hoornweg,24,,,9363EG,Marum,Marum,Groningen,VBO,6.261934,53.143455
Hoornweg,26,,,9363EG,Marum,Marum,Groningen,VBO,6.261739,53.143394
Hoornweg,30,,,9363EG,Marum,Marum,Groningen,VBO,6.260868,53.143167
Hoornweg,32,,,9363EG,Marum,Marum,Groningen,VBO,6.260929,53.143238
Hoornweg,34,,,9363EH,Marum,Marum,Groningen,VBO,6.260884,53.143229
Hoornweg,36,,,9363EH,Marum,Marum,Groningen,VBO,6.260809,53.143212
Hoornweg,38,A,,9363EH,Marum,Marum,Groningen,VBO,6.260626,53.143034
Hoornweg,38,,,9363EH,Marum,Marum,Groningen,VBO,6.260540,53.143232
Hoornweg,40,B,,9363EH,Marum,Marum,Groningen,VBO,6.259925,53.141655
Hoornweg,40,,,9363EH,Marum,Marum,Groningen,VBO,6.260220,53.142947
Hoornweg,42,,,9363EH,Marum,Marum,Groningen,VBO,6.259360,53.142504
Hoornweg,44,A,,9363EH,Marum,Marum,Groningen,VBO,6.259463,53.141256
Hoornweg,44,,,9363EH,Marum,Marum,Groningen,VBO,6.260112,53.141394
Hoornweg,46,,,9363EH,Marum,Marum,Groningen,VBO,6.258567,53.142217
Hoornweg,48,,,9363EH,Marum,Marum,Groningen,VBO,6.258523,53.142574
Hoornweg,60,,,9363EH,Marum,Marum,Groningen,VBO,6.257015,53.142593
Hoornweg,62,,,9363EH,Marum,Marum,Groningen,VBO,6.256018,53.142798
Hoornweg,64,A,,9363EH,Marum,Marum,Groningen,VBO,6.254836,53.142725
Hoornweg,64,,,9363EH,Marum,Marum,Groningen,VBO,6.256075,53.142662
Hoornweg,66,,,9363EH,Marum,Marum,Groningen,VBO,6.254612,53.142727
Hoornweg,70,,,9363EH,Marum,Marum,Groningen,VBO,6.254220,53.142586
Hoornweg,72,,,9363EH,Marum,Marum,Groningen,VBO,6.253981,53.142588
Hoornweg,74,,,9363EH,Marum,Marum,Groningen,VBO,6.253831,53.142562
Hoornweg,76,,,9363EH,Marum,Marum,Groningen,VBO,6.253635,53.142455
Hoornweg,78,,,9363EH,Marum,Marum,Groningen,VBO,6.253245,53.142386
Hoornweg,80,,,9363EH,Marum,Marum,Groningen,VBO,6.253065,53.142361
Hoornweg,82,,,9363EH,Marum,Marum,Groningen,VBO,6.252885,53.142335
Hoornweg,88,,,9363EJ,Marum,Marum,Groningen,VBO,6.252363,53.142266
Hoornweg,92,,,9363EJ,Marum,Marum,Groningen,VBO,6.252120,53.142197
Hoornweg,94,,,9363EJ,Marum,Marum,Groningen,VBO,6.252013,53.142090
Hoornweg,96,,,9363EJ,Marum,Marum,Groningen,VBO,6.251910,53.142135
Hoornweg,98,,,9363EJ,Marum,Marum,Groningen,VBO,6.251652,53.141957
Hoornweg,100,,,9363EJ,Marum,Marum,Groningen,VBO,6.251261,53.141852
Hoornweg,102,,,9363EJ,Marum,Marum,Groningen,VBO,6.251064,53.141805
Hoornweg,108,,,9363EJ,Marum,Marum,Groningen,VBO,6.250856,53.141739
Hoornweg,110,,,9363EJ,Marum,Marum,Groningen,VBO,6.250552,53.141489
Hoornweg,112,,,9363EJ,Marum,Marum,Groningen,VBO,6.250399,53.141328
Hoornweg,114,,,9363EJ,Marum,Marum,Groningen,VBO,6.250277,53.141204
Hoornweg,116,,,9363EJ,Marum,Marum,Groningen,VBO,6.249891,53.139059
Hoornweg,118,,,9363EJ,Marum,Marum,Groningen,VBO,6.249416,53.138487
Houtwal,1,A,,9363EK,Marum,Marum,Groningen,VBO,6.252506,53.142086
Houtwal,1,B,,9363EK,Marum,Marum,Groningen,VBO,6.252535,53.142032
Houtwal,1,C,,9363EK,Marum,Marum,Groningen,VBO,6.252501,53.141817
Houtwal,1,D,,9363EK,Marum,Marum,Groningen,VBO,6.252723,53.141498
Houtwal,1,E,,9363EK,Marum,Marum,Groningen,VBO,6.253074,53.141345
Houtwal,1,,,9363EK,Marum,Marum,Groningen,VBO,6.252464,53.142221
Houtwal,3,A,,9363EK,Marum,Marum,Groningen,VBO,6.254291,53.139395
Houtwal,3,,,9363EK,Marum,Marum,Groningen,VBO,6.253638,53.141116
Willem Dreeslaan,1,A,,9363EL,Marum,Marum,Groningen,VBO,6.261152,53.143174
Willem Dreeslaan,1,B,,9363EL,Marum,Marum,Groningen,VBO,6.261166,53.143155
Willem Dreeslaan,1,C,,9363EL,Marum,Marum,Groningen,VBO,6.261180,53.143119
Willem Dreeslaan,1,D,,9363EL,Marum,Marum,Groningen,VBO,6.261210,53.143101
Willem Dreeslaan,1,E,,9363EL,Marum,Marum,Groningen,VBO,6.261224,53.143065
Willem Dreeslaan,1,F,,9363EL,Marum,Marum,Groningen,VBO,6.261239,53.143047
Willem Dreeslaan,1,,,9363EL,Marum,Marum,Groningen,VBO,6.261341,53.142921
Willem Dreeslaan,3,,,9363EL,Marum,Marum,Groningen,VBO,6.261355,53.142867
Willem Dreeslaan,5,,,9363EL,Marum,Marum,Groningen,VBO,6.261399,53.142830
Willem Dreeslaan,7,,,9363EL,Marum,Marum,Groningen,VBO,6.261473,53.142785
Willem Dreeslaan,9,,,9363EL,Marum,Marum,Groningen,VBO,6.261516,53.142731
Willem Dreeslaan,11,,,9363EL,Marum,Marum,Groningen,VBO,6.261545,53.142685
Willem Dreeslaan,13,,,9363EL,Marum,Marum,Groningen,VBO,6.261574,53.142631
Willem Dreeslaan,15,,,9363EL,Marum,Marum,Groningen,VBO,6.262400,53.142823
Willem Dreeslaan,17,,,9363EL,Marum,Marum,Groningen,VBO,6.262444,53.142769
Willem Dreeslaan,19,,,9363EL,Marum,Marum,Groningen,VBO,6.262473,53.142724
Willem Dreeslaan,21,,,9363EL,Marum,Marum,Groningen,VBO,6.262561,53.142678
Willem Dreeslaan,23,,,9363EL,Marum,Marum,Groningen,VBO,6.262590,53.142633
Willem Dreeslaan,25,,,9363EL,Marum,Marum,Groningen,VBO,6.262634,53.142579
Willem Dreeslaan,2,,,9363EM,Marum,Marum,Groningen,VBO,6.261393,53.143298
Willem Dreeslaan,4,,,9363EM,Marum,Marum,Groningen,VBO,6.261437,53.143252
Willem Dreeslaan,6,,,9363EM,Marum,Marum,Groningen,VBO,6.261481,53.143198
Willem Dreeslaan,8,,,9363EM,Marum,Marum,Groningen,VBO,6.261569,53.143144
Willem Dreeslaan,10,,,9363EM,Marum,Marum,Groningen,VBO,6.261613,53.143089
Willem Dreeslaan,12,,,9363EM,Marum,Marum,Groningen,VBO,6.261819,53.142926
Willem Dreeslaan,14,,,9363EM,Marum,Marum,Groningen,VBO,6.261894,53.142943
Willem Dreeslaan,16,,,9363EM,Marum,Marum,Groningen,VBO,6.261984,53.142961
Willem Dreeslaan,18,,,9363EM,Marum,Marum,Groningen,VBO,6.262091,53.143068
Willem Dreeslaan,20,,,9363EM,Marum,Marum,Groningen,VBO,6.262181,53.143094
Willem Dreeslaan,22,,,9363EM,Marum,Marum,Groningen,VBO,6.262271,53.143111
Willem Dreeslaan,24,,,9363EM,Marum,Marum,Groningen,VBO,6.262347,53.143147
Willem Dreeslaan,26,,,9363EM,Marum,Marum,Groningen,VBO,6.262422,53.143164
Willem Dreeslaan,28,,,9363EM,Marum,Marum,Groningen,VBO,6.262482,53.143182
Willem Dreeslaan,30,,,9363EN,Marum,Marum,Groningen,VBO,6.262664,53.143297
Willem Dreeslaan,32,,,9363EN,Marum,Marum,Groningen,VBO,6.262693,53.143252
Willem Dreeslaan,34,,,9363EN,Marum,Marum,Groningen,VBO,6.262737,53.143207
Willem Dreeslaan,36,,,9363EN,Marum,Marum,Groningen,VBO,6.262765,53.143153
Willem Dreeslaan,38,,,9363EN,Marum,Marum,Groningen,VBO,6.262839,53.143116
Willem Dreeslaan,40,,,9363EN,Marum,Marum,Groningen,VBO,6.262883,53.143062
Willem Dreeslaan,42,,,9363EN,Marum,Marum,Groningen,VBO,6.262956,53.142981
Willem Dreeslaan,44,,,9363EN,Marum,Marum,Groningen,VBO,6.263000,53.142926
Willem Dreeslaan,46,,,9363EN,Marum,Marum,Groningen,VBO,6.263029,53.142872
Willem Dreeslaan,48,,,9363EN,Marum,Marum,Groningen,VBO,6.263072,53.142818
Willem Dreeslaan,50,,,9363EN,Marum,Marum,Groningen,VBO,6.263101,53.142773
A S Talmalaan,1,,,9363EP,Marum,Marum,Groningen,VBO,6.261245,53.142616
A S Talmalaan,2,,,9363EP,Marum,Marum,Groningen,VBO,6.262008,53.142655
A S Talmalaan,3,,,9363EP,Marum,Marum,Groningen,VBO,6.261170,53.142589
A S Talmalaan,4,,,9363EP,Marum,Marum,Groningen,VBO,6.262052,53.142610
A S Talmalaan,5,,,9363EP,Marum,Marum,Groningen,VBO,6.261540,53.142407
A S Talmalaan,6,,,9363EP,Marum,Marum,Groningen,VBO,6.262081,53.142556
A S Talmalaan,7,,,9363EP,Marum,Marum,Groningen,VBO,6.261583,53.142353
A S Talmalaan,8,,,9363EP,Marum,Marum,Groningen,VBO,6.262080,53.142502
A S Talmalaan,9,,,9363EP,Marum,Marum,Groningen,VBO,6.261627,53.142298
A S Talmalaan,10,,,9363EP,Marum,Marum,Groningen,VBO,6.262123,53.142448
A S Talmalaan,11,,,9363EP,Marum,Marum,Groningen,VBO,6.261656,53.142244
A S Talmalaan,12,,,9363EP,Marum,Marum,Groningen,VBO,6.262167,53.142402
A S Talmalaan,13,,,9363EP,Marum,Marum,Groningen,VBO,6.261715,53.142208
A S Talmalaan,14,,,9363EP,Marum,Marum,Groningen,VBO,6.262211,53.142348
A S Talmalaan,15,,,9363EP,Marum,Marum,Groningen,VBO,6.261759,53.142163
A S Talmalaan,16,,,9363EP,Marum,Marum,Groningen,VBO,6.262462,53.142176
A S Talmalaan,17,,,9363EP,Marum,Marum,Groningen,VBO,6.262070,53.142017
A S Talmalaan,18,,,9363EP,Marum,Marum,Groningen,VBO,6.262521,53.142139
A S Talmalaan,19,,,9363EP,Marum,Marum,Groningen,VBO,6.262246,53.141881
A S Talmalaan,20,,,9363EP,Marum,Marum,Groningen,VBO,6.262683,53.142039
A S Talmalaan,21,A,,9363EP,Marum,Marum,Groningen,VBO,6.262690,53.141635
A S Talmalaan,21,,,9363EP,Marum,Marum,Groningen,VBO,6.262513,53.141771
A S Talmalaan,22,,,9363EP,Marum,Marum,Groningen,VBO,6.262742,53.142003
A S Talmalaan,23,,,9363EP,Marum,Marum,Groningen,VBO,6.262129,53.141234
A S Talmalaan,24,,,9363EP,Marum,Marum,Groningen,VBO,6.262889,53.141903
A S Talmalaan,25,,,9363EP,Marum,Marum,Groningen,VBO,6.263026,53.141264
A S Talmalaan,26,,,9363EP,Marum,Marum,Groningen,VBO,6.262963,53.141857
A S Talmalaan,27,,,9363EP,Marum,Marum,Groningen,VBO,6.263185,53.141020
A S Talmalaan,28,,,9363EP,Marum,Marum,Groningen,VBO,6.263142,53.141820
A S Talmalaan,29,,,9363EP,Marum,Marum,Groningen,VBO,6.263271,53.140804
A S Talmalaan,30,,,9363EP,Marum,Marum,Groningen,VBO,6.263201,53.141775
A S Talmalaan,31,,,9363EP,Marum,Marum,Groningen,VBO,6.263371,53.140587
A S Talmalaan,32,,,9363EP,Marum,Marum,Groningen,VBO,6.263595,53.141323
A S Talmalaan,34,,,9363EP,Marum,Marum,Groningen,VBO,6.263636,53.141125
A S Talmalaan,36,,,9363EP,Marum,Marum,Groningen,VBO,6.263722,53.140953
A S Talmalaan,38,,,9363EP,Marum,Marum,Groningen,VBO,6.263839,53.140800
A S Talmalaan,40,,,9363EP,Marum,Marum,Groningen,VBO,6.263925,53.140646
Energieweg,2,,,9363ER,Marum,Marum,Groningen,VBO,6.266311,53.151430
Energieweg,4,A,,9363ER,Marum,Marum,Groningen,VBO,6.266585,53.150934
Energieweg,5,,,9363ER,Marum,Marum,Groningen,VBO,6.267116,53.149879
Energieweg,6,A,,9363ER,Marum,Marum,Groningen,VBO,6.267354,53.150551
Energieweg,8,,,9363ER,Marum,Marum,Groningen,VBO,6.268489,53.150462
Willem Dreeslaan,52,,,9363ES,Marum,Marum,Groningen,VBO,6.263247,53.142601
Willem Dreeslaan,54,,,9363ES,Marum,Marum,Groningen,VBO,6.263547,53.142635
Willem Dreeslaan,56,,,9363ES,Marum,Marum,Groningen,VBO,6.263773,53.142732
Willem Dreeslaan,58,,,9363ES,Marum,Marum,Groningen,VBO,6.264355,53.141955
Willem Dreeslaan,60,,,9363ES,Marum,Marum,Groningen,VBO,6.264414,53.141910
Willem Dreeslaan,62,,,9363ES,Marum,Marum,Groningen,VBO,6.264501,53.141792
Willem Dreeslaan,64,,,9363ES,Marum,Marum,Groningen,VBO,6.264545,53.141738
Willem Dreeslaan,66,,,9363ES,Marum,Marum,Groningen,VBO,6.264632,53.141620
Willem Dreeslaan,68,,,9363ES,Marum,Marum,Groningen,VBO,6.264646,53.141566
Willem Dreeslaan,70,,,9363ES,Marum,Marum,Groningen,VBO,6.264718,53.141440
Willem Dreeslaan,72,,,9363ES,Marum,Marum,Groningen,VBO,6.264747,53.141386
Willem Dreeslaan,74,,,9363ES,Marum,Marum,Groningen,VBO,6.264805,53.141269
Willem Dreeslaan,76,,,9363ES,Marum,Marum,Groningen,VBO,6.264848,53.141215
Willem Dreeslaan,78,,,9363ES,Marum,Marum,Groningen,VBO,6.264860,53.141080
Willem Dreeslaan,80,,,9363ES,Marum,Marum,Groningen,VBO,6.264904,53.141034
Willem Dreeslaan,82,,,9363ES,Marum,Marum,Groningen,VBO,6.264917,53.140899
Willem Dreeslaan,84,,,9363ES,Marum,Marum,Groningen,VBO,6.264930,53.140836
Willem Dreeslaan,86,,,9363ES,Marum,Marum,Groningen,VBO,6.264943,53.140711
Willem Dreeslaan,88,,,9363ES,Marum,Marum,Groningen,VBO,6.264927,53.140666
Willem Dreeslaan,90,,,9363ES,Marum,Marum,Groningen,VBO,6.264458,53.140373
Willem Dreeslaan,92,,,9363ES,Marum,Marum,Groningen,VBO,6.264368,53.140355
Willem Dreeslaan,94,,,9363ES,Marum,Marum,Groningen,VBO,6.264128,53.140321
Willem Dreeslaan,96,,,9363ES,Marum,Marum,Groningen,VBO,6.264053,53.140304
Willem Dreeslaan,98,,,9363ES,Marum,Marum,Groningen,VBO,6.263827,53.140234
Willem Dreeslaan,100,,,9363ES,Marum,Marum,Groningen,VBO,6.263722,53.140225
Willem Dreeslaan,27,,,9363ET,Marum,Marum,Groningen,VBO,6.263165,53.142215
Willem Dreeslaan,29,,,9363ET,Marum,Marum,Groningen,VBO,6.263406,53.142312
Willem Dreeslaan,31,,,9363ET,Marum,Marum,Groningen,VBO,6.263389,53.142196
Willem Dreeslaan,33,,,9363ET,Marum,Marum,Groningen,VBO,6.263432,53.142141
Willem Dreeslaan,35,,,9363ET,Marum,Marum,Groningen,VBO,6.263535,53.142042
Willem Dreeslaan,37,,,9363ET,Marum,Marum,Groningen,VBO,6.263594,53.141997
Willem Dreeslaan,39,,,9363ET,Marum,Marum,Groningen,VBO,6.263855,53.141608
Willem Dreeslaan,41,,,9363ET,Marum,Marum,Groningen,VBO,6.264101,53.141202
Willem Dreeslaan,43,,,9363ET,Marum,Marum,Groningen,VBO,6.264231,53.140985
Willem Dreeslaan,45,,,9363ET,Marum,Marum,Groningen,VBO,6.264361,53.140769
Willem Dreeslaan,47,,,9363ET,Marum,Marum,Groningen,VBO,6.264359,53.140670
Kamperfoelielaan,1,,,9363EV,Marum,Marum,Groningen,VBO,6.257652,53.143363
Kamperfoelielaan,2,A,,9363EV,Marum,Marum,Groningen,VBO,6.256953,53.143213
Kamperfoelielaan,2,B,,9363EV,Marum,Marum,Groningen,VBO,6.256967,53.143186
Kamperfoelielaan,2,C,,9363EV,Marum,Marum,Groningen,VBO,6.256967,53.143168
Kamperfoelielaan,2,D,,9363EV,Marum,Marum,Groningen,VBO,6.256981,53.143132
Kamperfoelielaan,2,E,,9363EV,Marum,Marum,Groningen,VBO,6.257011,53.143114
Kamperfoelielaan,2,,,9363EV,Marum,Marum,Groningen,VBO,6.257206,53.143184
Kamperfoelielaan,3,,,9363EV,Marum,Marum,Groningen,VBO,6.257800,53.143719
Kamperfoelielaan,4,A,,9363EV,Marum,Marum,Groningen,VBO,6.256719,53.143493
Kamperfoelielaan,4,B,,9363EV,Marum,Marum,Groningen,VBO,6.256705,53.143547
Kamperfoelielaan,4,C,,9363EV,Marum,Marum,Groningen,VBO,6.256705,53.143529
Kamperfoelielaan,4,,,9363EV,Marum,Marum,Groningen,VBO,6.256706,53.143592
Kamperfoelielaan,5,,,9363EV,Marum,Marum,Groningen,VBO,6.257476,53.143973
Kamperfoelielaan,6,,,9363EV,Marum,Marum,Groningen,VBO,6.256683,53.143934
Kamperfoelielaan,8,,,9363EV,Marum,Marum,Groningen,VBO,6.256923,53.143950
Kleine Hoorn,1,,,9363EW,Marum,Marum,Groningen,VBO,6.253272,53.141028
Kleine Hoorn,2,,,9363EW,Marum,Marum,Groningen,VBO,6.253299,53.140792
Kleine Hoorn,3,,,9363EW,Marum,Marum,Groningen,VBO,6.253185,53.141029
Kleine Hoorn,4,,,9363EW,Marum,Marum,Groningen,VBO,6.253125,53.140799
Kleine Hoorn,5,,,9363EW,Marum,Marum,Groningen,VBO,6.253017,53.141023
Kleine Hoorn,6,,,9363EW,Marum,Marum,Groningen,VBO,6.253049,53.140774
Kleine Hoorn,7,,,9363EW,Marum,Marum,Groningen,VBO,6.252929,53.141024
Kleine Hoorn,8,,,9363EW,Marum,Marum,Groningen,VBO,6.252854,53.140763
Kleine Hoorn,9,,,9363EW,Marum,Marum,Groningen,VBO,6.252756,53.141039
Kleine Hoorn,10,,,9363EW,Marum,Marum,Groningen,VBO,6.252782,53.140765
Kleine Hoorn,11,,,9363EW,Marum,Marum,Groningen,VBO,6.252664,53.141037
Kleine Hoorn,12,,,9363EW,Marum,Marum,Groningen,VBO,6.252595,53.140762
Kleine Hoorn,13,,,9363EW,Marum,Marum,Groningen,VBO,6.252502,53.141016
Kleine Hoorn,14,,,9363EW,Marum,Marum,Groningen,VBO,6.252498,53.140758
Kleine Hoorn,15,,,9363EW,Marum,Marum,Groningen,VBO,6.252419,53.141013
Kleine Hoorn,16,,,9363EW,Marum,Marum,Groningen,VBO,6.252330,53.140761
Kleine Hoorn,17,,,9363EW,Marum,Marum,Groningen,VBO,6.252247,53.141005
Kleine Hoorn,18,,,9363EW,Marum,Marum,Groningen,VBO,6.252248,53.140764
Kleine Hoorn,19,,,9363EW,Marum,Marum,Groningen,VBO,6.252164,53.141005
Kleine Hoorn,20,,,9363EW,Marum,Marum,Groningen,VBO,6.252070,53.140748
Kleine Hoorn,22,,,9363EW,Marum,Marum,Groningen,VBO,6.251992,53.140742
Faberstocht,1,,,9363EX,Marum,Marum,Groningen,VBO,6.253546,53.140254
Faberstocht,3,,,9363EX,Marum,Marum,Groningen,VBO,6.253412,53.140300
Faberstocht,5,,,9363EX,Marum,Marum,Groningen,VBO,6.253218,53.140284
Faberstocht,7,,,9363EX,Marum,Marum,Groningen,VBO,6.253128,53.140275
Faberstocht,9,,,9363EX,Marum,Marum,Groningen,VBO,6.252949,53.140286
Faberstocht,11,,,9363EX,Marum,Marum,Groningen,VBO,6.252859,53.140286
Faberstocht,13,,,9363EX,Marum,Marum,Groningen,VBO,6.252694,53.140261
Faberstocht,15,,,9363EX,Marum,Marum,Groningen,VBO,6.252605,53.140270
Faberstocht,17,,,9363EX,Marum,Marum,Groningen,VBO,6.252425,53.140253
Faberstocht,19,,,9363EX,Marum,Marum,Groningen,VBO,6.252306,53.140263
Faberstocht,21,,,9363EX,Marum,Marum,Groningen,VBO,6.252156,53.140264
Faberstocht,23,,,9363EX,Marum,Marum,Groningen,VBO,6.252051,53.140247
Zwaaikom,2,,,9363EZ,Marum,Marum,Groningen,VBO,6.253055,53.139602
Zwaaikom,4,,,9363EZ,Marum,Marum,Groningen,VBO,6.253098,53.139548
Zwaaikom,6,,,9363EZ,Marum,Marum,Groningen,VBO,6.253170,53.139385
Zwaaikom,8,,,9363EZ,Marum,Marum,Groningen,VBO,6.253169,53.139332
Zwaaikom,10,,,9363EZ,Marum,Marum,Groningen,VBO,6.253165,53.139161
Zwaaikom,12,,,9363EZ,Marum,Marum,Groningen,VBO,6.253105,53.139116
Zwaaikom,14,,,9363EZ,Marum,Marum,Groningen,VBO,6.252820,53.139073
Zwaaikom,16,,,9363EZ,Marum,Marum,Groningen,VBO,6.252715,53.139074
Zwaaikom,18,,,9363EZ,Marum,Marum,Groningen,VBO,6.252402,53.139103
Zwaaikom,20,,,9363EZ,Marum,Marum,Groningen,VBO,6.252329,53.139167
Zwaaikom,22,,,9363EZ,Marum,Marum,Groningen,VBO,6.252302,53.139311
Zwaaikom,24,,,9363EZ,Marum,Marum,Groningen,VBO,6.252303,53.139365
Zwaaikom,26,,,9363EZ,Marum,Marum,Groningen,VBO,6.252306,53.139517
Zwaaikom,28,,,9363EZ,Marum,Marum,Groningen,VBO,6.252309,53.139602
Nachtegaalstraat,1,,,9363GA,Marum,Marum,Groningen,VBO,6.264095,53.144617
Nachtegaalstraat,3,A,,9363GA,Marum,Marum,Groningen,VBO,6.263104,53.145819
Nachtegaalstraat,3,B,,9363GA,Marum,Marum,Groningen,VBO,6.263083,53.145841
Nachtegaalstraat,3,C,,9363GA,Marum,Marum,Groningen,VBO,6.263067,53.145861
Nachtegaalstraat,3,D,,9363GA,Marum,Marum,Groningen,VBO,6.263139,53.145879
Nachtegaalstraat,3,E,,9363GA,Marum,Marum,Groningen,VBO,6.263156,53.145859
Nachtegaalstraat,3,F,,9363GA,Marum,Marum,Groningen,VBO,6.263175,53.145838
Nachtegaalstraat,3,G,,9363GA,Marum,Marum,Groningen,VBO,6.263354,53.145896
Nachtegaalstraat,3,H,,9363GA,Marum,Marum,Groningen,VBO,6.263329,53.145919
Nachtegaalstraat,3,I,,9363GA,Marum,Marum,Groningen,VBO,6.263312,53.145939
Nachtegaalstraat,3,J,,9363GA,Marum,Marum,Groningen,VBO,6.263302,53.145959
Nachtegaalstraat,3,,,9363GA,Marum,Marum,Groningen,VBO,6.263689,53.145240
Nachtegaalstraat,5,,,9363GA,Marum,Marum,Groningen,VBO,6.262986,53.145937
Nachtegaalstraat,7,,,9363GA,Marum,Marum,Groningen,VBO,6.262942,53.146000
Nachtegaalstraat,9,,,9363GA,Marum,Marum,Groningen,VBO,6.262913,53.146045
Nachtegaalstraat,11,,,9363GA,Marum,Marum,Groningen,VBO,6.262885,53.146099
Nachtegaalstraat,13,,,9363GA,Marum,Marum,Groningen,VBO,6.262797,53.146199
Nachtegaalstraat,15,,,9363GA,Marum,Marum,Groningen,VBO,6.262768,53.146244
Nachtegaalstraat,17,,,9363GA,Marum,Marum,Groningen,VBO,6.262695,53.146316
Nachtegaalstraat,19,,,9363GA,Marum,Marum,Groningen,VBO,6.262681,53.146362
Nachtegaalstraat,21,,,9363GA,Marum,Marum,Groningen,VBO,6.262608,53.146443
Nachtegaalstraat,23,,,9363GA,Marum,Marum,Groningen,VBO,6.262579,53.146506
Nachtegaalstraat,25,,,9363GA,Marum,Marum,Groningen,VBO,6.262550,53.146542
Nachtegaalstraat,27,,,9363GA,Marum,Marum,Groningen,VBO,6.262521,53.146605
Nachtegaalstraat,29,,,9363GA,Marum,Marum,Groningen,VBO,6.262433,53.146696
Nachtegaalstraat,31,,,9363GA,Marum,Marum,Groningen,VBO,6.262390,53.146750
Nachtegaalstraat,33,,,9363GA,Marum,Marum,Groningen,VBO,6.262376,53.146813
Nachtegaalstraat,35,,,9363GA,Marum,Marum,Groningen,VBO,6.262347,53.146867
Nachtegaalstraat,2,k,001,9363GB,Marum,Marum,Groningen,VBO,6.263246,53.144879
Nachtegaalstraat,2,k,002,9363GB,Marum,Marum,Groningen,VBO,6.263174,53.144905
Nachtegaalstraat,2,k,003,9363GB,Marum,Marum,Groningen,VBO,6.263200,53.144888
Nachtegaalstraat,2,k,004,9363GB,Marum,Marum,Groningen,VBO,6.263217,53.144856
Nachtegaalstraat,2,k,005,9363GB,Marum,Marum,Groningen,VBO,6.263133,53.144833
Nachtegaalstraat,2,k,006,9363GB,Marum,Marum,Groningen,VBO,6.263135,53.144886
Nachtegaalstraat,2,k,007,9363GB,Marum,Marum,Groningen,VBO,6.263011,53.144856
Nachtegaalstraat,2,k,008,9363GB,Marum,Marum,Groningen,VBO,6.263051,53.144839
Nachtegaalstraat,2,k,009,9363GB,Marum,Marum,Groningen,VBO,6.263047,53.144811
Nachtegaalstraat,2,k,010,9363GB,Marum,Marum,Groningen,VBO,6.262945,53.144846
Nachtegaalstraat,2,k,011,9363GB,Marum,Marum,Groningen,VBO,6.262979,53.144828
Nachtegaalstraat,2,k,012,9363GB,Marum,Marum,Groningen,VBO,6.262990,53.144802
Nachtegaalstraat,2,k,013,9363GB,Marum,Marum,Groningen,VBO,6.262962,53.144785
Nachtegaalstraat,2,k,101,9363GB,Marum,Marum,Groningen,VBO,6.262650,53.145059
Nachtegaalstraat,2,k,102,9363GB,Marum,Marum,Groningen,VBO,6.262656,53.145039
Nachtegaalstraat,2,k,103,9363GB,Marum,Marum,Groningen,VBO,6.262672,53.145011
Nachtegaalstraat,2,k,104,9363GB,Marum,Marum,Groningen,VBO,6.262693,53.144988
Nachtegaalstraat,2,k,105,9363GB,Marum,Marum,Groningen,VBO,6.262714,53.144960
Nachtegaalstraat,2,k,106,9363GB,Marum,Marum,Groningen,VBO,6.262731,53.144937
Nachtegaalstraat,2,k,107,9363GB,Marum,Marum,Groningen,VBO,6.262744,53.144914
Nachtegaalstraat,2,k,108,9363GB,Marum,Marum,Groningen,VBO,6.262770,53.144885
Nachtegaalstraat,2,k,109,9363GB,Marum,Marum,Groningen,VBO,6.262605,53.145047
Nachtegaalstraat,2,k,110,9363GB,Marum,Marum,Groningen,VBO,6.262618,53.145028
Nachtegaalstraat,2,k,111,9363GB,Marum,Marum,Groningen,VBO,6.262629,53.145001
Nachtegaalstraat,2,k,112,9363GB,Marum,Marum,Groningen,VBO,6.262649,53.144978
Nachtegaalstraat,2,k,113,9363GB,Marum,Marum,Groningen,VBO,6.262663,53.144951
Nachtegaalstraat,2,k,114,9363GB,Marum,Marum,Groningen,VBO,6.262684,53.144930
Nachtegaalstraat,2,k,115,9363GB,Marum,Marum,Groningen,VBO,6.262698,53.144905
Nachtegaalstraat,2,k,116,9363GB,Marum,Marum,Groningen,VBO,6.262723,53.144879
Nachtegaalstraat,2,k,117,9363GB,Marum,Marum,Groningen,VBO,6.262554,53.145031
Nachtegaalstraat,2,k,118,9363GB,Marum,Marum,Groningen,VBO,6.262588,53.144987
Nachtegaalstraat,2,k,119,9363GB,Marum,Marum,Groningen,VBO,6.262612,53.144975
Nachtegaalstraat,2,k,120,9363GB,Marum,Marum,Groningen,VBO,6.262615,53.144951
Nachtegaalstraat,2,k,121,9363GB,Marum,Marum,Groningen,VBO,6.262630,53.144930
Nachtegaalstraat,2,k,122,9363GB,Marum,Marum,Groningen,VBO,6.262694,53.144864
Nachtegaalstraat,2,k,123,9363GB,Marum,Marum,Groningen,VBO,6.262672,53.144888
Nachtegaalstraat,2,k,124,9363GB,Marum,Marum,Groningen,VBO,6.262694,53.144837
Nachtegaalstraat,2,k,125,9363GB,Marum,Marum,Groningen,VBO,6.262647,53.144869
Nachtegaalstraat,2,k,126,9363GB,Marum,Marum,Groningen,VBO,6.262623,53.144893
Nachtegaalstraat,2,k,127,9363GB,Marum,Marum,Groningen,VBO,6.262558,53.144956
Nachtegaalstraat,2,k,128,9363GB,Marum,Marum,Groningen,VBO,6.262702,53.144818
Nachtegaalstraat,2,k,129,9363GB,Marum,Marum,Groningen,VBO,6.262570,53.144976
Nachtegaalstraat,2,k,130,9363GB,Marum,Marum,Groningen,VBO,6.262661,53.144804
Nachtegaalstraat,2,k,131,9363GB,Marum,Marum,Groningen,VBO,6.262620,53.144798
Nachtegaalstraat,2,k,132,9363GB,Marum,Marum,Groningen,VBO,6.263045,53.144467
Nachtegaalstraat,2,k,133,9363GB,Marum,Marum,Groningen,VBO,6.262607,53.144826
Nachtegaalstraat,2,k,201,9363GB,Marum,Marum,Groningen,VBO,6.263032,53.144494
Nachtegaalstraat,2,k,202,9363GB,Marum,Marum,Groningen,VBO,6.263074,53.144513
Nachtegaalstraat,2,k,203,9363GB,Marum,Marum,Groningen,VBO,6.263057,53.144546
Nachtegaalstraat,2,k,204,9363GB,Marum,Marum,Groningen,VBO,6.263037,53.144573
Nachtegaalstraat,2,k,205,9363GB,Marum,Marum,Groningen,VBO,6.263018,53.144602
Nachtegaalstraat,2,k,206,9363GB,Marum,Marum,Groningen,VBO,6.263003,53.144626
Nachtegaalstraat,2,k,207,9363GB,Marum,Marum,Groningen,VBO,6.262973,53.144656
Nachtegaalstraat,2,k,208,9363GB,Marum,Marum,Groningen,VBO,6.262942,53.144685
Nachtegaalstraat,2,k,209,9363GB,Marum,Marum,Groningen,VBO,6.262927,53.144711
Nachtegaalstraat,2,k,210,9363GB,Marum,Marum,Groningen,VBO,6.262893,53.144737
Nachtegaalstraat,2,k,211,9363GB,Marum,Marum,Groningen,VBO,6.263006,53.144459
Nachtegaalstraat,2,k,212,9363GB,Marum,Marum,Groningen,VBO,6.262987,53.144485
Nachtegaalstraat,2,k,213,9363GB,Marum,Marum,Groningen,VBO,6.262967,53.144508
Nachtegaalstraat,2,k,214,9363GB,Marum,Marum,Groningen,VBO,6.262906,53.144527
Nachtegaalstraat,2,k,215,9363GB,Marum,Marum,Groningen,VBO,6.262907,53.144556
Nachtegaalstraat,2,k,216,9363GB,Marum,Marum,Groningen,VBO,6.262893,53.144582
Nachtegaalstraat,2,k,217,9363GB,Marum,Marum,Groningen,VBO,6.262885,53.144605
Nachtegaalstraat,2,k,218,9363GB,Marum,Marum,Groningen,VBO,6.262863,53.144629
Nachtegaalstraat,2,k,219,9363GB,Marum,Marum,Groningen,VBO,6.262796,53.144653
Nachtegaalstraat,2,k,220,9363GB,Marum,Marum,Groningen,VBO,6.262786,53.144677
Nachtegaalstraat,2,k,221,9363GB,Marum,Marum,Groningen,VBO,6.262776,53.144699
Nachtegaalstraat,2,k,222,9363GB,Marum,Marum,Groningen,VBO,6.262872,53.144703
Nachtegaalstraat,2,k,223,9363GB,Marum,Marum,Groningen,VBO,6.262878,53.144673
Nachtegaalstraat,2,k,224,9363GB,Marum,Marum,Groningen,VBO,6.262931,53.144628
Nachtegaalstraat,2,k,225,9363GB,Marum,Marum,Groningen,VBO,6.262960,53.144583
Nachtegaalstraat,2,k,226,9363GB,Marum,Marum,Groningen,VBO,6.262585,53.144751
Nachtegaalstraat,2,k,227,9363GB,Marum,Marum,Groningen,VBO,6.262531,53.144728
Nachtegaalstraat,2,k,228,9363GB,Marum,Marum,Groningen,VBO,6.262470,53.144724
Nachtegaalstraat,2,k,229,9363GB,Marum,Marum,Groningen,VBO,6.262607,53.144729
Nachtegaalstraat,2,k,230,9363GB,Marum,Marum,Groningen,VBO,6.262470,53.144698
Nachtegaalstraat,2,k,231,9363GB,Marum,Marum,Groningen,VBO,6.262581,53.144711
Nachtegaalstraat,2,k,232,9363GB,Marum,Marum,Groningen,VBO,6.262521,53.144704
Nachtegaalstraat,2,k,233,9363GB,Marum,Marum,Groningen,VBO,6.262505,53.144674
Nachtegaalstraat,2,,,9363GB,Marum,Marum,Groningen,VBO,6.263222,53.144910
Nachtegaalstraat,12,,,9363GB,Marum,Marum,Groningen,VBO,6.262652,53.145706
Nachtegaalstraat,14,,,9363GB,Marum,Marum,Groningen,VBO,6.262593,53.145742
Nachtegaalstraat,16,,,9363GB,Marum,Marum,Groningen,VBO,6.262520,53.145806
Nachtegaalstraat,18,,,9363GB,Marum,Marum,Groningen,VBO,6.262491,53.145851
Nachtegaalstraat,20,,,9363GB,Marum,Marum,Groningen,VBO,6.261937,53.146529
Nachtegaalstraat,22,,,9363GB,Marum,Marum,Groningen,VBO,6.261879,53.146646
Reigerstraat,1,,,9363GC,Marum,Marum,Groningen,VBO,6.265478,53.146494
Reigerstraat,3,,,9363GC,Marum,Marum,Groningen,VBO,6.265435,53.146557
Reigerstraat,5,,,9363GC,Marum,Marum,Groningen,VBO,6.265421,53.146611
Reigerstraat,7,,,9363GC,Marum,Marum,Groningen,VBO,6.265363,53.146701
Reigerstraat,9,,,9363GC,Marum,Marum,Groningen,VBO,6.265334,53.146764
Reigerstraat,11,,,9363GC,Marum,Marum,Groningen,VBO,6.265335,53.146818
Reigerstraat,13,,,9363GC,Marum,Marum,Groningen,VBO,6.265308,53.146926
Reigerstraat,15,,,9363GC,Marum,Marum,Groningen,VBO,6.265279,53.146972
Reigerstraat,17,,,9363GC,Marum,Marum,Groningen,VBO,6.265265,53.147035
Reigerstraat,19,,,9363GC,Marum,Marum,Groningen,VBO,6.265237,53.147143
Reigerstraat,21,,,9363GC,Marum,Marum,Groningen,VBO,6.265223,53.147188
Reigerstraat,23,,,9363GC,Marum,Marum,Groningen,VBO,6.265179,53.147233
Reigerstraat,2,,,9363GD,Marum,Marum,Groningen,VBO,6.265174,53.146226
Reigerstraat,4,,,9363GD,Marum,Marum,Groningen,VBO,6.265161,53.146298
Reigerstraat,6,,,9363GD,Marum,Marum,Groningen,VBO,6.265131,53.146335
Reigerstraat,8,,,9363GD,Marum,Marum,Groningen,VBO,6.265103,53.146398
Reigerstraat,10,,,9363GD,Marum,Marum,Groningen,VBO,6.265074,53.146443
Reigerstraat,12,,,9363GD,Marum,Marum,Groningen,VBO,6.265045,53.146506
Reigerstraat,14,,,9363GD,Marum,Marum,Groningen,VBO,6.264986,53.146560
Reigerstraat,16,,,9363GD,Marum,Marum,Groningen,VBO,6.264815,53.146966
Reigerstraat,18,,,9363GD,Marum,Marum,Groningen,VBO,6.264817,53.147038
Reigerstraat,20,,,9363GD,Marum,Marum,Groningen,VBO,6.264803,53.147101
Reigerstraat,22,,,9363GD,Marum,Marum,Groningen,VBO,6.264789,53.147146
Reigerstraat,24,,,9363GD,Marum,Marum,Groningen,VBO,6.264760,53.147209
Leeuwerikstraat,1,,,9363GE,Marum,Marum,Groningen,VBO,6.263888,53.146209
Leeuwerikstraat,3,,,9363GE,Marum,Marum,Groningen,VBO,6.263983,53.146252
Leeuwerikstraat,5,,,9363GE,Marum,Marum,Groningen,VBO,6.264054,53.146262
Leeuwerikstraat,7,,,9363GE,Marum,Marum,Groningen,VBO,6.264159,53.146288
Leeuwerikstraat,9,,,9363GE,Marum,Marum,Groningen,VBO,6.264354,53.146366
Leeuwerikstraat,11,,,9363GE,Marum,Marum,Groningen,VBO,6.264444,53.146367
Leeuwerikstraat,13,,,9363GE,Marum,Marum,Groningen,VBO,6.264505,53.146393
Leeuwerikstraat,15,,,9363GE,Marum,Marum,Groningen,VBO,6.264628,53.146439
Gruttostraat,1,,,9363GG,Marum,Marum,Groningen,VBO,6.264286,53.146673
Gruttostraat,2,,,9363GG,Marum,Marum,Groningen,VBO,6.263638,53.146819
Gruttostraat,4,,,9363GG,Marum,Marum,Groningen,VBO,6.263739,53.146843
Gruttostraat,6,,,9363GG,Marum,Marum,Groningen,VBO,6.263848,53.146859
Gruttostraat,8,,,9363GG,Marum,Marum,Groningen,VBO,6.263953,53.146880
Gruttostraat,10,,,9363GG,Marum,Marum,Groningen,VBO,6.264138,53.146909
Gruttostraat,12,,,9363GG,Marum,Marum,Groningen,VBO,6.264245,53.146923
Gruttostraat,14,,,9363GG,Marum,Marum,Groningen,VBO,6.264350,53.146938
Gruttostraat,16,,,9363GG,Marum,Marum,Groningen,VBO,6.264452,53.146951
Kievitstraat,1,,,9363GH,Marum,Marum,Groningen,VBO,6.263292,53.147031
Kievitstraat,3,,,9363GH,Marum,Marum,Groningen,VBO,6.263382,53.147057
Kievitstraat,5,,,9363GH,Marum,Marum,Groningen,VBO,6.263502,53.147074
Kievitstraat,7,,,9363GH,Marum,Marum,Groningen,VBO,6.263607,53.147092
Kievitstraat,9,,,9363GH,Marum,Marum,Groningen,VBO,6.263757,53.147108
Kievitstraat,11,,,9363GH,Marum,Marum,Groningen,VBO,6.263862,53.147117
Kievitstraat,13,,,9363GH,Marum,Marum,Groningen,VBO,6.263967,53.147125
Kievitstraat,15,,,9363GH,Marum,Marum,Groningen,VBO,6.264146,53.147151
Kievitstraat,17,,,9363GH,Marum,Marum,Groningen,VBO,6.264236,53.147150
Kievitstraat,19,,,9363GH,Marum,Marum,Groningen,VBO,6.264341,53.147167
Merelstraat,1,A,,9363GJ,Marum,Marum,Groningen,VBO,6.263959,53.146011
Merelstraat,1,,,9363GJ,Marum,Marum,Groningen,VBO,6.263969,53.146505
Merelstraat,2,,,9363GJ,Marum,Marum,Groningen,VBO,6.263541,53.146050
Merelstraat,3,,,9363GJ,Marum,Marum,Groningen,VBO,6.263423,53.146850
Merelstraat,4,,,9363GJ,Marum,Marum,Groningen,VBO,6.263498,53.146104
Merelstraat,5,,,9363GJ,Marum,Marum,Groningen,VBO,6.263380,53.146923
Merelstraat,6,,,9363GJ,Marum,Marum,Groningen,VBO,6.263454,53.146167
Merelstraat,8,,,9363GJ,Marum,Marum,Groningen,VBO,6.263395,53.146213
Merelstraat,10,,,9363GJ,Marum,Marum,Groningen,VBO,6.263322,53.146312
Merelstraat,12,,,9363GJ,Marum,Marum,Groningen,VBO,6.263279,53.146375
Merelstraat,14,,,9363GJ,Marum,Marum,Groningen,VBO,6.263220,53.146420
Merelstraat,16,,,9363GJ,Marum,Marum,Groningen,VBO,6.263176,53.146475
Merelstraat,18,,,9363GJ,Marum,Marum,Groningen,VBO,6.263118,53.146574
Merelstraat,20,,,9363GJ,Marum,Marum,Groningen,VBO,6.263090,53.146637
Merelstraat,22,,,9363GJ,Marum,Marum,Groningen,VBO,6.263046,53.146691
Merelstraat,24,,,9363GJ,Marum,Marum,Groningen,VBO,6.263032,53.146754
Merelstraat,26,,,9363GJ,Marum,Marum,Groningen,VBO,6.262975,53.146854
Merelstraat,28,,,9363GJ,Marum,Marum,Groningen,VBO,6.262931,53.146926
Merelstraat,30,,,9363GJ,Marum,Marum,Groningen,VBO,6.262887,53.146980
Wulpstraat,1,,,9363GK,Marum,Marum,Groningen,VBO,6.262082,53.146312
Wulpstraat,2,,,9363GK,Marum,Marum,Groningen,VBO,6.262271,53.146077
Wulpstraat,3,,,9363GK,Marum,Marum,Groningen,VBO,6.261841,53.146233
Wulpstraat,4,,,9363GK,Marum,Marum,Groningen,VBO,6.262090,53.145997
Wulpstraat,5,,,9363GK,Marum,Marum,Groningen,VBO,6.261615,53.146163
Wulpstraat,6,,,9363GK,Marum,Marum,Groningen,VBO,6.261880,53.145927
Wulpstraat,7,,,9363GK,Marum,Marum,Groningen,VBO,6.261390,53.146083
Wulpstraat,8,,,9363GK,Marum,Marum,Groningen,VBO,6.261742,53.145784
Wulpstraat,9,,,9363GK,Marum,Marum,Groningen,VBO,6.261267,53.145940
Wulpstraat,10,,,9363GK,Marum,Marum,Groningen,VBO,6.261769,53.145631
Wulpstraat,11,,,9363GK,Marum,Marum,Groningen,VBO,6.261264,53.145797
Wulpstraat,13,,,9363GK,Marum,Marum,Groningen,VBO,6.261185,53.145555
Lijsterstraat,2,,,9363GL,Marum,Marum,Groningen,VBO,6.261881,53.146745
Lijsterstraat,4,,,9363GL,Marum,Marum,Groningen,VBO,6.261593,53.146531
Lijsterstraat,6,,,9363GL,Marum,Marum,Groningen,VBO,6.261368,53.146470
Lijsterstraat,8,,,9363GL,Marum,Marum,Groningen,VBO,6.261142,53.146418
Lijsterstraat,10,,,9363GL,Marum,Marum,Groningen,VBO,6.260917,53.146365
Lijsterstraat,12,,,9363GL,Marum,Marum,Groningen,VBO,6.260692,53.146304
Lijsterstraat,14,,,9363GL,Marum,Marum,Groningen,VBO,6.260320,53.146388
Lijsterstraat,16,,,9363GL,Marum,Marum,Groningen,VBO,6.260317,53.146235
Lijsterstraat,18,,,9363GL,Marum,Marum,Groningen,VBO,6.260418,53.146099
Lijsterstraat,20,,,9363GL,Marum,Marum,Groningen,VBO,6.260595,53.145981
Lijsterstraat,22,,,9363GL,Marum,Marum,Groningen,VBO,6.260682,53.145846
Lijsterstraat,24,,,9363GL,Marum,Marum,Groningen,VBO,6.260784,53.145710
Lijsterstraat,26,,,9363GL,Marum,Marum,Groningen,VBO,6.260870,53.145494
Sportlaan,1,A,,9363GM,Marum,Marum,Groningen,VBO,6.258460,53.144577
Sportlaan,1,B,,9363GM,Marum,Marum,Groningen,VBO,6.258011,53.144544
Sportlaan,1,,,9363GM,Marum,Marum,Groningen,VBO,6.259937,53.143722
Sportlaan,2,,,9363GM,Marum,Marum,Groningen,VBO,6.258889,53.143612
Sportlaan,3,,,9363GM,Marum,Marum,Groningen,VBO,6.257546,53.144449
Sportlaan,4,,,9363GM,Marum,Marum,Groningen,VBO,6.258900,53.143442
Sportlaan,5,,,9363GM,Marum,Marum,Groningen,VBO,6.257201,53.144397
Sportlaan,6,,,9363GM,Marum,Marum,Groningen,VBO,6.258837,53.144017
Sportlaan,7,,,9363GM,Marum,Marum,Groningen,VBO,6.256826,53.144355
Sportlaan,8,,,9363GM,Marum,Marum,Groningen,VBO,6.258793,53.144062
Sportlaan,9,,,9363GM,Marum,Marum,Groningen,VBO,6.256391,53.144287
Sportlaan,10,,,9363GM,Marum,Marum,Groningen,VBO,6.258634,53.144297
Sportlaan,11,,,9363GM,Marum,Marum,Groningen,VBO,6.255731,53.144166
Sportlaan,12,,,9363GM,Marum,Marum,Groningen,VBO,6.258289,53.144255
Sportlaan,14,,,9363GM,Marum,Marum,Groningen,VBO,6.257989,53.144203
Sportlaan,16,,,9363GM,Marum,Marum,Groningen,VBO,6.257884,53.144195
Sportlaan,22,,,9363GM,Marum,Marum,Groningen,VBO,6.255936,53.143948
Sportlaan,24,,,9363GM,Marum,Marum,Groningen,VBO,6.255831,53.143922
Sportlaan,26,,,9363GM,Marum,Marum,Groningen,VBO,6.255741,53.143905
Sportlaan,28,,,9363GM,Marum,Marum,Groningen,VBO,6.255576,53.143870
Sportlaan,30,,,9363GM,Marum,Marum,Groningen,VBO,6.255501,53.143853
Sportlaan,32,,,9363GM,Marum,Marum,Groningen,VBO,6.255381,53.143827
Rozenlaan,3,,,9363GN,Marum,Marum,Groningen,VBO,6.259049,53.144887
Rozenlaan,4,,,9363GN,Marum,Marum,Groningen,VBO,6.258359,53.144749
Rozenlaan,5,,,9363GN,Marum,Marum,Groningen,VBO,6.258843,53.145069
Rozenlaan,6,,,9363GN,Marum,Marum,Groningen,VBO,6.258286,53.144866
Rozenlaan,7,,,9363GN,Marum,Marum,Groningen,VBO,6.258699,53.145303
Rozenlaan,8,,,9363GN,Marum,Marum,Groningen,VBO,6.258184,53.145001
Rozenlaan,9,,,9363GN,Marum,Marum,Groningen,VBO,6.258540,53.145583
Rozenlaan,10,,,9363GN,Marum,Marum,Groningen,VBO,6.258083,53.145146
Rozenlaan,12,,,9363GN,Marum,Marum,Groningen,VBO,6.258026,53.145281
Rozenlaan,14,,,9363GN,Marum,Marum,Groningen,VBO,6.257849,53.145435
Acacialaan,2,,,9363GP,Marum,Marum,Groningen,VBO,6.257402,53.144746
Acacialaan,3,,,9363GP,Marum,Marum,Groningen,VBO,6.257953,53.144635
Acacialaan,4,,,9363GP,Marum,Marum,Groningen,VBO,6.257358,53.144801
Acacialaan,5,,,9363GP,Marum,Marum,Groningen,VBO,6.257864,53.144680
Acacialaan,6,,,9363GP,Marum,Marum,Groningen,VBO,6.257329,53.144846
Acacialaan,7,,,9363GP,Marum,Marum,Groningen,VBO,6.257791,53.144780
Acacialaan,8,,,9363GP,Marum,Marum,Groningen,VBO,6.257301,53.144900
Acacialaan,9,,,9363GP,Marum,Marum,Groningen,VBO,6.257748,53.144834
Acacialaan,10,,,9363GP,Marum,Marum,Groningen,VBO,6.257140,53.145108
Acacialaan,11,,,9363GP,Marum,Marum,Groningen,VBO,6.257690,53.144942
Acacialaan,12,,,9363GP,Marum,Marum,Groningen,VBO,6.257111,53.145162
Acacialaan,13,,,9363GP,Marum,Marum,Groningen,VBO,6.257631,53.144987
Acacialaan,14,,,9363GP,Marum,Marum,Groningen,VBO,6.257068,53.145216
Acacialaan,15,,,9363GP,Marum,Marum,Groningen,VBO,6.257604,53.145113
Acacialaan,16,,,9363GP,Marum,Marum,Groningen,VBO,6.257039,53.145270
Acacialaan,17,,,9363GP,Marum,Marum,Groningen,VBO,6.257560,53.145186
Acacialaan,19,,,9363GP,Marum,Marum,Groningen,VBO,6.257503,53.145285
Acacialaan,21,,,9363GP,Marum,Marum,Groningen,VBO,6.257459,53.145339
Margrietlaan,1,,,9363GR,Marum,Marum,Groningen,VBO,6.256736,53.145048
Margrietlaan,3,,,9363GR,Marum,Marum,Groningen,VBO,6.256660,53.145030
Margrietlaan,5,,,9363GR,Marum,Marum,Groningen,VBO,6.256541,53.145013
Margrietlaan,7,,,9363GR,Marum,Marum,Groningen,VBO,6.256465,53.144996
Margrietlaan,9,,,9363GR,Marum,Marum,Groningen,VBO,6.256270,53.144952
Margrietlaan,11,,,9363GR,Marum,Marum,Groningen,VBO,6.256210,53.144935
Margrietlaan,13,,,9363GR,Marum,Marum,Groningen,VBO,6.256120,53.144909
Margrietlaan,15,,,9363GR,Marum,Marum,Groningen,VBO,6.256015,53.144891
Margrietlaan,17,,,9363GR,Marum,Marum,Groningen,VBO,6.255850,53.144857
Margrietlaan,19,,,9363GR,Marum,Marum,Groningen,VBO,6.255730,53.144839
Margrietlaan,21,,,9363GR,Marum,Marum,Groningen,VBO,6.255655,53.144831
Margrietlaan,23,,,9363GR,Marum,Marum,Groningen,VBO,6.255565,53.144814
Margrietlaan,25,,,9363GR,Marum,Marum,Groningen,VBO,6.255590,53.144544
Margrietlaan,2,,,9363GS,Marum,Marum,Groningen,VBO,6.256895,53.144822
Margrietlaan,4,,,9363GS,Marum,Marum,Groningen,VBO,6.256790,53.144805
Margrietlaan,6,,,9363GS,Marum,Marum,Groningen,VBO,6.256715,53.144787
Margrietlaan,8,,,9363GS,Marum,Marum,Groningen,VBO,6.256625,53.144770
Margrietlaan,10,,,9363GS,Marum,Marum,Groningen,VBO,6.256430,53.144736
Margrietlaan,12,,,9363GS,Marum,Marum,Groningen,VBO,6.256340,53.144727
Margrietlaan,14,,,9363GS,Marum,Marum,Groningen,VBO,6.256250,53.144701
Margrietlaan,16,,,9363GS,Marum,Marum,Groningen,VBO,6.256145,53.144684
Margrietlaan,18,,,9363GS,Marum,Marum,Groningen,VBO,6.256070,53.144666
Kerklaan,1,A,,9363GT,Marum,Marum,Groningen,VBO,6.255730,53.143366
Kerklaan,1,,,9363GT,Marum,Marum,Groningen,VBO,6.255659,53.143546
Kerklaan,2,,,9363GT,Marum,Marum,Groningen,VBO,6.255296,53.143324
Kerklaan,3,,,9363GT,Marum,Marum,Groningen,VBO,6.255497,53.143664
Kerklaan,4,,,9363GT,Marum,Marum,Groningen,VBO,6.255224,53.143432
Kerklaan,5,,,9363GT,Marum,Marum,Groningen,VBO,6.255236,53.144070
Kerklaan,6,,,9363GT,Marum,Marum,Groningen,VBO,6.255151,53.143523
Kerklaan,7,,,9363GT,Marum,Marum,Groningen,VBO,6.255091,53.144269
Kerklaan,8,,,9363GT,Marum,Marum,Groningen,VBO,6.255078,53.143631
Kerklaan,9,,,9363GT,Marum,Marum,Groningen,VBO,6.254989,53.144423
Kerklaan,10,,,9363GT,Marum,Marum,Groningen,VBO,6.254990,53.143722
Kerklaan,11,,,9363GT,Marum,Marum,Groningen,VBO,6.254887,53.144558
Kerklaan,12,,,9363GT,Marum,Marum,Groningen,VBO,6.254771,53.143948
Kerklaan,13,,,9363GT,Marum,Marum,Groningen,VBO,6.254858,53.144603
Kerklaan,14,,,9363GT,Marum,Marum,Groningen,VBO,6.254625,53.144138
Kerklaan,15,,,9363GT,Marum,Marum,Groningen,VBO,6.254757,53.144784
Kerklaan,16,,,9363GT,Marum,Marum,Groningen,VBO,6.254568,53.144273
Kerklaan,18,,,9363GT,Marum,Marum,Groningen,VBO,6.254480,53.144390
Kerklaan,20,,,9363GT,Marum,Marum,Groningen,VBO,6.254379,53.144535
Kerklaan,22,,,9363GT,Marum,Marum,Groningen,VBO,6.254292,53.144670
Westerhoflaan,1,,,9363GV,Marum,Marum,Groningen,VBO,6.254426,53.143887
Westerhoflaan,2,A,,9363GV,Marum,Marum,Groningen,VBO,6.254757,53.143588
Westerhoflaan,2,,,9363GV,Marum,Marum,Groningen,VBO,6.254570,53.143635
Westerhoflaan,3,,,9363GV,Marum,Marum,Groningen,VBO,6.254230,53.143826
Westerhoflaan,4,,,9363GV,Marum,Marum,Groningen,VBO,6.254465,53.143609
Westerhoflaan,5,,,9363GV,Marum,Marum,Groningen,VBO,6.254065,53.143782
Westerhoflaan,6,,,9363GV,Marum,Marum,Groningen,VBO,6.254375,53.143591
Westerhoflaan,7,,,9363GV,Marum,Marum,Groningen,VBO,6.253539,53.143642
Westerhoflaan,8,,,9363GV,Marum,Marum,Groningen,VBO,6.254285,53.143565
Westerhoflaan,9,,,9363GV,Marum,Marum,Groningen,VBO,6.253343,53.143572
Westerhoflaan,11,,,9363GV,Marum,Marum,Groningen,VBO,6.253118,53.143519
Westerhoflaan,13,,,9363GV,Marum,Marum,Groningen,VBO,6.252893,53.143458
Westerhoflaan,15,,,9363GV,Marum,Marum,Groningen,VBO,6.252637,53.143397
Westerhoflaan,10,,,9363GW,Marum,Marum,Groningen,VBO,6.254179,53.143539
Westerhoflaan,12,,,9363GW,Marum,Marum,Groningen,VBO,6.254089,53.143512
Westerhoflaan,14,,,9363GW,Marum,Marum,Groningen,VBO,6.253954,53.143459
Westerhoflaan,16,,,9363GW,Marum,Marum,Groningen,VBO,6.253849,53.143451
Westerhoflaan,18,,,9363GW,Marum,Marum,Groningen,VBO,6.253729,53.143425
Westerhoflaan,20,,,9363GW,Marum,Marum,Groningen,VBO,6.253639,53.143399
Westerhoflaan,22,,,9363GW,Marum,Marum,Groningen,VBO,6.253563,53.143372
Westerhoflaan,24,,,9363GW,Marum,Marum,Groningen,VBO,6.253473,53.143355
Westerhoflaan,26,,,9363GW,Marum,Marum,Groningen,VBO,6.253308,53.143320
Westerhoflaan,28,,,9363GW,Marum,Marum,Groningen,VBO,6.253203,53.143303
Westerhoflaan,30,,,9363GW,Marum,Marum,Groningen,VBO,6.253113,53.143268
Westerhoflaan,32,,,9363GW,Marum,Marum,Groningen,VBO,6.253023,53.143251
Westerhoflaan,34,,,9363GW,Marum,Marum,Groningen,VBO,6.252933,53.143233
Westerhoflaan,36,,,9363GW,Marum,Marum,Groningen,VBO,6.252842,53.143198
Westerhoflaan,38,,,9363GW,Marum,Marum,Groningen,VBO,6.252451,53.143057
Torenstraat,1,,,9363GX,Marum,Marum,Groningen,VBO,6.253869,53.143730
Torenstraat,2,A,,9363GX,Marum,Marum,Groningen,VBO,6.253349,53.143886
Torenstraat,2,,,9363GX,Marum,Marum,Groningen,VBO,6.253217,53.144013
Torenstraat,3,,,9363GX,Marum,Marum,Groningen,VBO,6.253666,53.144037
Torenstraat,4,,,9363GX,Marum,Marum,Groningen,VBO,6.253160,53.144130
Torenstraat,5,,,9363GX,Marum,Marum,Groningen,VBO,6.253579,53.144145
Torenstraat,6,,,9363GX,Marum,Marum,Groningen,VBO,6.253116,53.144184
Torenstraat,7,,,9363GX,Marum,Marum,Groningen,VBO,6.253506,53.144254
Torenstraat,9,,,9363GX,Marum,Marum,Groningen,VBO,6.253360,53.144434
Marktstraat,1,,,9363GZ,Marum,Marum,Groningen,VBO,6.252567,53.142867
Marktstraat,2,,,9363GZ,Marum,Marum,Groningen,VBO,6.252190,53.142699
Marktstraat,3,,,9363GZ,Marum,Marum,Groningen,VBO,6.252494,53.142967
Marktstraat,5,,,9363GZ,Marum,Marum,Groningen,VBO,6.252367,53.143345
Marktstraat,6,,,9363GZ,Marum,Marum,Groningen,VBO,6.251897,53.142980
Marktstraat,7,,,9363GZ,Marum,Marum,Groningen,VBO,6.252508,53.143677
Marktstraat,8,,,9363GZ,Marum,Marum,Groningen,VBO,6.251794,53.143098
Marktstraat,9,,,9363GZ,Marum,Marum,Groningen,VBO,6.252391,53.143803
Marktstraat,10,,,9363GZ,Marum,Marum,Groningen,VBO,6.251781,53.143161
Marktstraat,11,,,9363GZ,Marum,Marum,Groningen,VBO,6.252362,53.143848
Marktstraat,12,,,9363GZ,Marum,Marum,Groningen,VBO,6.251768,53.143296
Marktstraat,13,,,9363GZ,Marum,Marum,Groningen,VBO,6.252333,53.143885
Marktstraat,14,,,9363GZ,Marum,Marum,Groningen,VBO,6.251742,53.143466
Marktstraat,15,,,9363GZ,Marum,Marum,Groningen,VBO,6.252304,53.143930
Marktstraat,16,,,9363GZ,Marum,Marum,Groningen,VBO,6.251671,53.143665
Marktstraat,18,,,9363GZ,Marum,Marum,Groningen,VBO,6.251569,53.143809
Marktstraat,20,,,9363GZ,Marum,Marum,Groningen,VBO,6.251424,53.143990
Marktstraat,22,,,9363GZ,Marum,Marum,Groningen,VBO,6.251516,53.144142
Marktstraat,24,,,9363GZ,Marum,Marum,Groningen,VBO,6.251446,53.144271
Noorderringweg,15,A,,9363HA,Marum,Marum,Groningen,VBO,6.259462,53.146852
Noorderringweg,15,B,,9363HA,Marum,Marum,Groningen,VBO,6.260214,53.147080
Noorderringweg,15,C,,9363HA,Marum,Marum,Groningen,VBO,6.257845,53.147439
Noorderringweg,15,,,9363HA,Marum,Marum,Groningen,VBO,6.260903,53.147138
Noorderringweg,19,,,9363HA,Marum,Marum,Groningen,VBO,6.256702,53.145587
Noorderringweg,33,,,9363HA,Marum,Marum,Groningen,VBO,6.255066,53.145294
Noorderringweg,39,,,9363HA,Marum,Marum,Groningen,VBO,6.253255,53.146646
Noorderringweg,41,,,9363HA,Marum,Marum,Groningen,VBO,6.252884,53.145291
Noorderringweg,18,,,9363HB,Marum,Marum,Groningen,VBO,6.262453,53.148412
Noorderringweg,20,,,9363HB,Marum,Marum,Groningen,VBO,6.258783,53.145770
Noorderringweg,22,,,9363HB,Marum,Marum,Groningen,VBO,6.253961,53.144583
Noorderringweg,24,,,9363HB,Marum,Marum,Groningen,VBO,6.253721,53.144548
Noorderringweg,26,,,9363HB,Marum,Marum,Groningen,VBO,6.253527,53.144523
Noorderringweg,30,,,9363HB,Marum,Marum,Groningen,VBO,6.252849,53.144258
Noorderringweg,34,,,9363HB,Marum,Marum,Groningen,VBO,6.252445,53.144270
Noorderringweg,36,,,9363HB,Marum,Marum,Groningen,VBO,6.252159,53.144164
Randel,1,A,,9363HC,Marum,Marum,Groningen,VBO,6.251274,53.142472
Randel,1,B,,9363HC,Marum,Marum,Groningen,VBO,6.251230,53.142527
Randel,1,C,,9363HC,Marum,Marum,Groningen,VBO,6.251142,53.142626
Randel,1,D,,9363HC,Marum,Marum,Groningen,VBO,6.251099,53.142680
Randel,1,,,9363HC,Marum,Marum,Groningen,VBO,6.250753,53.142584
Randel,2,,,9363HC,Marum,Marum,Groningen,VBO,6.250789,53.142170
Randel,3,,,9363HC,Marum,Marum,Groningen,VBO,6.250727,53.142764
Randel,4,,,9363HC,Marum,Marum,Groningen,VBO,6.250835,53.142188
Randel,5,,,9363HC,Marum,Marum,Groningen,VBO,6.250698,53.142836
Randel,6,,,9363HC,Marum,Marum,Groningen,VBO,6.250880,53.142197
Randel,7,,,9363HC,Marum,Marum,Groningen,VBO,6.250655,53.142944
Randel,8,A,,9363HC,Marum,Marum,Groningen,VBO,6.250955,53.142214
Randel,8,,,9363HC,Marum,Marum,Groningen,VBO,6.250940,53.142205
Randel,9,,,9363HC,Marum,Marum,Groningen,VBO,6.250627,53.143025
Randel,10,,,9363HC,Marum,Marum,Groningen,VBO,6.250305,53.142605
Randel,11,,,9363HC,Marum,Marum,Groningen,VBO,6.250584,53.143124
Randel,12,,,9363HC,Marum,Marum,Groningen,VBO,6.250276,53.142677
Randel,13,,,9363HC,Marum,Marum,Groningen,VBO,6.250556,53.143187
Randel,14,,,9363HC,Marum,Marum,Groningen,VBO,6.250248,53.142758
Randel,15,,,9363HC,Marum,Marum,Groningen,VBO,6.249905,53.143561
Randel,16,,,9363HC,Marum,Marum,Groningen,VBO,6.250220,53.142830
Randel,17,,,9363HC,Marum,Marum,Groningen,VBO,6.249517,53.143572
Randel,18,,,9363HC,Marum,Marum,Groningen,VBO,6.250191,53.142903
Randel,19,,,9363HC,Marum,Marum,Groningen,VBO,6.249524,53.143914
Randel,20,A,,9363HC,Marum,Marum,Groningen,VBO,6.249596,53.143033
Randel,20,,,9363HC,Marum,Marum,Groningen,VBO,6.250163,53.142984
Randel,21,,,9363HC,Marum,Marum,Groningen,VBO,6.249319,53.144131
Randel,22,,,9363HC,Marum,Marum,Groningen,VBO,6.249119,53.143072
Randel,23,,,9363HC,Marum,Marum,Groningen,VBO,6.249248,53.144311
Randel,26,A,,9363HC,Marum,Marum,Groningen,VBO,6.248683,53.143722
Randel,26,B,,9363HC,Marum,Marum,Groningen,VBO,6.248658,53.143956
Randel,26,C,,9363HC,Marum,Marum,Groningen,VBO,6.248557,53.144136
Randel,26,,,9363HC,Marum,Marum,Groningen,VBO,6.248784,53.143551
Randel,28,,,9363HC,Marum,Marum,Groningen,VBO,6.248427,53.144380
De Ackeren,2,,,9363HD,Marum,Marum,Groningen,VBO,6.247491,53.144656
De Ackeren,4,,,9363HD,Marum,Marum,Groningen,VBO,6.247323,53.144478
De Ackeren,6,,,9363HD,Marum,Marum,Groningen,VBO,6.247352,53.144424
De Ackeren,8,,,9363HD,Marum,Marum,Groningen,VBO,6.247380,53.144334
De Ackeren,10,,,9363HD,Marum,Marum,Groningen,VBO,6.247409,53.144270
De Ackeren,12,,,9363HD,Marum,Marum,Groningen,VBO,6.247538,53.143982
De Ackeren,14,,,9363HD,Marum,Marum,Groningen,VBO,6.247608,53.143793
De Ackeren,16,,,9363HD,Marum,Marum,Groningen,VBO,6.247692,53.143460
De Ackeren,18,,,9363HD,Marum,Marum,Groningen,VBO,6.248100,53.142945
De Ackeren,20,,,9363HD,Marum,Marum,Groningen,VBO,6.248140,53.142702
De Ackeren,22,,,9363HD,Marum,Marum,Groningen,VBO,6.247460,53.142311
De Ackeren,24,,,9363HD,Marum,Marum,Groningen,VBO,6.246874,53.142181
De Ackeren,1,,,9363HE,Marum,Marum,Groningen,VBO,6.246961,53.144283
De Ackeren,3,,,9363HE,Marum,Marum,Groningen,VBO,6.247064,53.144237
De Ackeren,5,A,,9363HE,Marum,Marum,Groningen,VBO,6.246456,53.142956
De Ackeren,5,,,9363HE,Marum,Marum,Groningen,VBO,6.247078,53.144183
De Ackeren,7,,,9363HE,Marum,Marum,Groningen,VBO,6.247077,53.142619
De Ackeren,9,,,9363HE,Marum,Marum,Groningen,VBO,6.246613,53.142596
De Ackeren,11,,,9363HE,Marum,Marum,Groningen,VBO,6.246254,53.142544
De Ackeren,13,,,9363HE,Marum,Marum,Groningen,VBO,6.245849,53.142484
De Ackeren,15,,,9363HE,Marum,Marum,Groningen,VBO,6.245504,53.142433
De Ackeren,17,,,9363HE,Marum,Marum,Groningen,VBO,6.245189,53.142381
Westerbuuren,2,,,9363HG,Marum,Marum,Groningen,VBO,6.246619,53.144411
Westerbuuren,4,,,9363HG,Marum,Marum,Groningen,VBO,6.246530,53.144421
Westerbuuren,6,,,9363HG,Marum,Marum,Groningen,VBO,6.246321,53.144431
Westerbuuren,8,,,9363HG,Marum,Marum,Groningen,VBO,6.246232,53.144450
Westerbuuren,10,,,9363HG,Marum,Marum,Groningen,STA,6.246056,53.144414
Westerbuuren,12,,,9363HG,Marum,Marum,Groningen,STA,6.245927,53.144427
Westerbuuren,18,,,9363HG,Marum,Marum,Groningen,VBO,6.245057,53.144000
Westerbuuren,20,,,9363HG,Marum,Marum,Groningen,VBO,6.244982,53.143973
Westerbuuren,22,,,9363HG,Marum,Marum,Groningen,VBO,6.244533,53.143941
Westerbuuren,1,,,9363HH,Marum,Marum,Groningen,VBO,6.247117,53.144623
Westerbuuren,3,,,9363HH,Marum,Marum,Groningen,VBO,6.246953,53.144642
Westerbuuren,5,,,9363HH,Marum,Marum,Groningen,VBO,6.246818,53.144652
Westerbuuren,7,,,9363HH,Marum,Marum,Groningen,VBO,6.246684,53.144662
Westerbuuren,9,,,9363HH,Marum,Marum,Groningen,STA,6.246523,53.144645
Westerbuuren,13,,,9363HH,Marum,Marum,Groningen,STA,6.246235,53.144674
Westerbuuren,15,,,9363HH,Marum,Marum,Groningen,VBO,6.246042,53.144703
Westerbuuren,17,,,9363HH,Marum,Marum,Groningen,VBO,6.245759,53.144759
Westerbuuren,19,,,9363HH,Marum,Marum,Groningen,VBO,6.245577,53.144580
Westerbuuren,21,,,9363HH,Marum,Marum,Groningen,VBO,6.245531,53.144527
Westerbuuren,23,,,9363HH,Marum,Marum,Groningen,VBO,6.245333,53.144366
Westerbuuren,25,,,9363HH,Marum,Marum,Groningen,VBO,6.245092,53.144287
Westerbuuren,27,,,9363HH,Marum,Marum,Groningen,VBO,6.245002,53.144261
Westerbuuren,29,,,9363HH,Marum,Marum,Groningen,VBO,6.244658,53.144218
Middenbuuren,1,,,9363HJ,Marum,Marum,Groningen,VBO,6.247002,53.143630
Middenbuuren,2,,,9363HJ,Marum,Marum,Groningen,VBO,6.246952,53.143833
Middenbuuren,3,,,9363HJ,Marum,Marum,Groningen,VBO,6.246647,53.143521
Middenbuuren,4,,,9363HJ,Marum,Marum,Groningen,VBO,6.246862,53.143816
Middenbuuren,5,,,9363HJ,Marum,Marum,Groningen,VBO,6.246242,53.143488
Middenbuuren,6,,,9363HJ,Marum,Marum,Groningen,VBO,6.246532,53.143783
Middenbuuren,7,,,9363HJ,Marum,Marum,Groningen,VBO,6.245791,53.143348
Middenbuuren,8,,,9363HJ,Marum,Marum,Groningen,VBO,6.246412,53.143774
Middenbuuren,9,,,9363HJ,Marum,Marum,Groningen,VBO,6.245253,53.143333
Middenbuuren,10,,,9363HJ,Marum,Marum,Groningen,VBO,6.246098,53.143741
Middenbuuren,11,,,9363HJ,Marum,Marum,Groningen,VBO,6.245035,53.143658
Middenbuuren,12,,,9363HJ,Marum,Marum,Groningen,VBO,6.246008,53.143723
Middenbuuren,14,,,9363HJ,Marum,Marum,Groningen,VBO,6.245678,53.143654
Middenbuuren,16,,,9363HJ,Marum,Marum,Groningen,VBO,6.245588,53.143646
Zuiderbuuren,1,,,9363HK,Marum,Marum,Groningen,VBO,6.249524,53.142395
Zuiderbuuren,2,,,9363HK,Marum,Marum,Groningen,VBO,6.250357,53.142218
Zuiderbuuren,3,,,9363HK,Marum,Marum,Groningen,VBO,6.249224,53.142370
Zuiderbuuren,4,,,9363HK,Marum,Marum,Groningen,VBO,6.250267,53.142210
Zuiderbuuren,5,,,9363HK,Marum,Marum,Groningen,VBO,6.248924,53.142283
Zuiderbuuren,6,,,9363HK,Marum,Marum,Groningen,VBO,6.249997,53.142167
Zuiderbuuren,7,,,9363HK,Marum,Marum,Groningen,VBO,6.248595,53.142276
Zuiderbuuren,8,,,9363HK,Marum,Marum,Groningen,VBO,6.249922,53.142159
Zuiderbuuren,9,,,9363HK,Marum,Marum,Groningen,VBO,6.248264,53.142198
Zuiderbuuren,10,,,9363HK,Marum,Marum,Groningen,VBO,6.249648,53.141909
Zuiderbuuren,11,,,9363HK,Marum,Marum,Groningen,VBO,6.247588,53.142023
Zuiderbuuren,12,,,9363HK,Marum,Marum,Groningen,VBO,6.249259,53.141858
Zuiderbuuren,13,,,9363HK,Marum,Marum,Groningen,VBO,6.246899,53.141947
Zuiderbuuren,14,,,9363HK,Marum,Marum,Groningen,VBO,6.248930,53.141833
Zuiderbuuren,16,,,9363HK,Marum,Marum,Groningen,VBO,6.248630,53.141808
Zuiderbuuren,18,,,9363HK,Marum,Marum,Groningen,VBO,6.248286,53.141784
Zuiderbuuren,20,,,9363HK,Marum,Marum,Groningen,VBO,6.247984,53.141615
Zuiderbuuren,22,,,9363HK,Marum,Marum,Groningen,VBO,6.247579,53.141546
Zuiderbuuren,24,,,9363HK,Marum,Marum,Groningen,VBO,6.247038,53.141425
Zuiderbuuren,26,,,9363HK,Marum,Marum,Groningen,VBO,6.246588,53.141329
Zuiderbuuren,28,,,9363HK,Marum,Marum,Groningen,VBO,6.246460,53.141626
Zuiderbuuren,30,,,9363HK,Marum,Marum,Groningen,VBO,6.246209,53.141808
Zuiderbuuren,32,,,9363HK,Marum,Marum,Groningen,VBO,6.245958,53.141962
ESAlaan,1,,,9363HL,Marum,Marum,Groningen,VBO,6.251316,53.141582
ESAlaan,2,,,9363HL,Marum,Marum,Groningen,VBO,6.251825,53.141170
ESAlaan,3,,,9363HL,Marum,Marum,Groningen,VBO,6.251285,53.141520
ESAlaan,4,,,9363HL,Marum,Marum,Groningen,VBO,6.251833,53.141015
ESAlaan,5,,,9363HL,Marum,Marum,Groningen,VBO,6.251312,53.141394
ESAlaan,7,,,9363HL,Marum,Marum,Groningen,VBO,6.251311,53.141349
ESAlaan,9,,,9363HL,Marum,Marum,Groningen,VBO,6.251324,53.141223
ESAlaan,11,A,,9363HL,Marum,Marum,Groningen,VBO,6.251538,53.140745
ESAlaan,11,,,9363HL,Marum,Marum,Groningen,VBO,6.251366,53.141097
ESAlaan,13,,,9363HL,Marum,Marum,Groningen,VBO,6.251775,53.141363
ESAlaan,15,,,9363HL,Marum,Marum,Groningen,VBO,6.252044,53.141362
ESAlaan,17,,,9363HL,Marum,Marum,Groningen,VBO,6.252248,53.141464
Rewerdaheerd,1,,,9363JA,Marum,Marum,Groningen,VBO,6.270457,53.142189
Rewerdaheerd,2,,,9363JA,Marum,Marum,Groningen,VBO,6.270954,53.142329
Rewerdaheerd,3,,,9363JA,Marum,Marum,Groningen,VBO,6.270725,53.142133
Rewerdaheerd,4,,,9363JA,Marum,Marum,Groningen,VBO,6.270986,53.142436
Rewerdaheerd,5,,,9363JA,Marum,Marum,Groningen,VBO,6.270647,53.141936
Rewerdaheerd,6,,,9363JA,Marum,Marum,Groningen,VBO,6.270717,53.142456
Rewerdaheerd,7,,,9363JA,Marum,Marum,Groningen,VBO,6.270945,53.141925
Rewerdaheerd,8,,,9363JA,Marum,Marum,Groningen,VBO,6.270612,53.142430
Rewerdaheerd,9,,,9363JA,Marum,Marum,Groningen,VBO,6.271244,53.141940
Rewerdaheerd,10,,,9363JA,Marum,Marum,Groningen,VBO,6.270448,53.142440
Rewerdaheerd,11,,,9363JA,Marum,Marum,Groningen,VBO,6.271518,53.142163
Rewerdaheerd,12,,,9363JA,Marum,Marum,Groningen,VBO,6.270344,53.142495
Rewerdaheerd,13,,,9363JA,Marum,Marum,Groningen,VBO,6.271537,53.142369
Suwemaheerd,2,,,9363JB,Marum,Marum,Groningen,VBO,6.270152,53.143323
Suwemaheerd,3,,,9363JB,Marum,Marum,Groningen,VBO,6.270653,53.143005
Suwemaheerd,4,,,9363JB,Marum,Marum,Groningen,VBO,6.270256,53.143322
Suwemaheerd,5,,,9363JB,Marum,Marum,Groningen,VBO,6.270758,53.142995
Suwemaheerd,6,,,9363JB,Marum,Marum,Groningen,VBO,6.270331,53.143313
Suwemaheerd,7,,,9363JB,Marum,Marum,Groningen,VBO,6.270877,53.142994
Suwemaheerd,8,,,9363JB,Marum,Marum,Groningen,VBO,6.270465,53.143294
Suwemaheerd,9,,,9363JB,Marum,Marum,Groningen,VBO,6.270952,53.142985
Suwemaheerd,10,,,9363JB,Marum,Marum,Groningen,VBO,6.270555,53.143284
Suwemaheerd,12,,,9363JB,Marum,Marum,Groningen,VBO,6.270736,53.143400
Suwemaheerd,14,,,9363JB,Marum,Marum,Groningen,VBO,6.270826,53.143381
Suwemaheerd,16,,,9363JB,Marum,Marum,Groningen,VBO,6.270915,53.143372
Suwemaheerd,18,,,9363JB,Marum,Marum,Groningen,VBO,6.271020,53.143371
Suwemaheerd,20,,,9363JB,Marum,Marum,Groningen,VBO,6.271109,53.143361
Van Ewsumstraat,2,,,9363JC,Marum,Marum,Groningen,VBO,6.270915,53.142662
Van Ewsumstraat,4,,,9363JC,Marum,Marum,Groningen,VBO,6.270947,53.142724
Van Ewsumstraat,6,,,9363JC,Marum,Marum,Groningen,VBO,6.270948,53.142787
Van Ewsumstraat,8,,,9363JC,Marum,Marum,Groningen,VBO,6.270979,53.142841
Van Ewsumstraat,12,,,9363JC,Marum,Marum,Groningen,VBO,6.272356,53.143666
Van Ewsumstraat,14,,,9363JC,Marum,Marum,Groningen,VBO,6.272359,53.143707
Van Ewsumstraat,16,,,9363JC,Marum,Marum,Groningen,VBO,6.272328,53.143752
Van Ewsumstraat,18,,,9363JC,Marum,Marum,Groningen,VBO,6.272284,53.143811
Van Ewsumstraat,20,,,9363JC,Marum,Marum,Groningen,VBO,6.272270,53.143856
Van Ewsumstraat,22,,,9363JC,Marum,Marum,Groningen,VBO,6.272734,53.143870
Van Ewsumstraat,24,,,9363JC,Marum,Marum,Groningen,VBO,6.272748,53.143834
Van Ewsumstraat,26,,,9363JC,Marum,Marum,Groningen,VBO,6.272762,53.143798
Van Ewsumstraat,28,,,9363JC,Marum,Marum,Groningen,VBO,6.272761,53.143753
Van Ewsumstraat,30,,,9363JC,Marum,Marum,Groningen,VBO,6.272731,53.143727
Van Ewsumstraat,32,,,9363JC,Marum,Marum,Groningen,VBO,6.272745,53.143682
Van Ewsumstraat,34,,,9363JC,Marum,Marum,Groningen,VBO,6.272759,53.143646
Van Ewsumstraat,36,,,9363JC,Marum,Marum,Groningen,VBO,6.273103,53.143688
Van Ewsumstraat,38,,,9363JC,Marum,Marum,Groningen,VBO,6.273187,53.143689
Van Ewsumstraat,40,,,9363JC,Marum,Marum,Groningen,VBO,6.273443,53.143470
Van Ewsumstraat,42,,,9363JC,Marum,Marum,Groningen,VBO,6.273459,53.143418
Van Ewsumstraat,44,,,9363JC,Marum,Marum,Groningen,VBO,6.273478,53.143373
Van Ewsumstraat,46,,,9363JC,Marum,Marum,Groningen,VBO,6.273485,53.143335
Van Ewsumstraat,48,,,9363JC,Marum,Marum,Groningen,VBO,6.273499,53.143281
Van Ewsumstraat,50,,,9363JC,Marum,Marum,Groningen,VBO,6.273570,53.143091
Van Ewsumstraat,52,,,9363JC,Marum,Marum,Groningen,VBO,6.273584,53.143046
Van Ewsumstraat,54,,,9363JC,Marum,Marum,Groningen,VBO,6.273611,53.142920
Van Ewsumstraat,56,,,9363JC,Marum,Marum,Groningen,VBO,6.273625,53.142866
Van Ewsumstraat,58,,,9363JC,Marum,Marum,Groningen,VBO,6.273667,53.142731
Van Ewsumstraat,62,,,9363JC,Marum,Marum,Groningen,VBO,6.273183,53.142474
Van Ewsumstraat,64,,,9363JC,Marum,Marum,Groningen,VBO,6.273093,53.142457
Van Ewsumstraat,66,,,9363JC,Marum,Marum,Groningen,VBO,6.272823,53.142414
Van Ewsumstraat,68,,,9363JC,Marum,Marum,Groningen,VBO,6.272733,53.142397
Van Ewsumstraat,70,,,9363JC,Marum,Marum,Groningen,VBO,6.272449,53.142363
Van Ewsumstraat,72,,,9363JC,Marum,Marum,Groningen,VBO,6.272389,53.142345
Jetske Tyaartsheerd,1,A,,9363JD,Marum,Marum,Groningen,VBO,6.271169,53.144089
Jetske Tyaartsheerd,1,B,,9363JD,Marum,Marum,Groningen,VBO,6.270794,53.144010
Jetske Tyaartsheerd,1,,,9363JD,Marum,Marum,Groningen,VBO,6.271304,53.144133
Jetske Tyaartsheerd,3,,,9363JD,Marum,Marum,Groningen,VBO,6.270823,53.143992
Jetske Tyaartsheerd,5,,,9363JD,Marum,Marum,Groningen,VBO,6.270763,53.143993
Jetske Tyaartsheerd,7,,,9363JD,Marum,Marum,Groningen,VBO,6.270794,53.144019
Jetske Tyaartsheerd,9,,,9363JD,Marum,Marum,Groningen,VBO,6.270823,53.144010
Jetske Tyaartsheerd,11,,,9363JD,Marum,Marum,Groningen,VBO,6.270838,53.143992
Jetske Tyaartsheerd,13,,,9363JD,Marum,Marum,Groningen,VBO,6.270508,53.143959
Jetske Tyaartsheerd,15,,,9363JD,Marum,Marum,Groningen,VBO,6.270538,53.143940
Jetske Tyaartsheerd,17,,,9363JD,Marum,Marum,Groningen,VBO,6.270478,53.143941
Jetske Tyaartsheerd,19,,,9363JD,Marum,Marum,Groningen,VBO,6.270509,53.143968
Jetske Tyaartsheerd,21,,,9363JD,Marum,Marum,Groningen,VBO,6.270538,53.143958
Jetske Tyaartsheerd,23,,,9363JD,Marum,Marum,Groningen,VBO,6.270553,53.143940
Jetske Tyaartsheerd,2,,,9363JE,Marum,Marum,Groningen,VBO,6.271010,53.143622
Jetske Tyaartsheerd,4,,,9363JE,Marum,Marum,Groningen,VBO,6.270920,53.143641
Jetske Tyaartsheerd,6,,,9363JE,Marum,Marum,Groningen,VBO,6.270831,53.143642
Jetske Tyaartsheerd,8,,,9363JE,Marum,Marum,Groningen,VBO,6.270727,53.143661
Jetske Tyaartsheerd,10,,,9363JE,Marum,Marum,Groningen,VBO,6.270560,53.143536
Jetske Tyaartsheerd,12,,,9363JE,Marum,Marum,Groningen,VBO,6.270500,53.143545
Jetske Tyaartsheerd,14,,,9363JE,Marum,Marum,Groningen,VBO,6.270396,53.143555
Jetske Tyaartsheerd,16,,,9363JE,Marum,Marum,Groningen,VBO,6.270276,53.143538
Jetske Tyaartsheerd,18,,,9363JE,Marum,Marum,Groningen,VBO,6.270186,53.143548
Jetske Tyaartsheerd,20,,,9363JE,Marum,Marum,Groningen,VBO,6.270206,53.143763
Jetske Tyaartsheerd,22,,,9363JE,Marum,Marum,Groningen,VBO,6.270162,53.143808
Jetske Tyaartsheerd,24,,,9363JE,Marum,Marum,Groningen,VBO,6.270133,53.143872
Jetske Tyaartsheerd,26,,,9363JE,Marum,Marum,Groningen,VBO,6.270074,53.143917
Jetske Tyaartsheerd,28,,,9363JE,Marum,Marum,Groningen,VBO,6.270045,53.143971
Van Ewsumstraat,1,,,9363JG,Marum,Marum,Groningen,VBO,6.271751,53.143311
Van Ewsumstraat,3,,,9363JG,Marum,Marum,Groningen,VBO,6.271976,53.143364
Van Ewsumstraat,5,,,9363JG,Marum,Marum,Groningen,VBO,6.272080,53.143354
Van Ewsumstraat,7,,,9363JG,Marum,Marum,Groningen,VBO,6.272410,53.143396
Van Ewsumstraat,9,,,9363JG,Marum,Marum,Groningen,VBO,6.272500,53.143405
Van Ewsumstraat,11,,,9363JG,Marum,Marum,Groningen,VBO,6.272575,53.143413
Van Ewsumstraat,13,,,9363JG,Marum,Marum,Groningen,VBO,6.272650,53.143422
Van Ewsumstraat,15,,,9363JG,Marum,Marum,Groningen,VBO,6.272724,53.143421
Van Ewsumstraat,17,,,9363JG,Marum,Marum,Groningen,VBO,6.272784,53.143430
Van Ewsumstraat,19,,,9363JG,Marum,Marum,Groningen,VBO,6.272889,53.143438
Van Ewsumstraat,21,,,9363JG,Marum,Marum,Groningen,VBO,6.272944,53.143234
Van Ewsumstraat,23,,,9363JG,Marum,Marum,Groningen,VBO,6.272960,53.143175
Van Ewsumstraat,25,,,9363JG,Marum,Marum,Groningen,VBO,6.273022,53.143181
Van Ewsumstraat,27,,,9363JG,Marum,Marum,Groningen,VBO,6.272974,53.143125
Van Ewsumstraat,29,,,9363JG,Marum,Marum,Groningen,VBO,6.272992,53.143073
Van Ewsumstraat,31,,,9363JG,Marum,Marum,Groningen,VBO,6.273006,53.143015
Van Ewsumstraat,33,,,9363JG,Marum,Marum,Groningen,VBO,6.273066,53.143020
Van Ewsumstraat,35,,,9363JG,Marum,Marum,Groningen,VBO,6.273020,53.142960
Van Ewsumstraat,37,,,9363JG,Marum,Marum,Groningen,VBO,6.273129,53.142762
Van Ewsumstraat,39,,,9363JG,Marum,Marum,Groningen,VBO,6.273069,53.142754
Van Ewsumstraat,41,,,9363JG,Marum,Marum,Groningen,VBO,6.273009,53.142745
Van Ewsumstraat,43,,,9363JG,Marum,Marum,Groningen,VBO,6.272935,53.142737
Van Ewsumstraat,45,,,9363JG,Marum,Marum,Groningen,VBO,6.272523,53.143081
Van Ewsumstraat,47,,,9363JG,Marum,Marum,Groningen,VBO,6.272509,53.143135
Van Ewsumstraat,49,,,9363JG,Marum,Marum,Groningen,VBO,6.272465,53.143180
Van Ewsumstraat,51,,,9363JG,Marum,Marum,Groningen,VBO,6.272355,53.142885
Van Ewsumstraat,53,,,9363JG,Marum,Marum,Groningen,VBO,6.272431,53.142938
Van Ewsumstraat,55,,,9363JG,Marum,Marum,Groningen,VBO,6.272515,53.142905
Van Ewsumstraat,57,,,9363JG,Marum,Marum,Groningen,VBO,6.272635,53.142685
Van Ewsumstraat,59,,,9363JG,Marum,Marum,Groningen,VBO,6.272545,53.142677
Van Ewsumstraat,61,,,9363JG,Marum,Marum,Groningen,VBO,6.272335,53.142642
Fockemaheerd,2,,,9363JH,Marum,Marum,Groningen,VBO,6.273695,53.142659
Fockemaheerd,4,,,9363JH,Marum,Marum,Groningen,VBO,6.273729,53.142538
Fockemaheerd,6,,,9363JH,Marum,Marum,Groningen,VBO,6.273731,53.142422
Fockemaheerd,8,,,9363JH,Marum,Marum,Groningen,VBO,6.273783,53.142310
Frima Steenhuis,2,,,9363JJ,Marum,Marum,Groningen,VBO,6.274801,53.142633
Frima Steenhuis,5,,,9363JJ,Marum,Marum,Groningen,VBO,6.274737,53.143182
Frima Steenhuis,7,,,9363JJ,Marum,Marum,Groningen,VBO,6.274647,53.143173
Frima Steenhuis,9,,,9363JJ,Marum,Marum,Groningen,VBO,6.274408,53.143148
Frima Steenhuis,11,,,9363JJ,Marum,Marum,Groningen,VBO,6.274019,53.143133
Frima Steenhuis,13,,,9363JJ,Marum,Marum,Groningen,VBO,6.274048,53.143079
Frima Steenhuis,15,,,9363JJ,Marum,Marum,Groningen,VBO,6.274061,53.143025
Frima Steenhuis,17,,,9363JJ,Marum,Marum,Groningen,VBO,6.274075,53.142971
Frima Steenhuis,19,,,9363JJ,Marum,Marum,Groningen,VBO,6.274089,53.142935
Frima Steenhuis,21,,,9363JJ,Marum,Marum,Groningen,VBO,6.274089,53.142890
Frima Steenhuis,23,,,9363JJ,Marum,Marum,Groningen,VBO,6.274116,53.142782
Frima Steenhuis,25,,,9363JJ,Marum,Marum,Groningen,VBO,6.274115,53.142737
Frima Steenhuis,27,,,9363JJ,Marum,Marum,Groningen,VBO,6.274129,53.142692
Frima Steenhuis,29,,,9363JJ,Marum,Marum,Groningen,VBO,6.274128,53.142647
Frima Steenhuis,31,,,9363JJ,Marum,Marum,Groningen,VBO,6.274142,53.142593
Frima Steenhuis,33,,,9363JJ,Marum,Marum,Groningen,VBO,6.274468,53.142456
Alberdaweg,2,,,9363JK,Marum,Marum,Groningen,VBO,6.275107,53.146656
Alberdaweg,54,,,9363JK,Marum,Marum,Groningen,VBO,6.273740,53.141904
Alberdaweg,56,,,9363JK,Marum,Marum,Groningen,VBO,6.272735,53.141759
Alberdaweg,58,,,9363JK,Marum,Marum,Groningen,VBO,6.272466,53.141734
Alberdaweg,60,,,9363JL,Marum,Marum,Groningen,VBO,6.272211,53.141700
Alberdaweg,64,,,9363JL,Marum,Marum,Groningen,VBO,6.270442,53.140688
Alberdaweg,66,,,9363JL,Marum,Marum,Groningen,VBO,6.270202,53.140636
Alberdaweg,68,,,9363JL,Marum,Marum,Groningen,VBO,6.269961,53.140575
Alberdaweg,70,,,9363JL,Marum,Marum,Groningen,VBO,6.269764,53.140424
Alberdaweg,72,,,9363JL,Marum,Marum,Groningen,VBO,6.269656,53.140263
Alberdaweg,74,,,9363JL,Marum,Marum,Groningen,VBO,6.269648,53.139112
Renkemaheerd,1,,,9363JM,Marum,Marum,Groningen,VBO,6.273845,53.143422
Renkemaheerd,2,,,9363JM,Marum,Marum,Groningen,VBO,6.273282,53.143660
Renkemaheerd,3,,,9363JM,Marum,Marum,Groningen,VBO,6.274070,53.143429
Renkemaheerd,4,,,9363JM,Marum,Marum,Groningen,VBO,6.273372,53.143659
Renkemaheerd,5,,,9363JM,Marum,Marum,Groningen,VBO,6.274308,53.143373
Renkemaheerd,6,,,9363JM,Marum,Marum,Groningen,VBO,6.273447,53.143658
Renkemaheerd,7,,,9363JM,Marum,Marum,Groningen,VBO,6.274412,53.143382
Renkemaheerd,8,,,9363JM,Marum,Marum,Groningen,VBO,6.273506,53.143658
Renkemaheerd,9,,,9363JM,Marum,Marum,Groningen,VBO,6.274637,53.143398
Renkemaheerd,10,,,9363JM,Marum,Marum,Groningen,VBO,6.273762,53.143755
Renkemaheerd,11,A,,9363JM,Marum,Marum,Groningen,VBO,6.274970,53.143593
Renkemaheerd,11,,,9363JM,Marum,Marum,Groningen,VBO,6.274727,53.143406
Renkemaheerd,12,,,9363JM,Marum,Marum,Groningen,VBO,6.273987,53.143762
Renkemaheerd,13,,,9363JM,Marum,Marum,Groningen,VBO,6.274644,53.143730
Renkemaheerd,15,,,9363JM,Marum,Marum,Groningen,VBO,6.274435,53.143732
Renkemaheerd,17,,,9363JM,Marum,Marum,Groningen,VBO,6.274438,53.143894
Renkemaheerd,18,,,9363JM,Marum,Marum,Groningen,VBO,6.273931,53.143969
Renkemaheerd,19,,,9363JM,Marum,Marum,Groningen,VBO,6.274439,53.143957
Renkemaheerd,20,,,9363JM,Marum,Marum,Groningen,VBO,6.274040,53.144166
Alberdaweg,1,,,9363JN,Marum,Marum,Groningen,VBO,6.274377,53.146042
Alberdaweg,11,,,9363JN,Marum,Marum,Groningen,VBO,6.274952,53.145651
Alberdaweg,13,,,9363JN,Marum,Marum,Groningen,VBO,6.274977,53.145399
Alberdaweg,15,,,9363JN,Marum,Marum,Groningen,VBO,6.274912,53.145157
Alberdaweg,17,,,9363JN,Marum,Marum,Groningen,VBO,6.274848,53.144942
Alberdaweg,19,,,9363JN,Marum,Marum,Groningen,VBO,6.274890,53.144798
Alberdaweg,21,,,9363JN,Marum,Marum,Groningen,VBO,6.274842,53.144655
Alberdaweg,23,,,9363JN,Marum,Marum,Groningen,VBO,6.274841,53.144601
Alberdaweg,25,,,9363JN,Marum,Marum,Groningen,VBO,6.274808,53.144475
Alberdaweg,27,,,9363JN,Marum,Marum,Groningen,VBO,6.274944,53.143791
Alberdaweg,29,,,9363JN,Marum,Marum,Groningen,VBO,6.275027,53.143449
Alberdaweg,31,,,9363JN,Marum,Marum,Groningen,VBO,6.275127,53.143233
Alberdaweg,33,,,9363JN,Marum,Marum,Groningen,VBO,6.275077,53.142972
Alberdaweg,35,,,9363JN,Marum,Marum,Groningen,VBO,6.275044,53.142820
Alberdaweg,37,,,9363JN,Marum,Marum,Groningen,VBO,6.274922,53.142722
Alberdaweg,45,,,9363JN,Marum,Marum,Groningen,VBO,6.274183,53.142413
Alberdaweg,47,,,9363JP,Marum,Marum,Groningen,VBO,6.273253,53.142249
Alberdaweg,49,,,9363JP,Marum,Marum,Groningen,VBO,6.273059,53.142223
Alberdaweg,51,,,9363JP,Marum,Marum,Groningen,VBO,6.272954,53.142206
Alberdaweg,53,,,9363JP,Marum,Marum,Groningen,VBO,6.272683,53.142136
Alberdaweg,57,,,9363JP,Marum,Marum,Groningen,VBO,6.272369,53.142139
Alberdaweg,61,,,9363JP,Marum,Marum,Groningen,VBO,6.270825,53.141162
Alberdaweg,63,,,9363JP,Marum,Marum,Groningen,VBO,6.270359,53.141030
Alberdaweg,65,,,9363JP,Marum,Marum,Groningen,VBO,6.270029,53.140970
Alberdaweg,67,,,9363JP,Marum,Marum,Groningen,VBO,6.269909,53.140944
Alberdaweg,69,,,9363JP,Marum,Marum,Groningen,VBO,6.269670,53.140927
Alberdaweg,71,,,9363JP,Marum,Marum,Groningen,VBO,6.269396,53.140723
Alberdaweg,73,,,9363JP,Marum,Marum,Groningen,VBO,6.269289,53.140580
Alberdaweg,75,,,9363JP,Marum,Marum,Groningen,VBO,6.269151,53.140437
Alberdaweg,79,,,9363JP,Marum,Marum,Groningen,VBO,6.268769,53.139991
Alberdaweg,81,,,9363JP,Marum,Marum,Groningen,VBO,6.268557,53.139875
Alberdaweg,83,,,9363JP,Marum,Marum,Groningen,VBO,6.268776,53.139631
Alberdaweg,87,,,9363JP,Marum,Marum,Groningen,VBO,6.268915,53.139100
Alberdaweg,89,,,9363JP,Marum,Marum,Groningen,VBO,6.268718,53.138984
Alberdaweg,91,,,9363JP,Marum,Marum,Groningen,VBO,6.268328,53.138897
Alberdaweg,93,,,9363JP,Marum,Marum,Groningen,VBO,6.268014,53.138882
Alberdaweg,95,,,9363JP,Marum,Marum,Groningen,VBO,6.267776,53.138920
De Dobbe,1,,,9363JR,Marum,Marum,Groningen,VBO,6.271012,53.140801
De Dobbe,2,,,9363JR,Marum,Marum,Groningen,VBO,6.271523,53.140923
De Dobbe,3,,,9363JR,Marum,Marum,Groningen,VBO,6.271068,53.140612
De Dobbe,4,,,9363JR,Marum,Marum,Groningen,VBO,6.271549,53.140734
De Dobbe,5,,,9363JR,Marum,Marum,Groningen,VBO,6.271184,53.140440
De Dobbe,6,,,9363JR,Marum,Marum,Groningen,VBO,6.271636,53.140616
De Dobbe,8,,,9363JR,Marum,Marum,Groningen,VBO,6.271692,53.140436
De Dobbe,9,,,9363JR,Marum,Marum,Groningen,VBO,6.270613,53.140300
De Dobbe,10,,,9363JR,Marum,Marum,Groningen,VBO,6.270830,53.139957
De Dobbe,11,,,9363JR,Marum,Marum,Groningen,VBO,6.270253,53.140240
De Dobbe,12,,,9363JR,Marum,Marum,Groningen,VBO,6.270871,53.139768
De Dobbe,13,,,9363JR,Marum,Marum,Groningen,VBO,6.270321,53.139889
De Dobbe,14,,,9363JR,Marum,Marum,Groningen,VBO,6.271002,53.139597
De Dobbe,15,,,9363JR,Marum,Marum,Groningen,VBO,6.270035,53.139811
De Dobbe,16,,,9363JR,Marum,Marum,Groningen,VBO,6.270476,53.139412
De Dobbe,18,,,9363JR,Marum,Marum,Groningen,VBO,6.270286,53.139620
De Dobbe,20,,,9363JR,Marum,Marum,Groningen,VBO,6.269999,53.139478
De Dobbe,22,,,9363JR,Marum,Marum,Groningen,VBO,6.269609,53.139436
Meidoornlaan,4,,,9363JS,Marum,Marum,Groningen,VBO,6.268511,53.140532
Meidoornlaan,6,,,9363JS,Marum,Marum,Groningen,VBO,6.268854,53.140529
Larikslaan,1,,,9363JT,Marum,Marum,Groningen,VBO,6.267747,53.140474
Larikslaan,2,,,9363JT,Marum,Marum,Groningen,VBO,6.268255,53.140471
Larikslaan,3,,,9363JT,Marum,Marum,Groningen,VBO,6.267655,53.140340
Larikslaan,4,,,9363JT,Marum,Marum,Groningen,VBO,6.268276,53.139994
Larikslaan,5,,,9363JT,Marum,Marum,Groningen,VBO,6.267547,53.140188
Larikslaan,6,,,9363JT,Marum,Marum,Groningen,VBO,6.268256,53.139752
Larikslaan,7,,,9363JT,Marum,Marum,Groningen,VBO,6.267635,53.140071
Larikslaan,8,,,9363JT,Marum,Marum,Groningen,VBO,6.268285,53.139707
Larikslaan,9,,,9363JT,Marum,Marum,Groningen,VBO,6.267663,53.140008
Larikslaan,10,,,9363JT,Marum,Marum,Groningen,VBO,6.268282,53.139563
Larikslaan,11,,,9363JT,Marum,Marum,Groningen,VBO,6.267691,53.139891
Larikslaan,12,,,9363JT,Marum,Marum,Groningen,VBO,6.268311,53.139518
Larikslaan,13,,,9363JT,Marum,Marum,Groningen,VBO,6.267720,53.139846
Larikslaan,15,,,9363JT,Marum,Marum,Groningen,VBO,6.267777,53.139719
Larikslaan,17,,,9363JT,Marum,Marum,Groningen,VBO,6.267806,53.139665
Larikslaan,21,,,9363JT,Marum,Marum,Groningen,VBO,6.267914,53.139116
Larikslaan,23,,,9363JT,Marum,Marum,Groningen,VBO,6.268169,53.139150
Larikslaan,25,,,9363JT,Marum,Marum,Groningen,VBO,6.268274,53.139167
Larikslaan,27,,,9363JT,Marum,Marum,Groningen,VBO,6.268454,53.139211
Larikslaan,29,,,9363JT,Marum,Marum,Groningen,VBO,6.268559,53.139228
Larikslaan,31,,,9363JT,Marum,Marum,Groningen,VBO,6.268814,53.139262
Alberdaweg,100,,,9363JV,Marum,Marum,Groningen,VBO,6.264105,53.139180
Alberdaweg,102,,,9363JV,Marum,Marum,Groningen,VBO,6.263761,53.139192
Alberdaweg,104,,,9363JV,Marum,Marum,Groningen,VBO,6.263492,53.139194
Alberdaweg,106,,,9363JV,Marum,Marum,Groningen,VBO,6.263238,53.139186
De Weide,1,,,9363KA,Marum,Marum,Groningen,VBO,6.275555,53.143733
De Weide,2,,,9363KA,Marum,Marum,Groningen,VBO,6.275487,53.144039
De Weide,3,,,9363KA,Marum,Marum,Groningen,VBO,6.275869,53.143721
De Weide,4,,,9363KA,Marum,Marum,Groningen,VBO,6.275742,53.144082
De Weide,5,,,9363KA,Marum,Marum,Groningen,VBO,6.275959,53.143748
De Weide,6,,,9363KA,Marum,Marum,Groningen,VBO,6.276101,53.144115
De Weide,7,,,9363KA,Marum,Marum,Groningen,VBO,6.276215,53.143818
De Poel,1,,,9363KB,Marum,Marum,Groningen,VBO,6.275721,53.143075
De Poel,2,,,9363KB,Marum,Marum,Groningen,VBO,6.275653,53.143399
De Poel,3,,,9363KB,Marum,Marum,Groningen,VBO,6.276035,53.143064
De Poel,4,,,9363KB,Marum,Marum,Groningen,VBO,6.275952,53.143397
De Poel,5,,,9363KB,Marum,Marum,Groningen,VBO,6.276110,53.143073
De Poel,6,,,9363KB,Marum,Marum,Groningen,VBO,6.276043,53.143441
De Poel,7,,,9363KB,Marum,Marum,Groningen,VBO,6.276411,53.143178
De Poel,8,,,9363KB,Marum,Marum,Groningen,VBO,6.276252,53.143449
De Singel,2,,,9363KC,Marum,Marum,Groningen,VBO,6.275759,53.142725
De Singel,4,,,9363KC,Marum,Marum,Groningen,VBO,6.276026,53.142651
De Singel,6,,,9363KC,Marum,Marum,Groningen,VBO,6.276295,53.142613
De Singel,8,,,9363KC,Marum,Marum,Groningen,VBO,6.276518,53.142584
De Singel,10,,,9363KC,Marum,Marum,Groningen,VBO,6.276574,53.142377
De Singel,12,,,9363KC,Marum,Marum,Groningen,VBO,6.276540,53.142198
De Singel,14,,,9363KC,Marum,Marum,Groningen,VBO,6.276596,53.142018
De Singel,16,,,9363KC,Marum,Marum,Groningen,VBO,6.276638,53.141864
De Singel,18,,,9363KC,Marum,Marum,Groningen,VBO,6.276664,53.141667
De Singel,20,,,9363KC,Marum,Marum,Groningen,VBO,6.276867,53.141386
De Singel,22,,,9363KC,Marum,Marum,Groningen,VBO,6.276189,53.141086
De Singel,24,,,9363KC,Marum,Marum,Groningen,VBO,6.275861,53.141133
De Singel,26,,,9363KC,Marum,Marum,Groningen,VBO,6.275518,53.141163
De Singel,28,,,9363KC,Marum,Marum,Groningen,VBO,6.275537,53.142115
De Singel,30,,,9363KC,Marum,Marum,Groningen,VBO,6.275556,53.142286
De Singel,32,,,9363KC,Marum,Marum,Groningen,VBO,6.275589,53.142456
De Singel,1,,,9363KD,Marum,Marum,Groningen,VBO,6.276118,53.141994
De Singel,3,,,9363KD,Marum,Marum,Groningen,VBO,6.276188,53.141760
De Singel,7,,,9363KD,Marum,Marum,Groningen,VBO,6.276214,53.141589
De Singel,9,,,9363KD,Marum,Marum,Groningen,VBO,6.276198,53.141553
De Singel,11,,,9363KD,Marum,Marum,Groningen,VBO,6.276195,53.141382
De Singel,21,,,9363KD,Marum,Marum,Groningen,VBO,6.275658,53.141467
De Singel,23,,,9363KD,Marum,Marum,Groningen,VBO,6.275707,53.141656
De Singel,25,,,9363KD,Marum,Marum,Groningen,VBO,6.275845,53.141798
De Singel,27,,,9363KD,Marum,Marum,Groningen,VBO,6.275865,53.142041
De Omloop,1,,,9363KE,Marum,Marum,Groningen,VBO,6.273850,53.141436
De Omloop,2,,,9363KE,Marum,Marum,Groningen,VBO,6.274427,53.141171
De Omloop,3,,,9363KE,Marum,Marum,Groningen,VBO,6.273848,53.141364
De Omloop,4,,,9363KE,Marum,Marum,Groningen,VBO,6.274443,53.141216
De Omloop,5,,,9363KE,Marum,Marum,Groningen,VBO,6.273906,53.141292
De Omloop,6,,,9363KE,Marum,Marum,Groningen,VBO,6.274460,53.141332
De Omloop,7,,,9363KE,Marum,Marum,Groningen,VBO,6.273905,53.141220
De Omloop,8,,,9363KE,Marum,Marum,Groningen,VBO,6.274446,53.141377
De Omloop,9,,,9363KE,Marum,Marum,Groningen,VBO,6.273978,53.141147
De Omloop,10,,,9363KE,Marum,Marum,Groningen,VBO,6.274463,53.141476
De Omloop,11,,,9363KE,Marum,Marum,Groningen,VBO,6.273977,53.141075
De Omloop,12,,,9363KE,Marum,Marum,Groningen,VBO,6.274390,53.141549
De Omloop,13,,,9363KE,Marum,Marum,Groningen,VBO,6.274061,53.140832
De Omloop,15,,,9363KE,Marum,Marum,Groningen,VBO,6.274436,53.140892
De Omloop,19,,,9363KE,Marum,Marum,Groningen,VBO,6.274781,53.140926
De Omloop,21,,,9363KE,Marum,Marum,Groningen,VBO,6.274964,53.141113
De Omloop,23,,,9363KE,Marum,Marum,Groningen,VBO,6.274907,53.141275
De Omloop,25,,,9363KE,Marum,Marum,Groningen,VBO,6.275045,53.141418
Het Riet,1,,,9363KG,Marum,Marum,Groningen,VBO,6.274070,53.141964
Het Riet,2,,,9363KG,Marum,Marum,Groningen,VBO,6.274550,53.142069
Het Riet,3,,,9363KG,Marum,Marum,Groningen,VBO,6.274125,53.141766
Het Riet,4,,,9363KG,Marum,Marum,Groningen,VBO,6.274606,53.141897
Het Riet,6,,,9363KG,Marum,Marum,Groningen,VBO,6.274708,53.141762
De Brem,1,,,9363KH,Marum,Marum,Groningen,VBO,6.272386,53.141501
De Brem,3,,,9363KH,Marum,Marum,Groningen,VBO,6.272457,53.141320
De Brem,4,,,9363KH,Marum,Marum,Groningen,VBO,6.272950,53.141308
De Zoom,2,,,9363KJ,Marum,Marum,Groningen,VBO,6.273461,53.141430
De Zoom,3,,,9363KJ,Marum,Marum,Groningen,VBO,6.273899,53.141642
De Zoom,4,,,9363KJ,Marum,Marum,Groningen,VBO,6.273131,53.141369
De Zoom,5,,,9363KJ,Marum,Marum,Groningen,VBO,6.273212,53.141692
De Zoom,7,,,9363KJ,Marum,Marum,Groningen,VBO,6.273111,53.141864
Cohnsheem,1,,,9363KK,Marum,Marum,Groningen,VBO,6.275628,53.146194
Cohnsheem,3,,,9363KK,Marum,Marum,Groningen,VBO,6.275775,53.146193
Cohnsheem,4,,,9363KK,Marum,Marum,Groningen,VBO,6.275226,53.146629
Cohnsheem,5,,,9363KK,Marum,Marum,Groningen,VBO,6.275892,53.146188
Cohnsheem,6,,,9363KK,Marum,Marum,Groningen,VBO,6.275226,53.146629
Cohnsheem,7,,,9363KK,Marum,Marum,Groningen,VBO,6.276035,53.146194
Cohnsheem,8,,,9363KK,Marum,Marum,Groningen,VBO,6.275226,53.146629
Cohnsheem,9,,,9363KK,Marum,Marum,Groningen,VBO,6.276154,53.146191
Cohnsheem,10,,,9363KK,Marum,Marum,Groningen,VBO,6.275486,53.146678
Cohnsheem,11,,,9363KK,Marum,Marum,Groningen,VBO,6.276293,53.146200
Cohnsheem,12,,,9363KK,Marum,Marum,Groningen,VBO,6.275587,53.146677
Cohnsheem,13,,,9363KK,Marum,Marum,Groningen,VBO,6.276414,53.146189
Cohnsheem,14,,,9363KK,Marum,Marum,Groningen,VBO,6.275608,53.146633
Cohnsheem,15,,,9363KK,Marum,Marum,Groningen,VBO,6.276559,53.146197
Cohnsheem,16,,,9363KK,Marum,Marum,Groningen,VBO,6.275501,53.146638
Cohnsheem,18,,,9363KK,Marum,Marum,Groningen,VBO,6.275418,53.146637
Cohnsheem,20,,,9363KK,Marum,Marum,Groningen,VBO,6.275353,53.146659
Cohnsheem,22,,,9363KK,Marum,Marum,Groningen,VBO,6.275311,53.146629
Cohnsheem,24,,,9363KK,Marum,Marum,Groningen,VBO,6.275240,53.146645
Cohnsheem,26,,,9363KK,Marum,Marum,Groningen,VBO,6.275221,53.146580
Cohnsheem,28,,,9363KK,Marum,Marum,Groningen,VBO,6.275306,53.146608
Cohnsheem,30,,,9363KK,Marum,Marum,Groningen,VBO,6.275823,53.146824
Cohnsheem,32,,,9363KK,Marum,Marum,Groningen,VBO,6.276262,53.146436
Cohnsheem,34,,,9363KK,Marum,Marum,Groningen,VBO,6.276235,53.146493
Cohnsheem,36,,,9363KK,Marum,Marum,Groningen,VBO,6.276374,53.146628
Cohnsheem,38,,,9363KK,Marum,Marum,Groningen,VBO,6.276426,53.146576
Cohnsheem,40,,,9363KK,Marum,Marum,Groningen,VBO,6.276457,53.146524
Cohnsheem,42,,,9363KK,Marum,Marum,Groningen,VBO,6.276453,53.146466
Swanenburg,16,,,9363KL,Marum,Marum,Groningen,VBO,6.277209,53.146320
Swanenburg,18,,,9363KL,Marum,Marum,Groningen,VBO,6.277187,53.146377
Swanenburg,20,,,9363KL,Marum,Marum,Groningen,VBO,6.277159,53.146478
Swanenburg,22,,,9363KL,Marum,Marum,Groningen,VBO,6.277142,53.146536
Swanenburg,24,,,9363KL,Marum,Marum,Groningen,VBO,6.277107,53.146640
Swanenburg,26,,,9363KL,Marum,Marum,Groningen,VBO,6.277104,53.146699
Het Logement,1,,,9363KM,Marum,Marum,Groningen,VBO,6.277346,53.147325
Het Logement,2,,,9363KM,Marum,Marum,Groningen,VBO,6.276849,53.147502
Het Logement,3,,,9363KM,Marum,Marum,Groningen,VBO,6.277414,53.147334
Het Logement,4,,,9363KM,Marum,Marum,Groningen,VBO,6.276922,53.147513
Het Logement,5,,,9363KM,Marum,Marum,Groningen,VBO,6.277487,53.147339
Het Logement,6,,,9363KM,Marum,Marum,Groningen,VBO,6.277091,53.147534
Het Logement,7,,,9363KM,Marum,Marum,Groningen,VBO,6.277572,53.147351
Het Logement,8,,,9363KM,Marum,Marum,Groningen,VBO,6.277188,53.147548
Het Logement,9,,,9363KM,Marum,Marum,Groningen,VBO,6.277693,53.147002
Het Logement,10,,,9363KM,Marum,Marum,Groningen,VBO,6.277350,53.147565
Het Logement,11,,,9363KM,Marum,Marum,Groningen,VBO,6.277594,53.146995
Het Logement,12,,,9363KM,Marum,Marum,Groningen,VBO,6.277449,53.147574
Het Logement,13,,,9363KM,Marum,Marum,Groningen,VBO,6.277518,53.146985
Het Logement,14,,,9363KM,Marum,Marum,Groningen,VBO,6.277636,53.147593
Het Logement,15,,,9363KM,Marum,Marum,Groningen,VBO,6.277447,53.146977
Het Logement,16,,,9363KM,Marum,Marum,Groningen,VBO,6.277727,53.147601
Het Logement,18,,,9363KM,Marum,Marum,Groningen,VBO,6.277857,53.146755
Het Logement,20,,,9363KM,Marum,Marum,Groningen,VBO,6.277754,53.146748
Het Logement,22,,,9363KM,Marum,Marum,Groningen,VBO,6.277561,53.146715
Het Logement,24,,,9363KM,Marum,Marum,Groningen,VBO,6.277444,53.146702
Walviuslaan,1,,,9363KN,Marum,Marum,Groningen,VBO,6.277272,53.146090
Walviuslaan,2,,,9363KN,Marum,Marum,Groningen,VBO,6.277572,53.146376
Walviuslaan,3,,,9363KN,Marum,Marum,Groningen,VBO,6.277335,53.146097
Walviuslaan,4,,,9363KN,Marum,Marum,Groningen,VBO,6.277663,53.146388
Walviuslaan,5,,,9363KN,Marum,Marum,Groningen,VBO,6.277420,53.146106
Walviuslaan,6,,,9363KN,Marum,Marum,Groningen,VBO,6.277869,53.146406
Walviuslaan,7,,,9363KN,Marum,Marum,Groningen,VBO,6.277502,53.146117
Walviuslaan,8,,,9363KN,Marum,Marum,Groningen,VBO,6.277951,53.146413
Walviuslaan,9,,,9363KN,Marum,Marum,Groningen,VBO,6.277649,53.146127
Walviuslaan,11,,,9363KN,Marum,Marum,Groningen,VBO,6.277729,53.146137
Walviuslaan,13,,,9363KN,Marum,Marum,Groningen,VBO,6.277813,53.146146
Walviuslaan,15,,,9363KN,Marum,Marum,Groningen,VBO,6.277898,53.146155
Holtropslaan,7,,,9363KP,Marum,Marum,Groningen,VBO,6.276431,53.145348
Holtropslaan,2,,,9363KR,Marum,Marum,Groningen,VBO,6.275576,53.145851
Holtropslaan,4,,,9363KR,Marum,Marum,Groningen,VBO,6.275752,53.145837
Holtropslaan,6,,,9363KR,Marum,Marum,Groningen,VBO,6.275835,53.145831
Holtropslaan,8,,,9363KR,Marum,Marum,Groningen,VBO,6.276004,53.145793
Holtropslaan,10,,,9363KR,Marum,Marum,Groningen,VBO,6.276085,53.145786
Holtropslaan,12,,,9363KR,Marum,Marum,Groningen,VBO,6.276264,53.145753
Holtropslaan,14,,,9363KR,Marum,Marum,Groningen,VBO,6.276347,53.145750
Holtropslaan,16,,,9363KR,Marum,Marum,Groningen,VBO,6.276531,53.145745
Grietmansweg,19,,,9363KS,Marum,Marum,Groningen,VBO,6.277526,53.145058
Grietmansweg,21,,,9363KS,Marum,Marum,Groningen,VBO,6.277569,53.144863
Grietmansweg,23,,,9363KS,Marum,Marum,Groningen,VBO,6.277683,53.144714
Grietmansweg,25,,,9363KS,Marum,Marum,Groningen,VBO,6.277694,53.144513
Grietmansweg,8,,,9363KT,Marum,Marum,Groningen,VBO,6.278274,53.144521
Buurrechtersweg,1,,,9363KV,Marum,Marum,Groningen,VBO,6.278102,53.144814
Buurrechtersweg,3,,,9363KV,Marum,Marum,Groningen,VBO,6.278457,53.144836
Buurrechtersweg,4,,,9363KV,Marum,Marum,Groningen,VBO,6.278408,53.145064
Marga Klomplaan,2,,,9363LA,Marum,Marum,Groningen,VBO,6.263821,53.139928
Marga Klomplaan,4,,,9363LA,Marum,Marum,Groningen,VBO,6.263911,53.139945
Marga Klomplaan,6,,,9363LA,Marum,Marum,Groningen,VBO,6.264166,53.139988
Marga Klomplaan,8,,,9363LA,Marum,Marum,Groningen,VBO,6.264256,53.140006
Marga Klomplaan,10,,,9363LA,Marum,Marum,Groningen,VBO,6.264496,53.140031
Marga Klomplaan,12,,,9363LA,Marum,Marum,Groningen,VBO,6.264586,53.140048
Marga Klomplaan,14,,,9363LA,Marum,Marum,Groningen,VBO,6.265097,53.140206
Marga Klomplaan,16,,,9363LA,Marum,Marum,Groningen,VBO,6.265396,53.140222
Marga Klomplaan,18,,,9363LA,Marum,Marum,Groningen,VBO,6.265510,53.139943
Marga Klomplaan,20,,,9363LA,Marum,Marum,Groningen,VBO,6.265521,53.139736
Marga Klomplaan,22,,,9363LA,Marum,Marum,Groningen,VBO,6.265682,53.139582
Marga Klomplaan,24,,,9363LA,Marum,Marum,Groningen,VBO,6.265738,53.139402
Marga Klomplaan,26,,,9363LA,Marum,Marum,Groningen,VBO,6.266511,53.139207
Marga Klomplaan,28,,,9363LA,Marum,Marum,Groningen,VBO,6.266568,53.139045
Marga Klomplaan,30,,,9363LA,Marum,Marum,Groningen,VBO,6.266669,53.138865
Marga Klomplaan,32,,,9363LA,Marum,Marum,Groningen,VBO,6.266784,53.138666
Marga Klomplaan,1,,,9363LB,Marum,Marum,Groningen,VBO,6.264983,53.139758
Marga Klomplaan,3,,,9363LB,Marum,Marum,Groningen,VBO,6.265011,53.139677
Marga Klomplaan,5,,,9363LB,Marum,Marum,Groningen,VBO,6.265144,53.139604
Marga Klomplaan,7,,,9363LB,Marum,Marum,Groningen,VBO,6.265188,53.139523
Marga Klomplaan,9,,,9363LB,Marum,Marum,Groningen,VBO,6.265290,53.139432
Marga Klomplaan,11,,,9363LB,Marum,Marum,Groningen,VBO,6.265319,53.139369
Marga Klomplaan,13,,,9363LB,Marum,Marum,Groningen,VBO,6.265361,53.139252
Marga Klomplaan,15,,,9363LB,Marum,Marum,Groningen,VBO,6.265405,53.139189
Marga Klomplaan,17,,,9363LB,Marum,Marum,Groningen,VBO,6.265433,53.139089
Marga Klomplaan,19,,,9363LB,Marum,Marum,Groningen,VBO,6.265461,53.139017
Marga Klomplaan,21,,,9363LB,Marum,Marum,Groningen,VBO,6.265519,53.138909
Marga Klomplaan,23,,,9363LB,Marum,Marum,Groningen,VBO,6.265577,53.138837
Marga Klomplaan,25,,,9363LB,Marum,Marum,Groningen,VBO,6.265785,53.138790
Marga Klomplaan,27,,,9363LB,Marum,Marum,Groningen,VBO,6.265905,53.138789
Marga Klomplaan,29,,,9363LB,Marum,Marum,Groningen,VBO,6.266115,53.138851
Marga Klomplaan,31,,,9363LB,Marum,Marum,Groningen,VBO,6.266221,53.138886
Alberdaweg,101,,,9363LC,Marum,Marum,Groningen,VBO,6.266305,53.138598
Alberdaweg,103,,,9363LC,Marum,Marum,Groningen,VBO,6.266064,53.138546
Alberdaweg,105,,,9363LC,Marum,Marum,Groningen,VBO,6.265809,53.138494
Alberdaweg,107,,,9363LC,Marum,Marum,Groningen,VBO,6.265599,53.138414
Alberdaweg,108,,,9363LC,Marum,Marum,Groningen,VBO,6.260165,53.139469
Alberdaweg,109,,,9363LC,Marum,Marum,Groningen,VBO,6.265329,53.138380
Alberdaweg,110,,,9363LC,Marum,Marum,Groningen,VBO,6.260049,53.139650
Alberdaweg,111,,,9363LC,Marum,Marum,Groningen,VBO,6.265214,53.138615
Alberdaweg,112,,,9363LC,Marum,Marum,Groningen,VBO,6.259768,53.139778
Alberdaweg,113,,,9363LC,Marum,Marum,Groningen,VBO,6.265083,53.138787
Alberdaweg,114,,,9363LC,Marum,Marum,Groningen,VBO,6.259574,53.139770
Alberdaweg,115,,,9363LC,Marum,Marum,Groningen,VBO,6.264965,53.138868
Alberdaweg,116,,,9363LC,Marum,Marum,Groningen,VBO,6.259125,53.139738
Alberdaweg,117,,,9363LC,Marum,Marum,Groningen,VBO,6.264894,53.139022
Alberdaweg,118,,,9363LC,Marum,Marum,Groningen,VBO,6.258808,53.139614
Alberdaweg,119,,,9363LC,Marum,Marum,Groningen,VBO,6.264838,53.139238
Alberdaweg,121,,,9363LC,Marum,Marum,Groningen,VBO,6.264692,53.139400
Alberdaweg,123,,,9363LC,Marum,Marum,Groningen,VBO,6.264440,53.139492
Alberdaweg,125,,,9363LC,Marum,Marum,Groningen,VBO,6.264037,53.139531
Alberdaweg,126,,,9363LC,Marum,Marum,Groningen,VBO,6.256364,53.139459
Alberdaweg,127,,,9363LC,Marum,Marum,Groningen,VBO,6.263259,53.139484
Alberdaweg,128,,,9363LC,Marum,Marum,Groningen,VBO,6.255506,53.139620
Alberdaweg,130,,,9363LC,Marum,Marum,Groningen,VBO,6.255377,53.139909
Alberdaweg,131,,,9363LC,Marum,Marum,Groningen,VBO,6.260481,53.140285
Alberdaweg,132,,,9363LC,Marum,Marum,Groningen,VBO,6.255152,53.139883
Alberdaweg,134,,,9363LC,Marum,Marum,Groningen,VBO,6.254928,53.139876
Alberdaweg,136,,,9363LC,Marum,Marum,Groningen,VBO,6.254703,53.139851
Alberdaweg,137,,,9363LC,Marum,Marum,Groningen,VBO,6.253525,53.139958
Alberdaweg,138,,,9363LC,Marum,Marum,Groningen,VBO,6.251389,53.139246
Alberdaweg,139,,,9363LC,Marum,Marum,Groningen,VBO,6.253435,53.139959
Alberdaweg,140,,,9363LC,Marum,Marum,Groningen,VBO,6.251149,53.139193
Alberdaweg,141,,,9363LC,Marum,Marum,Groningen,VBO,6.253270,53.139924
Alberdaweg,143,,,9363LC,Marum,Marum,Groningen,VBO,6.253151,53.139934
Alberdaweg,145,,,9363LC,Marum,Marum,Groningen,VBO,6.252986,53.139926
Alberdaweg,147,,,9363LC,Marum,Marum,Groningen,VBO,6.252882,53.139918
Alberdaweg,149,,,9363LC,Marum,Marum,Groningen,VBO,6.252717,53.139919
Alberdaweg,151,,,9363LC,Marum,Marum,Groningen,VBO,6.252598,53.139920
Alberdaweg,153,,,9363LC,Marum,Marum,Groningen,VBO,6.252448,53.139903
Alberdaweg,155,,,9363LC,Marum,Marum,Groningen,VBO,6.252343,53.139904
Alberdaweg,157,,,9363LC,Marum,Marum,Groningen,VBO,6.252179,53.139896
Alberdaweg,159,,,9363LC,Marum,Marum,Groningen,VBO,6.252059,53.139897
Fluitekruid,1,,,9363LD,Marum,Marum,Groningen,VBO,6.264422,53.138603
Fluitekruid,2,,,9363LD,Marum,Marum,Groningen,VBO,6.264549,53.138224
Fluitekruid,3,,,9363LD,Marum,Marum,Groningen,VBO,6.264336,53.138774
Fluitekruid,4,,,9363LD,Marum,Marum,Groningen,VBO,6.264234,53.138173
Fluitekruid,5,,,9363LD,Marum,Marum,Groningen,VBO,6.264174,53.138910
Fluitekruid,6,,,9363LD,Marum,Marum,Groningen,VBO,6.263881,53.138472
Fluitekruid,7,,,9363LD,Marum,Marum,Groningen,VBO,6.263680,53.138860
Fluitekruid,8,,,9363LD,Marum,Marum,Groningen,VBO,6.263616,53.138333
Fluitekruid,9,,,9363LD,Marum,Marum,Groningen,VBO,6.263306,53.138853
Fluitekruid,10,,,9363LD,Marum,Marum,Groningen,VBO,6.263204,53.138243
Dotterbloem,8,,,9363LE,Marum,Marum,Groningen,VBO,6.262854,53.137922
Dotterbloem,1,,,9363LG,Marum,Marum,Groningen,VBO,6.262699,53.139127
Dotterbloem,3,,,9363LG,Marum,Marum,Groningen,VBO,6.262680,53.138939
Dotterbloem,5,,,9363LG,Marum,Marum,Groningen,VBO,6.262662,53.138768
Dotterbloem,7,,,9363LG,Marum,Marum,Groningen,VBO,6.262718,53.138570
Dotterbloem,11,,,9363LG,Marum,Marum,Groningen,VBO,6.262758,53.138372
Dotterbloem,13,,,9363LG,Marum,Marum,Groningen,VBO,6.262741,53.138229
Morgenster,2,,,9363LH,Marum,Marum,Groningen,VBO,6.262085,53.139078
Morgenster,3,,,9363LH,Marum,Marum,Groningen,VBO,6.262005,53.138045
Morgenster,4,,,9363LH,Marum,Marum,Groningen,VBO,6.262096,53.138889
Morgenster,5,,,9363LH,Marum,Marum,Groningen,VBO,6.262119,53.137784
Morgenster,6,,,9363LH,Marum,Marum,Groningen,VBO,6.262167,53.138700
Morgenster,7,,,9363LH,Marum,Marum,Groningen,VBO,6.261878,53.137705
Morgenster,8,,,9363LH,Marum,Marum,Groningen,VBO,6.262193,53.138502
Morgenster,9,,,9363LH,Marum,Marum,Groningen,VBO,6.261548,53.137626
Morgenster,10,,,9363LH,Marum,Marum,Groningen,VBO,6.262248,53.138268
Morgenster,11,,,9363LH,Marum,Marum,Groningen,VBO,6.261247,53.137547
Morgenster,12,,,9363LH,Marum,Marum,Groningen,VBO,6.262292,53.137486
Morgenster,13,,,9363LH,Marum,Marum,Groningen,VBO,6.260886,53.137415
Morgenster,14,,,9363LH,Marum,Marum,Groningen,VBO,6.261872,53.137399
Pinksterbloem,1,,,9363LJ,Marum,Marum,Groningen,VBO,6.261352,53.138293
Pinksterbloem,3,,,9363LJ,Marum,Marum,Groningen,VBO,6.261157,53.138267
Pinksterbloem,4,,,9363LJ,Marum,Marum,Groningen,VBO,6.261647,53.138075
Pinksterbloem,5,,,9363LJ,Marum,Marum,Groningen,VBO,6.261067,53.138250
Pinksterbloem,6,,,9363LJ,Marum,Marum,Groningen,VBO,6.261392,53.138032
Pinksterbloem,7,,,9363LJ,Marum,Marum,Groningen,VBO,6.260843,53.138242
Pinksterbloem,8,,,9363LJ,Marum,Marum,Groningen,VBO,6.261122,53.137980
Pinksterbloem,9,,,9363LJ,Marum,Marum,Groningen,VBO,6.260753,53.138252
Pinksterbloem,10,,,9363LJ,Marum,Marum,Groningen,VBO,6.260719,53.138019
Pinksterbloem,11,,,9363LJ,Marum,Marum,Groningen,VBO,6.260470,53.138272
Pinksterbloem,12,,,9363LJ,Marum,Marum,Groningen,VBO,6.260748,53.137965
Pinksterbloem,13,,,9363LJ,Marum,Marum,Groningen,VBO,6.260200,53.138247
Pinksterbloem,14,,,9363LJ,Marum,Marum,Groningen,VBO,6.260745,53.137839
Pinksterbloem,15,,,9363LJ,Marum,Marum,Groningen,VBO,6.260017,53.138060
Pinksterbloem,16,,,9363LJ,Marum,Marum,Groningen,VBO,6.260744,53.137785
Pinksterbloem,18,,,9363LJ,Marum,Marum,Groningen,VBO,6.260742,53.137659
Pinksterbloem,20,,,9363LJ,Marum,Marum,Groningen,VBO,6.260785,53.137605
Klaproos,1,,,9363LK,Marum,Marum,Groningen,VBO,6.261663,53.138910
Klaproos,2,,,9363LK,Marum,Marum,Groningen,VBO,6.261374,53.138625
Klaproos,3,,,9363LK,Marum,Marum,Groningen,VBO,6.261199,53.138833
Klaproos,4,,,9363LK,Marum,Marum,Groningen,VBO,6.261119,53.138591
Klaproos,5,,,9363LK,Marum,Marum,Groningen,VBO,6.260824,53.138782
Klaproos,6,,,9363LK,Marum,Marum,Groningen,VBO,6.261014,53.138583
Klaproos,7,,,9363LK,Marum,Marum,Groningen,VBO,6.260481,53.138802
Klaproos,8,,,9363LK,Marum,Marum,Groningen,VBO,6.260805,53.138566
Klaproos,9,,,9363LK,Marum,Marum,Groningen,VBO,6.260197,53.138831
Klaproos,10,,,9363LK,Marum,Marum,Groningen,VBO,6.260715,53.138567
Klaproos,11,,,9363LK,Marum,Marum,Groningen,VBO,6.259838,53.138816
Klaproos,12,,,9363LK,Marum,Marum,Groningen,VBO,6.260505,53.138541
Klaproos,14,,,9363LK,Marum,Marum,Groningen,VBO,6.260401,53.138542
Klaproos,16,,,9363LK,Marum,Marum,Groningen,VBO,6.260177,53.138571
Klaproos,18,,,9363LK,Marum,Marum,Groningen,VBO,6.260072,53.138563
Klaproos,20,,,9363LK,Marum,Marum,Groningen,VBO,6.259863,53.138537
Klaproos,22,,,9363LK,Marum,Marum,Groningen,VBO,6.259773,53.138529
Valeriaan,1,,,9363LL,Marum,Marum,Groningen,VBO,6.258464,53.139599
Valeriaan,3,,,9363LL,Marum,Marum,Groningen,VBO,6.258476,53.139446
Valeriaan,4,,,9363LL,Marum,Marum,Groningen,VBO,6.258967,53.139343
Valeriaan,5,,,9363LL,Marum,Marum,Groningen,VBO,6.258607,53.139247
Valeriaan,6,,,9363LL,Marum,Marum,Groningen,VBO,6.259297,53.139377
Valeriaan,7,,,9363LL,Marum,Marum,Groningen,VBO,6.259315,53.138784
Valeriaan,8,,,9363LL,Marum,Marum,Groningen,VBO,6.259655,53.139374
Valeriaan,9,,,9363LL,Marum,Marum,Groningen,VBO,6.258924,53.138688
Valeriaan,11,,,9363LL,Marum,Marum,Groningen,VBO,6.258993,53.138418
Valeriaan,12,,,9363LL,Marum,Marum,Groningen,VBO,6.259383,53.138478
Valeriaan,13,,,9363LL,Marum,Marum,Groningen,VBO,6.259050,53.138246
Valeriaan,14,,,9363LL,Marum,Marum,Groningen,VBO,6.259439,53.138298
Valeriaan,15,,,9363LL,Marum,Marum,Groningen,VBO,6.259122,53.138111
Valeriaan,16,,,9363LL,Marum,Marum,Groningen,VBO,6.259481,53.138153
Valeriaan,17,,,9363LL,Marum,Marum,Groningen,VBO,6.259134,53.137985
Valeriaan,18,,,9363LL,Marum,Marum,Groningen,VBO,6.259553,53.138018
Valeriaan,19,,,9363LL,Marum,Marum,Groningen,VBO,6.258754,53.137673
Valeriaan,20,,,9363LL,Marum,Marum,Groningen,VBO,6.259757,53.137729
Valeriaan,21,,,9363LL,Marum,Marum,Groningen,VBO,6.258796,53.137493
Valeriaan,22,,,9363LL,Marum,Marum,Groningen,VBO,6.259473,53.137740
Valeriaan,23,,,9363LL,Marum,Marum,Groningen,VBO,6.258911,53.137286
Valeriaan,24,,,9363LL,Marum,Marum,Groningen,VBO,6.259307,53.137660
Valeriaan,25,,,9363LL,Marum,Marum,Groningen,VBO,6.258952,53.137097
Valeriaan,26,,,9363LL,Marum,Marum,Groningen,VBO,6.259363,53.137462
Valeriaan,27,,,9363LL,Marum,Marum,Groningen,VBO,6.259461,53.137156
Valeriaan,28,,,9363LL,Marum,Marum,Groningen,VBO,6.259616,53.137443
Valeriaan,29,,,9363LL,Marum,Marum,Groningen,VBO,6.259717,53.137226
Valeriaan,30,,,9363LL,Marum,Marum,Groningen,VBO,6.259842,53.137513
Valeriaan,31,,,9363LL,Marum,Marum,Groningen,VBO,6.260002,53.137287
Valeriaan,33,,,9363LL,Marum,Marum,Groningen,VBO,6.260361,53.137329
Traverse,2,,,9363LM,Marum,Marum,Groningen,VBO,6.258137,53.141156
Traverse,3,,,9363LM,Marum,Marum,Groningen,VBO,6.256884,53.141255
Traverse,4,,,9363LM,Marum,Marum,Groningen,VBO,6.257268,53.141054
Traverse,5,,,9363LM,Marum,Marum,Groningen,VBO,6.256832,53.140905
Traverse,6,,,9363LM,Marum,Marum,Groningen,VBO,6.257294,53.140874
Traverse,7,,,9363LM,Marum,Marum,Groningen,VBO,6.256918,53.140733
Traverse,8,,,9363LM,Marum,Marum,Groningen,VBO,6.257381,53.140712
Traverse,9,,,9363LM,Marum,Marum,Groningen,VBO,6.256990,53.140598
Traverse,10,,,9363LM,Marum,Marum,Groningen,VBO,6.257423,53.140577
Traverse,11,,,9363LM,Marum,Marum,Groningen,VBO,6.257062,53.140454
Traverse,12,,,9363LM,Marum,Marum,Groningen,VBO,6.257479,53.140415
Traverse,13,,,9363LM,Marum,Marum,Groningen,VBO,6.257147,53.140237
Traverse,14,,,9363LM,Marum,Marum,Groningen,VBO,6.257551,53.140243
Traverse,15,,,9363LM,Marum,Marum,Groningen,VBO,6.257219,53.140075
Traverse,16,,,9363LM,Marum,Marum,Groningen,VBO,6.257623,53.140117
Traverse,17,,,9363LM,Marum,Marum,Groningen,VBO,6.257275,53.139904
Traverse,18,,,9363LM,Marum,Marum,Groningen,VBO,6.257694,53.139919
Paardenwei,2,,,9363LN,Marum,Marum,Groningen,VBO,6.257056,53.141658
Paardenwei,4,,,9363LN,Marum,Marum,Groningen,VBO,6.256966,53.141649
Paardenwei,6,,,9363LN,Marum,Marum,Groningen,VBO,6.256727,53.141624
Paardenwei,8,,,9363LN,Marum,Marum,Groningen,VBO,6.256622,53.141616
Paardenwei,10,,,9363LN,Marum,Marum,Groningen,VBO,6.256383,53.141618
Paardenwei,12,,,9363LN,Marum,Marum,Groningen,VBO,6.256309,53.141645
Paardenwei,14,,,9363LN,Marum,Marum,Groningen,VBO,6.256207,53.141799
Paardenwei,16,,,9363LN,Marum,Marum,Groningen,VBO,6.256208,53.141853
Paardenwei,18,,,9363LN,Marum,Marum,Groningen,VBO,6.256419,53.141950
Paardenwei,20,,,9363LN,Marum,Marum,Groningen,VBO,6.256509,53.141958
Paardenwei,22,,,9363LN,Marum,Marum,Groningen,VBO,6.256749,53.142001
Paardenwei,24,,,9363LN,Marum,Marum,Groningen,VBO,6.256824,53.142010
De Koppel Paarden,1,,,9363LP,Marum,Marum,Groningen,VBO,6.256676,53.139854
De Koppel Paarden,2,,,9363LP,Marum,Marum,Groningen,VBO,6.256227,53.139795
De Koppel Paarden,3,,,9363LP,Marum,Marum,Groningen,VBO,6.256647,53.139908
De Koppel Paarden,4,,,9363LP,Marum,Marum,Groningen,VBO,6.256200,53.139948
De Koppel Paarden,5,,,9363LP,Marum,Marum,Groningen,VBO,6.256589,53.140060
De Koppel Paarden,7,,,9363LP,Marum,Marum,Groningen,VBO,6.256522,53.140113
De Koppel Paarden,9,,,9363LP,Marum,Marum,Groningen,VBO,6.256505,53.140251
De Koppel Paarden,11,,,9363LP,Marum,Marum,Groningen,VBO,6.256491,53.140296
De Koppel Paarden,13,,,9363LP,Marum,Marum,Groningen,VBO,6.256404,53.140440
De Koppel Paarden,15,,,9363LP,Marum,Marum,Groningen,VBO,6.256405,53.140503
De Koppel Paarden,17,,,9363LP,Marum,Marum,Groningen,VBO,6.256333,53.140648
De Koppel Paarden,19,,,9363LP,Marum,Marum,Groningen,VBO,6.256320,53.140702
De Koppel Paarden,21,,,9363LP,Marum,Marum,Groningen,VBO,6.256233,53.140837
De Koppel Paarden,23,,,9363LP,Marum,Marum,Groningen,VBO,6.256204,53.140891
De Koppel Paarden,26,,,9363LP,Marum,Marum,Groningen,VBO,6.255514,53.141507
De Koppel Paarden,27,,,9363LP,Marum,Marum,Groningen,VBO,6.255047,53.142095
De Koppel Paarden,28,,,9363LP,Marum,Marum,Groningen,VBO,6.255488,53.141714
De Koppel Paarden,29,,,9363LP,Marum,Marum,Groningen,VBO,6.254741,53.142058
De Koppel Paarden,30,,,9363LP,Marum,Marum,Groningen,VBO,6.254007,53.141653
De Koppel Paarden,31,,,9363LP,Marum,Marum,Groningen,VBO,6.254463,53.142045
De Koppel Paarden,32,,,9363LP,Marum,Marum,Groningen,VBO,6.254063,53.141437
De Koppel Paarden,33,,,9363LP,Marum,Marum,Groningen,VBO,6.254149,53.142020
De Koppel Paarden,35,,,9363LP,Marum,Marum,Groningen,VBO,6.253892,53.141996
De Koppel Paarden,37,,,9363LP,Marum,Marum,Groningen,VBO,6.253565,53.141980
Wagenmakerij,20,,,9363LR,Marum,Marum,Groningen,VBO,6.254766,53.141504
Wagenmakerij,22,,,9363LR,Marum,Marum,Groningen,VBO,6.254665,53.141675
Veldweg,1,,,9363LS,Marum,Marum,Groningen,VBO,6.255725,53.139385
Veldweg,3,,,9363LS,Marum,Marum,Groningen,VBO,6.255870,53.139147
Sparrenlaan,2,,,9363QQ,Marum,Marum,Groningen,VBO,6.266313,53.141959
Oosterweg,64,,,9363RM,De Wilp,Marum,Groningen,VBO,6.261770,53.119152
Noorderweg,9,,,9363TA,Marum,Marum,Groningen,VBO,6.273530,53.151404
Noorderweg,13,,,9363TA,Marum,Marum,Groningen,VBO,6.272605,53.152162
Noorderweg,15,,,9363TA,Marum,Marum,Groningen,VBO,6.272425,53.152895
Noorderweg,17,,,9363TA,Marum,Marum,Groningen,VBO,6.271691,53.152837
Noorderweg,20,A,,9363TA,Marum,Marum,Groningen,VBO,6.272510,53.150504
Noorderweg,20,,,9363TA,Marum,Marum,Groningen,VBO,6.272792,53.150385
Noorderweg,22,,,9363TA,Marum,Marum,Groningen,VBO,6.272249,53.150874
Noorderweg,26,,,9363TA,Marum,Marum,Groningen,VBO,6.266889,53.155613
Industrieweg,2,,,9363TB,Marum,Marum,Groningen,VBO,6.272002,53.151217
Industrieweg,4,A,,9363TB,Marum,Marum,Groningen,VBO,6.270969,53.151126
Industrieweg,4,B,,9363TB,Marum,Marum,Groningen,VBO,6.270968,53.151099
Industrieweg,4,C,,9363TB,Marum,Marum,Groningen,VBO,6.270967,53.151072
Industrieweg,4,D,,9363TB,Marum,Marum,Groningen,VBO,6.270967,53.151045
Industrieweg,4,E,,9363TB,Marum,Marum,Groningen,VBO,6.270966,53.151018
Industrieweg,4,,,9363TB,Marum,Marum,Groningen,VBO,6.271480,53.151284
Industrieweg,5,,,9363TB,Marum,Marum,Groningen,VBO,6.271165,53.151925
Industrieweg,6,,,9363TB,Marum,Marum,Groningen,VBO,6.270701,53.151218
Industrieweg,8,A,,9363TB,Marum,Marum,Groningen,VBO,6.270312,53.151203
Industrieweg,8,,,9363TB,Marum,Marum,Groningen,VBO,6.269972,53.151349
Industrieweg,9,,,9363TB,Marum,Marum,Groningen,VBO,6.270233,53.151725
Noorderringweg,2,A,,9363TC,Marum,Marum,Groningen,VBO,6.270837,53.152008
Noorderringweg,2,,,9363TC,Marum,Marum,Groningen,VBO,6.271082,53.152285
Noorderringweg,3,A,,9363TC,Marum,Marum,Groningen,VBO,6.264464,53.151021
Noorderringweg,3,C,,9363TC,Marum,Marum,Groningen,VBO,6.264192,53.150862
Noorderringweg,3,,,9363TC,Marum,Marum,Groningen,VBO,6.265103,53.151574
Noorderringweg,4,A,,9363TC,Marum,Marum,Groningen,VBO,6.270143,53.152417
Noorderringweg,4,,,9363TC,Marum,Marum,Groningen,VBO,6.270502,53.152442
Noorderringweg,5,A,,9363TC,Marum,Marum,Groningen,VBO,6.261586,53.148382
Noorderringweg,5,,,9363TC,Marum,Marum,Groningen,VBO,6.263662,53.150524
Noorderringweg,6,,,9363TC,Marum,Marum,Groningen,VBO,6.269587,53.152305
Noorderringweg,7,,,9363TC,Marum,Marum,Groningen,VBO,6.261360,53.148339
Noorderringweg,8,,,9363TC,Marum,Marum,Groningen,VBO,6.268626,53.152051
Noorderringweg,9,,,9363TC,Marum,Marum,Groningen,VBO,6.261104,53.148242
Noorderringweg,10,,,9363TC,Marum,Marum,Groningen,VBO,6.267318,53.151719
Noorderringweg,11,,,9363TC,Marum,Marum,Groningen,VBO,6.260834,53.148190
Noorderringweg,12,,,9363TC,Marum,Marum,Groningen,VBO,6.265624,53.150707
Noorderringweg,13,,,9363TC,Marum,Marum,Groningen,VBO,6.260608,53.148102
Noorderringweg,14,A,,9363TC,Marum,Marum,Groningen,VBO,6.264762,53.149491
Noorderringweg,14,,,9363TC,Marum,Marum,Groningen,VBO,6.264256,53.149630
Noorderringweg,16,A,,9363TC,Marum,Marum,Groningen,VBO,6.264400,53.148578
Noorderringweg,16,,,9363TC,Marum,Marum,Groningen,VBO,6.264486,53.149161
Hamrik,3,,,9363TD,Marum,Marum,Groningen,VBO,6.276473,53.157870
Hamrik,4,,,9363TD,Marum,Marum,Groningen,VBO,6.273603,53.156427
Hamrik,5,,,9363TD,Marum,Marum,Groningen,VBO,6.277091,53.158099
Hamrik,6,A,,9363TD,Marum,Marum,Groningen,VBO,6.275002,53.157576
Hamrik,6,,,9363TD,Marum,Marum,Groningen,VBO,6.269798,53.161155
Hamrik,7,,,9363TD,Marum,Marum,Groningen,VBO,6.278923,53.159227
Hamrik,8,,,9363TD,Marum,Marum,Groningen,VBO,6.278932,53.161105
Hamrik,9,,,9363TD,Marum,Marum,Groningen,VBO,6.279595,53.159923
Hamrik,10,,,9363TD,Marum,Marum,Groningen,VBO,6.281510,53.162119
Hamrik,11,,,9363TD,Marum,Marum,Groningen,VBO,6.280903,53.160272
Hamrik,12,,,9363TD,Marum,Marum,Groningen,VBO,6.282200,53.162977
Hamrik,13,A,,9363TD,Marum,Marum,Groningen,VBO,6.283216,53.161459
Hamrik,13,,,9363TD,Marum,Marum,Groningen,VBO,6.282415,53.161043
Hamrik,14,,,9363TD,Marum,Marum,Groningen,VBO,6.282228,53.163596
Hamrik,15,,,9363TD,Marum,Marum,Groningen,VBO,6.284639,53.160865
Hamrik,16,,,9363TD,Marum,Marum,Groningen,VBO,6.283681,53.163729
Hamrik,17,,,9363TD,Marum,Marum,Groningen,VBO,6.287226,53.160890
Hamrik,19,,,9363TD,Marum,Marum,Groningen,VBO,6.283626,53.162103
Eikelaan,5,,,9363TE,Marum,Marum,Groningen,VBO,6.267022,53.154813
Parallelweg,1,,,9363TG,Marum,Marum,Groningen,VBO,6.268096,53.154697
Parallelweg,19,,,9363TG,Marum,Marum,Groningen,VBO,6.262536,53.152518
Parallelweg,23,,,9363TG,Marum,Marum,Groningen,VBO,6.261542,53.152894
Schakelstraat,2,,,9363TH,Marum,Marum,Groningen,VBO,6.266731,53.150052
Schakelstraat,4,,,9363TH,Marum,Marum,Groningen,VBO,6.266752,53.149594
Poortweg,1,,,9363TJ,Marum,Marum,Groningen,VBO,6.273143,53.152207
Poortweg,2,,,9363TJ,Marum,Marum,Groningen,VBO,6.272573,53.152660
Poortweg,3,,,9363TJ,Marum,Marum,Groningen,VBO,6.273442,53.152222
Poortweg,5,,,9363TJ,Marum,Marum,Groningen,VBO,6.273758,53.152301
Poortweg,6,,,9363TJ,Marum,Marum,Groningen,VBO,6.273360,53.152585
Poortweg,7,,,9363TJ,Marum,Marum,Groningen,VBO,6.274028,53.152326
Poortweg,8,,,9363TJ,Marum,Marum,Groningen,VBO,6.273675,53.152634
Poortweg,9,,,9363TJ,Marum,Marum,Groningen,VBO,6.274704,53.152412
Poortweg,10,A,,9363TJ,Marum,Marum,Groningen,VBO,6.273964,53.152847
Poortweg,10,,,9363TJ,Marum,Marum,Groningen,VBO,6.274184,53.152637
Poortweg,12,A,,9363TJ,Marum,Marum,Groningen,VBO,6.274962,53.153069
Poortweg,12,,,9363TJ,Marum,Marum,Groningen,VBO,6.275048,53.152778
Poortweg,13,,,9363TJ,Marum,Marum,Groningen,VBO,6.274716,53.152336
Poortweg,15,,,9363TJ,Marum,Marum,Groningen,VBO,6.274723,53.152301
Poortweg,17,,,9363TJ,Marum,Marum,Groningen,VBO,6.274738,53.152251
Poortweg,19,,,9363TJ,Marum,Marum,Groningen,VBO,6.274758,53.152203
Poortweg,21,,,9363TJ,Marum,Marum,Groningen,VBO,6.274772,53.152151
Poortweg,23,,,9363TJ,Marum,Marum,Groningen,VBO,6.274791,53.152093
Poortweg,25,,,9363TJ,Marum,Marum,Groningen,VBO,6.274806,53.152049
Poortweg,27,,,9363TJ,Marum,Marum,Groningen,VBO,6.275159,53.152109
Poortweg,29,,,9363TJ,Marum,Marum,Groningen,VBO,6.275143,53.152168
Poortweg,31,,,9363TJ,Marum,Marum,Groningen,VBO,6.275129,53.152246
Poortweg,33,,,9363TJ,Marum,Marum,Groningen,VBO,6.275060,53.152378
Distributieweg,2,,,9363TK,Marum,Marum,Groningen,VBO,6.262941,53.154247
Distributieweg,4,,,9363TK,Marum,Marum,Groningen,VBO,6.262922,53.154591
Distributieweg,8,,,9363TK,Marum,Marum,Groningen,VBO,6.264099,53.155158
Transportweg,1,,,9363TL,Marum,Marum,Groningen,VBO,6.264774,53.153778
Transportweg,2,,,9363TL,Marum,Marum,Groningen,VBO,6.263429,53.153060
Transportweg,6,,,9363TL,Marum,Marum,Groningen,VBO,6.262962,53.153638
Transportweg,9,A,,9363TL,Marum,Marum,Groningen,VBO,6.265849,53.154768
Transportweg,9,,,9363TL,Marum,Marum,Groningen,VBO,6.265551,53.154500
Transportweg,10,,,9363TL,Marum,Marum,Groningen,VBO,6.264413,53.154427
Transportweg,11,,,9363TL,Marum,Marum,Groningen,VBO,6.265458,53.155094
Transportweg,13,,,9363TL,Marum,Marum,Groningen,VBO,6.265375,53.155400
Transportweg,14,,,9363TL,Marum,Marum,Groningen,VBO,6.264861,53.155107
Transportweg,15,,,9363TL,Marum,Marum,Groningen,VBO,6.265399,53.155867
Transportweg,16,,,9363TL,Marum,Marum,Groningen,VBO,6.264789,53.155233
Transportweg,18,,,9363TL,Marum,Marum,Groningen,VBO,6.264469,53.155712
Transportweg,22,,,9363TL,Marum,Marum,Groningen,VBO,6.265332,53.156254
Transportweg,26,,,9363TL,Marum,Marum,Groningen,VBO,6.265847,53.156556
De Bres,2,,,9363TM,Marum,Marum,Groningen,VBO,6.273604,53.150599
De Bres,4,,,9363TM,Marum,Marum,Groningen,VBO,6.274682,53.150393
De Factorij,1,,,9363TN,Marum,Marum,Groningen,VBO,6.275646,53.150837
De Factorij,3,,,9363TN,Marum,Marum,Groningen,VBO,6.275381,53.151300
De Factorij,4,,,9363TN,Marum,Marum,Groningen,VBO,6.277169,53.150901
De Factorij,6,,,9363TN,Marum,Marum,Groningen,VBO,6.277086,53.151165
De Factorij,7,,,9363TN,Marum,Marum,Groningen,VBO,6.275314,53.151662
De Factorij,9,,,9363TN,Marum,Marum,Groningen,VBO,6.275287,53.151756
De Factorij,11,,,9363TN,Marum,Marum,Groningen,VBO,6.275253,53.151850
De Factorij,12,,,9363TN,Marum,Marum,Groningen,VBO,6.276857,53.152082
De Factorij,13,,,9363TN,Marum,Marum,Groningen,VBO,6.275230,53.151936
De Factorij,14,,,9363TN,Marum,Marum,Groningen,VBO,6.276783,53.152258
De Factorij,15,,,9363TN,Marum,Marum,Groningen,VBO,6.275001,53.151945
De Factorij,16,,,9363TN,Marum,Marum,Groningen,VBO,6.276599,53.152466
De Factorij,17,,,9363TN,Marum,Marum,Groningen,VBO,6.275008,53.151894
De Factorij,18,,,9363TN,Marum,Marum,Groningen,VBO,6.276588,53.152760
De Factorij,19,,,9363TN,Marum,Marum,Groningen,VBO,6.275024,53.151847
De Factorij,20,,,9363TN,Marum,Marum,Groningen,VBO,6.276477,53.153146
De Factorij,21,,,9363TN,Marum,Marum,Groningen,VBO,6.275037,53.151803
De Factorij,22,,,9363TN,Marum,Marum,Groningen,VBO,6.276026,53.153127
De Factorij,23,,,9363TN,Marum,Marum,Groningen,VBO,6.275054,53.151756
De Factorij,25,,,9363TN,Marum,Marum,Groningen,VBO,6.275075,53.151710
De Factorij,27,,,9363TN,Marum,Marum,Groningen,VBO,6.275086,53.151665
De Factorij,29,,,9363TN,Marum,Marum,Groningen,VBO,6.275099,53.151619
De Factorij,31,,,9363TN,Marum,Marum,Groningen,VBO,6.274800,53.151589
De Factorij,33,,,9363TN,Marum,Marum,Groningen,VBO,6.274785,53.151636
De Factorij,34,,,9363TN,Marum,Marum,Groningen,VBO,6.276660,53.150825
De Factorij,35,,,9363TN,Marum,Marum,Groningen,VBO,6.274773,53.151679
De Factorij,37,,,9363TN,Marum,Marum,Groningen,VBO,6.274764,53.151730
De Factorij,39,,,9363TN,Marum,Marum,Groningen,VBO,6.274739,53.151777
De Factorij,41,,,9363TN,Marum,Marum,Groningen,VBO,6.274695,53.151825
De Factorij,43,,,9363TN,Marum,Marum,Groningen,VBO,6.274721,53.151866
De Factorij,45,,,9363TN,Marum,Marum,Groningen,VBO,6.274706,53.151913
Verlengde Wilpsterweg,2,A,,9363VA,Marum,Marum,Groningen,VBO,6.246111,53.139140
Verlengde Wilpsterweg,2,,,9363VA,Marum,Marum,Groningen,VBO,6.245866,53.139573
Verlengde Wilpsterweg,4,,,9363VA,Marum,Marum,Groningen,VBO,6.244268,53.145668
Haarsterweg,1,,,9363VB,Marum,Marum,Groningen,VBO,6.246443,53.138508
Haarsterweg,3,,,9363VB,Marum,Marum,Groningen,VBO,6.241713,53.137401
Haarsterweg,5,,,9363VB,Marum,Marum,Groningen,VBO,6.241141,53.137153
Haarsterweg,7,,,9363VB,Marum,Marum,Groningen,VBO,6.239138,53.137141
Haarsterweg,9,,,9363VB,Marum,Marum,Groningen,VBO,6.239182,53.136358
Haarsterweg,11,,,9363VB,Marum,Marum,Groningen,VBO,6.238222,53.137283
Haarsterweg,13,,,9363VB,Marum,Marum,Groningen,VBO,6.237844,53.135928
Haarsterweg,15,,,9363VB,Marum,Marum,Groningen,VBO,6.236072,53.136237
Haarsterweg,17,,,9363VB,Marum,Marum,Groningen,VBO,6.235438,53.135918
Haarsterweg,19,,,9363VB,Marum,Marum,Groningen,VBO,6.233892,53.134787
Haarsterweg,21,,,9363VB,Marum,Marum,Groningen,VBO,6.233034,53.134488
Haarsterweg,23,,,9363VB,Marum,Marum,Groningen,VBO,6.228506,53.132929
Haarsterweg,25,,,9363VB,Marum,Marum,Groningen,VBO,6.227620,53.132693
Haarsterweg,27,,,9363VB,Marum,Marum,Groningen,VBO,6.226929,53.132509
Haarsterweg,29,,,9363VB,Marum,Marum,Groningen,VBO,6.225475,53.132268
Haarsterweg,31,,,9363VC,Marum,Marum,Groningen,VBO,6.223954,53.131631
Haarsterweg,33,,,9363VC,Marum,Marum,Groningen,VBO,6.223012,53.130802
Haarsterweg,35,,,9363VC,Marum,Marum,Groningen,VBO,6.222980,53.130703
Haarsterweg,37,,,9363VC,Marum,Marum,Groningen,VBO,6.221101,53.129342
Haarsterweg,39,,,9363VC,Marum,Marum,Groningen,VBO,6.220268,53.128772
Haarsterweg,41,,,9363VC,Marum,Marum,Groningen,VBO,6.219450,53.128194
Haarsterweg,43,,,9363VC,Marum,Marum,Groningen,VBO,6.216824,53.126019
Haarsterweg,45,,,9363VC,Marum,Marum,Groningen,VBO,6.215745,53.125065
Haarsterweg,47,A,,9363VC,Marum,Marum,Groningen,VBO,6.213742,53.123444
Haarsterweg,47,B,,9363VC,Marum,Marum,Groningen,VBO,6.210525,53.120917
Haarsterweg,47,C,,9363VC,Marum,Marum,Groningen,VBO,6.210717,53.121443
Haarsterweg,47,,,9363VC,Marum,Marum,Groningen,VBO,6.214367,53.124086
Haarsterweg,49,,,9363VC,Marum,Marum,Groningen,VBO,6.209561,53.120372
Haarsterweg,51,,,9363VC,Marum,Marum,Groningen,VBO,6.207603,53.118732
Haarsterweg,53,,,9363VC,Marum,Marum,Groningen,VBO,6.206785,53.117345
Haarsterweg,55,,,9363VC,Marum,Marum,Groningen,VBO,6.206133,53.116810
Haarsterweg,2,,,9363VD,Marum,Marum,Groningen,VBO,6.246612,53.138031
Haarsterweg,4,,,9363VD,Marum,Marum,Groningen,VBO,6.244314,53.137409
Haarsterweg,6,,,9363VD,Marum,Marum,Groningen,VBO,6.243926,53.136684
Haarsterweg,8,,,9363VD,Marum,Marum,Groningen,VBO,6.242696,53.137223
Haarsterweg,10,,,9363VD,Marum,Marum,Groningen,VBO,6.241658,53.136880
Haarsterweg,12,,,9363VD,Marum,Marum,Groningen,VBO,6.241222,53.136739
Haarsterweg,14,,,9363VD,Marum,Marum,Groningen,VBO,6.240605,53.136492
Haarsterweg,16,,,9363VD,Marum,Marum,Groningen,VBO,6.240274,53.136387
Haarsterweg,18,,,9363VD,Marum,Marum,Groningen,VBO,6.239679,53.135762
Haarsterweg,20,,,9363VD,Marum,Marum,Groningen,VBO,6.238844,53.135849
Haarsterweg,22,,,9363VD,Marum,Marum,Groningen,VBO,6.238469,53.135034
Haarsterweg,24,A,,9363VD,Marum,Marum,Groningen,VBO,6.234794,53.134323
Haarsterweg,24,,,9363VD,Marum,Marum,Groningen,VBO,6.235472,53.134606
Haarsterweg,28,,,9363VD,Marum,Marum,Groningen,VBO,6.234014,53.134176
Haarsterweg,30,,,9363VD,Marum,Marum,Groningen,VBO,6.232854,53.133663
Haarsterweg,34,,,9363VE,Marum,Marum,Groningen,VBO,6.231089,53.132830
Haarsterweg,36,A,,9363VE,Marum,Marum,Groningen,VBO,6.224518,53.130666
Haarsterweg,36,,,9363VE,Marum,Marum,Groningen,VBO,6.224007,53.130526
Haarsterweg,38,,,9363VE,Marum,Marum,Groningen,VBO,6.220061,53.127300
Haarsterweg,40,,,9363VE,Marum,Marum,Groningen,VBO,6.221519,53.126212
Haarsterweg,42,A,,9363VE,Marum,Marum,Groningen,VBO,6.217473,53.124793
Haarsterweg,42,,,9363VE,Marum,Marum,Groningen,VBO,6.218485,53.126170
Haarsterweg,44,,,9363VE,Marum,Marum,Groningen,VBO,6.217654,53.124127
Haarsterweg,46,,,9363VE,Marum,Marum,Groningen,VBO,6.215582,53.123575
Haarsterweg,48,,,9363VE,Marum,Marum,Groningen,VBO,6.214353,53.122586
Haarsterweg,50,,,9363VE,Marum,Marum,Groningen,VBO,6.213469,53.122448
Haarsterweg,52,A,,9363VE,Marum,Marum,Groningen,VBO,6.212918,53.121724
Haarsterweg,52,,,9363VE,Marum,Marum,Groningen,VBO,6.213294,53.121865
Haarsterweg,54,,,9363VE,Marum,Marum,Groningen,VBO,6.212732,53.121402
Haarsterweg,56,,,9363VE,Marum,Marum,Groningen,VBO,6.212846,53.120323
Haarsterweg,60,,,9363VE,Marum,Marum,Groningen,VBO,6.209601,53.119348
Haarsterweg,62,,,9363VE,Marum,Marum,Groningen,VBO,6.208781,53.118634
Haarsterweg,64,,,9363VE,Marum,Marum,Groningen,VBO,6.208096,53.117929
Haarsterweg,66,,,9363VE,Marum,Marum,Groningen,VBO,6.207341,53.116721
Haarsterweg,68,,,9363VE,Marum,Marum,Groningen,VBO,6.207095,53.115564
De Scheiding,1,A,,9363VG,Marum,Marum,Groningen,VBO,6.188717,53.128220
De Scheiding,1,,,9363VG,Marum,Marum,Groningen,VBO,6.188476,53.127183
Leidijk,2,A,,9363VH,Marum,Marum,Groningen,VBO,6.189473,53.138301
Leidijk,2,,,9363VH,Marum,Marum,Groningen,VBO,6.189521,53.138472
Leidijk,4,,,9363VH,Marum,Marum,Groningen,VBO,6.184298,53.137194
Leidijk,6,,,9363VH,Marum,Marum,Groningen,VBO,6.188606,53.133401
Leidijk,8,,,9363VH,Marum,Marum,Groningen,VBO,6.183582,53.136942
Leidijk,10,,,9363VH,Marum,Marum,Groningen,VBO,6.178042,53.135034
Kloosterweg,1,A,,9363VJ,Marum,Marum,Groningen,VBO,6.211264,53.138468
Kloosterweg,1,,,9363VJ,Marum,Marum,Groningen,VBO,6.211789,53.138563
Kloosterweg,3,,,9363VJ,Marum,Marum,Groningen,VBO,6.196464,53.136529
Kloosterweg,4,,,9363VJ,Marum,Marum,Groningen,VBO,6.200116,53.135282
Kloosterweg,5,,,9363VJ,Marum,Marum,Groningen,VBO,6.195339,53.136321
Kloosterweg,6,,,9363VJ,Marum,Marum,Groningen,VBO,6.197531,53.136090
Postdijk,2,,,9363VK,Marum,Marum,Groningen,VBO,6.224378,53.131916
Postdijk,3,,,9363VK,Marum,Marum,Groningen,VBO,6.215708,53.141115
Postdijk,5,,,9363VK,Marum,Marum,Groningen,VBO,6.212073,53.140107
Postdijk,9,A,,9363VK,Marum,Marum,Groningen,VBO,6.213912,53.140773
Postdijk,9,B,,9363VK,Marum,Marum,Groningen,VBO,6.213640,53.140693
Postdijk,9,C,,9363VK,Marum,Marum,Groningen,VBO,6.213421,53.140860
Postdijk,9,,,9363VK,Marum,Marum,Groningen,VBO,6.213751,53.140944
Postdijk,11,,,9363VK,Marum,Marum,Groningen,VBO,6.213367,53.141356
Postdijk,13,,,9363VK,Marum,Marum,Groningen,VBO,6.213244,53.141168
Postdijk,15,,,9363VK,Marum,Marum,Groningen,VBO,6.212915,53.141179
Postdijk,17,,,9363VK,Marum,Marum,Groningen,VBO,6.212792,53.140991
Postdijk,19,,,9363VK,Marum,Marum,Groningen,VBO,6.212478,53.140967
Postdijk,21,,,9363VK,Marum,Marum,Groningen,VBO,6.212325,53.140797
Postdijk,23,,,9363VK,Marum,Marum,Groningen,VBO,6.211996,53.140772
Postdijk,25,,,9363VK,Marum,Marum,Groningen,VBO,6.211843,53.140594
Postdijk,27,,,9363VK,Marum,Marum,Groningen,VBO,6.211514,53.140569
Postdijk,29,,,9363VK,Marum,Marum,Groningen,VBO,6.211361,53.140390
Lageweg,1,,,9363VL,Marum,Marum,Groningen,VBO,6.249885,53.145547
Lageweg,2,,,9363VL,Marum,Marum,Groningen,VBO,6.248292,53.144980
Trimunterweg,1,A,,9363VM,Marum,Marum,Groningen,VBO,6.229069,53.150350
Trimunterweg,1,B,,9363VM,Marum,Marum,Groningen,VBO,6.235652,53.152851
Trimunterweg,1,,,9363VM,Marum,Marum,Groningen,VBO,6.228975,53.150153
Trimunterweg,2,,,9363VM,Marum,Marum,Groningen,VBO,6.232953,53.147914
Trimunterweg,3,,,9363VM,Marum,Marum,Groningen,VBO,6.228626,53.149867
Trimunterweg,4,,,9363VM,Marum,Marum,Groningen,VBO,6.222786,53.146433
Trimunterweg,5,,,9363VM,Marum,Marum,Groningen,VBO,6.223777,53.148023
Trimunterweg,7,,,9363VM,Marum,Marum,Groningen,VBO,6.212623,53.144686
Zethuisterweg,1,,,9363VN,Marum,Marum,Groningen,VBO,6.238106,53.153071
Zethuisterweg,1,,,9363VN,Marum,Marum,Groningen,VBO,6.238158,53.152764
Zethuisterweg,2,,,9363VN,Marum,Marum,Groningen,VBO,6.242805,53.148006
Zethuisterweg,3,,,9363VN,Marum,Marum,Groningen,VBO,6.239886,53.154622
Zethuisterweg,4,A,,9363VN,Marum,Marum,Groningen,VBO,6.241225,53.149760
Zethuisterweg,4,,,9363VN,Marum,Marum,Groningen,VBO,6.240027,53.148915
Zethuisterweg,5,,,9363VN,Marum,Marum,Groningen,VBO,6.240275,53.154665
Zethuisterweg,6,,,9363VN,Marum,Marum,Groningen,VBO,6.238371,53.154364
Bareveld,1,,,9363VP,Marum,Marum,Groningen,VBO,6.241409,53.135624
Bareveld,2,,,9363VP,Marum,Marum,Groningen,VBO,6.245557,53.123984
Bareveld,3,,,9363VP,Marum,Marum,Groningen,VBO,6.242500,53.131833
Bareveld,4,,,9363VP,Marum,Marum,Groningen,VBO,6.247389,53.124048
Bareveld,5,,,9363VP,Marum,Marum,Groningen,VBO,6.240344,53.130860
Bareveld,7,,,9363VP,Marum,Marum,Groningen,VBO,6.242045,53.129967
Bareveld,9,,,9363VP,Marum,Marum,Groningen,VBO,6.243274,53.128702
Bareveld,11,,,9363VP,Marum,Marum,Groningen,VBO,6.242087,53.126049
Bareveld,13,,,9363VP,Marum,Marum,Groningen,VBO,6.244094,53.123293
Bareveld,15,,,9363VP,Marum,Marum,Groningen,VBO,6.246225,53.122991
Wilpsterweg,1,A,,9363VR,Marum,Marum,Groningen,VBO,6.248240,53.137201
Wilpsterweg,1,,,9363VR,Marum,Marum,Groningen,VBO,6.248913,53.133485
Wilpsterweg,3,,,9363VR,Marum,Marum,Groningen,VBO,6.249484,53.130659
Wilpsterweg,5,,,9363VR,Marum,Marum,Groningen,VBO,6.249421,53.130462
Wilpsterweg,7,,,9363VR,Marum,Marum,Groningen,VBO,6.249324,53.130121
Wilpsterweg,9,,,9363VR,Marum,Marum,Groningen,VBO,6.249652,53.128564
Wilpsterweg,11,,,9363VR,Marum,Marum,Groningen,VBO,6.250167,53.126701
Wilpsterweg,13,,,9363VR,Marum,Marum,Groningen,VBO,6.250387,53.125737
Wilpsterweg,2,,,9363VS,Marum,Marum,Groningen,VBO,6.249247,53.136026
Wilpsterweg,4,,,9363VS,Marum,Marum,Groningen,VBO,6.250394,53.132810
Wilpsterweg,6,A,,9363VS,Marum,Marum,Groningen,VBO,6.250496,53.129682
Wilpsterweg,6,,,9363VS,Marum,Marum,Groningen,VBO,6.250227,53.131211
Wilpsterweg,8,,,9363VS,Marum,Marum,Groningen,VBO,6.250448,53.129529
Wilpsterweg,10,,,9363VS,Marum,Marum,Groningen,VBO,6.250505,53.129385
Wilpsterweg,12,,,9363VS,Marum,Marum,Groningen,VBO,6.250517,53.129232
Wilpsterweg,14,,,9363VS,Marum,Marum,Groningen,VBO,6.250544,53.129088
Wilpsterweg,16,,,9363VS,Marum,Marum,Groningen,VBO,6.250541,53.128944
Wilpsterweg,18,,,9363VS,Marum,Marum,Groningen,VBO,6.250568,53.128800
Wilpsterweg,20,,,9363VS,Marum,Marum,Groningen,VBO,6.250610,53.128656
Wilpsterweg,22,,,9363VS,Marum,Marum,Groningen,VBO,6.250637,53.128521
Wilpsterweg,24,,,9363VS,Marum,Marum,Groningen,VBO,6.250664,53.128368
Wilpsterweg,26,,,9363VS,Marum,Marum,Groningen,VBO,6.250736,53.128224
Wilpsterweg,28,,,9363VS,Marum,Marum,Groningen,VBO,6.250733,53.128080
Wilpsterweg,30,,,9363VS,Marum,Marum,Groningen,VBO,6.250775,53.127936
Wilpsterweg,32,,,9363VS,Marum,Marum,Groningen,VBO,6.250874,53.127684
Wilpsterweg,34,,,9363VS,Marum,Marum,Groningen,VBO,6.251065,53.126775
Het Korige,1,,,9363VT,Marum,Marum,Groningen,VBO,6.216426,53.137246
Het Korige,2,,,9363VT,Marum,Marum,Groningen,VBO,6.206079,53.133723
Het Korige,4,,,9363VT,Marum,Marum,Groningen,VBO,6.196578,53.130651
Verlengde Wilpsterweg,1,,,9363VV,Marum,Marum,Groningen,VBO,6.244760,53.143355
Verlengde Wilpsterweg,3,,,9363VV,Marum,Marum,Groningen,VBO,6.244661,53.143607
Haarsterree,1,,,9363VW,Marum,Marum,Groningen,VBO,6.237784,53.126780
Houtwal,2,,,9363XA,Marum,Marum,Groningen,VBO,6.253236,53.141973
Houtwal,4,,,9363XA,Marum,Marum,Groningen,VBO,6.254264,53.141187
Houtwal,5,A,,9363XA,Marum,Marum,Groningen,VBO,6.255742,53.138738
Houtwal,5,B,,9363XA,Marum,Marum,Groningen,VBO,6.256189,53.138654
Houtwal,5,,,9363XA,Marum,Marum,Groningen,VBO,6.253891,53.138823
Houtwal,6,,,9363XA,Marum,Marum,Groningen,VBO,6.254309,53.141059
Houtwal,7,,,9363XA,Marum,Marum,Groningen,VBO,6.257798,53.136908
Houtwal,8,,,9363XA,Marum,Marum,Groningen,VBO,6.254358,53.140910
Houtwal,9,,,9363XA,Marum,Marum,Groningen,VBO,6.258318,53.135313
Houtwal,10,,,9363XA,Marum,Marum,Groningen,VBO,6.254408,53.140769
Houtwal,11,,,9363XA,Marum,Marum,Groningen,VBO,6.258997,53.131912
Houtwal,12,,,9363XA,Marum,Marum,Groningen,VBO,6.254465,53.140625
Houtwal,13,,,9363XA,Marum,Marum,Groningen,VBO,6.255980,53.131678
Houtwal,14,,,9363XA,Marum,Marum,Groningen,VBO,6.254537,53.140490
Houtwal,15,,,9363XA,Marum,Marum,Groningen,VBO,6.258345,53.131458
Houtwal,16,,,9363XA,Marum,Marum,Groningen,VBO,6.254592,53.140356
Houtwal,17,,,9363XA,Marum,Marum,Groningen,VBO,6.259727,53.131825
Houtwal,18,,,9363XA,Marum,Marum,Groningen,VBO,6.254646,53.140218
Houtwal,19,,,9363XA,Marum,Marum,Groningen,VBO,6.254196,53.128675
Houtwal,21,,,9363XA,Marum,Marum,Groningen,VBO,6.257352,53.128104
Houtwal,22,,,9363XA,Marum,Marum,Groningen,VBO,6.256392,53.139110
Houtwal,23,,,9363XA,Marum,Marum,Groningen,VBO,6.261292,53.129397
Houtwal,24,,,9363XA,Marum,Marum,Groningen,VBO,6.256692,53.139135
Houtwal,26,,,9363XA,Marum,Marum,Groningen,VBO,6.256931,53.139134
Houtwal,28,,,9363XA,Marum,Marum,Groningen,VBO,6.257667,53.139335
Houtwal,30,,,9363XA,Marum,Marum,Groningen,VBO,6.258239,53.138818
Houtwal,32,,,9363XA,Marum,Marum,Groningen,VBO,6.257748,53.138921
Houtwal,34,,,9363XA,Marum,Marum,Groningen,VBO,6.259675,53.135896
Houtwal,36,,,9363XA,Marum,Marum,Groningen,VBO,6.261440,53.135973
Houtwal,38,,,9363XA,Marum,Marum,Groningen,VBO,6.260087,53.134833
Houtwal,40,,,9363XA,Marum,Marum,Groningen,VBO,6.259978,53.132417
Houtwal,42,,,9363XA,Marum,Marum,Groningen,VBO,6.260790,53.130425
Houtwal,44,,,9363XA,Marum,Marum,Groningen,VBO,6.261391,53.129836
Lindsterlaan,37,A,,9363XB,Marum,Marum,Groningen,VBO,6.267191,53.138115
Lindsterlaan,37,,,9363XB,Marum,Marum,Groningen,VBO,6.263734,53.137835
Lindsterlaan,39,,,9363XB,Marum,Marum,Groningen,VBO,6.263950,53.136509
Lindsterlaan,41,,,9363XB,Marum,Marum,Groningen,VBO,6.267799,53.137104
Lindsterlaan,43,,,9363XB,Marum,Marum,Groningen,VBO,6.264119,53.135433
Lindsterlaan,45,A,,9363XB,Marum,Marum,Groningen,VBO,6.270183,53.131641
Lindsterlaan,45,,,9363XB,Marum,Marum,Groningen,VBO,6.270071,53.132028
Lindsterlaan,46,,,9363XB,Marum,Marum,Groningen,VBO,6.268160,53.138000
Lindsterlaan,47,,,9363XB,Marum,Marum,Groningen,VBO,6.265164,53.130986
Lindsterlaan,49,,,9363XB,Marum,Marum,Groningen,VBO,6.271748,53.128520
Lindsterlaan,50,,,9363XB,Marum,Marum,Groningen,VBO,6.268932,53.136242
Lindsterlaan,52,,,9363XB,Marum,Marum,Groningen,VBO,6.275398,53.133858
Lindsterlaan,54,A,,9363XB,Marum,Marum,Groningen,VBO,6.272162,53.130859
Lindsterlaan,54,A,,9363XB,Marum,Marum,Groningen,VBO,6.272010,53.130897
Lindsterlaan,54,,,9363XB,Marum,Marum,Groningen,VBO,6.274788,53.133269
Lindsterlaan,56,,,9363XB,Marum,Marum,Groningen,VBO,6.273702,53.129863
Lindsterlaan,58,,,9363XB,Marum,Marum,Groningen,VBO,6.273753,53.128820
Boereveld,1,A,,9363XC,Marum,Marum,Groningen,VBO,6.271618,53.141956
Boereveld,3,,,9363XC,Marum,Marum,Groningen,VBO,6.274426,53.137469
Boereveld,4,,,9363XC,Marum,Marum,Groningen,VBO,6.272133,53.142257
Boereveld,5,,,9363XC,Marum,Marum,Groningen,VBO,6.274836,53.136351
Boereveld,8,,,9363XC,Marum,Marum,Groningen,VBO,6.272760,53.140770
Boereveld,10,,,9363XC,Marum,Marum,Groningen,VBO,6.274681,53.140450
Boereveld,12,,,9363XC,Marum,Marum,Groningen,VBO,6.273684,53.139936
Boereveld,14,,,9363XC,Marum,Marum,Groningen,VBO,6.276989,53.140047
Boereveld,24,,,9363XC,Marum,Marum,Groningen,VBO,6.275837,53.136326
Pierswijk,2,A,,9363XD,Marum,Marum,Groningen,VBO,6.280831,53.146641
Pierswijk,2,,,9363XD,Marum,Marum,Groningen,VBO,6.283314,53.141662
Pierswijk,3,,,9363XD,Marum,Marum,Groningen,VBO,6.283817,53.134883
Pierswijk,4,,,9363XD,Marum,Marum,Groningen,VBO,6.283782,53.137561
Pierswijk,6,,,9363XD,Marum,Marum,Groningen,VBO,6.284119,53.136489
Willemstad,1,,,9363XE,Marum,Marum,Groningen,VBO,6.290092,53.135599
Willemstad,2,,,9363XE,Marum,Marum,Groningen,VBO,6.289745,53.133247
Willemstad,2,,,9363XE,Marum,Marum,Groningen,VBO,6.289728,53.133503
Willemstad,4,,,9363XE,Marum,Marum,Groningen,VBO,6.288563,53.134604
Willemstad,5,A,,9363XE,Marum,Marum,Groningen,VBO,6.288520,53.135431
Willemstad,5,,,9363XE,Marum,Marum,Groningen,VBO,6.288936,53.135311
Willemstad,10,,,9363XE,Marum,Marum,Groningen,VBO,6.287339,53.134676
Willemstad,11,,,9363XE,Marum,Marum,Groningen,VBO,6.287921,53.135364
De Terp,2,,,9363XG,Marum,Marum,Groningen,VBO,6.269847,53.138617
De Terp,4,,,9363XG,Marum,Marum,Groningen,VBO,6.270103,53.138013
De Terp,6,,,9363XG,Marum,Marum,Groningen,VBO,6.271580,53.139323
